 2022  612 1345 40.5 L  36.140  51.489  0.0       4 0.0 0.7l                   1
 Action:ARG 22-06-12 18:15 OP:OBSP STATUS:               ID:20220612134540     I
 STAT SP IPHASW D HRMM SECON CODA AMPLIT PERI AZIMU VELO AIN AR TRES W  DIS CAZ7
 MKCZ    EP   0   134613.909                                                    
 MKCZ    ES   1   134639.301                                                    
 WYTU    EP   0   134545.372                                                    
 WYTU    ES   1   134549.362                                                    
 PMKL    EP   0   1346 8.642                                                    
 PMKL    ES   1   134630.084                                                    
 SOQC    EP   0   134548.955                                                    
 SOQC    ES   1   134555.634                                                    
                                                                                

 2022  612 1345 40.5 L  36.087  51.793  0.0       6 0.0 4.3l                   1
 Action:ARG 22-06-12 18:15 OP:OBSP STATUS:               ID:20220612134540     I
 STAT SP IPHASW D HRMM SECON CODA AMPLIT PERI AZIMU VELO AIN AR TRES W  DIS CAZ7
 BNFP    EP   0   134616.491                                                    
 BNFP    ES   1   134643.815                                                    
 PMKL    EP   0   134610.647                                                    
 PMKL    ES   1   134633.589                                                    
 WCQT    EP   0   134610.833                                                    
 WCQT    ES   1   134633.915                                                    
 OJEY    EP   0   134555.109                                                    
 OJEY    ES   1   1346 6.403                                                    
 MKCZ    EP   0   134615.602                                                    
 MKCZ    ES   1   134642.260                                                    
 WYTU    EP   0   134549.845                                                    
 WYTU    ES   1   134557.188                                                    
                                                                                

 2022  612 1345 40.5 L  36.546  51.785  0.0       2 0.0 2.5l                   1
 Action:ARG 22-06-12 18:15 OP:OBSP STATUS:               ID:20220612134540     I
 STAT SP IPHASW D HRMM SECON CODA AMPLIT PERI AZIMU VELO AIN AR TRES W  DIS CAZ7
 BNFP    EP   0   1346 9.352                                                    
 BNFP    ES   1   134631.320                                                    
 PMKL    EP   0   1346 3.214                                                    
 PMKL    ES   1   134620.581                                                    
                                                                                

 2022  612 1345 40.6 L  36.134  51.466  0.0         0.0 2.7l                   1
 Action:ARG 22-06-12 18:15 OP:OBSP STATUS:               ID:20220612134540     I
 STAT SP IPHASW D HRMM SECON CODA AMPLIT PERI AZIMU VELO AIN AR TRES W  DIS CAZ7

 2022  612 1345 40.6 L  36.212  51.055  0.0      10 0.0 4.2l                   1
 Action:ARG 22-06-12 18:15 OP:OBSP STATUS:               ID:20220612134540     I
 STAT SP IPHASW D HRMM SECON CODA AMPLIT PERI AZIMU VELO AIN AR TRES W  DIS CAZ7
 BNFP    EP   0   134618.948                                                    
 BNFP    ES   1   134648.108                                                    
 MKCZ    EP   0   134613.342                                                    
 MKCZ    ES   1   134638.298                                                    
 SOQC    EP   0   134544.715                                                    
 SOQC    ES   1   134548.203                                                    
 WYTU    EP   0   134545.654                                                    
 WYTU    ES   1   134549.847                                                    
 BTTQ    EP   0   1346 9.587                                                    
 BTTQ    ES   1   134631.727                                                    
 OJEY    EP   0   134545.957                                                    
 OJEY    ES   1   134550.376                                                    
 PMKL    EP   0   1346 7.793                                                    
 PMKL    ES   1   134628.589                                                    
 ITVB    EP   0   134544.008                                                    
 ITVB    ES   1   134546.965                                                    
 WCQT    EP   0   1346 8.340                                                    
 WCQT    ES   1   134629.546                                                    
 YOWP    EP   0   134616.972                                                    
 YOWP    ES   1   134644.650                                                    
                                                                                

 2022  612 1345 40.6 L  36.921  51.645  0.0       5 0.0 3.2l                   1
 Action:ARG 22-06-12 18:15 OP:OBSP STATUS:               ID:20220612134540     I
 STAT SP IPHASW D HRMM SECON CODA AMPLIT PERI AZIMU VELO AIN AR TRES W  DIS CAZ7
 WCQT    EP   0   134557.094                                                    
 WCQT    ES   1   1346 9.871                                                    
 BNFP    EP   0   1346 5.479                                                    
 BNFP    ES   1   134624.539                                                    
 PMKL    EP   0   134556.983                                                    
 PMKL    ES   1   1346 9.676                                                    
 OJEY    EP   0   134554.698                                                    
 OJEY    ES   1   1346 5.676                                                    
 ITVB    EP   0   134559.977                                                    
 ITVB    ES   1   134614.914                                                    
                                                                                

 2022  612 1345 40.6 L  36.499  51.652  0.0       2 0.0 3.2l                   1
 Action:ARG 22-06-12 18:15 OP:OBSP STATUS:               ID:20220612134540     I
 STAT SP IPHASW D HRMM SECON CODA AMPLIT PERI AZIMU VELO AIN AR TRES W  DIS CAZ7
 WCQT    EP   0   1346 3.888                                                    
 WCQT    ES   1   134621.752                                                    
 YOWP    EP   0   1346 8.729                                                    
 YOWP    ES   1   134630.224                                                    
                                                                                

 2022  612 1345 40.6 L  36.382  51.678  0.0       8 0.0 3.0l                   1
 Action:ARG 22-06-12 18:15 OP:OBSP STATUS:               ID:20220612134540     I
 STAT SP IPHASW D HRMM SECON CODA AMPLIT PERI AZIMU VELO AIN AR TRES W  DIS CAZ7
 PMKL    EP   0   1346 5.513                                                    
 PMKL    ES   1   134624.595                                                    
 BNFP    EP   0   134612.502                                                    
 BNFP    ES   1   134636.826                                                    
 SOQC    EP   0   134553.795                                                    
 SOQC    ES   1   1346 4.093                                                    
 YOWP    EP   0   134610.067                                                    
 YOWP    ES   1   134632.563                                                    
 BTTQ    EP   0   1346 7.646                                                    
 BTTQ    ES   1   134628.328                                                    
 MKCZ    EP   0   134610.524                                                    
 MKCZ    ES   1   134633.364                                                    
 WCQT    EP   0   1346 5.717                                                    
 WCQT    ES   1   134624.952                                                    
 ITVB    EP   0   134552.248                                                    
 ITVB    ES   1   1346 1.384                                                    
                                                                                

 2022  612 1345 40.7 L  36.286  51.598  0.0       3 0.0 4.2l                   1
 Action:ARG 22-06-12 18:15 OP:OBSP STATUS:               ID:20220612134540     I
 STAT SP IPHASW D HRMM SECON CODA AMPLIT PERI AZIMU VELO AIN AR TRES W  DIS CAZ7
 SOQC    EP   0   134551.638                                                    
 SOQC    ES   1   1346 0.311                                                    
 BNFP    EP   0   134613.802                                                    
 BNFP    ES   1   134639.093                                                    
 OJEY    EP   0   134550.490                                                    
 OJEY    ES   1   134558.302                                                    
                                                                                

 2022  612 1345 40.7 L  36.114  51.639  0.0       5 0.0 4.9l                   1
 Action:ARG 22-06-12 18:15 OP:OBSP STATUS:               ID:20220612134540     I
 STAT SP IPHASW D HRMM SECON CODA AMPLIT PERI AZIMU VELO AIN AR TRES W  DIS CAZ7
 BNFP    EP   0   134616.154                                                    
 BNFP    ES   1   134643.207                                                    
 YOWP    EP   0   134613.603                                                    
 YOWP    ES   1   134638.743                                                    
 SOQC    EP   0   134551.230                                                    
 SOQC    ES   1   134559.595                                                    
 WYTU    EP   0   134547.647                                                    
 WYTU    ES   1   134553.324                                                    
 WCQT    EP   0   1346 9.389                                                    
 WCQT    ES   1   134631.369                                                    
                                                                                

