 2020  1 1 0219 59.7 L  36.011  52.249  9.5  New  8 0.9                        1
 GAP=198        2.25       6.7     4.8  7.5  0.4185E+01 -0.1879E+02 -0.1803E+02E
 Action:ARG 22-07-04 18:17 OP:OBSP STATUS:               ID:20200101022000     I
 STAT SP IPHASW D HRMM SECON CODA AMPLIT PERI AZIMU VELO AIN AR TRES W  DIS CAZ7
 SRWZ    EP   0    220 4.101                             112   -0.1010 19.6 280 
 SRWZ    ES   0    220 7.210                             112   -0.3910 19.6 280 
 YXLK    EP   0    22011.600                              68    0.3210 57.4  10 
 YXLK    ES   0    22021.068                              68    1.0810 57.4  10 
 ZSCP    EP   0    22012.436                              68    0.0210 63.5  67 
 ZSCP    ES   0    22020.619                              68   -1.3510 63.5  67 
 YIBA    EP   0    22016.068                              68    0.6410 79.8 348 
 YIBA    ES   0    22026.193                              68   -1.0610 79.8 348 
 EVSP    EP   0    22017.700                              56   -0.92 9 98.2 289 
 EVSP    ES   0    22033.357                              56    0.51 9 98.2 289 
 XIVZ    EP   0    22019.919                              47    0.03 9  106 349 
 XIVZ    ES   0    22034.515                              47   -0.54 9  106 349 
 ZGXN    EP   0    22027.329                              47    1.90 8  144  82 
 ZGXN    ES   0    22043.523                              47   -1.23 8  144  82 
 YAIP    EP   0    22027.522                              47    1.49 8  148  50 
 YAIP    ES   0    22046.016                              47    0.21 8  148  50 
                                                                                
 2020  1 1 0221 40.1 L  35.585  52.515 11.5  New 10 1.0                        1
 GAP=244        2.53      10.3     7.1 11.0  0.1378E+02 -0.2841E+02 -0.3285E+02E
 Action:ARG 22-07-04 18:17 OP:OBSP STATUS:               ID:20200101022140     I
 STAT SP IPHASW D HRMM SECON CODA AMPLIT PERI AZIMU VELO AIN AR TRES W  DIS CAZ7
 SRWZ    EP   0    22151.059                              92   -2.2910 66.6 320 
 SRWZ    ES   0    222 3.392                              92    0.0810 66.6 320 
 ZSCP    ES   0    222 7.148                              91   -0.3910 79.7  26 
 TVCN    EP   0    22157.333                              64    1.5610 79.7 339 
 TVCN    ES   0    222 9.107                              64    1.5510 79.7 339 
 ZSCP    EP   0    22155.985                              91    0.2210 79.7  26 
 RVDG    EP   0    22157.854                              64   -0.6010 95.8  21 
 RVDG    ES   0    22212.925                              64    0.6810 95.8  21 
 YXLK    EP   0    22159.304                              53   -0.55 9  105 352 
 YXLK    ES   0    22213.475                              53   -1.22 9  105 352 
 YIBA    EP   0    222 4.365                              53    0.56 9  132 342 
 YIBA    ES   0    22222.373                              53    0.76 9  132 342 
 ZGXN    EP   0    222 5.376                              53    0.85 9  137  60 
 ZGXN    ES   0    22223.285                              53    0.42 9  137  60 
 EVSP    EP   0    222 6.557                              53    1.38 8  141 304 
 EVSP    ES   0    22223.898                              53   -0.10 8  141 304 
 XIVZ    EP   0    222 7.315                              53   -0.34 8  158 344 
 XIVZ    ES   0    22226.821                              53   -1.52 8  158 344 
 YAIP    EP   0    222 8.315                              53   -0.85 8  168  32 
 YAIP    ES   0    22230.463                              53   -0.53 8  168  32 
                                                                                
 2020  1 1 0223 18.8 L  36.178  51.837 18.3  New  6 0.9                        1
 GAP=282        2.10       8.9    11.3 10.5  0.5431E+02  0.2148E+02  0.1816E+02E
 Action:ARG 22-07-04 18:17 OP:OBSP STATUS:               ID:20200101022320     I
 STAT SP IPHASW D HRMM SECON CODA AMPLIT PERI AZIMU VELO AIN AR TRES W  DIS CAZ7
 TVCN    EP   0    22327.496                              94    1.1310 33.8  75 
 TVCN    ES   0    22330.631                              94   -1.3910 33.8  75 
 YXLK    EP   0    22330.992                              91    0.2410 60.2  51 
 YXLK    ES   0    22339.610                              91   -0.1010 60.2  51 
 YIBA    EP   0    22331.465                              91    0.2110 63.2  19 
 YIBA    ES   0    22341.356                              91    0.7810 63.2  19 
 XIVZ    EP   0    22334.244                              62   -1.0410 87.4  11 
 XIVZ    ES   0    22347.479                              62   -0.1610 87.4  11 
 RVDG    EP   0    22336.464                              62   -0.36 9 97.9  76 
 RVDG    ES   0    22350.096                              62   -0.23 9 97.9  76 
 ZGXN    EP   0    22348.273                              62   -0.55 8  179  89 
 ZGXN    ES   0    22413.269                              62    1.94 8  179  89 
                                                                                
 2020  1 1 0224 59.9 L  35.977  52.546 13.0  New  5 1.2                        1
 GAP=201        3.16      13.5     7.5 11.6 -0.3875E+02 -0.1160E+02  0.2075E+02E
 Action:ARG 22-07-04 18:17 OP:OBSP STATUS:               ID:20200101022500     I
 STAT SP IPHASW D HRMM SECON CODA AMPLIT PERI AZIMU VELO AIN AR TRES W  DIS CAZ7
 ZSCP    EP   0    225 7.578                              98   -1.2410 42.6  49 
 ZSCP    ES   0    22517.316                              98    1.8410 42.6  49 
 SRWZ    EP   0    225 9.994                              97    0.4510 46.6 279 
 SRWZ    ES   0    22517.542                              97    0.7910 46.6 279 
 RVDG    EP   0    225 8.655                              95   -2.5610 55.6  34 
 RVDG    ES   0    22520.238                              95    0.5710 55.6  34 
 XIVZ    EP   0    22521.622                              53    0.16 9  118 337 
 ZGXN    EP   0    22520.870                              53   -0.65 9  118  78 
 XIVZ    ES   0    22537.010                              53   -0.59 9  118 337 
 ZGXN    ES   0    22538.959                              53    1.25 9  118  78 
                                                                                
 2020  1 1 0226 40.5 L  35.985  52.060 10.0  New  6 0.8                        1
 GAP=235        2.00      10.4     5.5 18.8 -0.5483E+01 -0.5729E+01 -0.1073E+03E
 Action:ARG 22-07-04 18:17 OP:OBSP STATUS:               ID:20200101022640     I
 STAT SP IPHASW D HRMM SECON CODA AMPLIT PERI AZIMU VELO AIN AR TRES W  DIS CAZ7
 YXLK    EP   0    22653.413                              68   -0.1510 65.2  24 
 YXLK    ES   0    227 2.495                              68   -0.8310 65.2  24 
 YIBA    EP   0    22657.620                              68    1.1110 81.1   1 
 YIBA    ES   0    227 9.216                              68    0.7410 81.1   1 
 EVSP    EP   0    22656.895                              68   -0.0210 83.3 294 
 EVSP    ES   0    227 8.460                              68   -0.7410 83.3 294 
 RVDG    EP   0    22656.849                              56   -0.8310 87.5  59 
 RVDG    ES   0    22710.487                              56   -0.0310 87.5  59 
 XIVZ    EP   0    227 2.496                              47    1.64 9  107 358 
 XIVZ    ES   0    22715.092                              47   -0.99 9  107 358 
 YAIP    EP   0    227 9.288                              47    0.21 8  163  53 
 YAIP    ES   0    22730.504                              47    0.03 8  163  53 
                                                                                
 2020  1 1 0228 19.8 L  35.918  52.293  8.3  New  8 0.9                        1
 GAP=216        2.37       7.9     5.6 11.6  0.2312E+01  0.1476E+02 -0.7013E+01E
 Action:ARG 22-07-04 18:17 OP:OBSP STATUS:               ID:20200101022820     I
 STAT SP IPHASW D HRMM SECON CODA AMPLIT PERI AZIMU VELO AIN AR TRES W  DIS CAZ7
 ZSCP    EP   0    22833.141                              68    0.2410 64.8  57 
 ZSCP    ES   0    22842.789                              68    0.0810 64.8  57 
 YXLK    EP   0    22832.867                              68   -0.4810 67.2   5 
 YXLK    ES   0    22842.393                              68   -1.0910 67.2   5 
 RVDG    EP   0    22836.665                              68    1.8110 75.4  46 
 RVDG    ES   0    22846.457                              68    0.3310 75.4  46 
 YIBA    EP   0    22837.469                              56   -0.2210 90.8 347 
 YIBA    ES   0    22852.573                              56    1.4910 90.8 347 
 EVSP    EP   0    22840.457                              47    0.34 9  106 293 
 EVSP    ES   0    22855.594                              47    0.26 9  106 293 
 XIVZ    EP   0    22840.295                              47   -1.53 9  117 348 
 XIVZ    ES   0    22858.516                              47    0.20 9  117 348 
 ZGXN    EP   0    22845.856                              47    0.40 8  142  77 
 ZGXN    ES   0    229 4.330                              47   -0.35 8  142  77 
 YAIP    EP   0    22844.765                              47   -2.18 8  152  46 
 YAIP    ES   0    229 7.173                              47   -0.11 8  152  46 
                                                                                
 2020  1 1 0230  0.3 L  35.935  52.134 14.7  New  5 0.5                        1
 GAP=231        1.31       7.3     3.7  4.4 -0.6733E+01 -0.7054E+01  0.1710E+02E
 Action:ARG 22-07-04 18:17 OP:OBSP STATUS:               ID:20200101023000     I
 STAT SP IPHASW D HRMM SECON CODA AMPLIT PERI AZIMU VELO AIN AR TRES W  DIS CAZ7
 SRWZ    EP   0    230 4.963                             130    0.5010 14.8 323 
 SRWZ    ES   0    230 6.564                             130   -1.0310 14.8 323 
 TVCN    EP   0    230 8.372                             104    0.3310 36.2  10 
 TVCN    ES   0    23014.418                             104    0.5610 36.2  10 
 ZSCP    EP   0    23015.397                              64    0.2110 76.5  64 
 ZSCP    ES   0    23025.982                              64   -0.3910 76.5  64 
 EVSP    EP   0    23017.682                              64   -0.0410 91.7 296 
 EVSP    ES   0    23030.878                              64    0.0810 91.7 296 
 YAIP    EP   0    23028.433                              53    0.42 8  161  50 
 YAIP    ES   0    23048.072                              53   -0.75 8  161  50 
                                                                                
 2020  1 1 0231 39.4 L  36.145  51.667 11.5  New  6 0.7                        1
 GAP=182        1.70       5.0     3.8  7.7  0.3193E+01 -0.7303E+01  0.6597E+00E
 Action:ARG 22-07-04 18:17 OP:OBSP STATUS:               ID:20200101023140     I
 STAT SP IPHASW D HRMM SECON CODA AMPLIT PERI AZIMU VELO AIN AR TRES W  DIS CAZ7
 SRWZ    EP   0    23146.344                              96   -0.5110 35.1 109 
 SRWZ    ES   0    23152.894                              96    0.4510 35.1 109 
 EVSP    EP   0    23148.395                              94   -0.0710 43.8 291 
 EVSP    ES   0    23155.921                              94    0.6610 43.8 291 
 YIBA    EP   0    23152.546                              92   -1.2910 72.8  29 
 YIBA    ES   0    232 4.844                              92    0.1810 72.8  29 
 YXLK    EP   0    23153.732                              92   -0.4310 74.6  56 
 YXLK    ES   0    232 6.214                              92    0.9710 74.6  56 
 YAIP    EP   0    232 9.720                              53   -1.10 7  184  64 
 YAIP    ES   0    23234.431                              53    0.03 7  184  64 
 ZGXN    EP   0    23213.312                              53    0.90 7  195  88 
 ZGXN    ES   0    23237.475                              53    0.29 7  195  88 
                                                                                
 2020  1 1 0233 19.6 L  36.259  52.106  3.8  New  5 0.9                        1
 GAP=181        2.26       7.4     5.1  8.1 -0.1084E+02  0.2254E+02 -0.3384E+02E
 Action:ARG 22-07-04 18:17 OP:OBSP STATUS:               ID:20200101023320     I
 STAT SP IPHASW D HRMM SECON CODA AMPLIT PERI AZIMU VELO AIN AR TRES W  DIS CAZ7
 TVCN    ES   0    23322.483                             114   -0.6910 8.46  92 
 TVCN    EP   0    23323.120                             114    1.4910 8.46  92 
 YXLK    EP   0    23326.318                              64   -1.0210 36.8  38 
 YXLK    ES   0    23333.294                              64    0.1310 36.8  38 
 RVDG    EP   0    23335.153                              56    0.7710 72.2  78 
 RVDG    ES   0    23345.171                              56   -0.3110 72.2  78 
 XIVZ    EP   0    23335.048                              56   -0.2510 77.2 355 
 XIVZ    ES   0    23347.600                              56    0.5110 77.2 355 
 EVSP    EP   0    23334.440                              56   -1.4310 80.3 273 
 EVSP    ES   0    23348.877                              56    0.7910 80.3 273 
                                                                                
 2020  1 1 0235  0.3 L  35.908  51.968 15.5  New  8 1.1                        1
 GAP=284        2.82      11.2    14.1  6.8  0.3635E+02 -0.2673E+02  0.1668E+02E
 Action:ARG 22-07-04 18:17 OP:OBSP STATUS:               ID:20200101023500     I
 STAT SP IPHASW D HRMM SECON CODA AMPLIT PERI AZIMU VELO AIN AR TRES W  DIS CAZ7
 SRWZ    EP   0    235 5.503                             130    0.7310 16.0  22 
 SRWZ    ES   0    235 7.559                             130   -0.5510 16.0  22 
 TVCN    EP   0    235 8.721                             102   -0.8010 44.0  28 
 TVCN    ES   0    23516.861                             102    0.4310 44.0  28 
 YXLK    EP   0    23514.105                              64   -1.0610 76.5  27 
 YXLK    ES   0    23528.011                              64    1.7110 76.5  27 
 ZSCP    EP   0    23517.016                              64   -0.6310 91.4  67 
 ZSCP    ES   0    23530.223                              64   -0.4210 91.4  67 
 RVDG    EP   0    23517.833                              53   -0.97 9 99.1  57 
 RVDG    ES   0    23531.667                              53   -1.00 9 99.1  57 
 XIVZ    EP   0    23523.341                              53    2.07 9  116   2 
 XIVZ    ES   0    23534.965                              53   -2.02 9  116   2 
 ZGXN    EP   0    23529.668                              53    0.31 8  171  79 
 ZGXN    ES   0    23551.878                              53    0.73 8  171  79 
 YAIP    EP   0    23531.765                              53    1.81 8  175  52 
 YAIP    ES   0    23553.124                              53    0.93 8  175  52 
                                                                                
 2020  1 1 0236 39.5 L  36.021  52.088 16.4  New  8 1.0                        1
 GAP=208        2.52       7.5     6.0  4.9 -0.1485E+01 -0.9065E+01 -0.4931E+01E
 Action:ARG 22-07-04 18:17 OP:OBSP STATUS:               ID:20200101023640     I
 STAT SP IPHASW D HRMM SECON CODA AMPLIT PERI AZIMU VELO AIN AR TRES W  DIS CAZ7
 SRWZ    EP   0    23642.797                             161   -0.1210 5.20 295 
 SRWZ    ES   0    23645.290                             161   -0.2010 5.20 295 
 TVCN    EP   0    23646.182                             115    0.2710 28.0  21 
 TVCN    ES   0    23650.482                             115   -0.2610 28.0  21 
 YXLK    EP   0    23651.699                              64    0.1110 60.5  23 
 YXLK    ES   0    237 0.419                              64   -0.2510 60.5  23 
 ZSCP    EP   0    23652.566                              64   -1.7510 76.8  72 
 ZSCP    ES   0    237 6.174                              64    0.7410 76.8  72 
 YIBA    EP   0    23655.245                              64    0.8910 77.0 359 
 YIBA    ES   0    237 5.843                              64    0.3410 77.0 359 
 EVSP    EP   0    23655.341                              64   -0.1810 84.1 291 
 EVSP    ES   0    237 7.106                              64   -0.4410 84.1 291 
 ZGXN    EP   0    237 7.629                              53    1.07 8  158  83 
 ZGXN    ES   0    23726.436                              53   -0.44 8  158  83 
 YAIP    EP   0    237 9.466                              53    2.83 8  159  53 
 YAIP    ES   0    23724.829                              53   -2.18 8  159  53 
                                                                                
 2020  1 1 0238 20.2 L  35.986  52.056 18.0  New  9 0.9                        1
 GAP=213        2.24       7.7     5.3 15.9  0.8507E+01 -0.2172E+02 -0.4742E+02E
 Action:ARG 22-07-04 18:17 OP:OBSP STATUS:               ID:20200101023820     I
 STAT SP IPHASW D HRMM SECON CODA AMPLIT PERI AZIMU VELO AIN AR TRES W  DIS CAZ7
 TVCN    EP   0    23828.387                              64    0.8910 32.7  23 
 TVCN    ES   0    23832.538                              64   -0.4710 32.7  23 
 YXLK    EP   0    23833.176                              64    0.2510 65.2  24 
 YXLK    ES   0    23840.864                              64   -1.6310 65.2  24 
 ZSCP    EP   0    23836.325                              64    0.8110 80.8  70 
 ZSCP    ES   0    23847.005                              64   -0.0310 80.8  70 
 YIBA    EP   0    23835.596                              64    0.0510 81.0   1 
 YIBA    ES   0    23846.904                              64   -0.1910 81.0   1 
 EVSP    EP   0    23834.083                              64   -1.8010 82.9 294 
 EVSP    ES   0    23848.460                              64    0.7910 82.9 294 
 RVDG    EP   0    23835.939                              64   -0.7410 87.7  59 
 RVDG    ES   0    23850.187                              64    1.1210 87.7  59 
 XIVZ    EP   0    23840.389                              53    0.84 9  107 358 
 XIVZ    ES   0    23855.026                              53    0.94 9  107 358 
 ZGXN    EP   0    23846.905                              53   -0.64 8  162  81 
 ZGXN    ES   0    239 7.257                              53   -0.84 8  162  81 
 YAIP    EP   0    23848.636                              53    0.82 8  163  53 
 YAIP    ES   0    239 8.332                              53   -0.23 8  163  53 
                                                                                
