 2020  1 1 0059 58.9 L  35.836  51.675  4.3  New  9 0.9                        1
 GAP=243        2.25       8.4     5.7  6.4  0.1146E+02 -0.8598E+01  0.6329E+01E
 Action:ARG 22-07-04 18:17 OP:OBSP STATUS:               ID:20200101010000     I
 STAT SP IPHASW D HRMM SECON CODA AMPLIT PERI AZIMU VELO AIN AR TRES W  DIS CAZ7
 SRWZ    EP   0    1 0 7.515                              91    0.2610 39.7  55 
 SRWZ    ES   0    1 013.118                              91   -0.3810 39.7  55 
 EVSP    EP   0    1 013.299                              90    0.9310 65.2 321 
 EVSP    ES   0    1 021.662                              90   -0.7810 65.2 321 
 TVCN    EP   0    1 011.790                              90   -0.8310 66.5  45 
 TVCN    ES   0    1 023.673                              90    0.7910 66.5  45 
 YXLK    EP   0    1 018.397                              56    0.01 9 97.7  39 
 YXLK    ES   0    1 032.639                              56   -0.34 9 97.7  39 
 YIBA    EP   0    1 017.825                              56   -1.59 9  104  20 
 YIBA    ES   0    1 035.946                              56    1.17 9  104  20 
 ZSCP    EP   0    1 022.395                              47    0.67 9  119  68 
 ZSCP    ES   0    1 039.926                              47    1.11 9  119  68 
 RVDG    EP   0    1 021.800                              47   -0.95 9  126  60 
 RVDG    ES   0    1 039.808                              47   -0.81 9  126  60 
 XIVZ    EP   0    1 024.697                              47    1.68 9  128  14 
 XIVZ    ES   0    1 040.542                              47   -0.53 9  128  14 
 ZGXN    EP   0    1 034.106                              47    0.68 7  198  78 
 ZGXN    ES   0    1 058.055                              47   -1.23 7  198  78 
                                                                                
 2020  1 1 0101 39.8 L  36.205  52.008 16.0  New  7 1.1                        1
 GAP=189        2.96       7.5    10.0  8.4  0.1919E+02 -0.2138E+02 -0.4194E+02E
 Action:ARG 22-07-04 18:17 OP:OBSP STATUS:               ID:20200101010140     I
 STAT SP IPHASW D HRMM SECON CODA AMPLIT PERI AZIMU VELO AIN AR TRES W  DIS CAZ7
 TVCN    EP   0    1 143.525                             127   -1.1210 18.2  72 
 TVCN    ES   0    1 148.741                             127    0.4710 18.2  72 
 SRWZ    EP   0    1 145.590                             127    0.9110 18.4 172 
 SRWZ    ES   0    1 147.802                             127   -0.5210 18.4 172 
 YIBA    EP   0    1 152.416                              64    1.0710 56.9   5 
 YIBA    ES   0    1 2 1.086                              64    1.0910 56.9   5 
 ZSCP    EP   0    1 154.966                              64   -0.2910 80.4  88 
 ZSCP    ES   0    1 2 7.771                              64    0.9310 80.4  88 
 RVDG    EP   0    1 154.275                              64   -1.2910 82.2  75 
 RVDG    ES   0    1 2 8.270                              64    0.8910 82.2  75 
 XIVZ    EP   0    1 157.236                              64    1.5810 82.8   1 
 XIVZ    ES   0    1 2 5.360                              64   -2.1810 82.8   1 
 YAIP    EP   0    1 2 4.786                              53   -1.48 8  154  61 
 YAIP    ES   0    1 225.237                              53   -0.88 8  154  61 
                                                                                
 2020  1 1 0103 20.9 L  35.581  52.061 20.6  New 10 1.1                        1
 GAP=249        2.63      10.4     8.9 11.2  0.1561E+02 -0.2113E+02  0.1524E+02E
 Action:ARG 22-07-04 18:17 OP:OBSP STATUS:               ID:20200101010320     I
 STAT SP IPHASW D HRMM SECON CODA AMPLIT PERI AZIMU VELO AIN AR TRES W  DIS CAZ7
 SRWZ    EP   0    1 330.269                              97   -1.0910 51.1 357 
 SRWZ    ES   0    1 338.895                              97   -0.3010 51.1 357 
 TVCN    EP   0    1 337.924                              93    2.4210 76.0  10 
 TVCN    ES   0    1 345.960                              93   -0.4810 76.0  10 
 ZSCP    EP   0    1 340.490                              62    0.75 9  105  46 
 ZSCP    ES   0    1 352.634                              62   -1.23 9  105  46 
 YXLK    EP   0    1 339.837                              62   -0.35 9  108  14 
 YXLK    ES   0    1 354.973                              62    0.33 9  108  14 
 EVSP    EP   0    1 338.526                              62   -1.94 9  110 316 
 EVSP    ES   0    1 355.678                              62    0.55 9  110 316 
 RVDG    EP   0    1 340.976                              62   -0.61 9  117  40 
 RVDG    ES   0    1 355.450                              62   -1.64 9  117  40 
 YIBA    EP   0    1 342.705                              62   -0.17 9  126   0 
 YIBA    ES   0    1 4 0.860                              62    1.53 9  126   0 
 XIVZ    EP   0    1 347.537                              62    0.82 8  152 359 
 XIVZ    ES   0    1 4 6.033                              62   -0.03 8  152 359 
 ZGXN    EP   0    1 350.763                              62    0.87 8  174  67 
 ZGXN    ES   0    1 412.430                              62    0.81 8  174  67 
 YAIP    EP   0    1 352.553                              62   -0.26 7  194  42 
 YAIP    ES   0    1 417.586                              62    0.86 7  194  42 
                                                                                
 2020  1 1 0105  0.3 L  36.192  51.946 12.5  New 10 1.0                        1
 GAP=125        2.56       4.7     5.0  6.8  0.2904E+01 -0.8544E+01 -0.9782E+01E
 Action:ARG 22-07-04 18:17 OP:OBSP STATUS:               ID:20200101010500     I
 STAT SP IPHASW D HRMM SECON CODA AMPLIT PERI AZIMU VELO AIN AR TRES W  DIS CAZ7
 SRWZ    EP   0    1 5 4.971                             116    0.0810 18.6 154 
 SRWZ    ES   0    1 5 8.574                             116    0.2610 18.6 154 
 TVCN    EP   0    1 5 5.212                             108   -0.6010 23.9  73 
 TVCN    ES   0    1 5 9.607                             108   -0.3010 23.9  73 
 YXLK    EP   0    1 510.144                              95   -0.7610 51.8  45 
 YXLK    ES   0    1 519.258                              95    0.4410 51.8  45 
 YIBA    EP   0    1 513.788                              94    1.5510 59.1  11 
 YIBA    ES   0    1 521.062                              94   -0.1110 59.1  11 
 EVSP    EP   0    1 514.096                              93    0.4510 66.7 279 
 EVSP    ES   0    1 523.508                              93   -0.1210 66.7 279 
 XIVZ    EP   0    1 518.113                              64    1.3610 84.5   5 
 XIVZ    ES   0    1 527.686                              64   -1.3810 84.5   5 
 ZSCP    EP   0    1 514.867                              64   -2.1410 86.0  87 
 ZSCP    ES   0    1 530.691                              64    1.1810 86.0  87 
 RVDG    EP   0    1 516.360                              64   -0.9710 87.9  75 
 RVDG    ES   0    1 531.320                              64    1.2410 87.9  75 
 YAIP    EP   0    1 528.868                              53    0.85 8  159  62 
 YAIP    ES   0    1 548.396                              53   -0.38 8  159  62 
 ZGXN    EP   0    1 528.002                              53   -1.53 8  170  90 
 ZGXN    ES   0    1 552.143                              53    0.71 8  170  90 
                                                                                
 2020  1 1 0106 41.4 L  36.177  52.111 17.5  New  6 0.7                        1
 GAP=270        1.77       7.2     7.4  7.8  0.3616E+02  0.1176E+02  0.3981E+01E
 Action:ARG 22-07-04 18:17 OP:OBSP STATUS:               ID:20200101010640     I
 STAT SP IPHASW D HRMM SECON CODA AMPLIT PERI AZIMU VELO AIN AR TRES W  DIS CAZ7
 YXLK    EP   0    1 650.638                              64   -0.0910 44.1  30 
 YXLK    ES   0    1 657.934                              64    0.2410 44.1  30 
 YIBA    EP   0    1 653.852                              64    0.4910 59.9 356 
 YIBA    ES   0    1 7 1.912                              64   -0.4010 59.9 356 
 ZSCP    EP   0    1 654.754                              64   -0.5110 71.3  85 
 ZSCP    ES   0    1 7 4.463                              64   -1.1710 71.3  85 
 RVDG    EP   0    1 656.355                              64    0.6010 74.2  71 
 RVDG    ES   0    1 7 6.395                              64   -0.0910 74.2  71 
 XIVZ    EP   0    1 657.757                              64   -0.0010 86.2 355 
 XIVZ    ES   0    1 7 9.336                              64   -0.6610 86.2 355 
 YAIP    EP   0    1 7 7.257                              53    0.46 8  147  58 
 YAIP    ES   0    1 727.622                              53    1.81 8  147  58 
                                                                                
 2020  1 1 0108 20.3 L  35.945  51.951 25.2  New  8 0.8                        1
 GAP=231        2.04       8.5     5.5  7.4  0.5736E+00  0.4236E+01  0.1315E+01E
 Action:ARG 22-07-04 18:17 OP:OBSP STATUS:               ID:20200101010820     I
 STAT SP IPHASW D HRMM SECON CODA AMPLIT PERI AZIMU VELO AIN AR TRES W  DIS CAZ7
 TVCN    EP   0    1 828.298                             112   -1.0410 41.2  33 
 TVCN    ES   0    1 836.638                             112    0.5310 41.2  33 
 YXLK    EP   0    1 834.238                              62    0.0510 73.6  30 
 YXLK    ES   0    1 842.921                              62   -1.6810 73.6  30 
 EVSP    EP   0    1 834.686                              62    0.0510 76.6 300 
 EVSP    ES   0    1 845.097                              62   -0.2910 76.6 300 
 YIBA    EP   0    1 836.481                              62    0.4410 86.1   7 
 YIBA    ES   0    1 849.527                              62    1.6810 86.1   7 
 ZSCP    EP   0    1 836.861                              62    0.0710 91.2  69 
 ZSCP    ES   0    1 849.211                              62    0.0610 91.2  69 
 RVDG    EP   0    1 838.115                              62    0.30 9 98.2  59 
 RVDG    ES   0    1 850.467                              62   -0.48 9 98.2  59 
 XIVZ    EP   0    1 840.311                              62    0.50 9  112   3 
 XIVZ    ES   0    1 853.534                              62   -0.91 9  112   3 
 YAIP    EP   0    1 848.964                              62    0.06 8  174  54 
 YAIP    ES   0    1 911.576                              62    1.21 8  174  54 
                                                                                
 2020  1 1 0110  0.4 L  36.114  52.048 17.6  New  8 0.9                        1
 GAP=102        2.39       6.5     6.0  5.0 -0.9457E+01  0.4172E+01 -0.1845E+02E
 Action:ARG 22-07-04 18:17 OP:OBSP STATUS:               ID:20200101011000     I
 STAT SP IPHASW D HRMM SECON CODA AMPLIT PERI AZIMU VELO AIN AR TRES W  DIS CAZ7
 SRWZ    EP   0    110 3.518                             153   -0.7810 8.17 188 
 SRWZ    ES   0    110 7.815                             153    0.6310 8.17 188 
 TVCN    EP   0    110 5.277                             126   -0.5810 20.9  41 
 TVCN    ES   0    110 9.745                             126   -0.1810 20.9  41 
 YXLK    EP   0    11011.942                              64    0.7310 53.0  31 
 YXLK    ES   0    11019.624                              64    0.3410 53.0  31 
 YIBA    EP   0    11012.593                              64   -0.9210 66.8   2 
 YIBA    ES   0    11023.071                              64   -0.2510 66.8   2 
 EVSP    EP   0    11015.084                              64   -0.2210 77.5 285 
 EVSP    ES   0    11026.062                              64   -0.3810 77.5 285 
 XIVZ    EP   0    11020.501                              53    2.7010 92.9 359 
 XIVZ    ES   0    11030.070                              53   -0.7410 92.9 359 
 YAIP    EP   0    11027.741                              53    0.70 8  156  57 
 YAIP    ES   0    11046.913                              53   -0.08 8  156  57 
 ZGXN    EP   0    11028.454                              53    0.68 8  161  86 
 ZGXN    ES   0    11046.656                              53   -1.60 8  161  86 
                                                                                
 2020  1 1 0111 40.1 L  36.031  52.057  5.5  New 10 0.7                        1
 GAP=208        1.87       4.8     3.7  3.7  0.6260E+00 -0.4986E+01 -0.3986E+01E
 Action:ARG 22-07-04 18:17 OP:OBSP STATUS:               ID:20200101011140     I
 STAT SP IPHASW D HRMM SECON CODA AMPLIT PERI AZIMU VELO AIN AR TRES W  DIS CAZ7
 SRWZ    EP   0    11140.692                             156   -0.7110 2.22 298 
 SRWZ    ES   0    11143.059                             156    0.6910 2.22 298 
 TVCN    EP   0    11145.896                              94   -0.2410 28.1  27 
 TVCN    ES   0    11149.871                              94   -0.7810 28.1  27 
 YXLK    EP   0    11152.690                              68    0.0610 60.6  26 
 YXLK    ES   0    112 1.676                              68   -0.3410 60.6  26 
 YIBA    EP   0    11155.841                              68    0.3810 75.9   1 
 YIBA    ES   0    112 7.052                              68    0.0810 75.9   1 
 ZSCP    EP   0    11156.277                              68    0.2210 79.2  74 
 ZSCP    ES   0    112 9.579                              68    1.5710 79.2  74 
 EVSP    EP   0    11155.975                              68   -0.4410 81.1 291 
 EVSP    ES   0    112 8.856                              68    0.2210 81.1 291 
 RVDG    EP   0    11156.476                              68   -0.7010 85.2  62 
 RVDG    ES   0    11210.432                              68    0.4610 85.2  62 
 XIVZ    EP   0    112 0.608                              56    0.44 9  102 358 
 XIVZ    ES   0    11215.959                              56    0.75 9  102 358 
 YAIP    EP   0    112 7.299                              47   -1.53 8  160  54 
 YAIP    ES   0    11229.751                              47   -0.62 8  160  54 
 ZGXN    EP   0    112 9.985                              47    1.08 8  161  83 
 ZGXN    ES   0    11229.228                              47   -1.27 8  161  83 
                                                                                
 2020  1 1 0113 19.2 L  36.135  51.851  5.5  New  5 0.9                        1
 GAP=165        1.91       7.5     6.2 11.2  0.3341E+02 -0.4870E+02 -0.6266E+02E
 Action:ARG 22-07-04 18:17 OP:OBSP STATUS:               ID:20200101011320     I
 STAT SP IPHASW D HRMM SECON CODA AMPLIT PERI AZIMU VELO AIN AR TRES W  DIS CAZ7
 SRWZ    EP   0    11322.800                              97   -0.7010 19.5 122 
 SRWZ    ES   0    11327.068                              97    0.3310 19.5 122 
 EVSP    EP   0    11331.297                              92   -0.2410 59.8 287 
 EVSP    ES   0    11340.925                              92    0.1210 59.8 287 
 XIVZ    EP   0    11337.121                              68   -0.3610 91.9  10 
 XIVZ    ES   0    11351.269                              68    0.0610 91.9  10 
 YAIP    EP   0    11349.855                              47    0.55 8  170  61 
 YAIP    ES   0    11412.070                              47    0.17 8  170  61 
 ZGXN    EP   0    11352.745                              47    2.19 8  178  87 
 ZGXN    ES   0    11412.450                              47   -1.63 8  178  87 
                                                                                
 2020  1 1 0114 59.8 L  36.231  52.036 19.2  New  8 0.9                        1
 GAP= 95        2.40       5.1     5.0 11.7 -0.3265E+01  0.1057E+02 -0.3047E+02E
 Action:ARG 22-07-04 18:17 OP:OBSP STATUS:               ID:20200101011500     I
 STAT SP IPHASW D HRMM SECON CODA AMPLIT PERI AZIMU VELO AIN AR TRES W  DIS CAZ7
 TVCN    EP   0    115 5.749                             134    1.1410 15.1  79 
 TVCN    ES   0    115 8.634                             134    0.4410 15.1  79 
 SRWZ    EP   0    115 4.692                             121   -0.7110 21.1 180 
 SRWZ    ES   0    115 8.771                             121   -0.8210 21.1 180 
 YXLK    EP   0    115 8.954                              95    0.0310 43.2  42 
 YXLK    ES   0    11513.925                              95   -1.8310 43.2  42 
 YIBA    EP   0    11510.219                              93   -0.4810 53.8   3 
 YIBA    ES   0    11517.655                              93   -1.2010 53.8   3 
 EVSP    EP   0    11514.203                              92    0.1210 74.1 275 
 EVSP    ES   0    11525.646                              92    0.8710 74.1 275 
 ZSCP    EP   0    11513.894                              91   -0.8010 77.8  90 
 ZSCP    ES   0    11526.553                              91    0.7110 77.8  90 
 RVDG    EP   0    11514.771                              91   -0.1310 79.1  77 
 RVDG    ES   0    11527.562                              91    1.3510 79.1  77 
 XIVZ    EP   0    11515.245                              91    0.2110 79.9 359 
 XIVZ    ES   0    11527.604                              91    1.1610 79.9 359 
                                                                                
 2020  1 1 0116 40.5 L  36.059  52.276 13.2  New  7 0.8                        1
 GAP=181        1.91       6.8     3.6  5.1 -0.8057E+01 -0.5456E+01  0.9148E+01E
 Action:ARG 22-07-04 18:17 OP:OBSP STATUS:               ID:20200101011640     I
 STAT SP IPHASW D HRMM SECON CODA AMPLIT PERI AZIMU VELO AIN AR TRES W  DIS CAZ7
 SRWZ    EP   0    11645.068                             113   -0.5510 21.8 265 
 SRWZ    ES   0    11649.543                             113    0.0710 21.8 265 
 TVCN    EP   0    11646.684                             112    0.8810 22.9 343 
 TVCN    ES   0    11648.793                             112   -1.0110 22.9 343 
 ZSCP    EP   0    11653.596                              95    1.1610 59.4  71 
 ZSCP    ES   0    117 1.718                              95    0.3110 59.4  71 
 RVDG    EP   0    11653.649                              94   -0.1210 66.6  56 
 RVDG    ES   0    117 3.721                              94   -0.0310 66.6  56 
 EVSP    EP   0    11659.622                              53    0.43 9 98.9 285 
 EVSP    ES   0    11713.615                              53    0.37 9 98.9 285 
 ZGXN    EP   0    117 4.713                              53   -0.64 8  141  84 
 ZGXN    ES   0    11722.660                              53   -1.36 8  141  84 
 YAIP    EP   0    117 4.558                              53   -1.08 8  143  51 
 YAIP    ES   0    11725.587                              53    1.08 8  143  51 
                                                                                
