 2020  1 1 0139 59.8 L  36.103  52.263  7.0  New  6 0.9                        1
 GAP=176        2.27       5.1     5.1  7.2 -0.4228E+01 -0.8634E+01 -0.6007E+01E
 Action:ARG 22-07-04 18:17 OP:OBSP STATUS:               ID:20200101014000     I
 STAT SP IPHASW D HRMM SECON CODA AMPLIT PERI AZIMU VELO AIN AR TRES W  DIS CAZ7
 TVCN    EP   0    140 4.602                             105    0.7410 17.9 342 
 TVCN    ES   0    140 6.242                             105   -0.6610 17.9 342 
 SRWZ    EP   0    140 5.186                             102    0.5910 21.7 251 
 SRWZ    ES   0    140 7.410                             102   -0.7710 21.7 251 
 ZSCP    EP   0    14012.540                              68    0.6110 59.1  76 
 ZSCP    ES   0    14020.031                              68   -0.9910 59.1  76 
 YIBA    EP   0    14014.012                              68    0.0410 70.2 346 
 YIBA    ES   0    14024.501                              68   -0.1010 70.2 346 
 XIVZ    EP   0    14020.755                              56    1.99 9 96.5 347 
 XIVZ    ES   0    14032.290                              56   -0.69 9 96.5 347 
 EVSP    EP   0    14017.615                              56   -1.17 9 96.6 283 
 EVSP    ES   0    14033.475                              56    0.46 9 96.6 283 
                                                                                
 2020  1 1 0141 41.0 L  35.844  51.998 12.5  New  7 0.6                        1
 GAP=229        1.55       5.8     4.6  6.7 -0.9081E-01 -0.1744E+00  0.5459E+01E
 Action:ARG 22-07-04 18:17 OP:OBSP STATUS:               ID:20200101014140     I
 STAT SP IPHASW D HRMM SECON CODA AMPLIT PERI AZIMU VELO AIN AR TRES W  DIS CAZ7
 TVCN    EP   0    14150.986                              95   -0.0510 49.2  22 
 TVCN    ES   0    14158.139                              95   -0.4610 49.2  22 
 YXLK    EP   0    14157.485                              64    0.5610 81.7  23 
 YXLK    ES   0    142 8.537                              64   -0.3610 81.7  23 
 EVSP    EP   0    14157.668                              64    0.0110 86.2 305 
 EVSP    ES   0    14210.036                              64   -0.1510 86.2 305 
 YIBA    EP   0    142 0.679                              64    1.23 9 96.9   4 
 YIBA    ES   0    14214.214                              64    0.89 9 96.9   4 
 XIVZ    EP   0    142 1.967                              53   -1.31 9  123   1 
 XIVZ    ES   0    14219.399                              53   -0.62 9  123   1 
 ZGXN    EP   0    142 9.874                              53   -0.30 8  170  76 
 ZGXN    ES   0    14231.895                              53   -0.20 8  170  76 
 YAIP    EP   0    14211.454                              53    0.17 8  177  50 
 YAIP    ES   0    14234.498                              53    0.47 8  177  50 
                                                                                
 2020  1 1 0143 20.5 L  36.433  52.282 12.1  New  8 0.6                        1
 GAP=100        1.56       2.5     3.0  3.7 -0.1983E+01 -0.9839E+00  0.3763E+00E
 Action:ARG 22-07-04 18:17 OP:OBSP STATUS:               ID:20200101014320     I
 STAT SP IPHASW D HRMM SECON CODA AMPLIT PERI AZIMU VELO AIN AR TRES W  DIS CAZ7
 YXLK    EP   0    14324.379                             130    0.4010 11.8  34 
 YXLK    ES   0    14325.958                             130   -0.6110 11.8  34 
 TVCN    EP   0    14325.643                             111    0.2010 20.9 200 
 TVCN    ES   0    14329.305                             111    0.1710 20.9 200 
 SRWZ    EP   0    14331.493                              94    0.9610 48.9 207 
 SRWZ    ES   0    14336.822                              94   -1.2210 48.9 207 
 RVDG    EP   0    14332.280                              93    0.6010 55.1  95 
 RVDG    ES   0    14339.471                              93   -0.5810 55.1  95 
 XIVZ    EP   0    14333.304                              93    0.3710 61.9 338 
 XIVZ    ES   0    14341.940                              93   -0.3110 61.9 338 
 EVSP    EP   0    14339.420                              64    0.32 9 97.2 261 
 EVSP    ES   0    14352.530                              64   -0.50 9 97.2 261 
 YAIP    EP   0    14342.484                              53   -0.06 9  120  66 
 YAIP    ES   0    14358.845                              53   -0.21 9  120  66 
 ZGXN    EP   0    14346.767                              53    1.08 8  142 101 
 ZGXN    ES   0    144 4.014                              53   -0.54 8  142 101 
                                                                                
 2020  1 1 0145  0.6 L  36.250  51.614 16.3  New  9 0.8                        1
 GAP=155        1.97       6.2     4.7  7.4  0.1296E+02 -0.1999E+02 -0.3026E+02E
 Action:ARG 22-07-04 18:17 OP:OBSP STATUS:               ID:20200101014500     I
 STAT SP IPHASW D HRMM SECON CODA AMPLIT PERI AZIMU VELO AIN AR TRES W  DIS CAZ7
 EVSP    EP   0    145 8.614                             108    0.1410 36.2 277 
 EVSP    ES   0    14514.885                             108    0.5210 36.2 277 
 SRWZ    EP   0    145 8.224                             103   -1.7110 44.4 121 
 SRWZ    ES   0    14517.193                             103    0.2710 44.4 121 
 TVCN    EP   0    14510.519                             101   -0.9110 52.7  89 
 TVCN    ES   0    14520.811                             101    1.2710 52.7  89 
 YIBA    EP   0    14513.609                              64   -0.0010 65.8  38 
 YIBA    ES   0    14522.693                              64   -0.6610 65.8  38 
 YXLK    EP   0    14515.327                              64    0.5010 73.0  65 
 YXLK    ES   0    14526.196                              64    0.7210 73.0  65 
 XIVZ    EP   0    14517.317                              64    0.3410 86.0  25 
 XIVZ    ES   0    14528.972                              64   -0.2810 86.0  25 
 ZSCP    EP   0    14522.126                              53    0.67 9  116  91 
 ZSCP    ES   0    14537.008                              53   -0.08 9  116  91 
 YAIP    EP   0    14529.840                              53   -1.60 7  184  68 
 YAIP    ES   0    14553.924                              53   -0.63 7  184  68 
 ZGXN    EP   0    14534.034                              53    0.25 7  200  91 
 ZGXN    ES   0    14559.495                              53    0.84 7  200  91 
                                                                                
 2020  1 1 0146 40.5 L  36.056  52.362 18.1  New  8 0.7                        1
 GAP=184        1.83       6.7     3.9  6.9  0.1350E+01 -0.1249E+02 -0.2422E+02E
 Action:ARG 22-07-04 18:17 OP:OBSP STATUS:               ID:20200101014640     I
 STAT SP IPHASW D HRMM SECON CODA AMPLIT PERI AZIMU VELO AIN AR TRES W  DIS CAZ7
 SRWZ    EP   0    14647.954                             117    0.6210 29.5 267 
 SRWZ    ES   0    14652.353                             117   -0.1010 29.5 267 
 YXLK    EP   0    14651.527                              64    0.5210 51.6 359 
 YXLK    ES   0    14658.321                              64   -0.5610 51.6 359 
 ZSCP    EP   0    14650.629                              64   -0.4910 52.3  68 
 ZSCP    ES   0    14659.723                              64    0.6510 52.3  68 
 RVDG    EP   0    14652.201                              64   -0.3110 60.6  52 
 RVDG    ES   0    147 0.955                              64   -0.5410 60.6  52 
 XIVZ    EP   0    14658.311                              53   -1.10 9  104 343 
 XIVZ    ES   0    14714.612                              53    1.03 9  104 343 
 EVSP    EP   0    147 0.649                              53    0.85 9  106 284 
 EVSP    ES   0    14713.427                              53   -0.84 9  106 284 
 ZGXN    EP   0    147 3.933                              53    0.20 9  133  83 
 ZGXN    ES   0    14720.840                              53   -0.30 9  133  83 
 YAIP    EP   0    147 3.370                              53   -0.93 9  137  49 
 YAIP    ES   0    14723.539                              53    1.40 9  137  49 
                                                                                
 2020  1 1 0148 20.4 L  36.198  51.749 11.8  New  8 0.6                        1
 GAP=158        1.41       3.3     3.0  4.6  0.2723E+01 -0.4487E+01 -0.4402E+01E
 Action:ARG 22-07-04 18:17 OP:OBSP STATUS:               ID:20200101014820     I
 STAT SP IPHASW D HRMM SECON CODA AMPLIT PERI AZIMU VELO AIN AR TRES W  DIS CAZ7
 SRWZ    EP   0    14826.315                              99   -0.8110 31.1 124 
 SRWZ    ES   0    14832.438                              99    0.2610 31.1 124 
 TVCN    EP   0    14829.268                              95    0.3110 41.1  81 
 TVCN    ES   0    14835.643                              95    0.2610 41.1  81 
 EVSP    EP   0    14831.049                              94    0.5810 49.2 282 
 EVSP    ES   0    14837.476                              94   -0.5410 49.2 282 
 YIBA    EP   0    14833.726                              92    0.4910 64.2  26 
 YIBA    ES   0    14841.986                              92   -0.8710 64.2  26 
 XIVZ    EP   0    14837.323                              64    0.0210 87.1  16 
 XIVZ    ES   0    14850.747                              64    0.7610 87.1  16 
 ZSCP    EP   0    14839.915                              53   -0.05 9  104  88 
 ZSCP    ES   0    14854.838                              53    0.19 9  104  88 
 RVDG    EP   0    14840.094                              53   -0.08 9  105  78 
 RVDG    ES   0    14854.887                              53   -0.11 9  105  78 
 YAIP    EP   0    14851.111                              53    0.68 8  175  64 
 YAIP    ES   0    14911.680                              53   -1.28 8  175  64 
                                                                                
 2020  1 1 0150  0.8 L  35.875  51.996 10.0  New  8 0.7                        1
 GAP=226        1.75       6.8     4.6  5.8 -0.1301E+01 -0.6459E+00  0.1986E+02E
 Action:ARG 22-07-04 18:17 OP:OBSP STATUS:               ID:20200101015000     I
 STAT SP IPHASW D HRMM SECON CODA AMPLIT PERI AZIMU VELO AIN AR TRES W  DIS CAZ7
 SRWZ    EP   0    150 5.176                             115    0.0210 18.7  11 
 SRWZ    ES   0    150 9.478                             115    1.0110 18.7  11 
 TVCN    EP   0    150 9.235                              68   -1.0010 46.1  23 
 TVCN    ES   0    15017.593                              68    0.2510 46.1  23 
 YXLK    EP   0    15016.769                              68    0.5110 78.6  24 
 YXLK    ES   0    15027.135                              68   -0.7510 78.6  24 
 EVSP    EP   0    15017.175                              68   -0.0910 84.1 303 
 EVSP    ES   0    15029.244                              68   -0.4110 84.1 303 
 RVDG    EP   0    15019.167                              56   -0.63 9 99.0  54 
 RVDG    ES   0    15033.276                              56   -0.81 9 99.0  54 
 XIVZ    EP   0    15022.994                              47    0.15 9  119   1 
 XIVZ    ES   0    15040.071                              47    0.66 9  119   1 
 ZGXN    EP   0    15030.754                              47    0.59 8  169  78 
 ZGXN    ES   0    15053.204                              47    0.99 8  169  78 
 YAIP    EP   0    15032.291                              47    1.24 8  175  51 
 YAIP    ES   0    15052.747                              47   -1.03 8  175  51 
                                                                                
 2020  1 1 0151 41.8 L  36.162  51.824  7.2  New  5 1.0                        1
 GAP=246        2.45      11.2    17.3 16.1  0.1356E+03 -0.1588E+03 -0.1472E+03E
 Action:ARG 22-07-04 18:17 OP:OBSP STATUS:               ID:20200101015140     I
 STAT SP IPHASW D HRMM SECON CODA AMPLIT PERI AZIMU VELO AIN AR TRES W  DIS CAZ7
 SRWZ    EP   0    15147.787                             102    0.9110 23.3 125 
 SRWZ    ES   0    15150.428                             102   -0.2910 23.3 125 
 YXLK    EP   0    15155.504                              68    1.0610 62.2  50 
 YXLK    ES   0    152 3.456                              68   -0.4910 62.2  50 
 XIVZ    EP   0    15158.786                              68   -0.6810 89.3  11 
 XIVZ    ES   0    15213.139                              68    0.4010 89.3  11 
 RVDG    EP   0    152 0.405                              56   -0.78 9 99.4  75 
 RVDG    ES   0    15215.110                              56   -0.64 9 99.4  75 
 YAIP    EP   0    15210.041                              47   -1.72 8  171  62 
 YAIP    ES   0    15236.560                              47    2.30 8  171  62 
                                                                                
 2020  1 1 0153 19.1 L  35.829  52.222 16.3  New  5 0.6                        1
 GAP=256        1.49       7.6     5.2  4.9 -0.9157E+01 -0.7716E+01  0.2506E+01E
 Action:ARG 22-07-04 18:17 OP:OBSP STATUS:               ID:20200101015320     I
 STAT SP IPHASW D HRMM SECON CODA AMPLIT PERI AZIMU VELO AIN AR TRES W  DIS CAZ7
 SRWZ    EP   0    15325.792                             113    0.1310 28.9 324 
 SRWZ    ES   0    15330.267                             113   -0.3410 28.9 324 
 YXLK    EP   0    15334.670                              64    0.6110 77.7   9 
 YXLK    ES   0    15345.708                              64    0.4010 77.7   9 
 RVDG    EP   0    15334.973                              64   -0.6110 86.9  44 
 RVDG    ES   0    15347.490                              64   -0.4810 86.9  44 
 YIBA    EP   0    15338.834                              53    1.33 9 99.3 352 
 YIBA    ES   0    15350.857                              53   -0.47 9 99.3 352 
 EVSP    EP   0    15337.885                              53   -0.34 9  104 300 
 EVSP    ES   0    15352.324                              53   -0.26 9  104 300 
                                                                                
 2020  1 1 0154 59.6 L  35.738  52.142 10.6  New 10 0.6                        1
 GAP=235        1.41       4.7     3.8  5.0  0.2939E+01 -0.3067E+01  0.4790E+01E
 Action:ARG 22-07-04 18:17 OP:OBSP STATUS:               ID:20200101015500     I
 STAT SP IPHASW D HRMM SECON CODA AMPLIT PERI AZIMU VELO AIN AR TRES W  DIS CAZ7
 SRWZ    EP   0    155 6.020                              92   -1.0010 34.9 344 
 SRWZ    ES   0    15513.072                              92    0.4910 34.9 344 
 TVCN    EP   0    15511.698                              91    0.4510 57.7   5 
 TVCN    ES   0    15519.576                              91   -0.4010 57.7   5 
 ZSCP    EP   0    15516.631                              64   -0.0810 87.6  51 
 ZSCP    ES   0    15528.941                              64   -0.5910 87.6  51 
 YXLK    EP   0    15517.189                              64    0.2510 89.0  12 
 YXLK    ES   0    15529.960                              64    0.0310 89.0  12 
 RVDG    EP   0    15519.236                              64    0.59 9 99.2  43 
 RVDG    ES   0    15533.018                              64    0.10 9 99.2  43 
 EVSP    EP   0    15518.796                              53   -0.52 9  104 306 
 EVSP    ES   0    15533.908                              53   -0.18 9  104 306 
 YIBA    EP   0    15520.217                              53    0.16 9  109 357 
 YIBA    ES   0    15534.710                              53   -0.68 9  109 357 
 XIVZ    EP   0    15524.712                              53    0.78 9  135 356 
 XIVZ    ES   0    15543.232                              53    1.06 9  135 356 
 ZGXN    EP   0    15528.672                              53    0.98 8  161  71 
 ZGXN    ES   0    15548.319                              53   -0.43 8  161  71 
 YAIP    EP   0    15529.171                              53   -0.76 8  176  44 
 YAIP    ES   0    15552.647                              53   -0.02 8  176  44 
                                                                                
 2020  1 1 0156 40.0 L  36.019  52.187 12.3  New 10 0.7                        1
 GAP=198        1.84       4.7     3.3  4.2 -0.1085E+01 -0.1968E+01 -0.1356E+01E
 Action:ARG 22-07-04 18:17 OP:OBSP STATUS:               ID:20200101015640     I
 STAT SP IPHASW D HRMM SECON CODA AMPLIT PERI AZIMU VELO AIN AR TRES W  DIS CAZ7
 SRWZ    EP   0    15644.047                             125    0.3110 13.9 280 
 SRWZ    ES   0    15646.811                             125    0.2410 13.9 280 
 TVCN    EP   0    15645.140                             105   -0.7010 26.3   3 
 TVCN    ES   0    15651.003                             105    0.7410 26.3   3 
 YXLK    EP   0    15651.875                              94    0.2710 57.7  15 
 YXLK    ES   0    15659.088                              94   -1.2610 57.7  15 
 ZSCP    EP   0    15654.398                              93    0.8110 68.5  70 
 ZSCP    ES   0    157 2.984                              93   -0.8310 68.5  70 
 RVDG    EP   0    15654.107                              64   -0.8410 75.8  57 
 RVDG    ES   0    157 7.452                              64    1.2610 75.8  57 
 YIBA    EP   0    15655.955                              64    0.6410 78.0 352 
 YIBA    ES   0    157 6.408                              64   -0.4310 78.0 352 
 EVSP    EP   0    15656.860                              64   -0.8810 92.5 289 
 EVSP    ES   0    15710.988                              64   -0.0810 92.5 289 
 XIVZ    EP   0    157 0.157                              53    0.57 9  104 352 
 XIVZ    ES   0    15714.518                              53    0.20 9  104 352 
 ZGXN    EP   0    157 6.054                              53   -0.14 8  149  82 
 ZGXN    ES   0    15725.108                              53   -0.77 8  149  82 
 YAIP    EP   0    157 6.484                              53   -0.07 8  152  51 
 YAIP    ES   0    15727.485                              53    0.98 8  152  51 
                                                                                
 2020  1 1 0158 20.0 L  35.989  51.983 10.8  New  5 0.6                        1
 GAP=242        1.43       6.7     4.3  3.7 -0.4222E+01  0.1127E+01 -0.5388E+01E
 Action:ARG 22-07-04 18:17 OP:OBSP STATUS:               ID:20200101015820     I
 STAT SP IPHASW D HRMM SECON CODA AMPLIT PERI AZIMU VELO AIN AR TRES W  DIS CAZ7
 SRWZ    EP   0    15822.584                             141   -0.1210 7.43  39 
 SRWZ    ES   0    15824.409                             141   -0.3310 7.43  39 
 EVSP    EP   0    15835.676                              91    0.5110 76.8 296 
 EVSP    ES   0    15846.443                              91   -0.1010 76.8 296 
 YIBA    EP   0    15835.379                              91   -0.5610 81.0   5 
 YIBA    ES   0    15848.899                              91    1.0010 81.0   5 
 XIVZ    EP   0    15839.943                              53   -0.21 9  107   2 
 XIVZ    ES   0    15854.296                              53   -0.98 9  107   2 
 YAIP    EP   0    15849.988                              53    0.76 8  168  54 
 YAIP    ES   0    15911.446                              53    0.30 8  168  54 
                                                                                
