 2020  1 1 0118 20.4 L  35.919  51.866 41.8  New  5 0.6                        1
 GAP=313        1.35      10.6    11.5  7.3  0.1377E+01 -0.3006E+01  0.3745E+02E
 Action:ARG 22-07-04 18:17 OP:OBSP STATUS:               ID:20200101011820     I
 STAT SP IPHASW D HRMM SECON CODA AMPLIT PERI AZIMU VELO AIN AR TRES W  DIS CAZ7
 YXLK    EP   0    11836.080                             108    0.4910 80.0  33 
 YXLK    ES   0    11846.248                             108   -0.7010 80.0  33 
 ZSCP    EP   0    11838.005                             103   -0.3410 99.4  69 
 ZSCP    ES   0    11851.133                             103   -0.6410 99.4  69 
 RVDG    EP   0    11839.840                             102    0.52 9  106  60 
 RVDG    ES   0    11854.478                             102    0.99 9  106  60 
 ZGXN    EP   0    11849.725                              57   -0.11 8  180  80 
 ZGXN    ES   0    11911.687                              57   -0.19 8  180  80 
 YAIP    EP   0    11849.497                              57   -0.57 8  182  54 
 YAIP    ES   0    11912.761                              57    0.47 8  182  54 
                                                                                
 2020  1 1 0119 59.7 L  35.994  52.062 14.7  New  7 0.6                        1
 GAP=212        1.55       6.0     4.0  3.5  0.1047E+01 -0.4652E+01 -0.5200E+01E
 Action:ARG 22-07-04 18:17 OP:OBSP STATUS:               ID:20200101012000     I
 STAT SP IPHASW D HRMM SECON CODA AMPLIT PERI AZIMU VELO AIN AR TRES W  DIS CAZ7
 SRWZ    EP   0    120 3.239                             157    0.3810 5.77 335 
 SRWZ    ES   0    120 5.041                             157   -0.2010 5.77 335 
 YXLK    EP   0    12012.283                              64   -0.2610 64.2  24 
 YXLK    ES   0    12022.438                              64    0.2410 64.2  24 
 YIBA    EP   0    12015.038                              64   -0.1610 80.1   0 
 YIBA    ES   0    12026.896                              64    0.0610 80.1   0 
 EVSP    EP   0    12014.436                              64   -1.2610 83.1 293 
 EVSP    ES   0    12028.363                              64    0.6510 83.1 293 
 RVDG    EP   0    12016.071                              64   -0.2510 86.8  59 
 RVDG    ES   0    12028.571                              64   -0.2210 86.8  59 
 ZGXN    EP   0    12028.589                              53    1.24 8  161  82 
 ZGXN    ES   0    12047.439                              53   -0.66 8  161  82 
 YAIP    EP   0    12028.795                              53    1.22 8  162  53 
 YAIP    ES   0    12048.185                              53   -0.30 8  162  53 
                                                                                
 2020  1 1 0121 40.5 L  36.003  51.950 17.5  New  9 0.6                        1
 GAP=213        1.47       5.3     3.4  3.2  0.3622E+01 -0.1040E+01 -0.6444E+01E
 Action:ARG 22-07-04 18:17 OP:OBSP STATUS:               ID:20200101012140     I
 STAT SP IPHASW D HRMM SECON CODA AMPLIT PERI AZIMU VELO AIN AR TRES W  DIS CAZ7
 SRWZ    EP   0    12144.098                             152   -0.2610 8.71  61 
 SRWZ    ES   0    12147.413                             152    0.1410 8.71  61 
 YXLK    EP   0    12153.695                              64   -0.0610 68.1  32 
 YXLK    ES   0    122 3.942                              64    0.2310 68.1  32 
 EVSP    EP   0    12154.909                              64    0.2510 73.5 296 
 EVSP    ES   0    122 5.023                              64   -0.2710 73.5 296 
 YIBA    EP   0    12156.273                              64    0.5710 79.8   8 
 YIBA    ES   0    122 7.043                              64   -0.0810 79.8   8 
 ZSCP    EP   0    12156.865                              64   -0.4210 89.2  73 
 ZSCP    ES   0    122 9.194                              64   -0.7010 89.2  73 
 RVDG    EP   0    12158.299                              53    0.1410 95.1  63 
 RVDG    ES   0    12210.956                              53   -0.4610 95.1  63 
 XIVZ    EP   0    12158.623                              53   -1.04 9  105   4 
 XIVZ    ES   0    12214.204                              53    0.15 9  105   4 
 YAIP    EP   0    122 9.159                              53    0.00 8  170  55 
 YAIP    ES   0    12231.782                              53    1.11 8  170  55 
 ZGXN    EP   0    12211.126                              53    1.86 8  171  82 
 ZGXN    ES   0    12230.560                              53   -0.31 8  171  82 
                                                                                
 2020  1 1 0123 20.2 L  36.124  51.801 35.4  New  5 0.6                        1
 GAP=202        1.48      10.4     7.8 42.3 -0.4469E+02 -0.2829E+03  0.2849E+03E
 Action:ARG 22-07-04 18:17 OP:OBSP STATUS:               ID:20200101012320     I
 STAT SP IPHASW D HRMM SECON CODA AMPLIT PERI AZIMU VELO AIN AR TRES W  DIS CAZ7
 EVSP    EP   0    12331.304                             110   -0.4310 55.9 289 
 EVSP    ES   0    12340.334                             110   -0.0210 55.9 289 
 YIBA    EP   0    12333.845                             104    0.1410 69.9  20 
 YIBA    ES   0    12343.964                             104    0.1610 69.9  20 
 RVDG    EP   0    12339.661                              98    1.23 9  103  73 
 RVDG    ES   0    12352.119                              98    0.04 9  103  73 
 YAIP    EP   0    12349.453                              94    0.51 8  174  61 
 YAIP    ES   0    124 9.005                              94   -1.47 8  174  61 
 ZGXN    EP   0    12349.680                              94   -0.52 7  183  87 
 ZGXN    ES   0    12412.473                              94   -0.19 7  183  87 
                                                                                
 2020  1 1 0124 59.8 L  36.276  51.898 10.0  New  8 1.1                        1
 GAP=117        2.87       5.3     5.8 11.8  0.1416E+01 -0.2464E+02 -0.2227E+01E
 Action:ARG 22-07-04 18:17 OP:OBSP STATUS:               ID:20200101012500     I
 STAT SP IPHASW D HRMM SECON CODA AMPLIT PERI AZIMU VELO AIN AR TRES W  DIS CAZ7
 TVCN    EP   0    125 7.435                              68    1.6010 27.3  94 
 TVCN    ES   0    12510.034                              68   -0.3010 27.3  94 
 SRWZ    EP   0    125 7.112                              68    0.9910 28.8 155 
 SRWZ    ES   0    12510.751                              68   -0.0810 28.8 155 
 YXLK    EP   0    12511.408                              68    1.4910 49.3  56 
 YXLK    ES   0    12515.252                              68   -2.2310 49.3  56 
 EVSP    EP   0    12511.346                              68   -0.8210 61.5 272 
 EVSP    ES   0    12520.929                              68   -0.4910 61.5 272 
 XIVZ    EP   0    12514.804                              68   -0.0210 75.8   9 
 XIVZ    ES   0    12526.975                              68    0.9210 75.8   9 
 ZSCP    EP   0    12516.164                              56   -1.2710 90.3  93 
 ZSCP    ES   0    12529.198                              56   -1.4410 90.3  93 
 YAIP    EP   0    12527.358                              47   -0.41 8  159  65 
 YAIP    ES   0    12550.326                              47    1.61 8  159  65 
 ZGXN    EP   0    12530.672                              47    0.69 8  174  93 
 ZGXN    ES   0    12553.102                              47    0.51 8  174  93 
                                                                                
 2020  1 1 0126 38.3 L  36.066  52.081  7.1  New  6 0.5                        1
 GAP=224        1.22       4.2     2.9  4.6 -0.1908E+01  0.1133E+01  0.2293E+01E
 Action:ARG 22-07-04 18:17 OP:OBSP STATUS:               ID:20200101012640     I
 STAT SP IPHASW D HRMM SECON CODA AMPLIT PERI AZIMU VELO AIN AR TRES W  DIS CAZ7
 TVCN    EP   0    12643.273                             101   -0.1710 23.7  27 
 TVCN    ES   0    12647.258                             101   -0.0710 23.7  27 
 YIBA    EP   0    12652.105                              68   -0.6710 72.1 359 
 YIBA    ES   0    127 3.826                              68    0.1710 72.1 359 
 RVDG    EP   0    12654.620                              68    0.1010 81.5  63 
 RVDG    ES   0    127 7.185                              68    0.4710 81.5  63 
 EVSP    EP   0    12655.325                              68    0.7510 81.8 288 
 EVSP    ES   0    127 6.384                              68   -0.4410 81.8 288 
 XIVZ    EP   0    12657.364                              56   -0.15 9 98.3 357 
 XIVZ    ES   0    12712.531                              56    0.58 9 98.3 357 
 YAIP    EP   0    127 6.384                              47    0.21 8  156  55 
 YAIP    ES   0    12726.125                              47   -0.99 8  156  55 
                                                                                
 2020  1 1 0128 20.1 L  36.025  51.746 21.4  New  7 0.3                        1
 GAP=215        0.88       4.5     2.3  3.1  0.3889E+01 -0.2068E+01 -0.6928E+01E
 Action:ARG 22-07-04 18:17 OP:OBSP STATUS:               ID:20200101012820     I
 STAT SP IPHASW D HRMM SECON CODA AMPLIT PERI AZIMU VELO AIN AR TRES W  DIS CAZ7
 SRWZ    EP   0    12826.493                             119   -0.0810 26.1  86 
 SRWZ    ES   0    12831.546                             119    0.1010 26.1  86 
 TVCN    EP   0    12829.769                             100   -0.3110 48.3  58 
 TVCN    ES   0    12837.722                             100    0.1410 48.3  58 
 EVSP    EP   0    12831.105                              97   -0.2610 56.1 302 
 EVSP    ES   0    12839.732                              97   -0.1010 56.1 302 
 YXLK    EP   0    12835.106                              62    0.2310 77.7  45 
 YXLK    ES   0    12845.728                              62   -0.2510 77.7  45 
 XIVZ    EP   0    12839.942                              62    0.95 9  106  14 
 XIVZ    ES   0    12853.060                              62   -0.12 9  106  14 
 ZSCP    EP   0    12839.603                              62    0.49 9  106  77 
 ZSCP    ES   0    12853.118                              62   -0.26 9  106  77 
 RVDG    EP   0    12839.538                              62   -0.23 9  111  68 
 RVDG    ES   0    12854.314                              62   -0.22 9  111  68 
                                                                                
 2020  1 1 0130  0.3 L  35.772  52.177 22.4  New  9 0.9                        1
 GAP=232        2.27       9.1     6.7  7.9  0.6762E+01 -0.2061E+02  0.1475E+02E
 Action:ARG 22-07-04 18:17 OP:OBSP STATUS:               ID:20200101013000     I
 STAT SP IPHASW D HRMM SECON CODA AMPLIT PERI AZIMU VELO AIN AR TRES W  DIS CAZ7
 SRWZ    EP   0    130 8.571                             114    0.7310 32.5 337 
 SRWZ    ES   0    13015.082                             114    1.6110 32.5 337 
 TVCN    EP   0    130 9.211                             100   -2.0410 53.8   2 
 TVCN    ES   0    13018.577                             100   -0.8810 53.8   2 
 ZSCP    EP   0    13016.053                              62    0.2710 82.8  52 
 ZSCP    ES   0    13027.474                              62    0.0910 82.8  52 
 YXLK    EP   0    13016.002                              62   -0.0610 84.7  11 
 YXLK    ES   0    13027.495                              62   -0.3810 84.7  11 
 RVDG    EP   0    13016.875                              62   -0.6110 94.3  43 
 RVDG    ES   0    13031.938                              62    1.5910 94.3  43 
 EVSP    EP   0    13018.803                              62   -0.10 9  104 304 
 EVSP    ES   0    13033.320                              62    0.47 9  104 304 
 XIVZ    EP   0    13022.762                              62   -0.19 9  132 354 
 XIVZ    ES   0    13039.083                              62   -0.85 9  132 354 
 ZGXN    EP   0    13026.719                              62    0.12 8  156  72 
 ZGXN    ES   0    13046.199                              62   -0.11 8  156  72 
 YAIP    EP   0    13028.059                              62   -0.68 8  171  44 
 YAIP    ES   0    13051.137                              62    1.08 8  171  44 
                                                                                
 2020  1 1 0131 40.0 L  36.030  51.908 14.3  New  6 0.7                        1
 GAP=282        1.65       8.7     9.8  4.6  0.3676E+02 -0.6745E+01 -0.2280E+02E
 Action:ARG 22-07-04 18:17 OP:OBSP STATUS:               ID:20200101013140     I
 STAT SP IPHASW D HRMM SECON CODA AMPLIT PERI AZIMU VELO AIN AR TRES W  DIS CAZ7
 SRWZ    EP   0    13143.306                             137   -0.4310 11.6  84 
 SRWZ    ES   0    13146.360                             137   -0.1510 11.6  84 
 YXLK    EP   0    13153.894                              64    0.3510 67.8  36 
 YXLK    ES   0    132 4.798                              64    1.1310 67.8  36 
 RVDG    EP   0    13158.643                              53    0.23 9 97.3  65 
 RVDG    ES   0    13210.996                              53   -1.19 9 97.3  65 
 XIVZ    EP   0    13159.456                              53    0.25 9  103   6 
 XIVZ    ES   0    13212.439                              53   -1.15 9  103   6 
 YAIP    EP   0    132 9.999                              53    0.68 8  172  57 
 YAIP    ES   0    13231.218                              53   -0.06 8  172  57 
 ZGXN    EP   0    13210.250                              53    0.54 8  174  84 
 ZGXN    ES   0    13232.088                              53    0.12 8  174  84 
                                                                                
 2020  1 1 0133 18.8 L  36.036  51.729  5.2  New  5 0.8                        1
 GAP=223        1.92      11.7     9.1 17.1  0.4927E+01 -0.1361E+03  0.1980E+02E
 Action:ARG 22-07-04 18:17 OP:OBSP STATUS:               ID:20200101013320     I
 STAT SP IPHASW D HRMM SECON CODA AMPLIT PERI AZIMU VELO AIN AR TRES W  DIS CAZ7
 EVSP    EP   0    13329.148                              92   -0.8510 54.2 301 
 EVSP    ES   0    13338.963                              92    0.5510 54.2 301 
 YXLK    EP   0    13335.230                              68    0.7310 77.9  46 
 YXLK    ES   0    13345.835                              68   -0.4710 77.9  46 
 ZSCP    EP   0    13339.025                              56   -0.76 9  108  78 
 ZSCP    ES   0    13356.499                              56    0.95 9  108  78 
 RVDG    EP   0    13339.902                              47   -0.50 9  112  69 
 RVDG    ES   0    13356.258                              47   -0.37 9  112  69 
 YAIP    EP   0    13352.905                              47    1.77 7  185  60 
 YAIP    ES   0    13414.747                              47   -0.66 7  185  60 
                                                                                
 2020  1 1 0135  0.5 L  35.828  52.223  1.5  New  9 0.6                        1
 GAP=250        1.44       5.4     4.6  7.2  0.1415E+02 -0.1705E+02 -0.1712E+02E
 Action:ARG 22-07-04 18:17 OP:OBSP STATUS:               ID:20200101013500     I
 STAT SP IPHASW D HRMM SECON CODA AMPLIT PERI AZIMU VELO AIN AR TRES W  DIS CAZ7
 SRWZ    EP   0    135 6.190                              64   -0.7010 29.0 324 
 SRWZ    ES   0    13512.214                              64    0.4910 29.0 324 
 TVCN    EP   0    13510.542                              64   -0.0510 47.5 358 
 TVCN    ES   0    13518.700                              64    0.5010 47.5 358 
 ZSCP    EP   0    13515.370                              56   -0.8110 75.7  54 
 ZSCP    ES   0    13527.455                              56   -0.5210 75.7  54 
 YXLK    EP   0    13517.124                              56    0.5510 77.8   9 
 YXLK    ES   0    13527.985                              56   -0.6810 77.8   9 
 RVDG    EP   0    13519.341                              56    1.0910 86.9  44 
 RVDG    ES   0    13532.115                              56    0.5110 86.9  44 
 YIBA    EP   0    13519.952                              56   -0.62 9 99.4 352 
 YIBA    ES   0    13535.350                              56   -0.32 9 99.4 352 
 XIVZ    EP   0    13524.916                              41    0.19 9  126 352 
 XIVZ    ES   0    13543.024                              41    0.09 9  126 352 
 ZGXN    EP   0    13528.203                              41   -0.16 8  151  74 
 ZGXN    ES   0    13549.571                              41    0.28 8  151  74 
 YAIP    EP   0    13531.036                              41    0.77 8  164  45 
 YAIP    ES   0    13552.235                              41   -0.39 8  164  45 
                                                                                
 2020  1 1 0136 41.2 L  35.727  52.059 16.1  New  5 0.5                        1
 GAP=238        1.20      10.5     4.1 13.9  0.1163E+02 -0.1587E+02 -0.9940E+02E
 Action:ARG 22-07-04 18:17 OP:OBSP STATUS:               ID:20200101013640     I
 STAT SP IPHASW D HRMM SECON CODA AMPLIT PERI AZIMU VELO AIN AR TRES W  DIS CAZ7
 YXLK    EP   0    13658.511                              53   -0.1210 92.1  17 
 YXLK    ES   0    13712.006                              53    0.3310 92.1  17 
 ZSCP    EP   0    13659.847                              53    0.8910 94.3  53 
 ZSCP    ES   0    13712.053                              53   -0.1910 94.3  53 
 EVSP    EP   0    13658.825                              53   -0.7510 98.4 310 
 EVSP    ES   0    13713.708                              53    0.3910 98.4 310 
 ZGXN    EP   0    13710.133                              53    0.33 8  168  72 
 ZGXN    ES   0    13731.177                              53   -0.04 8  168  72 
 YAIP    EP   0    13711.440                              53   -0.41 8  182  46 
 YAIP    ES   0    13734.009                              53   -0.79 8  182  46 
                                                                                
 2020  1 1 0138 20.1 L  35.665  52.007 12.8  New  9 0.7                        1
 GAP=244        1.73       6.4     5.7  5.5  0.4951E+01 -0.1470E+01  0.1068E+02E
 Action:ARG 22-07-04 18:17 OP:OBSP STATUS:               ID:20200101013820     I
 STAT SP IPHASW D HRMM SECON CODA AMPLIT PERI AZIMU VELO AIN AR TRES W  DIS CAZ7
 SRWZ    EP   0    13828.570                              97   -0.2310 41.8   3 
 SRWZ    ES   0    13835.141                              97   -0.2010 41.8   3 
 TVCN    EP   0    13832.575                              93   -1.0510 67.9  15 
 TVCN    ES   0    13844.737                              93    0.9610 67.9  15 
 EVSP    EP   0    13838.940                              53   -0.01 9 99.6 314 
 EVSP    ES   0    13853.326                              53    0.22 9 99.6 314 
 YXLK    EP   0    13839.263                              53    0.24 9  100  18 
 YXLK    ES   0    13852.518                              53   -0.72 9  100  18 
 ZSCP    EP   0    13839.961                              53    0.62 9  102  52 
 ZSCP    ES   0    13853.779                              53   -0.00 9  102  52 
 YIBA    EP   0    13841.440                              53   -0.03 9  117   3 
 YIBA    ES   0    13856.375                              53   -1.14 9  117   3 
 XIVZ    EP   0    13844.948                              53   -0.35 8  143   1 
 XIVZ    ES   0    139 5.434                              53    1.22 8  143   1 
 ZGXN    EP   0    13849.993                              53   -0.01 8  175  70 
 ZGXN    ES   0    13911.395                              53   -1.04 8  175  70 
 YAIP    EP   0    13853.834                              53    1.57 7  190  45 
 YAIP    ES   0    13917.038                              53    0.63 7  190  45 
                                                                                
