 2020  1 1 0041 39.8 L  36.161  52.017  6.4  New 10 1.0                        1
 GAP=108        2.66       4.2     4.8  7.1 -0.1544E+01  0.1224E+01 -0.1063E+02E
 Action:ARG 22-07-04 18:17 OP:OBSP STATUS:               ID:20200101004140     I
 STAT SP IPHASW D HRMM SECON CODA AMPLIT PERI AZIMU VELO AIN AR TRES W  DIS CAZ7
 SRWZ    EP   0    04142.466                             109   -0.5110 13.4 173 
 SRWZ    ES   0    04145.764                             109    0.4210 13.4 173 
 TVCN    EP   0    04144.527                             101    0.3510 19.6  57 
 TVCN    ES   0    04146.968                             101   -0.4810 19.6  57 
 YXLK    EP   0    04151.178                              93    0.9010 50.3  37 
 YXLK    ES   0    04158.660                              93    0.5410 50.3  37 
 YIBA    EP   0    04150.479                              68   -1.9910 61.7   4 
 YIBA    ES   0    042 2.457                              68    0.5010 61.7   4 
 EVSP    EP   0    04153.117                              68   -1.5510 73.6 281 
 EVSP    ES   0    042 6.951                              68    1.1510 73.6 281 
 ZSCP    EP   0    04157.236                              68    1.4010 79.9  84 
 ZSCP    ES   0    042 8.483                              68    0.6310 79.9  84 
 RVDG    EP   0    04156.152                              68   -0.2210 82.8  72 
 RVDG    ES   0    042 7.063                              68   -1.7310 82.8  72 
 XIVZ    EP   0    04158.086                              68    0.8110 87.7   0 
 XIVZ    ES   0    04210.600                              68    0.2410 87.7   0 
 YAIP    EP   0    042 6.764                              47   -0.94 8  156  59 
 YAIP    ES   0    04228.203                              47   -0.42 8  156  59 
 ZGXN    EP   0    042 7.813                              47   -1.05 8  163  88 
 ZGXN    ES   0    04232.457                              47    1.81 8  163  88 
                                                                                
 2020  1 1 0043 20.0 L  35.925  52.060 15.7  New  8 0.8                        1
 GAP=219        1.91       7.0     4.8  4.3  0.1025E+01 -0.4477E+01  0.7787E+01E
 Action:ARG 22-07-04 18:17 OP:OBSP STATUS:               ID:20200101004320     I
 STAT SP IPHASW D HRMM SECON CODA AMPLIT PERI AZIMU VELO AIN AR TRES W  DIS CAZ7
 SRWZ    EP   0    04325.018                             137    0.9110 13.0 350 
 SRWZ    ES   0    04326.089                             137   -1.0710 13.0 350 
 TVCN    EP   0    04328.542                             105    0.2210 38.8  19 
 TVCN    ES   0    04335.110                             105    0.5810 38.8  19 
 YXLK    EP   0    04333.692                              64   -0.3110 71.3  22 
 YXLK    ES   0    04344.459                              64   -0.0210 71.3  22 
 ZSCP    EP   0    04335.834                              64   -0.1210 83.0  66 
 ZSCP    ES   0    04349.333                              64    1.4310 83.0  66 
 EVSP    EP   0    04336.481                              64   -0.0110 86.2 298 
 EVSP    ES   0    04349.740                              64    0.9110 86.2 298 
 XIVZ    EP   0    04339.862                              53   -0.82 9  114 358 
 XIVZ    ES   0    04355.751                              53   -0.41 9  114 358 
 ZGXN    EP   0    04346.389                              53   -1.42 8  162  79 
 ZGXN    ES   0    044 9.147                              53    0.50 8  162  79 
 YAIP    EP   0    04348.196                              53   -0.33 8  167  51 
 YAIP    ES   0    044 8.882                              53   -1.01 8  167  51 
                                                                                
 2020  1 1 0045  1.5 L  35.992  51.769  6.0  New 10 1.1                        1
 GAP=221        2.64       8.4     5.5  7.5  0.9321E+01  0.4796E+01 -0.5825E+01E
 Action:ARG 22-07-04 18:17 OP:OBSP STATUS:               ID:20200101004500     I
 STAT SP IPHASW D HRMM SECON CODA AMPLIT PERI AZIMU VELO AIN AR TRES W  DIS CAZ7
 SRWZ    EP   0    045 6.889                              97    0.0610 24.6  77 
 SRWZ    ES   0    04510.636                              97   -0.1910 24.6  77 
 TVCN    EP   0    04512.446                              93    0.8210 48.6  53 
 TVCN    ES   0    04519.903                              93    0.6810 48.6  53 
 EVSP    EP   0    04512.582                              68   -1.2510 59.8 304 
 EVSP    ES   0    04523.813                              68    0.7410 59.8 304 
 YXLK    EP   0    04515.658                              68   -1.7110 78.9  42 
 YXLK    ES   0    04528.401                              68   -0.8610 78.9  42 
 YIBA    EP   0    04519.813                              68    1.3910 84.6  18 
 YIBA    ES   0    04530.228                              68   -0.8910 84.6  18 
 ZSCP    EP   0    04522.207                              56    0.16 9  105  75 
 ZSCP    ES   0    04538.222                              56    0.77 9  105  75 
 XIVZ    EP   0    04521.108                              47   -1.47 9  109  12 
 XIVZ    ES   0    04540.513                              47    2.12 9  109  12 
 RVDG    EP   0    04523.158                              47    0.33 9  110  66 
 RVDG    ES   0    04537.355                              47   -1.46 9  110  66 
 YAIP    EP   0    04533.385                              47   -0.30 7  184  58 
 YAIP    ES   0    04557.964                              47    0.14 7  184  58 
 ZGXN    EP   0    04535.734                              47    1.64 7  187  83 
 ZGXN    ES   0    04558.522                              47   -0.02 7  187  83 
                                                                                
 2020  1 1 0046 39.4 L  36.126  51.908  8.0  New 10 1.2                        1
 GAP=157        2.99       6.6     5.7  7.9  0.5022E+01  0.1760E+01 -0.2555E+02E
 Action:ARG 22-07-04 18:17 OP:OBSP STATUS:               ID:20200101004640     I
 STAT SP IPHASW D HRMM SECON CODA AMPLIT PERI AZIMU VELO AIN AR TRES W  DIS CAZ7
 SRWZ    EP   0    04641.863                             114   -1.1310 14.9 130 
 SRWZ    ES   0    04646.815                             114    1.1610 14.9 130 
 TVCN    EP   0    04645.028                             100   -0.8710 30.0  61 
 TVCN    ES   0    04649.416                             100   -1.3410 30.0  61 
 YXLK    EP   0    04654.240                              68    2.6810 59.5  42 
 YXLK    ES   0    047 0.401                              68   -0.2510 59.5  42 
 EVSP    EP   0    04652.107                              68   -0.4610 65.0 286 
 EVSP    ES   0    047 1.581                              68   -0.8310 65.0 286 
 YIBA    EP   0    04654.391                              68    1.4510 67.0  12 
 YIBA    ES   0    047 2.557                              68   -0.5110 67.0  12 
 ZSCP    EP   0    04658.691                              68    1.4610 90.1  82 
 ZSCP    ES   0    04710.679                              68    0.1110 90.1  82 
 XIVZ    EP   0    04657.545                              56   -0.0110 92.1   6 
 XIVZ    ES   0    04711.402                              56    0.2610 92.1   6 
 RVDG    EP   0    04657.130                              56   -0.6410 93.4  71 
 RVDG    ES   0    04710.219                              56   -1.3010 93.4  71 
 YAIP    EP   0    047 9.471                              47    0.82 8  166  60 
 YAIP    ES   0    04732.017                              47    1.46 8  166  60 
 ZGXN    EP   0    047 9.878                              47    0.14 8  173  87 
 ZGXN    ES   0    04730.218                              47   -2.24 8  173  87 
                                                                                
 2020  1 1 0048 19.7 L  36.182  52.172 17.9  New  5 0.5                        1
 GAP=208        1.30       4.7     3.5  3.0 -0.1114E+01  0.1663E+01 -0.2484E+01E
 Action:ARG 22-07-04 18:17 OP:OBSP STATUS:               ID:20200101004820     I
 STAT SP IPHASW D HRMM SECON CODA AMPLIT PERI AZIMU VELO AIN AR TRES W  DIS CAZ7
 TVCN    EP   0    04823.864                             152    0.1710 8.67  17 
 TVCN    ES   0    04826.619                             152   -0.0410 8.67  17 
 YIBA    EP   0    04830.986                              64   -0.6610 60.0 351 
 YIBA    ES   0    04839.733                              64   -0.8410 60.0 351 
 RVDG    EP   0    04832.915                              64   -0.2110 68.9  70 
 RVDG    ES   0    04843.369                              64    0.2110 68.9  70 
 XIVZ    EP   0    04836.523                              64    0.4710 86.4 351 
 XIVZ    ES   0    04849.224                              64    0.9410 86.4 351 
 EVSP    EP   0    04836.006                              64   -0.1510 87.0 278 
 EVSP    ES   0    04848.645                              64    0.1910 87.0 278 
                                                                                
 2020  1 1 0049 59.8 L  36.207  52.049  7.5  New  9 1.0                        1
 GAP= 94        2.57       4.4     4.6  6.3 -0.4283E+01  0.1590E+01 -0.7353E+01E
 Action:ARG 22-07-04 18:17 OP:OBSP STATUS:               ID:20200101005000     I
 STAT SP IPHASW D HRMM SECON CODA AMPLIT PERI AZIMU VELO AIN AR TRES W  DIS CAZ7
 TVCN    EP   0    050 4.108                             112    0.8510 14.7  68 
 TVCN    ES   0    050 5.351                             112   -0.5210 14.7  68 
 SRWZ    EP   0    050 2.941                             107   -1.0310 18.4 184 
 SRWZ    ES   0    050 8.410                             107    1.3010 18.4 184 
 YXLK    EP   0    050 8.219                              96   -0.8810 44.5  38 
 YXLK    ES   0    05016.438                              96    0.3510 44.5  38 
 YIBA    EP   0    05012.015                              68    0.6410 56.5   2 
 YIBA    ES   0    05020.143                              68    0.0710 56.5   2 
 EVSP    EP   0    05014.611                              68   -0.3110 75.6 277 
 EVSP    ES   0    05026.783                              68    0.5110 75.6 277 
 ZSCP    EP   0    05014.229                              68   -0.8910 76.7  88 
 ZSCP    ES   0    05027.251                              68    0.6410 76.7  88 
 RVDG    EP   0    05015.771                              68    0.3010 78.6  75 
 RVDG    ES   0    05028.150                              68    0.9110 78.6  75 
 YAIP    EP   0    05024.140                              47   -2.64 8  150  61 
 YAIP    ES   0    05048.951                              47    1.93 8  150  61 
 ZGXN    EP   0    05026.973                              47   -1.27 8  160  90 
 ZGXN    ES   0    05048.620                              47   -0.96 8  160  90 
                                                                                
 2020  1 1 0051 40.5 L  36.311  51.853  7.1  New  9 1.1                        1
 GAP=117        2.81       5.4     5.1  8.1 -0.4703E-01  0.3785E+01 -0.1450E+02E
 Action:ARG 22-07-04 18:17 OP:OBSP STATUS:               ID:20200101005140     I
 STAT SP IPHASW D HRMM SECON CODA AMPLIT PERI AZIMU VELO AIN AR TRES W  DIS CAZ7
 TVCN    EP   0    05146.735                              97   -0.5610 31.8 101 
 TVCN    ES   0    05152.341                              97   -0.0510 31.8 101 
 SRWZ    EP   0    05148.337                              97    0.5810 34.2 151 
 SRWZ    ES   0    05151.823                              97   -1.3810 34.2 151 
 YXLK    EP   0    05151.140                              94    0.0610 50.8  63 
 YXLK    ES   0    05159.853                              94    0.8410 50.8  63 
 EVSP    EP   0    05152.400                              68    0.0910 57.4 268 
 EVSP    ES   0    052 1.519                              68    0.3610 57.4 268 
 XIVZ    EP   0    05153.435                              68   -1.6910 72.7  12 
 XIVZ    ES   0    052 5.375                              68   -0.7110 72.7  12 
 RVDG    EP   0    052 0.548                              56    1.5310 93.9  84 
 RVDG    ES   0    05213.100                              56    0.2010 93.9  84 
 ZSCP    EP   0    052 1.909                              56    2.7710 94.6  95 
 ZSCP    ES   0    05212.744                              56   -0.3710 94.6  95 
 YAIP    EP   0    05210.016                              47    0.88 8  161  67 
 YAIP    ES   0    05230.507                              47   -0.11 8  161  67 
 ZGXN    EP   0    05210.434                              47   -1.23 8  178  94 
 ZGXN    ES   0    05233.161                              47   -1.88 8  178  94 
                                                                                
 2020  1 1 0053 20.6 L  35.931  52.013 14.5  New  5 0.9                        1
 GAP=281        2.11      11.4    12.6  5.5  0.8422E+02 -0.2403E+02 -0.9305E+01E
 Action:ARG 22-07-04 18:17 OP:OBSP STATUS:               ID:20200101005320     I
 STAT SP IPHASW D HRMM SECON CODA AMPLIT PERI AZIMU VELO AIN AR TRES W  DIS CAZ7
 SRWZ    EP   0    05325.759                             136    1.3510 12.3   9 
 SRWZ    ES   0    05326.606                             136   -0.6810 12.3   9 
 YIBA    EP   0    05335.639                              64   -1.6610 87.2   3 
 YIBA    ES   0    05349.719                              64   -0.1210 87.2   3 
 RVDG    EP   0    05338.928                              64    0.4510 94.3  57 
 RVDG    ES   0    05352.138                              64    0.2410 94.3  57 
 XIVZ    EP   0    05341.739                              53    0.48 9  113   0 
 XIVZ    ES   0    05357.513                              53    0.75 9  113   0 
 ZGXN    EP   0    05348.072                              53   -1.01 8  166  80 
 ZGXN    ES   0    05410.403                              53   -0.05 8  166  80 
                                                                                
 2020  1 1 0055  0.9 L  36.013  52.133 10.0  New  5 0.8                        1
 GAP=208        1.99       7.0     5.7 13.6 -0.3332E+01 -0.1836E+02  0.2715E+02E
 Action:ARG 22-07-04 18:17 OP:OBSP STATUS:               ID:20200101005500     I
 STAT SP IPHASW D HRMM SECON CODA AMPLIT PERI AZIMU VELO AIN AR TRES W  DIS CAZ7
 YXLK    EP   0    05511.294                              68   -1.6210 59.9  20 
 YXLK    ES   0    05522.597                              68    0.6610 59.9  20 
 YIBA    EP   0    05516.130                              68   -0.1710 78.2 356 
 YIBA    ES   0    05528.305                              68    0.4310 78.2 356 
 EVSP    EP   0    05518.241                              56    0.1210 88.2 291 
 EVSP    ES   0    05530.941                              56   -0.1110 88.2 291 
 ZGXN    EP   0    05529.754                              47    1.65 8  154  82 
 ZGXN    ES   0    05547.966                              47   -0.56 8  154  82 
 YAIP    EP   0    05528.908                              47    0.54 8  156  52 
 YAIP    ES   0    05548.399                              47   -0.58 8  156  52 
                                                                                
 2020  1 1 0056 39.7 L  36.336  52.248  9.1  New  9 1.0                        1
 GAP=110        2.65       3.8     5.0  5.3 -0.3735E+01 -0.2420E+01 -0.2913E+01E
 Action:ARG 22-07-04 18:17 OP:OBSP STATUS:               ID:20200101005640     I
 STAT SP IPHASW D HRMM SECON CODA AMPLIT PERI AZIMU VELO AIN AR TRES W  DIS CAZ7
 TVCN    EP   0    05641.724                             130   -0.7810 9.79 206 
 TVCN    ES   0    05644.985                             130    0.3810 9.79 206 
 YXLK    EP   0    05642.808                             108   -1.9910 22.7  25 
 YXLK    ES   0    05649.673                             108    1.0410 22.7  25 
 SRWZ    EP   0    05647.952                              68    0.2310 37.9 210 
 SRWZ    ES   0    05653.031                              68   -0.7210 37.9 210 
 YIBA    EP   0    05650.518                              68    1.4610 45.1 339 
 YIBA    ES   0    05654.234                              68   -1.8510 45.1 339 
 RVDG    EP   0    05651.853                              68    0.3610 58.3  84 
 RVDG    ES   0    057 0.532                              68    0.1810 58.3  84 
 XIVZ    EP   0    05653.589                              68   -0.2910 71.1 344 
 XIVZ    ES   0    057 5.620                              68    1.1010 71.1 344 
 EVSP    EP   0    05659.219                              56    1.3810 93.0 267 
 EVSP    ES   0    05711.284                              56   -0.1610 93.0 267 
 YAIP    EP   0    057 2.528                              47   -0.63 9  128  62 
 YAIP    ES   0    05719.763                              47   -0.98 9  128  62 
 ZGXN    EP   0    057 6.671                              47    1.26 8  143  96 
 ZGXN    ES   0    05724.855                              47    0.15 8  143  96 
                                                                                
 2020  1 1 0058 19.7 L  35.678  52.469  7.4  New  9 0.7                        1
 GAP=236        1.81       6.9     4.4  8.5 -0.2050E+01  0.2476E+01 -0.1307E+02E
 Action:ARG 22-07-04 18:17 OP:OBSP STATUS:               ID:20200101005820     I
 STAT SP IPHASW D HRMM SECON CODA AMPLIT PERI AZIMU VELO AIN AR TRES W  DIS CAZ7
 SRWZ    EP   0    05831.809                              68    0.5510 56.2 316 
 SRWZ    ES   0    05839.226                              68   -0.6910 56.2 316 
 ZSCP    EP   0    05834.319                              68    0.0210 72.7  32 
 ZSCP    ES   0    05844.310                              68   -0.9410 72.7  32 
 RVDG    EP   0    05837.874                              68    0.7510 87.9  26 
 RVDG    ES   0    05850.037                              68   -0.1610 87.9  26 
 YXLK    EP   0    05838.120                              56   -0.1010 94.1 354 
 YXLK    ES   0    05851.815                              56   -0.3010 94.1 354 
 YIBA    EP   0    05843.282                              47    0.95 9  121 343 
 YIBA    ES   0    059 0.729                              47    1.41 9  121 343 
 EVSP    EP   0    05844.044                              47    0.04 9  132 301 
 EVSP    ES   0    059 0.695                              47   -1.53 9  132 301 
 ZGXN    EP   0    05843.502                              47   -1.01 9  135  65 
 ZGXN    ES   0    059 3.499                              47    0.37 9  135  65 
 XIVZ    EP   0    05846.790                              47    0.61 8  147 344 
 XIVZ    ES   0    059 6.692                              47    0.64 8  147 344 
 YAIP    EP   0    05847.762                              47   -0.64 8  162  35 
 YAIP    ES   0    05910.127                              47    0.20 8  162  35 
                                                                                
