 2020  1 1 0001 39.6 L  35.872  52.340  4.7  New  8 1.0                        1
 GAP=220        2.48       8.5     5.1  9.6  0.1216E+00 -0.1735E+02 -0.4378E+00E
 Action:ARG 22-07-04 18:17 OP:OBSP STATUS:               ID:20200101000140     I
 STAT SP IPHASW D HRMM SECON CODA AMPLIT PERI AZIMU VELO AIN AR TRES W  DIS CAZ7
 SRWZ    EP   0    0 148.418                              92    1.7510 33.3 304 
 SRWZ    ES   0    0 150.337                              92   -1.6210 33.3 304 
 ZSCP    EP   0    0 153.004                              91    0.1310 64.3  52 
 ZSCP    ES   0    0 2 3.107                              91    0.2910 64.3  52 
 YXLK    EP   0    0 153.157                              68   -1.1510 72.1   1 
 YXLK    ES   0    0 2 5.388                              68    0.0610 72.1   1 
 RVDG    EP   0    0 153.844                              68   -1.2210 76.2  41 
 RVDG    ES   0    0 2 8.188                              68    1.5310 76.2  41 
 YIBA    EP   0    0 159.733                              56    0.87 9 96.8 345 
 YIBA    ES   0    0 212.891                              56   -0.42 9 96.8 345 
 EVSP    EP   0    0 2 1.933                              47    0.67 9  112 295 
 EVSP    ES   0    0 218.056                              47    0.55 9  112 295 
 ZGXN    EP   0    0 2 4.615                              47   -0.69 8  139  75 
 ZGXN    ES   0    0 223.532                              47   -1.05 8  139  75 
 YAIP    EP   0    0 2 7.504                              47    0.19 8  153  43 
 YAIP    ES   0    0 227.977                              47   -0.11 8  153  43 
                                                                                
 2020  1 1 0003 19.9 L  35.751  51.966 13.9  New  6 0.6                        1
 GAP=292        1.47       6.5     9.6  6.6  0.1645E+02 -0.1895E+02  0.7856E+01E
 Action:ARG 22-07-04 18:17 OP:OBSP STATUS:               ID:20200101000320     I
 STAT SP IPHASW D HRMM SECON CODA AMPLIT PERI AZIMU VELO AIN AR TRES W  DIS CAZ7
 TVCN    EP   0    0 331.341                              96   -0.6610 59.9  21 
 TVCN    ES   0    0 341.704                              96    0.6510 59.9  21 
 YXLK    EP   0    0 337.343                              64   -0.2010 92.4  22 
 YXLK    ES   0    0 350.069                              64   -0.6910 92.4  22 
 ZSCP    EP   0    0 337.900                              53   -0.78 9 99.7  57 
 ZSCP    ES   0    0 352.591                              53   -0.15 9 99.7  57 
 YIBA    EP   0    0 339.764                              53   -0.05 9  107   5 
 YIBA    ES   0    0 355.204                              53    0.47 9  107   5 
 ZGXN    EP   0    0 350.917                              53    1.13 8  175  73 
 ZGXN    ES   0    0 412.087                              53   -0.09 8  175  73 
 YAIP    EP   0    0 352.600                              53    1.20 7  186  48 
 YAIP    ES   0    0 415.067                              53    0.05 7  186  48 
                                                                                
 2020  1 1 0004 58.7 L  35.395  52.117 48.0  New  5 0.8                        1
 GAP=297        1.81      13.3    13.9  8.3  0.6211E+02  0.1776E+02  0.3298E+02E
 Action:ARG 22-07-04 18:17 OP:OBSP STATUS:               ID:20200101000500     I
 STAT SP IPHASW D HRMM SECON CODA AMPLIT PERI AZIMU VELO AIN AR TRES W  DIS CAZ7
 TVCN    EP   0    0 515.807                             109   -0.5410 95.9   4 
 TVCN    ES   0    0 529.796                             109    0.2110 95.9   4 
 RVDG    EP   0    0 521.847                             103    0.53 9  131  32 
 RVDG    ES   0    0 538.113                             103   -0.17 9  131  32 
 YIBA    EP   0    0 523.821                              57    0.32 9  147 358 
 YIBA    ES   0    0 540.433                              57   -1.69 9  147 358 
 XIVZ    EP   0    0 526.572                              57   -0.18 8  173 357 
 XIVZ    ES   0    0 549.693                              57    1.90 8  173 357 
 ZGXN    EP   0    0 527.398                              57   -0.03 8  178  60 
 ZGXN    ES   0    0 548.933                              57   -0.05 8  178  60 
                                                                                
 2020  1 1 0006 40.8 L  35.867  52.404  8.2  New  6 0.6                        1
 GAP=252        1.53       6.1     5.5  6.0 -0.4288E+01 -0.1493E+02 -0.3616E+01E
 Action:ARG 22-07-04 18:17 OP:OBSP STATUS:               ID:20200101000640     I
 STAT SP IPHASW D HRMM SECON CODA AMPLIT PERI AZIMU VELO AIN AR TRES W  DIS CAZ7
 SRWZ    EP   0    0 649.503                              98    0.5610 38.5 300 
 SRWZ    ES   0    0 654.624                              98   -0.4210 38.5 300 
 TVCN    EP   0    0 650.152                              68   -0.4210 46.9 337 
 TVCN    ES   0    0 657.958                              68    0.0610 46.9 337 
 YXLK    EP   0    0 654.946                              68   -0.4010 72.7 357 
 YXLK    ES   0    0 7 6.362                              68    0.1110 72.7 357 
 EVSP    EP   0    0 7 1.994                              47   -0.79 9  117 294 
 EVSP    ES   0    0 719.296                              47    0.03 9  117 294 
 XIVZ    EP   0    0 7 5.566                              47    1.61 9  125 344 
 XIVZ    ES   0    0 721.575                              47    0.25 9  125 344 
 YAIP    EP   0    0 7 7.839                              47    0.34 8  149  42 
 YAIP    ES   0    0 726.715                              47   -0.81 8  149  42 
                                                                                
 2020  1 1 0008 20.8 L  35.985  52.062 10.0  New  6 0.8                        1
 GAP=288        2.14      10.0     8.7 13.7  0.4507E+02 -0.2017E+02 -0.5308E+02E
 Action:ARG 22-07-04 18:17 OP:OBSP STATUS:               ID:20200101000820     I
 STAT SP IPHASW D HRMM SECON CODA AMPLIT PERI AZIMU VELO AIN AR TRES W  DIS CAZ7
 YXLK    EP   0    0 832.894                              68   -0.8810 65.1  24 
 YXLK    ES   0    0 843.754                              68    0.2410 65.1  24 
 ZSCP    EP   0    0 836.404                              68   -0.1910 80.3  70 
 ZSCP    ES   0    0 850.056                              68    1.6010 80.3  70 
 YIBA    EP   0    0 838.189                              68    1.4610 81.0   0 
 YIBA    ES   0    0 848.217                              68   -0.4710 81.0   0 
 RVDG    EP   0    0 837.273                              56   -0.6010 87.3  59 
 RVDG    ES   0    0 849.410                              56   -1.2910 87.3  59 
 XIVZ    EP   0    0 840.918                              47   -0.16 9  107 358 
 XIVZ    ES   0    0 856.640                              47    0.34 9  107 358 
 YAIP    EP   0    0 849.463                              47    0.19 8  163  53 
 YAIP    ES   0    0 910.350                              47   -0.30 8  163  53 
                                                                                
 2020  1 1 0009 59.8 L  35.551  52.321  7.1  New  9 1.0                        1
 GAP=248        2.23      11.2     7.0 12.8  0.2576E+02 -0.2961E+02 -0.7318E+02E
 Action:ARG 22-07-04 18:17 OP:OBSP STATUS:               ID:20200101001000     I
 STAT SP IPHASW D HRMM SECON CODA AMPLIT PERI AZIMU VELO AIN AR TRES W  DIS CAZ7
 SRWZ    EP   0    01011.501                              68   -0.5710 60.2 335 
 SRWZ    ES   0    01020.798                              68   -0.5110 60.2 335 
 ZSCP    EP   0    01017.873                              56   -0.0610 91.8  35 
 ZSCP    ES   0    01032.892                              56    1.3210 91.8  35 
 RVDG    EP   0    01019.643                              47   -0.73 9  107  29 
 RVDG    ES   0    01035.653                              47   -0.18 9  107  29 
 YXLK    EP   0    01021.062                              47    0.53 9  108   2 
 YXLK    ES   0    01034.957                              47   -1.16 9  108   2 
 EVSP    EP   0    01025.272                              47    1.58 9  129 310 
 EVSP    ES   0    01041.270                              47   -0.37 9  129 310 
 YIBA    EP   0    01023.894                              47   -0.10 9  131 350 
 YIBA    ES   0    01041.379                              47   -0.79 9  131 350 
 ZGXN    EP   0    01026.667                              47   -0.65 8  154  62 
 ZGXN    ES   0    01047.577                              47   -0.41 8  154  62 
 XIVZ    EP   0    01029.555                              47    1.68 8  158 350 
 XIVZ    ES   0    01050.538                              47    1.57 8  158 350 
 YAIP    EP   0    01029.721                              47   -1.62 8  181  36 
 YAIP    ES   0    01055.905                              47    0.88 8  181  36 
                                                                                
 2020  1 1 0011 38.9 L  35.880  51.941 12.6  New  9 0.9                        1
 GAP=239        2.37       8.7     6.1  6.5 -0.8070E+00  0.2189E+01  0.1094E+02E
 Action:ARG 22-07-04 18:17 OP:OBSP STATUS:               ID:20200101001140     I
 STAT SP IPHASW D HRMM SECON CODA AMPLIT PERI AZIMU VELO AIN AR TRES W  DIS CAZ7
 SRWZ    EP   0    01143.798                             114    0.1310 19.8  25 
 SRWZ    ES   0    01147.853                             114    0.6110 19.8  25 
 TVCN    EP   0    01149.160                              95    0.4110 47.9  29 
 TVCN    ES   0    01154.911                              95   -1.2110 47.9  29 
 EVSP    EP   0    01152.255                              64   -2.2710 79.7 305 
 EVSP    ES   0    012 7.578                              64    1.3410 79.7 305 
 YXLK    EP   0    01154.802                              64    0.1610 80.4  28 
 YXLK    ES   0    012 6.212                              64   -0.2410 80.4  28 
 YIBA    EP   0    01157.081                              64    0.2610 93.5   7 
 YIBA    ES   0    01210.244                              64   -0.0210 93.5   7 
 ZSCP    EP   0    01157.483                              64    0.4210 94.9  66 
 ZSCP    ES   0    01211.246                              64    0.5710 94.9  66 
 RVDG    EP   0    01157.570                              53   -0.72 9  103  56 
 RVDG    ES   0    01212.649                              53   -0.17 9  103  56 
 XIVZ    EP   0    012 0.334                              53   -0.34 9  119   4 
 XIVZ    ES   0    01217.532                              53    0.53 9  119   4 
 YAIP    EP   0    01211.647                              53    2.19 8  179  52 
 YAIP    ES   0    01231.127                              53   -1.24 8  179  52 
                                                                                
 2020  1 1 0013 19.0 L  35.700  52.218 22.4  New  7 0.7                        1
 GAP=260        1.72       8.6     5.8  7.4 -0.3040E+01 -0.1737E+02  0.1990E+02E
 Action:ARG 22-07-04 18:17 OP:OBSP STATUS:               ID:20200101001320     I
 STAT SP IPHASW D HRMM SECON CODA AMPLIT PERI AZIMU VELO AIN AR TRES W  DIS CAZ7
 SRWZ    EP   0    01327.713                             106   -0.1610 41.3 336 
 SRWZ    ES   0    01333.969                             106   -0.5810 41.3 336 
 TVCN    EP   0    01332.592                              98    1.3710 61.8 359 
 TVCN    ES   0    01340.391                              98   -0.0110 61.8 359 
 ZSCP    EP   0    01334.529                              62   -0.2710 85.2  46 
 ZSCP    ES   0    01346.926                              62    0.2610 85.2  46 
 RVDG    EP   0    01337.315                              62    0.64 9 97.9  38 
 RVDG    ES   0    01350.555                              62    0.61 9 97.9  38 
 EVSP    EP   0    01338.219                              62   -0.48 9  112 306 
 EVSP    ES   0    01354.125                              62    0.64 9  112 306 
 XIVZ    EP   0    01342.672                              62   -0.17 8  140 353 
 XIVZ    ES   0    014 0.287                              62   -0.46 8  140 353 
 YAIP    EP   0    01346.222                              62   -1.66 8  174  42 
 YAIP    ES   0    014 8.810                              62   -0.74 8  174  42 
                                                                                
 2020  1 1 0015  0.1 L  35.767  51.907 12.7  New  6 0.4                        1
 GAP=239        1.09       5.1     3.2  4.7  0.2852E+01 -0.1230E+01  0.6376E+01E
 Action:ARG 22-07-04 18:17 OP:OBSP STATUS:               ID:20200101001500     I
 STAT SP IPHASW D HRMM SECON CODA AMPLIT PERI AZIMU VELO AIN AR TRES W  DIS CAZ7
 TVCN    EP   0    01511.978                              94   -0.2310 60.4  26 
 TVCN    ES   0    01521.549                              94    0.2410 60.4  26 
 EVSP    EP   0    01516.509                              64   -0.0810 85.2 313 
 EVSP    ES   0    01529.250                              64    0.2710 85.2 313 
 ZSCP    EP   0    01519.745                              53    0.25 9  103  60 
 ZSCP    ES   0    01533.864                              53   -0.20 9  103  60 
 YIBA    EP   0    01518.770                              53   -1.15 9  106   8 
 YIBA    ES   0    01535.142                              53    0.33 9  106   8 
 RVDG    EP   0    01521.326                              53    0.46 9  113  52 
 RVDG    ES   0    01536.118                              53   -0.35 9  113  52 
 ZGXN    EP   0    01531.256                              53    0.51 8  180  74 
 ZGXN    ES   0    01553.947                              53    0.19 8  180  74 
                                                                                
 2020  1 1 0016 40.2 L  36.111  52.045  2.8  New  8 0.9                        1
 GAP=199        2.31       6.1     4.6 11.0 -0.1167E+01 -0.1187E+02  0.9602E+01E
 Action:ARG 22-07-04 18:17 OP:OBSP STATUS:               ID:20200101001640     I
 STAT SP IPHASW D HRMM SECON CODA AMPLIT PERI AZIMU VELO AIN AR TRES W  DIS CAZ7
 TVCN    EP   0    01643.477                              64   -1.4610 21.4  41 
 TVCN    ES   0    01648.713                              64    0.1910 21.4  41 
 YXLK    EP   0    01651.393                              64    0.0410 53.4  32 
 YXLK    ES   0    01659.282                              64   -0.4710 53.4  32 
 YIBA    EP   0    01654.549                              64    0.4610 67.1   2 
 YIBA    ES   0    017 5.523                              64    0.9810 67.1   2 
 EVSP    EP   0    01656.325                              56    0.3010 77.3 285 
 EVSP    ES   0    017 7.681                              56   -0.2410 77.3 285 
 ZSCP    EP   0    01656.475                              56    0.2810 78.2  80 
 ZSCP    ES   0    017 8.838                              56    0.6210 78.2  80 
 RVDG    EP   0    01657.978                              56    1.0010 82.4  68 
 RVDG    ES   0    017 9.399                              56   -0.1910 82.4  68 
 YAIP    EP   0    017 7.857                              41   -0.84 8  156  57 
 YAIP    ES   0    01728.087                              41   -2.01 8  156  57 
 ZGXN    EP   0    017 8.104                              41   -1.31 8  161  86 
 ZGXN    ES   0    01733.280                              41    1.93 8  161  86 
                                                                                
 2020  1 1 0018 20.6 L  36.295  51.783 19.3  New  9 0.7                        1
 GAP=128        1.84       3.6     4.0  7.6  0.6448E+00 -0.9423E+01 -0.1854E+01E
 Action:ARG 22-07-04 18:17 OP:OBSP STATUS:               ID:20200101001820     I
 STAT SP IPHASW D HRMM SECON CODA AMPLIT PERI AZIMU VELO AIN AR TRES W  DIS CAZ7
 SRWZ    EP   0    01827.647                             100   -0.8910 36.1 141 
 SRWZ    ES   0    01835.854                             100    1.3610 36.1 141 
 TVCN    EP   0    01829.461                              98    0.6610 37.7  96 
 TVCN    ES   0    01833.993                              98   -0.9610 37.7  96 
 EVSP    EP   0    01831.212                              94    0.1710 51.2 269 
 EVSP    ES   0    01838.884                              94    0.0210 51.2 269 
 YIBA    EP   0    01831.068                              93   -0.3210 53.3  29 
 YIBA    ES   0    01840.977                              93    1.5110 53.3  29 
 YXLK    EP   0    01831.708                              93   -0.3310 57.2  64 
 YXLK    ES   0    01840.386                              93   -0.2310 57.2  64 
 XIVZ    EP   0    01834.846                              92   -0.3210 76.0  16 
 XIVZ    ES   0    01845.640                              92   -0.4410 76.0  16 
 RVDG    EP   0    01838.018                              62   -0.86 9  100  84 
 RVDG    ES   0    01852.963                              62    0.38 9  100  84 
 ZSCP    EP   0    01838.524                              62   -0.42 9  101  94 
 ZSCP    ES   0    01852.522                              62   -0.18 9  101  94 
 YAIP    EP   0    01849.247                              62    0.46 8  168  67 
 YAIP    ES   0    01910.646                              62    0.72 8  168  67 
                                                                                
 2020  1 1 0019 59.9 L  36.105  52.216 15.5  New  8 0.7                        1
 GAP=161        1.75       4.4     3.9  3.9 -0.1853E+01 -0.5965E+01 -0.3874E+01E
 Action:ARG 22-07-04 18:17 OP:OBSP STATUS:               ID:20200101002000     I
 STAT SP IPHASW D HRMM SECON CODA AMPLIT PERI AZIMU VELO AIN AR TRES W  DIS CAZ7
 TVCN    EP   0    020 4.784                             128    0.3110 16.8 355 
 TVCN    ES   0    020 7.971                             128    0.0610 16.8 355 
 SRWZ    EP   0    020 4.591                             127   -0.0210 17.7 246 
 SRWZ    ES   0    020 8.293                             127    0.1510 17.7 246 
 RVDG    EP   0    02012.935                              64   -0.5210 68.7  62 
 RVDG    ES   0    02023.524                              64   -0.1010 68.7  62 
 YIBA    EP   0    02011.921                              64   -1.5810 69.0 349 
 YIBA    ES   0    02024.085                              64    0.3810 69.0 349 
 EVSP    EP   0    02017.778                              64    0.3810 92.4 283 
 EVSP    ES   0    02030.493                              64   -0.0210 92.4 283 
 XIVZ    EP   0    02016.806                              53   -1.0410 95.4 350 
 XIVZ    ES   0    02032.014                              53    0.7110 95.4 350 
 YAIP    EP   0    02026.711                              53    1.73 8  144  54 
 YAIP    ES   0    02043.927                              53    0.13 8  144  54 
 ZGXN    EP   0    02025.163                              53   -0.09 8  146  86 
 ZGXN    ES   0    02044.342                              53    0.07 8  146  86 
                                                                                
