 2020  1 1 0200  0.1 L  36.185  52.196  5.0  New  7 0.5                        1
 GAP=192        1.40       4.0     2.8  4.8  0.1629E+01 -0.2041E+01  0.9248E+01E
 Action:ARG 22-07-04 18:17 OP:OBSP STATUS:               ID:20200101020000     I
 STAT SP IPHASW D HRMM SECON CODA AMPLIT PERI AZIMU VELO AIN AR TRES W  DIS CAZ7
 TVCN    EP   0    2 0 2.021                             114   -0.1510 7.93   3 
 TVCN    ES   0    2 0 3.692                             114   -0.0110 7.93   3 
 YIBA    EP   0    2 013.407                              91    0.8910 60.0 349 
 YIBA    ES   0    2 020.725                              91   -1.0810 60.0 349 
 ZSCP    EP   0    2 013.224                              68   -0.0210 63.6  85 
 ZSCP    ES   0    2 023.215                              68    0.1410 63.6  85 
 RVDG    EP   0    2 013.473                              68   -0.3510 66.8  70 
 RVDG    ES   0    2 024.686                              68    0.6010 66.8  70 
 XIVZ    EP   0    2 017.754                              68    0.3010 86.4 350 
 XIVZ    ES   0    2 031.208                              68    0.7610 86.4 350 
 EVSP    EP   0    2 017.680                              68   -0.2610 89.0 278 
 EVSP    ES   0    2 031.395                              68    0.0910 89.0 278 
 YAIP    EP   0    2 025.622                              47   -0.37 8  140  57 
 YAIP    ES   0    2 044.545                              47   -0.84 8  140  57 
                                                                                
 2020  1 1 0201 40.2 L  36.092  52.044  4.5  New  5 0.5                        1
 GAP=111        1.12       2.8     2.8  3.5 -0.1994E+01 -0.1164E+00 -0.5369E+01E
 Action:ARG 22-07-04 18:17 OP:OBSP STATUS:               ID:20200101020140     I
 STAT SP IPHASW D HRMM SECON CODA AMPLIT PERI AZIMU VELO AIN AR TRES W  DIS CAZ7
 SRWZ    EP   0    2 141.755                             121   -0.0610 5.69 188 
 SRWZ    ES   0    2 142.815                             121   -0.1910 5.69 188 
 TVCN    EP   0    2 144.961                              92   -0.2610 23.1  38 
 TVCN    ES   0    2 149.188                              92    0.2110 23.1  38 
 EVSP    EP   0    2 156.706                              68    0.7310 77.8 287 
 EVSP    ES   0    2 2 7.409                              68   -0.3910 77.8 287 
 YAIP    EP   0    2 2 8.218                              47   -0.44 8  158  57 
 YAIP    ES   0    2 229.310                              47   -0.67 8  158  57 
 ZGXN    EP   0    2 210.082                              47    0.87 8  161  86 
 ZGXN    ES   0    2 231.182                              47    0.21 8  161  86 
                                                                                
 2020  1 1 0203 19.9 L  36.157  52.002 16.0  New  7 0.7                        1
 GAP=115        1.96       5.8     6.5  6.6 -0.2156E+02  0.2796E+02 -0.2797E+02E
 Action:ARG 22-07-04 18:17 OP:OBSP STATUS:               ID:20200101020320     I
 STAT SP IPHASW D HRMM SECON CODA AMPLIT PERI AZIMU VELO AIN AR TRES W  DIS CAZ7
 SRWZ    EP   0    2 324.338                             137    0.2510 13.2 167 
 SRWZ    ES   0    2 327.050                             137   -0.1510 13.2 167 
 TVCN    EP   0    2 324.555                             122   -0.6410 21.0  58 
 TVCN    ES   0    2 329.908                             122    0.7710 21.0  58 
 YXLK    EP   0    2 329.665                             100   -0.8510 51.4  38 
 YXLK    ES   0    2 338.330                             100   -0.1210 51.4  38 
 YIBA    EP   0    2 331.839                              64   -0.5510 62.3   5 
 YIBA    ES   0    2 341.852                              64    0.1410 62.3   5 
 EVSP    EP   0    2 335.931                              64    1.8610 72.4 282 
 EVSP    ES   0    2 343.495                              64   -1.1710 72.4 282 
 XIVZ    EP   0    2 336.477                              64   -0.2210 88.1   1 
 XIVZ    ES   0    2 349.933                              64    0.6810 88.1   1 
 YAIP    EP   0    2 347.010                              53    0.14 8  157  60 
 YAIP    ES   0    2 4 6.971                              53   -0.09 8  157  60 
                                                                                
 2020  1 1 0205  0.8 L  36.183  52.065 17.2  New  9 1.1                        1
 GAP=190        2.94       8.0     6.0  6.9  0.7445E+01  0.1820E+01 -0.4114E+01E
 Action:ARG 22-07-04 18:17 OP:OBSP STATUS:               ID:20200101020500     I
 STAT SP IPHASW D HRMM SECON CODA AMPLIT PERI AZIMU VELO AIN AR TRES W  DIS CAZ7
 TVCN    EP   0    2 5 2.793                             136   -2.4810 14.7  56 
 TVCN    ES   0    2 5 9.833                             136    1.1910 14.7  56 
 YXLK    EP   0    2 512.074                              64    1.6910 45.7  35 
 YXLK    ES   0    2 517.516                              64   -0.0610 45.7  35 
 YIBA    EP   0    2 513.220                              64    0.6110 59.1   0 
 YIBA    ES   0    2 520.950                              64   -0.5210 59.1   0 
 ZSCP    EP   0    2 515.848                              64    0.5310 75.4  86 
 ZSCP    ES   0    2 525.659                              64   -0.5610 75.4  86 
 EVSP    EP   0    2 515.942                              64    0.2910 77.4 279 
 EVSP    ES   0    2 526.967                              64    0.1610 77.4 279 
 RVDG    EP   0    2 518.041                              64    2.2910 78.0  73 
 RVDG    ES   0    2 526.601                              64   -0.3710 78.0  73 
 XIVZ    EP   0    2 515.522                              64   -1.4510 85.3 358 
 XIVZ    ES   0    2 529.365                              64    0.2610 85.3 358 
 YAIP    EP   0    2 525.358                              53   -1.30 8  151  59 
 YAIP    ES   0    2 545.972                              53   -0.08 8  151  59 
 ZGXN    EP   0    2 526.618                              53   -1.28 8  159  89 
 ZGXN    ES   0    2 548.472                              53    0.24 8  159  89 
                                                                                
 2020  1 1 0206 39.5 L  35.493  51.934 10.0  New  8 0.6                        1
 GAP=259        1.41       6.1     5.6  7.8  0.7466E+01 -0.1348E+02 -0.1362E+02E
 Action:ARG 22-07-04 18:17 OP:OBSP STATUS:               ID:20200101020640     I
 STAT SP IPHASW D HRMM SECON CODA AMPLIT PERI AZIMU VELO AIN AR TRES W  DIS CAZ7
 SRWZ    EP   0    2 652.270                              68    0.3910 61.5   9 
 SRWZ    ES   0    2 7 0.756                              68   -0.3710 61.5   9 
 TVCN    EP   0    2 656.795                              56    0.0310 88.1  16 
 TVCN    ES   0    2 7 9.104                              56   -0.5810 88.1  16 
 EVSP    EP   0    2 659.278                              47   -0.93 9  110 324 
 EVSP    ES   0    2 715.911                              47    0.20 9  110 324 
 ZSCP    ES   0    2 718.058                              47   -0.24 9  120  47 
 YXLK    EP   0    2 7 1.606                              47   -0.16 9  120  18 
 YXLK    ES   0    2 719.774                              47    1.33 9  120  18 
 ZSCP    EP   0    2 7 2.242                              47    0.56 9  120  47 
 RVDG    EP   0    2 7 4.257                              47    0.76 9  132  41 
 RVDG    ES   0    2 721.687                              47    0.22 9  132  41 
 ZGXN    EP   0    2 711.834                              47    0.09 7  188  65 
 ZGXN    ES   0    2 734.741                              47   -1.16 7  188  65 
 YAIP    EP   0    2 714.375                              47   -0.36 7  209  43 
 YAIP    ES   0    2 741.020                              47   -0.12 7  209  43 
                                                                                
 2020  1 1 0208 20.2 L  36.495  52.238 10.9  New  7 0.8                        1
 GAP=107        2.17       3.8     4.7  9.7  0.2963E+01  0.2503E+02  0.9950E+01E
 Action:ARG 22-07-04 18:17 OP:OBSP STATUS:               ID:20200101020820     I
 STAT SP IPHASW D HRMM SECON CODA AMPLIT PERI AZIMU VELO AIN AR TRES W  DIS CAZ7
 YXLK    EP   0    2 822.800                             128   -0.5510 10.9  75 
 YXLK    ES   0    2 826.382                             128    0.6410 10.9  75 
 TVCN    EP   0    2 827.152                              97    1.0810 26.7 187 
 TVCN    ES   0    2 829.002                              97   -1.5010 26.7 187 
 YIBA    EP   0    2 825.761                              96   -0.6810 28.8 328 
 YIBA    ES   0    2 831.530                              96    0.3710 28.8 328 
 SRWZ    EP   0    2 830.369                              91   -0.6710 53.6 200 
 SRWZ    ES   0    2 840.364                              91    1.1610 53.6 200 
 RVDG    EP   0    2 831.418                              91   -0.7810 59.9 101 
 RVDG    ES   0    2 841.433                              91    0.2010 59.9 101 
 ZSCP    EP   0    2 834.278                              91    0.8810 66.4 116 
 ZSCP    ES   0    2 843.235                              91   -0.0910 66.4 116 
 EVSP    EP   0    2 837.575                              64   -0.8510 94.7 256 
 EVSP    ES   0    2 852.906                              64    0.7810 94.7 256 
                                                                                
 2020  1 1 0209 59.7 L  35.976  52.152  0.0  New  7 1.3                        1
 GAP=212        3.19       9.8     6.5 12.3  0.1355E+02 -0.3407E+02 -0.2376E+02E
 Action:ARG 22-07-04 18:17 OP:OBSP STATUS:               ID:20200101021000     I
 STAT SP IPHASW D HRMM SECON CODA AMPLIT PERI AZIMU VELO AIN AR TRES W  DIS CAZ7
 SRWZ    EP   0    210 1.774                              90   -0.7310 12.7 304 
 SRWZ    ES   0    210 4.884                              90    0.2610 12.7 304 
 YXLK    EP   0    21013.228                              64    0.1310 63.2  17 
 YXLK    ES   0    21024.251                              64    1.0910 63.2  17 
 ZSCP    EP   0    21013.753                              64   -1.3310 73.2  67 
 ZSCP    ES   0    21027.205                              64    0.5710 73.2  67 
 YIBA    EP   0    21015.983                              56   -0.8410 82.4 355 
 YIBA    ES   0    21030.462                              56    0.7810 82.4 355 
 EVSP    EP   0    21018.498                              56    0.0310 91.3 293 
 EVSP    ES   0    21033.426                              56    0.8610 91.3 293 
 XIVZ    EP   0    21020.759                              49   -0.84 9  109 354 
 XIVZ    ES   0    21036.335                              49   -1.71 9  109 354 
 ZGXN    EP   0    21031.951                              41    3.73 8  153  81 
 ZGXN    ES   0    21048.002                              41   -1.62 8  153  81 
                                                                                
 2020  1 1 0211 40.1 L  36.007  51.959 10.0  New  6 0.9                        1
 GAP=281        2.17       9.1    11.2 10.0  0.4603E+02 -0.1435E+02  0.3073E+02E
 Action:ARG 22-07-04 18:17 OP:OBSP STATUS:               ID:20200101021140     I
 STAT SP IPHASW D HRMM SECON CODA AMPLIT PERI AZIMU VELO AIN AR TRES W  DIS CAZ7
 YXLK    EP   0    21155.281                              68    1.8110 67.3  32 
 YXLK    ES   0    212 3.516                              68   -0.0110 67.3  32 
 YIBA    EP   0    21155.004                              68   -0.6810 79.2   7 
 YIBA    ES   0    212 6.574                              68   -0.8210 79.2   7 
 ZSCP    EP   0    21156.608                              56   -0.7310 88.3  73 
 ZSCP    ES   0    21210.724                              56    0.4410 88.3  73 
 XIVZ    EP   0    212 1.223                              47    1.19 9  105   3 
 XIVZ    ES   0    21214.868                              47   -0.13 9  105   3 
 YAIP    EP   0    212 8.127                              47   -1.34 8  169  55 
 YAIP    ES   0    21232.179                              47    0.67 8  169  55 
 ZGXN    EP   0    212 9.315                              47   -0.27 8  170  83 
 ZGXN    ES   0    21231.043                              47   -0.68 8  170  83 
                                                                                
 2020  1 1 0213 18.8 L  35.699  51.947 17.1  New  6 0.9                        1
 GAP=243        2.07       9.6     7.4  6.8  0.8264E+01  0.6719E+00  0.1841E+02E
 Action:ARG 22-07-04 18:17 OP:OBSP STATUS:               ID:20200101021320     I
 STAT SP IPHASW D HRMM SECON CODA AMPLIT PERI AZIMU VELO AIN AR TRES W  DIS CAZ7
 SRWZ    EP   0    21327.827                             108    0.6610 38.7  12 
 SRWZ    ES   0    21333.553                             108    0.1310 38.7  12 
 EVSP    EP   0    21336.344                              53    0.0910 93.0 315 
 EVSP    ES   0    21350.153                              53    0.8310 93.0 315 
 YXLK    EP   0    21336.379                              53   -0.66 9 98.4  22 
 YXLK    ES   0    21350.190                              53   -0.50 9 98.4  22 
 YIBA    EP   0    21337.728                              53   -1.51 9  113   6 
 YIBA    ES   0    21354.803                              53    0.26 9  113   6 
 RVDG    EP   0    21338.046                              53   -1.40 9  115  48 
 RVDG    ES   0    21355.121                              53    0.20 9  115  48 
 ZGXN    EP   0    21349.640                              53    0.81 8  179  72 
 ZGXN    ES   0    21412.997                              53    1.66 8  179  72 
                                                                                
 2020  1 1 0215  2.6 L  35.890  51.880 19.6  New  7 0.9                        1
 GAP=248        2.35      12.6     6.7  7.6 -0.7881E+01 -0.7642E+01 -0.3614E+01E
 Action:ARG 22-07-04 18:17 OP:OBSP STATUS:               ID:20200101021500     I
 STAT SP IPHASW D HRMM SECON CODA AMPLIT PERI AZIMU VELO AIN AR TRES W  DIS CAZ7
 SRWZ    EP   0    215 8.357                             121    0.0710 21.8  40 
 SRWZ    ES   0    21512.074                             121   -0.5010 21.8  40 
 TVCN    EP   0    21514.225                              95    1.4410 49.9  35 
 TVCN    ES   0    21520.151                              95   -0.3010 49.9  35 
 EVSP    EP   0    21516.563                              92   -0.3310 74.6 307 
 EVSP    ES   0    21528.014                              92    0.3610 74.6 307 
 YXLK    EP   0    21518.130                              62   -0.0210 82.1  31 
 YXLK    ES   0    21530.278                              62    0.4410 82.1  31 
 RVDG    EP   0    21519.627                              62   -2.16 9  107  58 
 RVDG    ES   0    21536.804                              62    0.59 9  107  58 
 XIVZ    EP   0    21524.762                              62    1.27 9  118   6 
 XIVZ    ES   0    21537.708                              62   -1.49 9  118   6 
 YAIP    EP   0    21532.594                              62   -0.31 7  182  53 
 YAIP    ES   0    21556.639                              62    0.97 7  182  53 
                                                                                
 2020  1 1 0216 40.1 L  35.937  52.101 10.0  New  9 0.8                        1
 GAP=254        2.14       7.6     8.4  6.3  0.3304E+02 -0.3387E+02 -0.1413E+02E
 Action:ARG 22-07-04 18:17 OP:OBSP STATUS:               ID:20200101021640     I
 STAT SP IPHASW D HRMM SECON CODA AMPLIT PERI AZIMU VELO AIN AR TRES W  DIS CAZ7
 SRWZ    EP   0    21644.302                             125    0.7710 12.9 333 
 SRWZ    ES   0    21645.868                             125   -0.2110 12.9 333 
 TVCN    EP   0    21648.613                              68    0.7810 36.5  14 
 TVCN    ES   0    21653.613                              68   -0.0010 36.5  14 
 YXLK    EP   0    21653.168                              68   -0.6310 68.7  19 
 YXLK    ES   0    217 4.440                              68    0.3810 68.7  19 
 ZSCP    EP   0    21653.878                              68   -1.8510 79.1  65 
 ZSCP    ES   0    217 6.975                              68   -0.4510 79.1  65 
 YIBA    EP   0    21658.477                              56    1.4010 86.4 358 
 YIBA    ES   0    217 9.245                              56   -0.5410 86.4 358 
 RVDG    EP   0    21657.693                              56    0.4610 87.4  55 
 RVDG    ES   0    21710.794                              56    0.7310 87.4  55 
 XIVZ    EP   0    217 1.087                              47   -0.15 9  113 357 
 XIVZ    ES   0    21715.644                              47   -1.42 9  113 357 
 ZGXN    EP   0    217 7.515                              47   -0.46 8  159  79 
 ZGXN    ES   0    21729.750                              47    0.89 8  159  79 
 YAIP    EP   0    217 8.215                              47   -0.50 8  164  51 
 YAIP    ES   0    21731.075                              47    0.92 8  164  51 
                                                                                
 2020  1 1 0218 19.4 L  35.933  52.072 17.3  New  6 0.6                        1
 GAP=265        1.57       8.7     9.0  4.8  0.4885E+02 -0.2915E+02 -0.1840E+02E
 Action:ARG 22-07-04 18:17 OP:OBSP STATUS:               ID:20200101021820     I
 STAT SP IPHASW D HRMM SECON CODA AMPLIT PERI AZIMU VELO AIN AR TRES W  DIS CAZ7
 SRWZ    EP   0    21823.823                             142    0.2010 12.4 345 
 SRWZ    ES   0    21826.596                             142   -0.2010 12.4 345 
 YIBA    EP   0    21836.222                              64    0.4110 86.8 360 
 YIBA    ES   0    21848.166                              64    0.0310 86.8 360 
 RVDG    EP   0    21835.459                              64   -0.8410 89.8  55 
 RVDG    ES   0    21850.038                              64    1.0510 89.8  55 
 XIVZ    EP   0    21840.796                              53    1.07 9  113 358 
 XIVZ    ES   0    21854.245                              53   -0.74 9  113 358 
 ZGXN    EP   0    21846.371                              53   -0.43 8  161  79 
 ZGXN    ES   0    219 7.714                              53    0.36 8  161  79 
 YAIP    EP   0    21846.993                              53   -0.50 8  166  51 
 YAIP    ES   0    219 7.704                              53   -0.87 8  166  51 
                                                                                
