 2020  1 1 0021 40.3 L  35.808  52.208 20.4  New  8 0.9                        1
 GAP=228        2.23      10.5     6.3 13.9 -0.1463E+01  0.2699E+02 -0.5677E+02E
 Action:ARG 22-07-04 18:17 OP:OBSP STATUS:               ID:20200101002140     I
 STAT SP IPHASW D HRMM SECON CODA AMPLIT PERI AZIMU VELO AIN AR TRES W  DIS CAZ7
 ZSCP    EP   0    02156.447                              93    1.2210 78.1  53 
 ZSCP    ES   0    022 6.438                              93    0.0210 78.1  53 
 YXLK    EP   0    02155.863                              62    0.3210 80.3  10 
 YXLK    ES   0    022 7.623                              62    0.6510 80.3  10 
 RVDG    EP   0    02155.971                              62   -0.9210 89.5  43 
 RVDG    ES   0    022 9.752                              62    0.4110 89.5  43 
 YIBA    EP   0    02158.749                              62    0.08 9  102 353 
 YIBA    ES   0    02212.512                              62    0.07 9  102 353 
 EVSP    EP   0    022 0.108                              62    1.03 9  104 301 
 EVSP    ES   0    02213.499                              62    0.34 9  104 301 
 XIVZ    EP   0    022 1.479                              62   -1.07 9  128 353 
 XIVZ    ES   0    02217.191                              62   -2.05 9  128 353 
 ZGXN    EP   0    022 4.764                              62   -1.39 8  152  73 
 ZGXN    ES   0    02225.216                              62   -0.34 8  152  73 
 YAIP    EP   0    022 7.564                              62   -0.59 8  166  45 
 YAIP    ES   0    02230.519                              62    1.47 8  166  45 
                                                                                
 2020  1 1 0023 20.1 L  35.814  52.001  1.8  New  7 0.9                        1
 GAP=232        2.22       7.6     6.3 11.8  0.4811E+01 -0.2605E+02 -0.1208E+02E
 Action:ARG 22-07-04 18:17 OP:OBSP STATUS:               ID:20200101002320     I
 STAT SP IPHASW D HRMM SECON CODA AMPLIT PERI AZIMU VELO AIN AR TRES W  DIS CAZ7
 TVCN    EP   0    02332.119                              64    0.9910 52.2  20 
 TVCN    ES   0    02338.319                              64   -1.0910 52.2  20 
 YXLK    EP   0    02335.890                              56   -1.5510 84.7  22 
 YXLK    ES   0    02351.639                              56    1.1910 84.7  22 
 EVSP    EP   0    02337.779                              56   -0.3410 88.4 307 
 EVSP    ES   0    02351.602                              56   -0.0410 88.4 307 
 YIBA    EP   0    02340.130                              56   -0.18 9  100   3 
 YIBA    ES   0    02355.949                              56    0.47 9  100   3 
 RVDG    EP   0    02342.038                              49    1.30 9  103  51 
 RVDG    ES   0    02355.053                              49   -1.17 9  103  51 
 ZGXN    EP   0    02350.523                              41   -0.32 8  170  75 
 ZGXN    ES   0    02413.539                              41   -0.36 8  170  75 
 YAIP    EP   0    02352.884                              41    0.73 8  179  49 
 YAIP    ES   0    02416.972                              41    0.77 8  179  49 
                                                                                
 2020  1 1 0025  0.6 L  36.179  51.911  9.8  New  5 0.6                        1
 GAP=192        1.46       5.2     3.3  5.8 -0.3091E+01  0.6458E+01 -0.4805E+01E
 Action:ARG 22-07-04 18:17 OP:OBSP STATUS:               ID:20200101002500     I
 STAT SP IPHASW D HRMM SECON CODA AMPLIT PERI AZIMU VELO AIN AR TRES W  DIS CAZ7
 TVCN    EP   0    025 6.052                             106   -0.5710 27.4  72 
 TVCN    ES   0    02512.321                             106    1.1610 27.4  72 
 YXLK    EP   0    02511.282                              68   -0.4810 55.2  46 
 YXLK    ES   0    02519.531                              68   -0.6110 55.2  46 
 EVSP    EP   0    02513.577                              68    0.2110 63.8 281 
 EVSP    ES   0    02523.116                              68    0.1610 63.8 281 
 XIVZ    EP   0    02517.420                              68   -0.1010 86.3   7 
 XIVZ    ES   0    02530.587                              68    0.3610 86.3   7 
 ZGXN    EP   0    02529.793                              47   -0.77 8  173  89 
 ZGXN    ES   0    02553.630                              47    0.58 8  173  89 
                                                                                
 2020  1 1 0026 40.1 L  35.915  51.836 12.9  New  6 0.7                        1
 GAP=299        1.76       7.8     9.2  5.3  0.1866E+02  0.1431E+02  0.5734E+01E
 Action:ARG 22-07-04 18:17 OP:OBSP STATUS:               ID:20200101002640     I
 STAT SP IPHASW D HRMM SECON CODA AMPLIT PERI AZIMU VELO AIN AR TRES W  DIS CAZ7
 SRWZ    EP   0    02646.018                             111    0.6510 22.7  52 
 SRWZ    ES   0    02649.170                             111   -0.1710 22.7  52 
 TVCN    EP   0    02649.903                              96   -0.4310 50.1  41 
 TVCN    ES   0    02658.289                              96    0.2610 50.1  41 
 YIBA    EP   0    02656.437                              64   -1.1710 91.3  13 
 YIBA    ES   0    02710.571                              64   -0.1710 91.3  13 
 ZSCP    EP   0    027 0.548                              53    1.24 9  102  70 
 ZSCP    ES   0    02713.596                              53   -0.13 9  102  70 
 RVDG    EP   0    02659.137                              53   -1.16 9  109  61 
 RVDG    ES   0    02715.320                              53   -0.14 9  109  61 
 XIVZ    EP   0    027 1.976                              53    0.60 9  116   8 
 XIVZ    ES   0    02718.067                              53    0.72 9  116   8 
                                                                                
 2020  1 1 0028 19.4 L  35.802  51.779 10.6  New  7 1.0                        1
 GAP=310        2.57      12.1    16.0  9.5 -0.3488E+02 -0.9435E+01  0.2581E+02E
 Action:ARG 22-07-04 18:17 OP:OBSP STATUS:               ID:20200101002820     I
 STAT SP IPHASW D HRMM SECON CODA AMPLIT PERI AZIMU VELO AIN AR TRES W  DIS CAZ7
 SRWZ    EP   0    02825.353                              93   -1.4610 35.1  41 
 SRWZ    ES   0    02832.314                              93   -0.0910 35.1  41 
 TVCN    EP   0    02831.908                              91   -0.0810 63.1  37 
 TVCN    ES   0    02842.395                              91    0.9410 63.1  37 
 YXLK    EP   0    02837.645                              64   -0.0710 95.2  33 
 YXLK    ES   0    02851.854                              64    0.3810 95.2  33 
 YIBA    EP   0    02839.739                              53    0.53 9  105  14 
 YIBA    ES   0    02853.750                              53   -0.34 9  105  14 
 ZSCP    EP   0    02840.268                              53    0.01 9  112  65 
 ZSCP    ES   0    02857.669                              53    1.74 9  112  65 
 RVDG    EP   0    02842.149                              53    0.71 9  120  57 
 RVDG    ES   0    02855.268                              53   -2.73 9  120  57 
 YAIP    EP   0    02853.561                              53    0.97 7  196  52 
 YAIP    ES   0    02917.305                              53   -0.20 7  196  52 
                                                                                
 2020  1 1 0029 58.9 L  35.908  51.803 25.8  New  9 0.9                        1
 GAP=229        2.29      12.7     6.9 27.1  0.3508E+02 -0.7590E+02 -0.2230E+03E
 Action:ARG 22-07-04 18:17 OP:OBSP STATUS:               ID:20200101003000     I
 STAT SP IPHASW D HRMM SECON CODA AMPLIT PERI AZIMU VELO AIN AR TRES W  DIS CAZ7
 TVCN    EP   0    030 9.653                              62    0.0110 52.7  43 
 TVCN    ES   0    03017.656                              62   -0.0610 52.7  43 
 EVSP    EP   0    03012.157                              62    0.2910 67.8 309 
 EVSP    ES   0    03020.932                              62   -0.6910 67.8 309 
 YXLK    EP   0    03013.789                              62   -0.5010 84.3  36 
 YXLK    ES   0    03023.925                              62   -1.9310 84.3  36 
 YIBA    EP   0    03016.354                              62    0.8210 92.7  15 
 YIBA    ES   0    03028.149                              62    0.1210 92.7  15 
 ZSCP    EP   0    03016.188                              62   -1.18 9  105  70 
 ZSCP    ES   0    03031.043                              62   -0.20 9  105  70 
 RVDG    EP   0    03018.762                              62    0.42 9  112  61 
 RVDG    ES   0    03034.649                              62    1.70 9  112  61 
 XIVZ    EP   0    03020.380                              62    1.22 9  117  10 
 XIVZ    ES   0    03035.052                              62    0.68 9  117  10 
 ZGXN    EP   0    03030.418                              62    1.24 7  186  80 
 ZGXN    ES   0    03051.067                              62   -0.84 7  186  80 
 YAIP    EP   0    03027.937                              62   -1.44 7  187  55 
 YAIP    ES   0    03052.882                              62    0.62 7  187  55 
                                                                                
 2020  1 1 0031 40.1 L  36.089  51.709 20.5  New  6 0.8                        1
 GAP=285        2.11       7.7    13.0  9.2  0.3236E+02 -0.2880E+01 -0.4430E+01E
 Action:ARG 22-07-04 18:17 OP:OBSP STATUS:               ID:20200101003140     I
 STAT SP IPHASW D HRMM SECON CODA AMPLIT PERI AZIMU VELO AIN AR TRES W  DIS CAZ7
 SRWZ    EP   0    03145.603                             111   -1.5210 29.9 100 
 SRWZ    ES   0    03152.839                             111    0.4710 29.9 100 
 TVCN    EP   0    03150.497                              97    0.4410 47.9  67 
 TVCN    ES   0    03157.624                              97    0.1310 47.9  67 
 YXLK    EP   0    03156.204                              93    1.6010 75.3  50 
 YXLK    ES   0    032 4.860                              93   -0.6010 75.3  50 
 YIBA    EP   0    03154.584                              93   -0.2410 76.6  25 
 YIBA    ES   0    032 5.839                              93    0.0110 76.6  25 
 RVDG    EP   0    03159.744                              62   -0.26 9  112  72 
 RVDG    ES   0    03213.850                              62   -1.05 9  112  72 
 ZGXN    EP   0    03211.959                              62    0.23 7  191  86 
 ZGXN    ES   0    03236.702                              62    1.28 7  191  86 
                                                                                
 2020  1 1 0033 19.2 L  36.146  52.357  3.1  New 10 1.0                        1
 GAP=161        2.55       4.7     3.8  7.3 -0.9551E+00 -0.9582E+01  0.4700E+01E
 Action:ARG 22-07-04 18:17 OP:OBSP STATUS:               ID:20200101003320     I
 STAT SP IPHASW D HRMM SECON CODA AMPLIT PERI AZIMU VELO AIN AR TRES W  DIS CAZ7
 TVCN    EP   0    03322.315                              99   -1.1110 18.6 311 
 TVCN    ES   0    03327.993                              99    1.4210 18.6 311 
 SRWZ    EP   0    03325.498                              64   -0.4510 31.2 248 
 SRWZ    ES   0    03330.894                              64   -0.1010 31.2 248 
 YXLK    EP   0    03328.676                              64    0.6510 41.6 360 
 YXLK    ES   0    03334.191                              64   -0.4310 41.6 360 
 ZSCP    EP   0    03329.602                              64   -0.0710 49.8  79 
 ZSCP    ES   0    03337.224                              64   -0.2810 49.8  79 
 RVDG    EP   0    03331.401                              64    0.6210 55.4  60 
 RVDG    ES   0    03339.439                              64   -0.0010 55.4  60 
 YIBA    EP   0    03334.546                              64    1.1910 68.3 338 
 YIBA    ES   0    03342.444                              64   -1.5110 68.3 338 
 XIVZ    EP   0    03336.203                              56   -1.9710 94.1 342 
 XIVZ    ES   0    03353.645                              56    1.2710 94.1 342 
 EVSP    EP   0    03338.616                              49   -1.28 9  104 279 
 EVSP    ES   0    03356.510                              49    1.10 9  104 279 
 YAIP    EP   0    03344.245                              41    0.25 9  131  52 
 YAIP    ES   0    034 1.999                              41   -0.57 9  131  52 
 ZGXN    EP   0    03345.789                              41    1.53 9  133  87 
 ZGXN    ES   0    034 2.982                              41   -0.05 9  133  87 
                                                                                
 2020  1 1 0034 59.0 L  35.773  51.942  3.4  New 10 0.8                        1
 GAP=237        2.01       6.2     5.3  8.4  0.5559E+01 -0.1328E+02 -0.1125E+02E
 Action:ARG 22-07-04 18:17 OP:OBSP STATUS:               ID:20200101003500     I
 STAT SP IPHASW D HRMM SECON CODA AMPLIT PERI AZIMU VELO AIN AR TRES W  DIS CAZ7
 SRWZ    EP   0    035 5.448                              64   -0.1810 30.9  16 
 SRWZ    ES   0    03510.273                              64   -0.3210 30.9  16 
 TVCN    EP   0    03510.818                              64   -0.3310 58.5  23 
 TVCN    ES   0    03520.782                              64    0.5310 58.5  23 
 EVSP    EP   0    03517.721                              56    1.1210 87.1 311 
 EVSP    ES   0    03530.180                              56    0.3810 87.1 311 
 YXLK    EP   0    03518.063                              56    0.7310 91.0  24 
 YXLK    ES   0    03531.034                              56   -0.0410 91.0  24 
 ZSCP    EP   0    03519.073                              49    0.06 9  100  59 
 ZSCP    ES   0    03533.684                              49   -0.33 9  100  59 
 YIBA    EP   0    03519.395                              49   -0.44 9  105   6 
 YIBA    ES   0    03535.298                              49   -0.16 9  105   6 
 RVDG    EP   0    03519.943                              49   -0.66 9  110  51 
 RVDG    ES   0    03538.463                              49    1.67 9  110  51 
 XIVZ    EP   0    03522.669                              41   -1.04 9  131   3 
 XIVZ    ES   0    03540.573                              41   -1.65 9  131   3 
 ZGXN    EP   0    03530.523                              41    0.09 8  177  74 
 ZGXN    ES   0    03553.147                              41   -0.85 8  177  74 
 YAIP    EP   0    03531.052                              41   -0.79 7  186  49 
 YAIP    ES   0    03558.365                              41    1.89 7  186  49 
                                                                                
 2020  1 1 0036 40.4 L  36.384  51.869 12.0  New  6 0.5                        1
 GAP=257        1.20       3.4     6.5  5.1  0.1313E+02 -0.6633E+01  0.8041E-01E
 Action:ARG 22-07-04 18:17 OP:OBSP STATUS:               ID:20200101003640     I
 STAT SP IPHASW D HRMM SECON CODA AMPLIT PERI AZIMU VELO AIN AR TRES W  DIS CAZ7
 TVCN    EP   0    03646.853                              98   -0.6710 32.9 115 
 TVCN    ES   0    03653.254                              98    0.4310 32.9 115 
 YIBA    EP   0    03649.110                              95    0.1410 40.9  26 
 YIBA    ES   0    03654.899                              95   -0.4710 40.9  26 
 YXLK    EP   0    03649.787                              94   -0.1710 46.2  71 
 YXLK    ES   0    03657.506                              94    0.4110 46.2  71 
 XIVZ    EP   0    03653.145                              93   -0.1710 64.4  12 
 XIVZ    ES   0    037 3.243                              93    0.2710 64.4  12 
 RVDG    EP   0    03658.553                              64    0.4110 91.9  89 
 RVDG    ES   0    03710.606                              64   -0.8210 91.9  89 
 YAIP    EP   0    037 8.650                              53    0.83 8  157  70 
 YAIP    ES   0    03728.471                              53    0.12 8  157  70 
                                                                                
 2020  1 1 0038 20.2 L  35.875  52.060 18.8  New  6 0.9                        1
 GAP=276        2.14      10.4    11.9  7.6  0.6433E+02 -0.3831E+02 -0.3125E+01E
 Action:ARG 22-07-04 18:17 OP:OBSP STATUS:               ID:20200101003820     I
 STAT SP IPHASW D HRMM SECON CODA AMPLIT PERI AZIMU VELO AIN AR TRES W  DIS CAZ7
 SRWZ    EP   0    03825.428                             125    0.0310 18.5 353 
 SRWZ    ES   0    03829.884                             125    0.5910 18.5 353 
 YXLK    EP   0    03835.022                              91    0.1610 76.5  20 
 YXLK    ES   0    03844.480                              91   -1.3710 76.5  20 
 ZSCP    EP   0    03836.897                              62    0.5410 85.5  62 
 ZSCP    ES   0    03848.989                              62    0.5210 85.5  62 
 YIBA    EP   0    03838.161                              62    0.6510 93.3   0 
 YIBA    ES   0    03850.602                              62    0.1210 93.3   0 
 XIVZ    EP   0    03839.484                              62   -1.87 9  119 358 
 XIVZ    ES   0    03858.264                              62    1.06 9  119 358 
 ZGXN    EP   0    03846.714                              62   -1.12 8  164  77 
 ZGXN    ES   0    039 8.921                              62    0.37 8  164  77 
                                                                                
 2020  1 1 0040  0.3 L  36.450  52.052 11.9  New  7 0.7                        1
 GAP=106        1.78       3.3     3.6  7.1 -0.2545E+01 -0.8467E+01  0.4440E+01E
 Action:ARG 22-07-04 18:17 OP:OBSP STATUS:               ID:20200101004000     I
 STAT SP IPHASW D HRMM SECON CODA AMPLIT PERI AZIMU VELO AIN AR TRES W  DIS CAZ7
 YXLK    EP   0    040 7.584                             101    1.0210 28.3  74 
 YXLK    ES   0    04011.716                             101    0.4810 28.3  74 
 YIBA    EP   0    040 6.444                             100   -0.3210 29.5   3 
 YIBA    ES   0    04010.973                             100   -0.6210 29.5   3 
 SRWZ    EP   0    040 9.641                              94   -0.0710 45.5 182 
 SRWZ    ES   0    04016.098                              94   -0.6510 45.5 182 
 RVDG    EP   0    04014.093                              92   -1.2110 75.7  95 
 RVDG    ES   0    04027.082                              92    0.5410 75.7  95 
 EVSP    EP   0    04016.825                              92    1.2210 77.4 257 
 EVSP    ES   0    04027.205                              92    0.1310 77.4 257 
 ZSCP    EP   0    04015.349                              64   -0.7010 80.0 108 
 ZSCP    ES   0    04028.268                              64    0.4210 80.0 108 
 YAIP    EP   0    04024.705                              53   -0.36 8  139  70 
 YAIP    ES   0    04043.673                              53    0.05 8  139  70 
                                                                                
