 2020  1 1  145  0.0 L  36.276  51.585 15.5       9 0.0 4.5l                   1
 Action:ARG 22-07-04 18:17 OP:OBSP STATUS:               ID:20200101014500     I
 STAT SP IPHASW D HRMM SECON CODA AMPLIT PERI AZIMU VELO AIN AR TRES W  DIS CAZ7
 EVSP    EP   4    145 8.614                                           33.3 272 
 EVSP    ES   4    14514.885                                           33.3 272 
 YIBA    EP   2    14513.609                                           65.3  41 
 YIBA    ES   0    14522.693                                           65.3  41 
 YXLK    EP   3    14515.327                                           74.4  68 
 YXLK    ES   3    14526.196                                           74.4  68 
 SRWZ    EP   4    145 8.224                                           48.2 122 
 SRWZ    ES   0    14517.193                                           48.2 122 
 TVCN    EP   2    14510.519                                           55.4  92 
 TVCN    ES   4    14520.811                                           55.4  92 
 ZGXN    EP   1    14534.034                                            202  92 
 ZGXN    ES   2    14559.495                                            202  92 
 XIVZ    EP   4    14517.317                                           84.6  27 
 XIVZ    ES   2    14528.972                                           84.6  27 
 YAIP    EP   4    14529.840                                            184  68 
 YAIP    ES   2    14553.924                                            184  68 
 ZSCP    EP   3    14522.126                                            118  92 
 ZSCP    ES   1    14537.008                                            118  92 
                                                                                

 2020  1 1  146 40.0 L  36.076  52.364 15.1       8 0.0 4.0l                   1
 Action:ARG 22-07-04 18:17 OP:OBSP STATUS:               ID:20200101014640     I
 STAT SP IPHASW D HRMM SECON CODA AMPLIT PERI AZIMU VELO AIN AR TRES W  DIS CAZ7
 SRWZ    EP   4    14647.954                                           29.9 262 
 SRWZ    ES   2    14652.353                                           29.9 262 
 YAIP    EP   1    147 3.370                                            135  49 
 YAIP    ES   4    14723.539                                            135  49 
 XIVZ    EP   2    14658.311                                            101 342 
 XIVZ    ES   4    14714.612                                            101 342 
 YXLK    EP   4    14651.527                                           49.4 359 
 YXLK    ES   2    14658.321                                           49.4 359 
 ZGXN    EP   1    147 3.933                                            132  84 
 ZGXN    ES   0    14720.840                                            132  84 
 ZSCP    EP   0    14650.629                                           51.3  70 
 ZSCP    ES   4    14659.723                                           51.3  70 
 RVDG    EP   1    14652.201                                           59.1  53 
 RVDG    ES   0    147 0.955                                           59.1  53 
 EVSP    EP   4    147 0.649                                            106 283 
 EVSP    ES   2    14713.427                                            106 283 
                                                                                

 2020  1 1  148 20.0 L  36.193  51.732 10.6       8 0.0 4.0l                   1
 Action:ARG 22-07-04 18:17 OP:OBSP STATUS:               ID:20200101014820     I
 STAT SP IPHASW D HRMM SECON CODA AMPLIT PERI AZIMU VELO AIN AR TRES W  DIS CAZ7
 YIBA    EP   2    14833.726                                           65.4  27 
 YIBA    ES   3    14841.986                                           65.4  27 
 RVDG    EP   0    14840.094                                            106  77 
 RVDG    ES   1    14854.887                                            106  77 
 ZSCP    EP   0    14839.915                                            105  87 
 ZSCP    ES   0    14854.838                                            105  87 
 TVCN    EP   1    14829.268                                           42.7  80 
 TVCN    ES   0    14835.643                                           42.7  80 
 EVSP    EP   4    14831.049                                           47.8 283 
 EVSP    ES   1    14837.476                                           47.8 283 
 XIVZ    EP   0    14837.323                                           88.1  17 
 XIVZ    ES   2    14850.747                                           88.1  17 
 YAIP    EP   2    14851.111                                            176  64 
 YAIP    ES   4    14911.680                                            176  64 
 SRWZ    EP   2    14826.315                                           32.1 121 
 SRWZ    ES   1    14832.438                                           32.1 121 
                                                                                

 2020  1 1  150  0.0 L  35.865  51.960 11.6       8 0.0 4.0l                   1
 Action:ARG 22-07-04 18:17 OP:OBSP STATUS:               ID:20200101015000     I
 STAT SP IPHASW D HRMM SECON CODA AMPLIT PERI AZIMU VELO AIN AR TRES W  DIS CAZ7
 YAIP    EP   4    15032.291                                            178  51 
 YAIP    ES   3    15052.747                                            178  51 
 TVCN    EP   2    150 9.235                                           48.6  26 
 TVCN    ES   1    15017.593                                           48.6  26 
 YXLK    EP   3    15016.769                                           81.1  25 
 YXLK    ES   2    15027.135                                           81.1  25 
 SRWZ    EP   1    150 5.176                                           20.7  19 
 SRWZ    ES   4    150 9.478                                           20.7  19 
 RVDG    EP   1    15019.167                                            102  54 
 RVDG    ES   2    15033.276                                            102  54 
 XIVZ    EP   3    15022.994                                            120   2 
 XIVZ    ES   4    15040.071                                            120   2 
 ZGXN    EP   4    15030.754                                            172  77 
 ZGXN    ES   4    15053.204                                            172  77 
 EVSP    EP   4    15017.175                                           82.0 305 
 EVSP    ES   4    15029.244                                           82.0 305 
                                                                                

 2020  1 1  151 40.0 L  36.123  51.725 12.6       5 0.0 2.5l                   1
 Action:ARG 22-07-04 18:17 OP:OBSP STATUS:               ID:20200101015140     I
 STAT SP IPHASW D HRMM SECON CODA AMPLIT PERI AZIMU VELO AIN AR TRES W  DIS CAZ7
 YAIP    EP   3    15210.041                                            180  62 
 YAIP    ES   4    15236.560                                            180  62 
 RVDG    EP   0    152 0.405                                            109  73 
 RVDG    ES   1    15215.110                                            109  73 
 YXLK    EP   4    15155.504                                           71.9  51 
 YXLK    ES   4    152 3.456                                           71.9  51 
 XIVZ    EP   1    15158.786                                           95.7  16 
 XIVZ    ES   4    15213.139                                           95.7  16 
 SRWZ    EP   4    15147.787                                           29.4 108 
 SRWZ    ES   3    15150.428                                           29.4 108 
                                                                                

 2020  1 1  153 20.0 L  35.861  52.177 16.7       5 0.0 2.5l                   1
 Action:ARG 22-07-04 18:17 OP:OBSP STATUS:               ID:20200101015320     I
 STAT SP IPHASW D HRMM SECON CODA AMPLIT PERI AZIMU VELO AIN AR TRES W  DIS CAZ7
 YIBA    EP   3    15338.834                                           95.4 354 
 YIBA    ES   1    15350.857                                           95.4 354 
 RVDG    EP   4    15334.973                                           87.3  47 
 RVDG    ES   4    15347.490                                           87.3  47 
 SRWZ    EP   0    15325.792                                           23.8 327 
 SRWZ    ES   1    15330.267                                           23.8 327 
 YXLK    EP   0    15334.670                                           75.0  12 
 YXLK    ES   0    15345.708                                           75.0  12 
 EVSP    EP   1    15337.885                                           99.0 298 
 EVSP    ES   0    15352.324                                           99.0 298 
                                                                                

 2020  1 1  155  0.0 L  35.744  52.116 12.8      10 0.0 5.0l                   1
 Action:ARG 22-07-04 18:17 OP:OBSP STATUS:               ID:20200101015500     I
 STAT SP IPHASW D HRMM SECON CODA AMPLIT PERI AZIMU VELO AIN AR TRES W  DIS CAZ7
 SRWZ    EP   4    155 6.020                                           33.7 347 
 SRWZ    ES   1    15513.072                                           33.7 347 
 XIVZ    EP   2    15524.712                                            134 356 
 XIVZ    ES   4    15543.232                                            134 356 
 YIBA    EP   0    15520.217                                            107 357 
 YIBA    ES   2    15534.710                                            107 357 
 YAIP    EP   4    15529.171                                            176  44 
 YAIP    ES   1    15552.647                                            176  44 
 RVDG    EP   0    15519.236                                            100  44 
 RVDG    ES   1    15533.018                                            100  44 
 TVCN    EP   0    15511.698                                           57.3   7 
 TVCN    ES   2    15519.576                                           57.3   7 
 YXLK    EP   0    15517.189                                           88.9  13 
 YXLK    ES   0    15529.960                                           88.9  13 
 ZGXN    EP   2    15528.672                                            162  71 
 ZGXN    ES   3    15548.319                                            162  71 
 EVSP    EP   1    15518.796                                            101 306 
 EVSP    ES   1    15533.908                                            101 306 
 ZSCP    EP   2    15516.631                                           89.0  52 
 ZSCP    ES   4    15528.941                                           89.0  52 
                                                                                

 2020  1 1  156 40.0 L  36.010  52.179 10.9      10 0.0 5.0l                   1
 Action:ARG 22-07-04 18:17 OP:OBSP STATUS:               ID:20200101015640     I
 STAT SP IPHASW D HRMM SECON CODA AMPLIT PERI AZIMU VELO AIN AR TRES W  DIS CAZ7
 ZSCP    EP   2    15654.398                                           69.4  69 
 ZSCP    ES   4    157 2.984                                           69.4  69 
 YIBA    EP   1    15655.955                                           78.9 352 
 YIBA    ES   3    157 6.408                                           78.9 352 
 EVSP    EP   4    15656.860                                           92.2 289 
 EVSP    ES   1    15710.988                                           92.2 289 
 TVCN    EP   3    15645.140                                           27.4   3 
 TVCN    ES   2    15651.003                                           27.4   3 
 YAIP    EP   1    157 6.484                                            152  51 
 YAIP    ES   1    15727.485                                            152  51 
 SRWZ    EP   2    15644.047                                           13.4 284 
 SRWZ    ES   2    15646.811                                           13.4 284 
 ZGXN    EP   2    157 6.054                                            150  81 
 ZGXN    ES   4    15725.108                                            150  81 
 YXLK    EP   0    15651.875                                           58.9  15 
 YXLK    ES   4    15659.088                                           58.9  15 
 XIVZ    EP   0    157 0.157                                            105 352 
 XIVZ    ES   1    15714.518                                            105 352 
 RVDG    EP   4    15654.107                                           76.9  56 
 RVDG    ES   3    157 7.452                                           76.9  56 
                                                                                

 2020  1 1  158 20.0 L  35.977  51.958 12.3       5 0.0 2.5l                   1
 Action:ARG 22-07-04 18:17 OP:OBSP STATUS:               ID:20200101015820     I
 STAT SP IPHASW D HRMM SECON CODA AMPLIT PERI AZIMU VELO AIN AR TRES W  DIS CAZ7
 YAIP    EP   2    15849.988                                            171  54 
 YAIP    ES   0    15911.446                                            171  54 
 SRWZ    EP   2    15822.584                                           9.89  44 
 SRWZ    ES   4    15824.409                                           9.89  44 
 XIVZ    EP   0    15839.943                                            108   3 
 XIVZ    ES   4    15854.296                                            108   3 
 YIBA    EP   2    15835.379                                           82.5   6 
 YIBA    ES   2    15848.899                                           82.5   6 
 EVSP    EP   3    15835.676                                           75.4 297 
 EVSP    ES   1    15846.443                                           75.4 297 
                                                                                

 2020  1 1  2 0  0.0 L  36.168  52.194  5.4       7 0.0 3.5l                   1
 Action:ARG 22-07-04 18:17 OP:OBSP STATUS:               ID:20200101020000     I
 STAT SP IPHASW D HRMM SECON CODA AMPLIT PERI AZIMU VELO AIN AR TRES W  DIS CAZ7
 XIVZ    EP   0    2 017.754                                           88.2 350 
 XIVZ    ES   1    2 031.208                                           88.2 350 
 ZSCP    EP   0    2 013.224                                           64.0  83 
 ZSCP    ES   0    2 023.215                                           64.0  83 
 YAIP    EP   1    2 025.622                                            141  56 
 YAIP    ES   3    2 044.545                                            141  56 
 YIBA    EP   2    2 013.407                                           61.8 349 
 YIBA    ES   4    2 020.725                                           61.8 349 
 RVDG    EP   1    2 013.473                                           67.6  68 
 RVDG    ES   1    2 024.686                                           67.6  68 
 EVSP    EP   0    2 017.680                                           89.2 278 
 EVSP    ES   0    2 031.395                                           89.2 278 
 TVCN    EP   1    2 0 2.021                                           9.84   3 
 TVCN    ES   2    2 0 3.692                                           9.84   3 
                                                                                

 2020  1 1  2 1 40.0 L  36.031  52.118  5.7       5 0.0 2.5l                   1
 Action:ARG 22-07-04 18:17 OP:OBSP STATUS:               ID:20200101020140     I
 STAT SP IPHASW D HRMM SECON CODA AMPLIT PERI AZIMU VELO AIN AR TRES W  DIS CAZ7
 TVCN    EP   2    2 144.961                                           26.1  16 
 TVCN    ES   2    2 149.188                                           26.1  16 
 EVSP    EP   2    2 156.706                                           86.3 289 
 EVSP    ES   4    2 2 7.409                                           86.3 289 
 ZGXN    EP   4    2 210.082                                            155  82 
 ZGXN    ES   4    2 231.182                                            155  82 
 SRWZ    EP   0    2 141.755                                           7.58 278 
 SRWZ    ES   2    2 142.815                                           7.58 278 
 YAIP    EP   0    2 2 8.218                                            155  53 
 YAIP    ES   0    2 229.310                                            155  53 
                                                                                

 2020  1 1  2 3 20.0 L  36.138  52.017 15.6       7 0.0 3.5l                   1
 Action:ARG 22-07-04 18:17 OP:OBSP STATUS:               ID:20200101020320     I
 STAT SP IPHASW D HRMM SECON CODA AMPLIT PERI AZIMU VELO AIN AR TRES W  DIS CAZ7
 YIBA    EP   3    2 331.839                                           64.2   4 
 YIBA    ES   2    2 341.852                                           64.2   4 
 XIVZ    EP   2    2 336.477                                           90.2   0 
 XIVZ    ES   0    2 349.933                                           90.2   0 
 SRWZ    EP   2    2 324.338                                           10.9 171 
 SRWZ    ES   1    2 327.050                                           10.9 171 
 YAIP    EP   0    2 347.010                                            156  58 
 YAIP    ES   0    2 4 6.971                                            156  58 
 TVCN    EP   2    2 324.555                                           21.0  51 
 TVCN    ES   3    2 329.908                                           21.0  51 
 YXLK    EP   4    2 329.665                                           52.3  35 
 YXLK    ES   1    2 338.330                                           52.3  35 
 EVSP    EP   4    2 335.931                                           74.2 283 
 EVSP    ES   4    2 343.495                                           74.2 283 
                                                                                

 2020  1 1  2 5  0.0 L  36.153  52.052 19.7       9 0.0 4.5l                   1
 Action:ARG 22-07-04 18:17 OP:OBSP STATUS:               ID:20200101020500     I
 STAT SP IPHASW D HRMM SECON CODA AMPLIT PERI AZIMU VELO AIN AR TRES W  DIS CAZ7
 XIVZ    EP   4    2 515.522                                           88.6 358 
 XIVZ    ES   1    2 529.365                                           88.6 358 
 YIBA    EP   3    2 513.220                                           62.5   1 
 YIBA    ES   1    2 520.950                                           62.5   1 
 ZGXN    EP   1    2 526.618                                            160  87 
 ZGXN    ES   4    2 548.472                                            160  87 
 ZSCP    EP   4    2 515.848                                           76.9  83 
 ZSCP    ES   0    2 525.659                                           76.9  83 
 EVSP    EP   4    2 515.942                                           76.9 281 
 EVSP    ES   4    2 526.967                                           76.9 281 
 TVCN    EP   4    2 5 2.793                                           17.6  49 
 TVCN    ES   3    2 5 9.833                                           17.6  49 
 YAIP    EP   2    2 525.358                                            153  58 
 YAIP    ES   1    2 545.972                                            153  58 
 YXLK    EP   4    2 512.074                                           49.2  33 
 YXLK    ES   0    2 517.516                                           49.2  33 
 RVDG    EP   4    2 518.041                                           80.1  70 
 RVDG    ES   0    2 526.601                                           80.1  70 
                                                                                

