 2020  1 1  123 20.0 L  36.156  51.861 15.1       5 0.0 2.5l                   1
 Action:ARG 22-07-04 18:17 OP:OBSP STATUS:               ID:20200101012320     I
 STAT SP IPHASW D HRMM SECON CODA AMPLIT PERI AZIMU VELO AIN AR TRES W  DIS CAZ7
 ZGXN    EP   1    12349.680                                            177  88 
 ZGXN    ES   0    12412.473                                            177  88 
 RVDG    EP   4    12339.661                                           96.4  73 
 RVDG    ES   1    12352.119                                           96.4  73 
 YIBA    EP   3    12333.845                                           64.8  16 
 YIBA    ES   4    12343.964                                           64.8  16 
 EVSP    EP   3    12331.304                                           60.1 284 
 EVSP    ES   3    12340.334                                           60.1 284 
 YAIP    EP   3    12349.453                                            167  61 
 YAIP    ES   4    124 9.005                                            167  61 
                                                                                

 2020  1 1  125  0.0 L  36.274  51.900  9.6       8 0.0 4.0l                   1
 Action:ARG 22-07-04 18:17 OP:OBSP STATUS:               ID:20200101012500     I
 STAT SP IPHASW D HRMM SECON CODA AMPLIT PERI AZIMU VELO AIN AR TRES W  DIS CAZ7
 YAIP    EP   2    12527.358                                            158  65 
 YAIP    ES   4    12550.326                                            158  65 
 ZGXN    EP   1    12530.672                                            173  92 
 ZGXN    ES   1    12553.102                                            173  92 
 YXLK    EP   4    12511.408                                           49.3  56 
 YXLK    ES   4    12515.252                                           49.3  56 
 XIVZ    EP   1    12514.804                                           76.0   8 
 XIVZ    ES   2    12526.975                                           76.0   8 
 SRWZ    EP   3    125 7.112                                           28.6 154 
 SRWZ    ES   0    12510.751                                           28.6 154 
 EVSP    EP   4    12511.346                                           61.7 271 
 EVSP    ES   3    12520.929                                           61.7 271 
 ZSCP    EP   4    12516.164                                           90.1  92 
 ZSCP    ES   4    12529.198                                           90.1  92 
 TVCN    EP   4    125 7.435                                           27.1  94 
 TVCN    ES   1    12510.034                                           27.1  94 
                                                                                

 2020  1 1  126 40.0 L  36.133  52.090 13.8       6 0.0 3.0l                   1
 Action:ARG 22-07-04 18:17 OP:OBSP STATUS:               ID:20200101012640     I
 STAT SP IPHASW D HRMM SECON CODA AMPLIT PERI AZIMU VELO AIN AR TRES W  DIS CAZ7
 XIVZ    EP   0    12657.364                                           91.0 356 
 XIVZ    ES   4    12712.531                                           91.0 356 
 TVCN    EP   4    12643.273                                           16.9  35 
 TVCN    ES   1    12647.258                                           16.9  35 
 EVSP    EP   1    12655.325                                           80.7 282 
 EVSP    ES   4    127 6.384                                           80.7 282 
 YIBA    EP   3    12652.105                                           64.7 358 
 YIBA    ES   4    127 3.826                                           64.7 358 
 RVDG    EP   2    12654.620                                           77.7  68 
 RVDG    ES   2    127 7.185                                           77.7  68 
 YAIP    EP   0    127 6.384                                            151  57 
 YAIP    ES   0    12726.125                                            151  57 
                                                                                

 2020  1 1  128 20.0 L  36.038  51.755 18.2       7 0.0 3.5l                   1
 Action:ARG 22-07-04 18:17 OP:OBSP STATUS:               ID:20200101012820     I
 STAT SP IPHASW D HRMM SECON CODA AMPLIT PERI AZIMU VELO AIN AR TRES W  DIS CAZ7
 ZSCP    EP   2    12839.603                                            105  77 
 ZSCP    ES   1    12853.118                                            105  77 
 XIVZ    EP   4    12839.942                                            104  13 
 XIVZ    ES   0    12853.060                                            104  13 
 SRWZ    EP   1    12826.493                                           25.2  89 
 SRWZ    ES   3    12831.546                                           25.2  89 
 RVDG    EP   0    12839.538                                            109  68 
 RVDG    ES   0    12854.314                                            109  68 
 EVSP    EP   0    12831.105                                           56.1 299 
 EVSP    ES   0    12839.732                                           56.1 299 
 YXLK    EP   2    12835.106                                           76.1  45 
 YXLK    ES   1    12845.728                                           76.1  45 
 TVCN    EP   0    12829.769                                           46.8  58 
 TVCN    ES   3    12837.722                                           46.8  58 
                                                                                

 2020  1 1  130  0.0 L  35.787  52.166 17.7       9 0.0 4.5l                   1
 Action:ARG 22-07-04 18:17 OP:OBSP STATUS:               ID:20200101013000     I
 STAT SP IPHASW D HRMM SECON CODA AMPLIT PERI AZIMU VELO AIN AR TRES W  DIS CAZ7
 YXLK    EP   0    13016.002                                           83.3  11 
 YXLK    ES   0    13027.495                                           83.3  11 
 SRWZ    EP   4    130 8.571                                           30.6 337 
 SRWZ    ES   4    13015.082                                           30.6 337 
 XIVZ    EP   0    13022.762                                            129 354 
 XIVZ    ES   3    13039.083                                            129 354 
 ZGXN    EP   0    13026.719                                            156  72 
 ZGXN    ES   2    13046.199                                            156  72 
 YAIP    EP   2    13028.059                                            170  45 
 YAIP    ES   3    13051.137                                            170  45 
 EVSP    EP   0    13018.803                                            102 303 
 EVSP    ES   2    13033.320                                            102 303 
 TVCN    EP   4    130 9.211                                           52.2   3 
 TVCN    ES   0    13018.577                                           52.2   3 
 RVDG    EP   2    13016.875                                           93.8  44 
 RVDG    ES   4    13031.938                                           93.8  44 
 ZSCP    EP   1    13016.053                                           82.6  53 
 ZSCP    ES   0    13027.474                                           82.6  53 
                                                                                

 2020  1 1  131 40.0 L  36.007  51.940 12.6       6 0.0 3.0l                   1
 Action:ARG 22-07-04 18:17 OP:OBSP STATUS:               ID:20200101013140     I
 STAT SP IPHASW D HRMM SECON CODA AMPLIT PERI AZIMU VELO AIN AR TRES W  DIS CAZ7
 SRWZ    EP   0    13143.306                                           9.31  66 
 SRWZ    ES   3    13146.360                                           9.31  66 
 XIVZ    EP   0    13159.456                                            104   4 
 XIVZ    ES   4    13212.439                                            104   4 
 YAIP    EP   2    132 9.999                                            170  55 
 YAIP    ES   0    13231.218                                            170  55 
 YXLK    EP   1    13153.894                                           68.2  33 
 YXLK    ES   4    132 4.798                                           68.2  33 
 RVDG    EP   1    13158.643                                           95.7  63 
 RVDG    ES   4    13210.996                                           95.7  63 
 ZGXN    EP   3    13210.250                                            171  82 
 ZGXN    ES   1    13232.088                                            171  82 
                                                                                

 2020  1 1  133 20.0 L  36.070  51.693 13.8       5 0.0 2.5l                   1
 Action:ARG 22-07-04 18:17 OP:OBSP STATUS:               ID:20200101013320     I
 STAT SP IPHASW D HRMM SECON CODA AMPLIT PERI AZIMU VELO AIN AR TRES W  DIS CAZ7
 YXLK    EP   0    13335.230                                           77.8  49 
 YXLK    ES   3    13345.835                                           77.8  49 
 EVSP    EP   3    13329.148                                           49.5 299 
 EVSP    ES   4    13338.963                                           49.5 299 
 YAIP    EP   4    13352.905                                            185  61 
 YAIP    ES   1    13414.747                                            185  61 
 RVDG    EP   3    13339.902                                            113  71 
 RVDG    ES   0    13356.258                                            113  71 
 ZSCP    EP   4    13339.025                                            110  80 
 ZSCP    ES   3    13356.499                                            110  80 
                                                                                

 2020  1 1  135  0.0 L  35.808  52.189  5.5       9 0.0 4.5l                   1
 Action:ARG 22-07-04 18:17 OP:OBSP STATUS:               ID:20200101013500     I
 STAT SP IPHASW D HRMM SECON CODA AMPLIT PERI AZIMU VELO AIN AR TRES W  DIS CAZ7
 ZSCP    EP   2    13515.370                                           79.5  53 
 ZSCP    ES   2    13527.455                                           79.5  53 
 SRWZ    EP   0    135 6.190                                           29.4 331 
 SRWZ    ES   4    13512.214                                           29.4 331 
 YAIP    EP   4    13531.036                                            167  45 
 YAIP    ES   0    13552.235                                            167  45 
 RVDG    EP   4    13519.341                                           90.7  44 
 RVDG    ES   1    13532.115                                           90.7  44 
 XIVZ    EP   3    13524.916                                            127 353 
 XIVZ    ES   4    13543.024                                            127 353 
 YXLK    EP   3    13517.124                                           80.6  10 
 YXLK    ES   1    13527.985                                           80.6  10 
 YIBA    EP   0    13519.952                                            101 353 
 YIBA    ES   1    13535.350                                            101 353 
 TVCN    EP   0    13510.542                                           49.8   1 
 TVCN    ES   2    13518.700                                           49.8   1 
 ZGXN    EP   1    13528.203                                            154  73 
 ZGXN    ES   3    13549.571                                            154  73 
                                                                                

 2020  1 1  136 40.0 L  35.707  52.078  8.6       5 0.0 2.5l                   1
 Action:ARG 22-07-04 18:17 OP:OBSP STATUS:               ID:20200101013640     I
 STAT SP IPHASW D HRMM SECON CODA AMPLIT PERI AZIMU VELO AIN AR TRES W  DIS CAZ7
 ZGXN    EP   3    13710.133                                            167  70 
 ZGXN    ES   0    13731.177                                            167  70 
 ZSCP    EP   4    13659.847                                           94.3  51 
 ZSCP    ES   0    13712.053                                           94.3  51 
 YXLK    EP   0    13658.511                                           93.8  15 
 YXLK    ES   0    13712.006                                           93.8  15 
 YAIP    EP   0    13711.440                                            182  44 
 YAIP    ES   4    13734.009                                            182  44 
 EVSP    EP   3    13658.825                                            101 309 
 EVSP    ES   2    13713.708                                            101 309 
                                                                                

 2020  1 1  138 20.0 L  35.639  51.991 17.0       9 0.0 4.5l                   1
 Action:ARG 22-07-04 18:17 OP:OBSP STATUS:               ID:20200101013820     I
 STAT SP IPHASW D HRMM SECON CODA AMPLIT PERI AZIMU VELO AIN AR TRES W  DIS CAZ7
 YXLK    EP   1    13839.263                                            103  18 
 YXLK    ES   2    13852.518                                            103  18 
 TVCN    EP   4    13832.575                                           71.1  15 
 TVCN    ES   1    13844.737                                           71.1  15 
 XIVZ    EP   1    13844.948                                            145   1 
 XIVZ    ES   4    139 5.434                                            145   1 
 ZSCP    EP   2    13839.961                                            105  51 
 ZSCP    ES   0    13853.779                                            105  51 
 YIBA    EP   0    13841.440                                            119   3 
 YIBA    ES   4    13856.375                                            119   3 
 SRWZ    EP   3    13828.570                                           44.8   5 
 SRWZ    ES   4    13835.141                                           44.8   5 
 YAIP    EP   4    13853.834                                            193  44 
 YAIP    ES   2    13917.038                                            193  44 
 ZGXN    EP   0    13849.993                                            177  69 
 ZGXN    ES   3    13911.395                                            177  69 
 EVSP    EP   1    13838.940                                            100 316 
 EVSP    ES   3    13853.326                                            100 316 
                                                                                

 2020  1 1  140  0.0 L  36.091  52.251 11.2       6 0.0 3.0l                   1
 Action:ARG 22-07-04 18:17 OP:OBSP STATUS:               ID:20200101014000     I
 STAT SP IPHASW D HRMM SECON CODA AMPLIT PERI AZIMU VELO AIN AR TRES W  DIS CAZ7
 YIBA    EP   0    14014.012                                           71.2 346 
 YIBA    ES   0    14024.501                                           71.2 346 
 SRWZ    EP   1    140 5.186                                           20.2 253 
 SRWZ    ES   3    140 7.410                                           20.2 253 
 ZSCP    EP   1    14012.540                                           60.5  75 
 ZSCP    ES   4    14020.031                                           60.5  75 
 TVCN    EP   0    140 4.602                                           18.8 346 
 TVCN    ES   4    140 6.242                                           18.8 346 
 EVSP    EP   3    14017.615                                           95.8 283 
 EVSP    ES   4    14033.475                                           95.8 283 
 XIVZ    EP   4    14020.755                                           97.5 348 
 XIVZ    ES   1    14032.290                                           97.5 348 
                                                                                

 2020  1 1  141 40.0 L  35.827  51.994  7.6       7 0.0 3.5l                   1
 Action:ARG 22-07-04 18:17 OP:OBSP STATUS:               ID:20200101014140     I
 STAT SP IPHASW D HRMM SECON CODA AMPLIT PERI AZIMU VELO AIN AR TRES W  DIS CAZ7
 YAIP    EP   1    14211.454                                            178  49 
 YAIP    ES   0    14234.498                                            178  49 
 EVSP    EP   1    14157.668                                           87.1 306 
 EVSP    ES   0    14210.036                                           87.1 306 
 TVCN    EP   1    14150.986                                           51.2  21 
 TVCN    ES   1    14158.139                                           51.2  21 
 YIBA    EP   4    142 0.679                                           98.9   3 
 YIBA    ES   1    14214.214                                           98.9   3 
 YXLK    EP   3    14157.485                                           83.7  22 
 YXLK    ES   2    142 8.537                                           83.7  22 
 ZGXN    EP   0    142 9.874                                            170  75 
 ZGXN    ES   2    14231.895                                            170  75 
 XIVZ    EP   4    142 1.967                                            124   1 
 XIVZ    ES   4    14219.399                                            124   1 
                                                                                

 2020  1 1  143 20.0 L  36.440  52.285 13.2       8 0.0 4.0l                   1
 Action:ARG 22-07-04 18:17 OP:OBSP STATUS:               ID:20200101014320     I
 STAT SP IPHASW D HRMM SECON CODA AMPLIT PERI AZIMU VELO AIN AR TRES W  DIS CAZ7
 EVSP    EP   3    14339.420                                           97.6 260 
 EVSP    ES   0    14352.530                                           97.6 260 
 XIVZ    EP   4    14333.304                                           61.3 337 
 XIVZ    ES   1    14341.940                                           61.3 337 
 YXLK    EP   3    14324.379                                           11.1  35 
 YXLK    ES   0    14325.958                                           11.1  35 
 RVDG    EP   4    14332.280                                           54.9  95 
 RVDG    ES   0    14339.471                                           54.9  95 
 TVCN    EP   2    14325.643                                           21.7 200 
 TVCN    ES   1    14329.305                                           21.7 200 
 ZGXN    EP   4    14346.767                                            141 100 
 ZGXN    ES   1    144 4.014                                            141 100 
 YAIP    EP   2    14342.484                                            119  66 
 YAIP    ES   2    14358.845                                            119  66 
 SRWZ    EP   4    14331.493                                           49.6 206 
 SRWZ    ES   3    14336.822                                           49.6 206 
                                                                                

