 2020  1 1  2 6 40.0 L  35.456  51.931 13.9       8 0.0 4.0l                   1
 Action:ARG 22-07-04 18:17 OP:OBSP STATUS:               ID:20200101020640     I
 STAT SP IPHASW D HRMM SECON CODA AMPLIT PERI AZIMU VELO AIN AR TRES W  DIS CAZ7
 TVCN    EP   3    2 656.795                                           92.1  15 
 TVCN    ES   4    2 7 9.104                                           92.1  15 
 RVDG    EP   0    2 7 4.257                                            135  39 
 RVDG    ES   1    2 721.687                                            135  39 
 SRWZ    EP   3    2 652.270                                           65.6   8 
 SRWZ    ES   4    2 7 0.756                                           65.6   8 
 ZSCP    EP   0    2 7 2.242                                            122  45 
 ZSCP    ES   3    2 718.058                                            122  45 
 ZGXN    EP   1    2 711.834                                            190  64 
 ZGXN    ES   4    2 734.741                                            190  64 
 YAIP    EP   3    2 714.375                                            211  41 
 YAIP    ES   2    2 741.020                                            211  41 
 YXLK    EP   3    2 7 1.606                                            124  17 
 YXLK    ES   2    2 719.774                                            124  17 
 EVSP    EP   4    2 659.278                                            112 325 
 EVSP    ES   1    2 715.911                                            112 325 
                                                                                

 2020  1 1  2 8 20.0 L  36.489  52.232 10.9       7 0.0 3.5l                   1
 Action:ARG 22-07-04 18:17 OP:OBSP STATUS:               ID:20200101020820     I
 STAT SP IPHASW D HRMM SECON CODA AMPLIT PERI AZIMU VELO AIN AR TRES W  DIS CAZ7
 SRWZ    EP   1    2 830.369                                           52.8 199 
 SRWZ    ES   4    2 840.364                                           52.8 199 
 RVDG    EP   2    2 831.418                                           60.3 100 
 RVDG    ES   1    2 841.433                                           60.3 100 
 YXLK    EP   1    2 822.800                                           11.7  72 
 YXLK    ES   2    2 826.382                                           11.7  72 
 EVSP    EP   2    2 837.575                                           94.1 256 
 EVSP    ES   4    2 852.906                                           94.1 256 
 ZSCP    EP   4    2 834.278                                           66.5 115 
 ZSCP    ES   0    2 843.235                                           66.5 115 
 TVCN    EP   4    2 827.152                                           26.0 186 
 TVCN    ES   4    2 829.002                                           26.0 186 
 YIBA    EP   2    2 825.761                                           29.1 329 
 YIBA    ES   1    2 831.530                                           29.1 329 
                                                                                

 2020  1 1  210  0.0 L  35.978  52.099  7.6       7 0.0 3.5l                   1
 Action:ARG 22-07-04 18:17 OP:OBSP STATUS:               ID:20200101021000     I
 STAT SP IPHASW D HRMM SECON CODA AMPLIT PERI AZIMU VELO AIN AR TRES W  DIS CAZ7
 ZGXN    EP   4    21031.951                                            157  80 
 ZGXN    ES   4    21048.002                                            157  80 
 YXLK    EP   0    21013.228                                           64.6  20 
 YXLK    ES   4    21024.251                                           64.6  20 
 XIVZ    EP   0    21020.759                                            108 356 
 XIVZ    ES   0    21036.335                                            108 356 
 YIBA    EP   1    21015.983                                           81.9 358 
 YIBA    ES   4    21030.462                                           81.9 358 
 ZSCP    EP   4    21013.753                                           77.5  68 
 ZSCP    ES   0    21027.205                                           77.5  68 
 EVSP    EP   4    21018.498                                           86.8 293 
 EVSP    ES   4    21033.426                                           86.8 293 
 SRWZ    EP   2    210 1.774                                           9.06 320 
 SRWZ    ES   2    210 4.884                                           9.06 320 
                                                                                

 2020  1 1  211 40.0 L  35.973  51.969 12.5       6 0.0 3.0l                   1
 Action:ARG 22-07-04 18:17 OP:OBSP STATUS:               ID:20200101021140     I
 STAT SP IPHASW D HRMM SECON CODA AMPLIT PERI AZIMU VELO AIN AR TRES W  DIS CAZ7
 YIBA    EP   4    21155.004                                           82.8   6 
 YIBA    ES   4    212 6.574                                           82.8   6 
 YAIP    EP   4    212 8.127                                            170  54 
 YAIP    ES   3    21232.179                                            170  54 
 XIVZ    EP   3    212 1.223                                            108   2 
 XIVZ    ES   2    21214.868                                            108   2 
 ZGXN    EP   0    212 9.315                                            169  81 
 ZGXN    ES   0    21231.043                                            169  81 
 YXLK    EP   4    21155.281                                           70.0  29 
 YXLK    ES   3    212 3.516                                           70.0  29 
 ZSCP    EP   2    21156.608                                           88.6  70 
 ZSCP    ES   2    21210.724                                           88.6  70 
                                                                                

 2020  1 1  213 20.0 L  35.749  52.004 19.7       6 0.0 3.0l                   1
 Action:ARG 22-07-04 18:17 OP:OBSP STATUS:               ID:20200101021320     I
 STAT SP IPHASW D HRMM SECON CODA AMPLIT PERI AZIMU VELO AIN AR TRES W  DIS CAZ7
 SRWZ    EP   2    21327.827                                           32.5   4 
 SRWZ    ES   3    21333.553                                           32.5   4 
 ZGXN    EP   3    21349.640                                            172  72 
 ZGXN    ES   4    21412.997                                            172  72 
 EVSP    EP   3    21336.344                                           93.1 310 
 EVSP    ES   0    21350.153                                           93.1 310 
 YIBA    EP   4    21337.728                                            107   3 
 YIBA    ES   4    21354.803                                            107   3 
 RVDG    EP   4    21338.046                                            107  48 
 RVDG    ES   4    21355.121                                            107  48 
 YXLK    EP   2    21336.379                                           91.4  20 
 YXLK    ES   2    21350.190                                           91.4  20 
                                                                                

 2020  1 1  215  0.0 L  35.777  51.884 16.6       7 0.0 3.5l                   1
 Action:ARG 22-07-04 18:17 OP:OBSP STATUS:               ID:20200101021500     I
 STAT SP IPHASW D HRMM SECON CODA AMPLIT PERI AZIMU VELO AIN AR TRES W  DIS CAZ7
 RVDG    EP   3    21519.627                                            113  52 
 RVDG    ES   3    21536.804                                            113  52 
 XIVZ    EP   4    21524.762                                            130   5 
 XIVZ    ES   4    21537.708                                            130   5 
 TVCN    EP   4    21514.225                                           60.3  28 
 TVCN    ES   4    21520.151                                           60.3  28 
 EVSP    EP   2    21516.563                                           82.9 313 
 EVSP    ES   0    21528.014                                           82.9 313 
 SRWZ    EP   4    215 8.357                                           32.3  24 
 SRWZ    ES   1    21512.074                                           32.3  24 
 YAIP    EP   3    21532.594                                            189  50 
 YAIP    ES   4    21556.639                                            189  50 
 YXLK    EP   2    21518.130                                           92.9  27 
 YXLK    ES   1    21530.278                                           92.9  27 
                                                                                

 2020  1 1  216 40.0 L  35.934  52.056 13.1       9 0.0 4.5l                   1
 Action:ARG 22-07-04 18:17 OP:OBSP STATUS:               ID:20200101021640     I
 STAT SP IPHASW D HRMM SECON CODA AMPLIT PERI AZIMU VELO AIN AR TRES W  DIS CAZ7
 SRWZ    EP   2    21644.302                                           12.0 351 
 SRWZ    ES   1    21645.868                                           12.0 351 
 ZGXN    EP   2    217 7.515                                            162  79 
 ZGXN    ES   2    21729.750                                            162  79 
 RVDG    EP   1    21657.693                                           90.9  55 
 RVDG    ES   1    21710.794                                           90.9  55 
 YXLK    EP   3    21653.168                                           70.6  22 
 YXLK    ES   0    217 4.440                                           70.6  22 
 ZSCP    EP   4    21653.878                                           83.0  66 
 ZSCP    ES   4    217 6.975                                           83.0  66 
 YIBA    EP   4    21658.477                                           86.8   0 
 YIBA    ES   0    217 9.245                                           86.8   0 
 YAIP    EP   1    217 8.215                                            166  51 
 YAIP    ES   3    21731.075                                            166  51 
 TVCN    EP   2    21648.613                                           38.1  19 
 TVCN    ES   1    21653.613                                           38.1  19 
 XIVZ    EP   1    217 1.087                                            112 358 
 XIVZ    ES   2    21715.644                                            112 358 
                                                                                

 2020  1 1  218 20.0 L  35.961  52.111 17.9       6 0.0 3.0l                   1
 Action:ARG 22-07-04 18:17 OP:OBSP STATUS:               ID:20200101021820     I
 STAT SP IPHASW D HRMM SECON CODA AMPLIT PERI AZIMU VELO AIN AR TRES W  DIS CAZ7
 SRWZ    EP   0    21823.823                                           11.2 322 
 SRWZ    ES   2    21826.596                                           11.2 322 
 XIVZ    EP   3    21840.796                                            110 355 
 XIVZ    ES   2    21854.245                                            110 355 
 YAIP    EP   1    21846.993                                            161  51 
 YAIP    ES   0    219 7.704                                            161  51 
 RVDG    EP   2    21835.459                                           85.1  55 
 RVDG    ES   4    21850.038                                           85.1  55 
 YIBA    EP   1    21836.222                                           83.8 357 
 YIBA    ES   1    21848.166                                           83.8 357 
 ZGXN    EP   1    21846.371                                            157  80 
 ZGXN    ES   3    219 7.714                                            157  80 
                                                                                

 2020  1 1  220  0.0 L  36.048  52.221  8.5       8 0.0 4.0l                   1
 Action:ARG 22-07-04 18:17 OP:OBSP STATUS:               ID:20200101022000     I
 STAT SP IPHASW D HRMM SECON CODA AMPLIT PERI AZIMU VELO AIN AR TRES W  DIS CAZ7
 SRWZ    EP   0    220 4.101                                           16.7 267 
 SRWZ    ES   1    220 7.210                                           16.7 267 
 YIBA    EP   4    22016.068                                           75.4 349 
 YIBA    ES   0    22026.193                                           75.4 349 
 EVSP    EP   3    22017.700                                           94.5 286 
 EVSP    ES   4    22033.357                                           94.5 286 
 YXLK    EP   2    22011.600                                           53.9  13 
 YXLK    ES   4    22021.068                                           53.9  13 
 ZSCP    EP   2    22012.436                                           64.5  71 
 ZSCP    ES   4    22020.619                                           64.5  71 
 ZGXN    EP   4    22027.329                                            145  83 
 ZGXN    ES   4    22043.523                                            145  83 
 XIVZ    EP   0    22019.919                                            101 350 
 XIVZ    ES   0    22034.515                                            101 350 
 YAIP    EP   4    22027.522                                            147  51 
 YAIP    ES   0    22046.016                                            147  51 
                                                                                

 2020  1 1  221 40.0 L  35.576  52.490 12.7      10 0.0 5.0l                   1
 Action:ARG 22-07-04 18:17 OP:OBSP STATUS:               ID:20200101022140     I
 STAT SP IPHASW D HRMM SECON CODA AMPLIT PERI AZIMU VELO AIN AR TRES W  DIS CAZ7
 YAIP    EP   3    222 8.315                                            170  32 
 YAIP    ES   3    22230.463                                            170  32 
 ZSCP    EP   0    22155.985                                           81.6  26 
 ZSCP    ES   3    222 7.148                                           81.6  26 
 SRWZ    EP   4    22151.059                                           65.9 321 
 SRWZ    ES   1    222 3.392                                           65.9 321 
 XIVZ    EP   0    222 7.315                                            158 344 
 XIVZ    ES   4    22226.821                                            158 344 
 TVCN    EP   4    22157.333                                           79.9 341 
 TVCN    ES   4    222 9.107                                           79.9 341 
 EVSP    EP   4    222 6.557                                            139 304 
 EVSP    ES   1    22223.898                                            139 304 
 YIBA    EP   2    222 4.365                                            132 343 
 YIBA    ES   3    22222.373                                            132 343 
 YXLK    EP   1    22159.304                                            105 353 
 YXLK    ES   4    22213.475                                            105 353 
 ZGXN    EP   2    222 5.376                                            139  60 
 ZGXN    ES   0    22223.285                                            139  60 
 RVDG    EP   2    22157.854                                           97.5  21 
 RVDG    ES   1    22212.925                                           97.5  21 
                                                                                

 2020  1 1  223 20.0 L  36.202  51.855 19.3       6 0.0 3.0l                   1
 Action:ARG 22-07-04 18:17 OP:OBSP STATUS:               ID:20200101022320     I
 STAT SP IPHASW D HRMM SECON CODA AMPLIT PERI AZIMU VELO AIN AR TRES W  DIS CAZ7
 TVCN    EP   1    22327.496                                           31.6  78 
 TVCN    ES   4    22330.631                                           31.6  78 
 YIBA    EP   1    22331.465                                           60.2  18 
 YIBA    ES   2    22341.356                                           60.2  18 
 ZGXN    EP   4    22348.273                                            177  89 
 ZGXN    ES   4    22413.269                                            177  89 
 XIVZ    EP   4    22334.244                                           84.5  10 
 XIVZ    ES   1    22347.479                                           84.5  10 
 RVDG    EP   4    22336.464                                           95.6  76 
 RVDG    ES   2    22350.096                                           95.6  76 
 YXLK    EP   1    22330.992                                           57.3  51 
 YXLK    ES   1    22339.610                                           57.3  51 
                                                                                

 2020  1 1  225  0.0 L  35.944  52.565 13.7       5 0.0 2.5l                   1
 Action:ARG 22-07-04 18:17 OP:OBSP STATUS:               ID:20200101022500     I
 STAT SP IPHASW D HRMM SECON CODA AMPLIT PERI AZIMU VELO AIN AR TRES W  DIS CAZ7
 XIVZ    EP   1    22521.622                                            121 336 
 XIVZ    ES   4    22537.010                                            121 336 
 ZGXN    EP   2    22520.870                                            117  76 
 ZGXN    ES   4    22538.959                                            117  76 
 ZSCP    EP   4    225 7.578                                           43.9  43 
 ZSCP    ES   4    22517.316                                           43.9  43 
 RVDG    EP   4    225 8.655                                           57.7  30 
 RVDG    ES   0    22520.238                                           57.7  30 
 SRWZ    EP   0    225 9.994                                           49.0 282 
 SRWZ    ES   0    22517.542                                           49.0 282 
                                                                                

 2020  1 1  226 40.0 L  35.949  52.010 11.9       6 0.0 3.0l                   1
 Action:ARG 22-07-04 18:17 OP:OBSP STATUS:               ID:20200101022640     I
 STAT SP IPHASW D HRMM SECON CODA AMPLIT PERI AZIMU VELO AIN AR TRES W  DIS CAZ7
 YXLK    EP   2    22653.413                                           70.7  26 
 YXLK    ES   4    227 2.495                                           70.7  26 
 XIVZ    EP   4    227 2.496                                            111   0 
 XIVZ    ES   4    22715.092                                            111   0 
 YIBA    EP   3    22657.620                                           85.2   3 
 YIBA    ES   0    227 9.216                                           85.2   3 
 EVSP    EP   3    22656.895                                           81.0 297 
 EVSP    ES   2    227 8.460                                           81.0 297 
 RVDG    EP   4    22656.849                                           93.4  58 
 RVDG    ES   4    22710.487                                           93.4  58 
 YAIP    EP   0    227 9.288                                            169  52 
 YAIP    ES   2    22730.504                                            169  52 
                                                                                

