 2020  1 1  043 20.0 L  35.921  52.067 11.3       8 0.0 4.0l                   1
 Action:ARG 22-07-04 18:17 OP:OBSP STATUS:               ID:20200101004320     I
 STAT SP IPHASW D HRMM SECON CODA AMPLIT PERI AZIMU VELO AIN AR TRES W  DIS CAZ7
 ZSCP    EP   1    04335.834                                           82.6  65 
 ZSCP    ES   3    04349.333                                           82.6  65 
 YXLK    EP   1    04333.692                                           71.5  21 
 YXLK    ES   1    04344.459                                           71.5  21 
 YAIP    EP   2    04348.196                                            167  50 
 YAIP    ES   4    044 8.882                                            167  50 
 ZGXN    EP   4    04346.389                                            161  78 
 ZGXN    ES   0    044 9.147                                            161  78 
 XIVZ    EP   4    04339.862                                            114 358 
 XIVZ    ES   4    04355.751                                            114 358 
 TVCN    EP   1    04328.542                                           39.1  17 
 TVCN    ES   3    04335.110                                           39.1  17 
 EVSP    EP   1    04336.481                                           87.0 298 
 EVSP    ES   0    04349.740                                           87.0 298 
 SRWZ    EP   4    04325.018                                           13.6 347 
 SRWZ    ES   0    04326.089                                           13.6 347 
                                                                                

 2020  1 1  045  0.0 L  35.922  51.745  5.4      10 0.0 5.0l                   1
 Action:ARG 22-07-04 18:17 OP:OBSP STATUS:               ID:20200101004500     I
 STAT SP IPHASW D HRMM SECON CODA AMPLIT PERI AZIMU VELO AIN AR TRES W  DIS CAZ7
 YXLK    EP   4    04515.658                                           86.3  39 
 YXLK    ES   4    04528.401                                           86.3  39 
 TVCN    EP   4    04512.446                                           55.3  47 
 TVCN    ES   0    04519.903                                           55.3  47 
 RVDG    EP   3    04523.158                                            115  62 
 RVDG    ES   4    04537.355                                            115  62 
 YAIP    EP   0    04533.385                                            190  56 
 YAIP    ES   0    04557.964                                            190  56 
 SRWZ    EP   2    045 6.889                                           29.3  63 
 SRWZ    ES   1    04510.636                                           29.3  63 
 ZSCP    EP   3    04522.207                                            109  71 
 ZSCP    ES   3    04538.222                                            109  71 
 YIBA    EP   4    04519.813                                           92.8  18 
 YIBA    ES   4    04530.228                                           92.8  18 
 XIVZ    EP   4    04521.108                                            116  12 
 XIVZ    ES   4    04540.513                                            116  12 
 ZGXN    EP   4    04535.734                                            190  80 
 ZGXN    ES   2    04558.522                                            190  80 
 EVSP    EP   1    04512.582                                           62.8 310 
 EVSP    ES   4    04523.813                                           62.8 310 
                                                                                

 2020  1 1  046 40.0 L  36.131  51.953  8.3      10 0.0 5.0l                   1
 Action:ARG 22-07-04 18:17 OP:OBSP STATUS:               ID:20200101004640     I
 STAT SP IPHASW D HRMM SECON CODA AMPLIT PERI AZIMU VELO AIN AR TRES W  DIS CAZ7
 SRWZ    EP   4    04641.863                                           12.4 143 
 SRWZ    ES   4    04646.815                                           12.4 143 
 YAIP    EP   3    047 9.471                                            162  59 
 YAIP    ES   4    04732.017                                            162  59 
 XIVZ    EP   1    04657.545                                           91.2   3 
 XIVZ    ES   0    04711.402                                           91.2   3 
 YIBA    EP   4    04654.391                                           65.7   9 
 YIBA    ES   2    047 2.557                                           65.7   9 
 ZSCP    EP   4    04658.691                                           86.0  82 
 ZSCP    ES   3    04710.679                                           86.0  82 
 ZGXN    EP   1    047 9.878                                            169  87 
 ZGXN    ES   4    04730.218                                            169  87 
 EVSP    EP   4    04652.107                                           68.8 284 
 EVSP    ES   4    047 1.581                                           68.8 284 
 YXLK    EP   4    04654.240                                           56.4  39 
 YXLK    ES   0    047 0.401                                           56.4  39 
 RVDG    EP   1    04657.130                                           89.3  70 
 RVDG    ES   2    04710.219                                           89.3  70 
 TVCN    EP   2    04645.028                                           26.2  57 
 TVCN    ES   2    04649.416                                           26.2  57 
                                                                                

 2020  1 1  048 20.0 L  36.208  52.188 11.6       5 0.0 2.5l                   1
 Action:ARG 22-07-04 18:17 OP:OBSP STATUS:               ID:20200101004820     I
 STAT SP IPHASW D HRMM SECON CODA AMPLIT PERI AZIMU VELO AIN AR TRES W  DIS CAZ7
 EVSP    EP   4    04836.006                                           88.0 276 
 EVSP    ES   4    04848.645                                           88.0 276 
 XIVZ    EP   0    04836.523                                           83.7 349 
 XIVZ    ES   2    04849.224                                           83.7 349 
 TVCN    EP   4    04823.864                                           5.47  12 
 TVCN    ES   4    04826.619                                           5.47  12 
 YIBA    EP   2    04830.986                                           57.3 349 
 YIBA    ES   1    04839.733                                           57.3 349 
 RVDG    EP   1    04832.915                                           66.6  72 
 RVDG    ES   0    04843.369                                           66.6  72 
                                                                                

 2020  1 1  050  0.0 L  36.198  52.064 12.4       9 0.0 4.5l                   1
 Action:ARG 22-07-04 18:17 OP:OBSP STATUS:               ID:20200101005000     I
 STAT SP IPHASW D HRMM SECON CODA AMPLIT PERI AZIMU VELO AIN AR TRES W  DIS CAZ7
 YIBA    EP   1    05012.015                                           57.5   0 
 YIBA    ES   0    05020.143                                           57.5   0 
 ZGXN    EP   2    05026.973                                            159  89 
 ZGXN    ES   0    05048.620                                            159  89 
 YAIP    EP   4    05024.140                                            149  59 
 YAIP    ES   4    05048.951                                            149  59 
 ZSCP    EP   2    05014.229                                           75.4  87 
 ZSCP    ES   4    05027.251                                           75.4  87 
 SRWZ    EP   4    050 2.941                                           17.6 188 
 SRWZ    ES   3    050 8.410                                           17.6 188 
 EVSP    EP   2    05014.611                                           77.1 277 
 EVSP    ES   0    05026.783                                           77.1 277 
 YXLK    EP   3    050 8.219                                           44.4  36 
 YXLK    ES   1    05016.438                                           44.4  36 
 TVCN    EP   1    050 4.108                                           13.9  62 
 TVCN    ES   4    050 5.351                                           13.9  62 
 RVDG    EP   1    05015.771                                           77.6  73 
 RVDG    ES   4    05028.150                                           77.6  73 
                                                                                

 2020  1 1  051 40.0 L  36.280  51.831  8.5       9 0.0 4.5l                   1
 Action:ARG 22-07-04 18:17 OP:OBSP STATUS:               ID:20200101005140     I
 STAT SP IPHASW D HRMM SECON CODA AMPLIT PERI AZIMU VELO AIN AR TRES W  DIS CAZ7
 YAIP    EP   4    05210.016                                            164  66 
 YAIP    ES   0    05230.507                                            164  66 
 ZSCP    EP   4    052 1.909                                           96.3  92 
 ZSCP    ES   0    05212.744                                           96.3  92 
 YXLK    EP   0    05151.140                                           54.2  60 
 YXLK    ES   1    05159.853                                           54.2  60 
 EVSP    EP   4    05152.400                                           55.5 271 
 EVSP    ES   4    052 1.519                                           55.5 271 
 XIVZ    EP   4    05153.435                                           76.4  12 
 XIVZ    ES   4    052 5.375                                           76.4  12 
 SRWZ    EP   4    05148.337                                           32.3 145 
 SRWZ    ES   1    05151.823                                           32.3 145 
 TVCN    EP   1    05146.735                                           33.3  94 
 TVCN    ES   0    05152.341                                           33.3  94 
 RVDG    EP   4    052 0.548                                           96.2  82 
 RVDG    ES   1    05213.100                                           96.2  82 
 ZGXN    EP   3    05210.434                                            180  92 
 ZGXN    ES   4    05233.161                                            180  92 
                                                                                

 2020  1 1  053 20.0 L  35.933  52.115  8.5       5 0.0 2.5l                   1
 Action:ARG 22-07-04 18:17 OP:OBSP STATUS:               ID:20200101005320     I
 STAT SP IPHASW D HRMM SECON CODA AMPLIT PERI AZIMU VELO AIN AR TRES W  DIS CAZ7
 SRWZ    EP   4    05325.759                                           13.9 329 
 SRWZ    ES   2    05326.606                                           13.9 329 
 YIBA    EP   4    05335.639                                           86.9 357 
 YIBA    ES   1    05349.719                                           86.9 357 
 RVDG    EP   4    05338.928                                           86.6  53 
 RVDG    ES   4    05352.138                                           86.6  53 
 XIVZ    EP   1    05341.739                                            113 355 
 XIVZ    ES   0    05357.513                                            113 355 
 ZGXN    EP   0    05348.072                                            157  79 
 ZGXN    ES   4    05410.403                                            157  79 
                                                                                

 2020  1 1  055  0.0 L  35.983  52.109  8.3       5 0.0 2.5l                   1
 Action:ARG 22-07-04 18:17 OP:OBSP STATUS:               ID:20200101005500     I
 STAT SP IPHASW D HRMM SECON CODA AMPLIT PERI AZIMU VELO AIN AR TRES W  DIS CAZ7
 YXLK    EP   4    05511.294                                           63.7  20 
 YXLK    ES   0    05522.597                                           63.7  20 
 EVSP    EP   3    05518.241                                           87.5 293 
 EVSP    ES   2    05530.941                                           87.5 293 
 YAIP    EP   2    05528.908                                            159  51 
 YAIP    ES   4    05548.399                                            159  51 
 ZGXN    EP   4    05529.754                                            156  81 
 ZGXN    ES   2    05547.966                                            156  81 
 YIBA    EP   0    05516.130                                           81.4 357 
 YIBA    ES   0    05528.305                                           81.4 357 
                                                                                

 2020  1 1  056 40.0 L  36.340  52.253 11.9       9 0.0 4.5l                   1
 Action:ARG 22-07-04 18:17 OP:OBSP STATUS:               ID:20200101005640     I
 STAT SP IPHASW D HRMM SECON CODA AMPLIT PERI AZIMU VELO AIN AR TRES W  DIS CAZ7
 EVSP    EP   4    05659.219                                           93.5 266 
 EVSP    ES   1    05711.284                                           93.5 266 
 YXLK    EP   4    05642.808                                           22.2  24 
 YXLK    ES   3    05649.673                                           22.2  24 
 YAIP    EP   2    057 2.528                                            127  62 
 YAIP    ES   2    05719.763                                            127  62 
 XIVZ    EP   1    05653.589                                           70.8 343 
 XIVZ    ES   4    057 5.620                                           70.8 343 
 ZGXN    EP   4    057 6.671                                            142  96 
 ZGXN    ES   1    05724.855                                            142  96 
 SRWZ    EP   0    05647.952                                           38.5 210 
 SRWZ    ES   4    05653.031                                           38.5 210 
 YIBA    EP   4    05650.518                                           44.8 338 
 YIBA    ES   4    05654.234                                           44.8 338 
 TVCN    EP   4    05641.724                                           10.4 207 
 TVCN    ES   2    05644.985                                           10.4 207 
 RVDG    EP   1    05651.853                                           57.8  84 
 RVDG    ES   0    057 0.532                                           57.8  84 
                                                                                

 2020  1 1  058 20.0 L  35.688  52.489  9.3       9 0.0 4.5l                   1
 Action:ARG 22-07-04 18:17 OP:OBSP STATUS:               ID:20200101005820     I
 STAT SP IPHASW D HRMM SECON CODA AMPLIT PERI AZIMU VELO AIN AR TRES W  DIS CAZ7
 ZGXN    EP   2    05843.502                                            133  64 
 ZGXN    ES   4    059 3.499                                            133  64 
 ZSCP    EP   0    05834.319                                           70.8  31 
 ZSCP    ES   1    05844.310                                           70.8  31 
 YXLK    EP   0    05838.120                                           93.2 352 
 YXLK    ES   0    05851.815                                           93.2 352 
 XIVZ    EP   2    05846.790                                            146 343 
 XIVZ    ES   4    059 6.692                                            146 343 
 SRWZ    EP   1    05831.809                                           56.7 313 
 SRWZ    ES   3    05839.226                                           56.7 313 
 EVSP    EP   0    05844.044                                            132 300 
 EVSP    ES   4    059 0.695                                            132 300 
 RVDG    EP   3    05837.874                                           86.2  24 
 RVDG    ES   1    05850.037                                           86.2  24 
 YIBA    EP   4    05843.282                                            120 341 
 YIBA    ES   4    059 0.729                                            120 341 
 YAIP    EP   1    05847.762                                            159  35 
 YAIP    ES   3    05910.127                                            159  35 
                                                                                

 2020  1 1  1 0  0.0 L  35.887  51.677  5.3       9 0.0 4.5l                   1
 Action:ARG 22-07-04 18:17 OP:OBSP STATUS:               ID:20200101010000     I
 STAT SP IPHASW D HRMM SECON CODA AMPLIT PERI AZIMU VELO AIN AR TRES W  DIS CAZ7
 ZGXN    EP   0    1 034.106                                            197  79 
 ZGXN    ES   4    1 058.055                                            197  79 
 EVSP    EP   2    1 013.299                                           61.1 317 
 EVSP    ES   1    1 021.662                                           61.1 317 
 TVCN    EP   4    1 011.790                                           62.5  48 
 TVCN    ES   4    1 023.673                                           62.5  48 
 RVDG    EP   4    1 021.800                                            122  62 
 RVDG    ES   3    1 039.808                                            122  62 
 YIBA    EP   4    1 017.825                                           98.4  20 
 YIBA    ES   4    1 035.946                                           98.4  20 
 XIVZ    EP   4    1 024.697                                            122  14 
 XIVZ    ES   0    1 040.542                                            122  14 
 YXLK    EP   0    1 018.397                                           93.2  40 
 YXLK    ES   0    1 032.639                                           93.2  40 
 SRWZ    EP   0    1 0 7.515                                           36.5  62 
 SRWZ    ES   1    1 013.118                                           36.5  62 
 ZSCP    EP   0    1 022.395                                            116  70 
 ZSCP    ES   3    1 039.926                                            116  70 
                                                                                

 2020  1 1  1 1 40.0 L  36.196  52.036 17.6       7 0.0 3.5l                   1
 Action:ARG 22-07-04 18:17 OP:OBSP STATUS:               ID:20200101010140     I
 STAT SP IPHASW D HRMM SECON CODA AMPLIT PERI AZIMU VELO AIN AR TRES W  DIS CAZ7
 ZSCP    EP   0    1 154.966                                           77.9  86 
 ZSCP    ES   4    1 2 7.771                                           77.9  86 
 TVCN    EP   4    1 143.525                                           16.3  65 
 TVCN    ES   2    1 148.741                                           16.3  65 
 YAIP    EP   4    1 2 4.786                                            152  60 
 YAIP    ES   1    1 225.237                                            152  60 
 XIVZ    EP   4    1 157.236                                           83.8 359 
 XIVZ    ES   4    1 2 5.360                                           83.8 359 
 RVDG    EP   4    1 154.275                                           80.1  74 
 RVDG    ES   4    1 2 8.270                                           80.1  74 
 SRWZ    EP   3    1 145.590                                           17.2 180 
 SRWZ    ES   2    1 147.802                                           17.2 180 
 YIBA    EP   3    1 152.416                                           57.8   2 
 YIBA    ES   3    1 2 1.086                                           57.8   2 
                                                                                

