 2020  1 1  1 3 20.0 L  35.548  52.071 13.3      10 0.0 5.0l                   1
 Action:ARG 22-07-04 18:17 OP:OBSP STATUS:               ID:20200101010320     I
 STAT SP IPHASW D HRMM SECON CODA AMPLIT PERI AZIMU VELO AIN AR TRES W  DIS CAZ7
 TVCN    EP   4    1 337.924                                           79.5   8 
 TVCN    ES   4    1 345.960                                           79.5   8 
 YIBA    EP   1    1 342.705                                            129 359 
 YIBA    ES   1    1 4 0.860                                            129 359 
 ZSCP    EP   2    1 340.490                                            106  44 
 ZSCP    ES   4    1 352.634                                            106  44 
 ZGXN    EP   3    1 350.763                                            174  65 
 ZGXN    ES   1    1 412.430                                            174  65 
 EVSP    EP   4    1 338.526                                            112 317 
 EVSP    ES   2    1 355.678                                            112 317 
 YXLK    EP   2    1 339.837                                            111  13 
 YXLK    ES   3    1 354.973                                            111  13 
 SRWZ    EP   3    1 330.269                                           54.8 356 
 SRWZ    ES   2    1 338.895                                           54.8 356 
 RVDG    EP   2    1 340.976                                            119  38 
 RVDG    ES   4    1 355.450                                            119  38 
 XIVZ    EP   1    1 347.537                                            155 358 
 XIVZ    ES   4    1 4 6.033                                            155 358 
 YAIP    EP   1    1 352.553                                            195  41 
 YAIP    ES   0    1 417.586                                            195  41 
                                                                                

 2020  1 1  1 5  0.0 L  36.185  51.932 14.6      10 0.0 5.0l                   1
 Action:ARG 22-07-04 18:17 OP:OBSP STATUS:               ID:20200101010500     I
 STAT SP IPHASW D HRMM SECON CODA AMPLIT PERI AZIMU VELO AIN AR TRES W  DIS CAZ7
 RVDG    EP   2    1 516.360                                           89.4  74 
 RVDG    ES   4    1 531.320                                           89.4  74 
 TVCN    EP   2    1 5 5.212                                           25.4  71 
 TVCN    ES   2    1 5 9.607                                           25.4  71 
 YIBA    EP   4    1 513.788                                           60.1  11 
 YIBA    ES   0    1 521.062                                           60.1  11 
 ZSCP    EP   4    1 514.867                                           87.4  86 
 ZSCP    ES   4    1 530.691                                           87.4  86 
 EVSP    EP   3    1 514.096                                           65.5 280 
 EVSP    ES   2    1 523.508                                           65.5 280 
 YXLK    EP   2    1 510.144                                           53.3  45 
 YXLK    ES   1    1 519.258                                           53.3  45 
 ZGXN    EP   4    1 528.002                                            170  89 
 ZGXN    ES   4    1 552.143                                            170  89 
 XIVZ    EP   4    1 518.113                                           85.4   5 
 XIVZ    ES   4    1 527.686                                           85.4   5 
 YAIP    EP   4    1 528.868                                            160  61 
 YAIP    ES   0    1 548.396                                            160  61 
 SRWZ    EP   1    1 5 4.971                                           18.5 149 
 SRWZ    ES   1    1 5 8.574                                           18.5 149 
                                                                                

 2020  1 1  1 6 40.0 L  36.170  52.051  7.8       6 0.0 3.0l                   1
 Action:ARG 22-07-04 18:17 OP:OBSP STATUS:               ID:20200101010640     I
 STAT SP IPHASW D HRMM SECON CODA AMPLIT PERI AZIMU VELO AIN AR TRES W  DIS CAZ7
 YAIP    EP   0    1 7 7.257                                            152  59 
 YAIP    ES   0    1 727.622                                            152  59 
 RVDG    EP   1    1 656.355                                           79.6  71 
 RVDG    ES   4    1 7 6.395                                           79.6  71 
 ZSCP    EP   2    1 654.754                                           76.7  84 
 ZSCP    ES   4    1 7 4.463                                           76.7  84 
 YIBA    EP   4    1 653.852                                           60.5   1 
 YIBA    ES   1    1 7 1.912                                           60.5   1 
 XIVZ    EP   2    1 657.757                                           86.7 358 
 XIVZ    ES   3    1 7 9.336                                           86.7 358 
 YXLK    EP   2    1 650.638                                           47.6  35 
 YXLK    ES   2    1 657.934                                           47.6  35 
                                                                                

 2020  1 1  1 8 20.0 L  35.955  51.950 19.9       8 0.0 4.0l                   1
 Action:ARG 22-07-04 18:17 OP:OBSP STATUS:               ID:20200101010820     I
 STAT SP IPHASW D HRMM SECON CODA AMPLIT PERI AZIMU VELO AIN AR TRES W  DIS CAZ7
 TVCN    EP   1    1 828.298                                           40.3  33 
 TVCN    ES   4    1 836.638                                           40.3  33 
 XIVZ    EP   2    1 840.311                                            110   3 
 XIVZ    ES   4    1 853.534                                            110   3 
 ZSCP    EP   0    1 836.861                                           90.9  70 
 ZSCP    ES   1    1 849.211                                           90.9  70 
 YIBA    EP   1    1 836.481                                           85.1   7 
 YIBA    ES   4    1 849.527                                           85.1   7 
 EVSP    EP   0    1 834.686                                           76.0 299 
 EVSP    ES   1    1 845.097                                           76.0 299 
 RVDG    EP   0    1 838.115                                           97.7  60 
 RVDG    ES   3    1 850.467                                           97.7  60 
 YAIP    EP   0    1 848.964                                            173  53 
 YAIP    ES   3    1 911.576                                            173  53 
 YXLK    EP   1    1 834.238                                           72.6  30 
 YXLK    ES   4    1 842.921                                           72.6  30 
                                                                                

 2020  1 1  110  0.0 L  36.092  52.042 17.9       8 0.0 4.0l                   1
 Action:ARG 22-07-04 18:17 OP:OBSP STATUS:               ID:20200101011000     I
 STAT SP IPHASW D HRMM SECON CODA AMPLIT PERI AZIMU VELO AIN AR TRES W  DIS CAZ7
 ZGXN    EP   4    11028.454                                            161  85 
 ZGXN    ES   4    11046.656                                            161  85 
 YXLK    EP   3    11011.942                                           55.4  30 
 YXLK    ES   0    11019.624                                           55.4  30 
 EVSP    EP   0    11015.084                                           77.6 286 
 EVSP    ES   0    11026.062                                           77.6 286 
 XIVZ    EP   4    11020.501                                           95.4 359 
 XIVZ    ES   3    11030.070                                           95.4 359 
 YAIP    EP   3    11027.741                                            157  56 
 YAIP    ES   0    11046.913                                            157  56 
 SRWZ    EP   0    110 3.518                                           5.67 185 
 SRWZ    ES   4    110 7.815                                           5.67 185 
 TVCN    EP   1    110 5.277                                           23.2  37 
 TVCN    ES   1    110 9.745                                           23.2  37 
 YIBA    EP   3    11012.593                                           69.3   2 
 YIBA    ES   2    11023.071                                           69.3   2 
                                                                                

 2020  1 1  111 40.0 L  36.027  52.044  6.8      10 0.0 5.0l                   1
 Action:ARG 22-07-04 18:17 OP:OBSP STATUS:               ID:20200101011140     I
 STAT SP IPHASW D HRMM SECON CODA AMPLIT PERI AZIMU VELO AIN AR TRES W  DIS CAZ7
 YIBA    EP   1    11155.841                                           76.5   1 
 YIBA    ES   0    112 7.052                                           76.5   1 
 ZSCP    EP   0    11156.277                                           80.4  73 
 ZSCP    ES   4    112 9.579                                           80.4  73 
 YAIP    EP   4    112 7.299                                            161  54 
 YAIP    ES   2    11229.751                                            161  54 
 TVCN    EP   1    11145.896                                           29.1  28 
 TVCN    ES   3    11149.871                                           29.1  28 
 RVDG    EP   3    11156.476                                           86.4  61 
 RVDG    ES   1    11210.432                                           86.4  61 
 ZGXN    EP   4    112 9.985                                            161  83 
 ZGXN    ES   4    11229.228                                            161  83 
 XIVZ    EP   2    112 0.608                                            102 358 
 XIVZ    ES   3    11215.959                                            102 358 
 EVSP    EP   0    11155.975                                           80.2 291 
 EVSP    ES   2    112 8.856                                           80.2 291 
 YXLK    EP   0    11152.690                                           61.6  26 
 YXLK    ES   1    112 1.676                                           61.6  26 
 SRWZ    EP   2    11140.692                                           1.78 332 
 SRWZ    ES   2    11143.059                                           1.78 332 
                                                                                

 2020  1 1  113 20.0 L  36.084  51.850 10.0       5 0.0 2.5l                   1
 Action:ARG 22-07-04 18:17 OP:OBSP STATUS:               ID:20200101011320     I
 STAT SP IPHASW D HRMM SECON CODA AMPLIT PERI AZIMU VELO AIN AR TRES W  DIS CAZ7
 YAIP    EP   0    11349.855                                            172  59 
 YAIP    ES   1    11412.070                                            172  59 
 EVSP    EP   4    11331.297                                           61.6 291 
 EVSP    ES   3    11340.925                                           61.6 291 
 SRWZ    EP   4    11322.800                                           17.4 106 
 SRWZ    ES   0    11327.068                                           17.4 106 
 XIVZ    EP   4    11337.121                                           97.4   9 
 XIVZ    ES   4    11351.269                                           97.4   9 
 ZGXN    EP   4    11352.745                                            178  85 
 ZGXN    ES   4    11412.450                                            178  85 
                                                                                

 2020  1 1  115  0.0 L  36.253  52.027 15.8       8 0.0 4.0l                   1
 Action:ARG 22-07-04 18:17 OP:OBSP STATUS:               ID:20200101011500     I
 STAT SP IPHASW D HRMM SECON CODA AMPLIT PERI AZIMU VELO AIN AR TRES W  DIS CAZ7
 XIVZ    EP   0    11515.245                                           77.5 359 
 XIVZ    ES   4    11527.604                                           77.5 359 
 TVCN    EP   4    115 5.749                                           15.6  88 
 TVCN    ES   4    115 8.634                                           15.6  88 
 YIBA    EP   1    11510.219                                           51.5   4 
 YIBA    ES   3    11517.655                                           51.5   4 
 SRWZ    EP   3    115 4.692                                           23.5 178 
 SRWZ    ES   3    115 8.771                                           23.5 178 
 YXLK    EP   0    115 8.954                                           42.0  44 
 YXLK    ES   4    11513.925                                           42.0  44 
 RVDG    EP   2    11514.771                                           79.3  78 
 RVDG    ES   2    11527.562                                           79.3  78 
 EVSP    EP   0    11514.203                                           73.2 273 
 EVSP    ES   2    11525.646                                           73.2 273 
 ZSCP    EP   4    11513.894                                           78.6  91 
 ZSCP    ES   0    11526.553                                           78.6  91 
                                                                                

 2020  1 1  116 40.0 L  36.041  52.268 15.7       7 0.0 3.5l                   1
 Action:ARG 22-07-04 18:17 OP:OBSP STATUS:               ID:20200101011640     I
 STAT SP IPHASW D HRMM SECON CODA AMPLIT PERI AZIMU VELO AIN AR TRES W  DIS CAZ7
 RVDG    EP   0    11653.649                                           68.4  55 
 RVDG    ES   0    117 3.721                                           68.4  55 
 SRWZ    EP   0    11645.068                                           21.0 269 
 SRWZ    ES   1    11649.543                                           21.0 269 
 YAIP    EP   2    117 4.558                                            144  50 
 YAIP    ES   4    11725.587                                            144  50 
 ZSCP    EP   4    11653.596                                           60.7  69 
 ZSCP    ES   1    117 1.718                                           60.7  69 
 EVSP    EP   4    11659.622                                           98.8 286 
 EVSP    ES   4    11713.615                                           98.8 286 
 ZGXN    EP   0    117 4.713                                            141  82 
 ZGXN    ES   2    11722.660                                            141  82 
 TVCN    EP   3    11646.684                                           24.6 345 
 TVCN    ES   4    11648.793                                           24.6 345 
                                                                                

 2020  1 1  118 20.0 L  35.857  51.916 19.0       5 0.0 2.5l                   1
 Action:ARG 22-07-04 18:17 OP:OBSP STATUS:               ID:20200101011820     I
 STAT SP IPHASW D HRMM SECON CODA AMPLIT PERI AZIMU VELO AIN AR TRES W  DIS CAZ7
 RVDG    EP   2    11839.840                                            106  55 
 RVDG    ES   4    11854.478                                            106  55 
 ZSCP    EP   0    11838.005                                           98.0  64 
 ZSCP    ES   0    11851.133                                           98.0  64 
 YXLK    EP   1    11836.080                                           83.6  28 
 YXLK    ES   4    11846.248                                           83.6  28 
 ZGXN    EP   0    11849.725                                            176  77 
 ZGXN    ES   0    11911.687                                            176  77 
 YAIP    EP   3    11849.497                                            182  51 
 YAIP    ES   1    11912.761                                            182  51 
                                                                                

 2020  1 1  120  0.0 L  36.017  52.095 11.3       7 0.0 3.5l                   1
 Action:ARG 22-07-04 18:17 OP:OBSP STATUS:               ID:20200101012000     I
 STAT SP IPHASW D HRMM SECON CODA AMPLIT PERI AZIMU VELO AIN AR TRES W  DIS CAZ7
 YIBA    EP   0    12015.038                                           77.5 358 
 YIBA    ES   0    12026.896                                           77.5 358 
 RVDG    EP   0    12016.071                                           83.0  59 
 RVDG    ES   0    12028.571                                           83.0  59 
 SRWZ    EP   2    120 3.239                                           5.97 295 
 SRWZ    ES   1    120 5.041                                           5.97 295 
 YAIP    EP   4    12028.795                                            158  53 
 YAIP    ES   0    12048.185                                            158  53 
 EVSP    EP   4    12014.436                                           84.8 291 
 EVSP    ES   2    12028.363                                           84.8 291 
 ZGXN    EP   4    12028.589                                            157  82 
 ZGXN    ES   3    12047.439                                            157  82 
 YXLK    EP   0    12012.283                                           60.7  22 
 YXLK    ES   4    12022.438                                           60.7  22 
                                                                                

 2020  1 1  121 40.0 L  36.010  51.923 17.5       9 0.0 4.5l                   1
 Action:ARG 22-07-04 18:17 OP:OBSP STATUS:               ID:20200101012140     I
 STAT SP IPHASW D HRMM SECON CODA AMPLIT PERI AZIMU VELO AIN AR TRES W  DIS CAZ7
 ZGXN    EP   4    12211.126                                            173  82 
 ZGXN    ES   1    12230.560                                            173  82 
 EVSP    EP   4    12154.909                                           71.0 296 
 EVSP    ES   3    122 5.023                                           71.0 296 
 YAIP    EP   0    122 9.159                                            171  55 
 YAIP    ES   4    12231.782                                            171  55 
 RVDG    EP   1    12158.299                                           97.0  63 
 RVDG    ES   1    12210.956                                           97.0  63 
 SRWZ    EP   0    12144.098                                           10.7  71 
 SRWZ    ES   1    12147.413                                           10.7  71 
 YIBA    EP   4    12156.273                                           79.4   9 
 YIBA    ES   1    122 7.043                                           79.4   9 
 YXLK    EP   1    12153.695                                           68.8  34 
 YXLK    ES   1    122 3.942                                           68.8  34 
 ZSCP    EP   1    12156.865                                           91.4  74 
 ZSCP    ES   3    122 9.194                                           91.4  74 
 XIVZ    EP   1    12158.623                                            104   4 
 XIVZ    ES   3    12214.204                                            104   4 
                                                                                

