 2020  1 1  023 20.0 L  35.791  51.973  5.0       7 0.0 3.5l                   1
 Action:ARG 22-07-04 18:17 OP:OBSP STATUS:               ID:20200101002320     I
 STAT SP IPHASW D HRMM SECON CODA AMPLIT PERI AZIMU VELO AIN AR TRES W  DIS CAZ7
 YAIP    EP   3    02352.884                                            182  48 
 YAIP    ES   3    02416.972                                            182  48 
 EVSP    EP   0    02337.779                                           87.9 309 
 EVSP    ES   3    02351.602                                           87.9 309 
 YXLK    EP   4    02335.890                                           88.1  22 
 YXLK    ES   3    02351.639                                           88.1  22 
 ZGXN    EP   0    02350.523                                            173  74 
 ZGXN    ES   0    02413.539                                            173  74 
 YIBA    EP   0    02340.130                                            102   4 
 YIBA    ES   2    02355.949                                            102   4 
 RVDG    EP   4    02342.038                                            106  50 
 RVDG    ES   4    02355.053                                            106  50 
 TVCN    EP   2    02332.119                                           55.6  21 
 TVCN    ES   4    02338.319                                           55.6  21 
                                                                                

 2020  1 1  025  0.0 L  36.119  51.940 11.7       5 0.0 2.5l                   1
 Action:ARG 22-07-04 18:17 OP:OBSP STATUS:               ID:20200101002500     I
 STAT SP IPHASW D HRMM SECON CODA AMPLIT PERI AZIMU VELO AIN AR TRES W  DIS CAZ7
 TVCN    EP   0    025 6.052                                           28.0  56 
 TVCN    ES   4    02512.321                                           28.0  56 
 XIVZ    EP   1    02517.420                                           92.7   4 
 XIVZ    ES   2    02530.587                                           92.7   4 
 YXLK    EP   1    02511.282                                           58.2  39 
 YXLK    ES   3    02519.531                                           58.2  39 
 EVSP    EP   0    02513.577                                           68.0 286 
 EVSP    ES   1    02523.116                                           68.0 286 
 ZGXN    EP   1    02529.793                                            170  86 
 ZGXN    ES   4    02553.630                                            170  86 
                                                                                

 2020  1 1  026 40.0 L  35.911  51.845 15.8       6 0.0 3.0l                   1
 Action:ARG 22-07-04 18:17 OP:OBSP STATUS:               ID:20200101002640     I
 STAT SP IPHASW D HRMM SECON CODA AMPLIT PERI AZIMU VELO AIN AR TRES W  DIS CAZ7
 ZSCP    EP   4    027 0.548                                            101  69 
 ZSCP    ES   2    02713.596                                            101  69 
 XIVZ    EP   3    027 1.976                                            116   7 
 XIVZ    ES   4    02718.067                                            116   7 
 TVCN    EP   1    02649.903                                           49.9  39 
 TVCN    ES   1    02658.289                                           49.9  39 
 YIBA    EP   3    02656.437                                           91.5  12 
 YIBA    ES   0    02710.571                                           91.5  12 
 RVDG    EP   2    02659.137                                            108  60 
 RVDG    ES   2    02715.320                                            108  60 
 SRWZ    EP   2    02646.018                                           22.4  49 
 SRWZ    ES   1    02649.170                                           22.4  49 
                                                                                

 2020  1 1  028 20.0 L  35.811  51.846  8.4       7 0.0 3.5l                   1
 Action:ARG 22-07-04 18:17 OP:OBSP STATUS:               ID:20200101002820     I
 STAT SP IPHASW D HRMM SECON CODA AMPLIT PERI AZIMU VELO AIN AR TRES W  DIS CAZ7
 SRWZ    EP   4    02825.353                                           30.7  33 
 SRWZ    ES   3    02832.314                                           30.7  33 
 TVCN    EP   0    02831.908                                           58.8  32 
 TVCN    ES   4    02842.395                                           58.8  32 
 YAIP    EP   3    02853.561                                            190  51 
 YAIP    ES   0    02917.305                                            190  51 
 YXLK    EP   1    02837.645                                           91.2  30 
 YXLK    ES   1    02851.854                                           91.2  30 
 YIBA    EP   0    02839.739                                            102  11 
 YIBA    ES   3    02853.750                                            102  11 
 RVDG    EP   2    02842.149                                            114  55 
 RVDG    ES   4    02855.268                                            114  55 
 ZSCP    EP   0    02840.268                                            105  63 
 ZSCP    ES   4    02857.669                                            105  63 
                                                                                

 2020  1 1  030  0.0 L  35.997  51.850 19.2       9 0.0 4.5l                   1
 Action:ARG 22-07-04 18:17 OP:OBSP STATUS:               ID:20200101003000     I
 STAT SP IPHASW D HRMM SECON CODA AMPLIT PERI AZIMU VELO AIN AR TRES W  DIS CAZ7
 RVDG    EP   0    03018.762                                            103  64 
 RVDG    ES   4    03034.649                                            103  64 
 YAIP    EP   4    03027.937                                            177  56 
 YAIP    ES   3    03052.882                                            177  56 
 ZGXN    EP   1    03030.418                                            179  82 
 ZGXN    ES   4    03051.067                                            179  82 
 EVSP    EP   2    03012.157                                           65.8 299 
 EVSP    ES   4    03020.932                                           65.8 299 
 YIBA    EP   3    03016.354                                           82.1  13 
 YIBA    ES   3    03028.149                                           82.1  13 
 XIVZ    EP   4    03020.380                                            106   8 
 XIVZ    ES   4    03035.052                                            106   8 
 TVCN    EP   2    030 9.653                                           42.7  47 
 TVCN    ES   4    03017.656                                           42.7  47 
 ZSCP    EP   4    03016.188                                           98.1  74 
 ZSCP    ES   1    03031.043                                           98.1  74 
 YXLK    EP   1    03013.789                                           73.8  37 
 YXLK    ES   3    03023.925                                           73.8  37 
                                                                                

 2020  1 1  031 40.0 L  36.052  51.750 18.5       6 0.0 3.0l                   1
 Action:ARG 22-07-04 18:17 OP:OBSP STATUS:               ID:20200101003140     I
 STAT SP IPHASW D HRMM SECON CODA AMPLIT PERI AZIMU VELO AIN AR TRES W  DIS CAZ7
 YIBA    EP   1    03154.584                                           79.0  21 
 YIBA    ES   1    032 5.839                                           79.0  21 
 SRWZ    EP   2    03145.603                                           25.7  92 
 SRWZ    ES   4    03152.839                                           25.7  92 
 ZGXN    EP   2    03211.959                                            188  84 
 ZGXN    ES   4    03236.702                                            188  84 
 TVCN    EP   3    03150.497                                           46.4  60 
 TVCN    ES   3    03157.624                                           46.4  60 
 RVDG    EP   0    03159.744                                            109  69 
 RVDG    ES   2    03213.850                                            109  69 
 YXLK    EP   4    03156.204                                           75.3  46 
 YXLK    ES   1    032 4.860                                           75.3  46 
                                                                                

 2020  1 1  033 20.0 L  36.166  52.371  5.5      10 0.0 5.0l                   1
 Action:ARG 22-07-04 18:17 OP:OBSP STATUS:               ID:20200101003320     I
 STAT SP IPHASW D HRMM SECON CODA AMPLIT PERI AZIMU VELO AIN AR TRES W  DIS CAZ7
 ZSCP    EP   1    03329.602                                           48.2  81 
 ZSCP    ES   1    03337.224                                           48.2  81 
 XIVZ    EP   4    03336.203                                           92.5 340 
 XIVZ    ES   4    03353.645                                           92.5 340 
 YIBA    EP   3    03334.546                                           66.8 336 
 YIBA    ES   4    03342.444                                           66.8 336 
 YAIP    EP   0    03344.245                                            128  52 
 YAIP    ES   0    034 1.999                                            128  52 
 SRWZ    EP   4    03325.498                                           33.3 245 
 SRWZ    ES   4    03330.894                                           33.3 245 
 YXLK    EP   1    03328.676                                           39.4 358 
 YXLK    ES   0    03334.191                                           39.4 358 
 EVSP    EP   4    03338.616                                            104 277 
 EVSP    ES   2    03356.510                                            104 277 
 RVDG    EP   1    03331.401                                           53.2  61 
 RVDG    ES   0    03339.439                                           53.2  61 
 ZGXN    EP   4    03345.789                                            131  88 
 ZGXN    ES   0    034 2.982                                            131  88 
 TVCN    EP   4    03322.315                                           18.3 303 
 TVCN    ES   3    03327.993                                           18.3 303 
                                                                                

 2020  1 1  035  0.0 L  35.802  51.957  5.4      10 0.0 5.0l                   1
 Action:ARG 22-07-04 18:17 OP:OBSP STATUS:               ID:20200101003500     I
 STAT SP IPHASW D HRMM SECON CODA AMPLIT PERI AZIMU VELO AIN AR TRES W  DIS CAZ7
 EVSP    EP   1    03517.721                                           86.1 309 
 EVSP    ES   0    03530.180                                           86.1 309 
 YAIP    EP   4    03531.052                                            183  49 
 YAIP    ES   4    03558.365                                            183  49 
 YIBA    EP   2    03519.395                                            101   5 
 YIBA    ES   0    03535.298                                            101   5 
 RVDG    EP   3    03519.943                                            106  51 
 RVDG    ES   4    03538.463                                            106  51 
 TVCN    EP   2    03510.818                                           55.0  23 
 TVCN    ES   3    03520.782                                           55.0  23 
 XIVZ    EP   4    03522.669                                            127   2 
 XIVZ    ES   4    03540.573                                            127   2 
 SRWZ    EP   1    035 5.448                                           27.5  14 
 SRWZ    ES   0    03510.273                                           27.5  14 
 ZSCP    EP   0    03519.073                                           97.5  60 
 ZSCP    ES   0    03533.684                                           97.5  60 
 YXLK    EP   2    03518.063                                           87.6  24 
 YXLK    ES   1    03531.034                                           87.6  24 
 ZGXN    EP   1    03530.523                                            174  75 
 ZGXN    ES   3    03553.147                                            174  75 
                                                                                

 2020  1 1  036 40.0 L  36.378  51.833 13.1       6 0.0 3.0l                   1
 Action:ARG 22-07-04 18:17 OP:OBSP STATUS:               ID:20200101003640     I
 STAT SP IPHASW D HRMM SECON CODA AMPLIT PERI AZIMU VELO AIN AR TRES W  DIS CAZ7
 RVDG    EP   1    03658.553                                           95.2  88 
 RVDG    ES   4    03710.606                                           95.2  88 
 TVCN    EP   2    03646.853                                           35.7 112 
 TVCN    ES   0    03653.254                                           35.7 112 
 YAIP    EP   3    037 8.650                                            160  69 
 YAIP    ES   0    03728.471                                            160  69 
 YXLK    EP   1    03649.787                                           49.5  71 
 YXLK    ES   0    03657.506                                           49.5  71 
 YIBA    EP   0    03649.110                                           43.0  29 
 YIBA    ES   2    03654.899                                           43.0  29 
 XIVZ    EP   0    03653.145                                           65.8  14 
 XIVZ    ES   1    037 3.243                                           65.8  14 
                                                                                

 2020  1 1  038 20.0 L  35.858  52.011 19.1       6 0.0 3.0l                   1
 Action:ARG 22-07-04 18:17 OP:OBSP STATUS:               ID:20200101003820     I
 STAT SP IPHASW D HRMM SECON CODA AMPLIT PERI AZIMU VELO AIN AR TRES W  DIS CAZ7
 YXLK    EP   0    03835.022                                           79.9  22 
 YXLK    ES   4    03844.480                                           79.9  22 
 ZSCP    EP   0    03836.897                                           90.2  62 
 ZSCP    ES   1    03848.989                                           90.2  62 
 SRWZ    EP   0    03825.428                                           20.4   6 
 SRWZ    ES   1    03829.884                                           20.4   6 
 YIBA    EP   2    03838.161                                           95.4   3 
 YIBA    ES   0    03850.602                                           95.4   3 
 ZGXN    EP   4    03846.714                                            168  76 
 ZGXN    ES   2    039 8.921                                            168  76 
 XIVZ    EP   4    03839.484                                            121   0 
 XIVZ    ES   3    03858.264                                            121   0 
                                                                                

 2020  1 1  040  0.0 L  36.470  52.043 10.7       7 0.0 3.5l                   1
 Action:ARG 22-07-04 18:17 OP:OBSP STATUS:               ID:20200101004000     I
 STAT SP IPHASW D HRMM SECON CODA AMPLIT PERI AZIMU VELO AIN AR TRES W  DIS CAZ7
 YIBA    EP   1    040 6.444                                           27.4   4 
 YIBA    ES   1    04010.973                                           27.4   4 
 ZSCP    EP   2    04015.349                                           81.5 108 
 ZSCP    ES   0    04028.268                                           81.5 108 
 YAIP    EP   0    04024.705                                            138  71 
 YAIP    ES   0    04043.673                                            138  71 
 YXLK    EP   4    040 7.584                                           28.7  78 
 YXLK    ES   3    04011.716                                           28.7  78 
 RVDG    EP   4    04014.093                                           76.8  96 
 RVDG    ES   2    04027.082                                           76.8  96 
 SRWZ    EP   0    040 9.641                                           47.6 180 
 SRWZ    ES   3    04016.098                                           47.6 180 
 EVSP    EP   4    04016.825                                           77.0 255 
 EVSP    ES   2    04027.205                                           77.0 255 
                                                                                

 2020  1 1  041 40.0 L  36.138  52.027  8.2      10 0.0 5.0l                   1
 Action:ARG 22-07-04 18:17 OP:OBSP STATUS:               ID:20200101004140     I
 STAT SP IPHASW D HRMM SECON CODA AMPLIT PERI AZIMU VELO AIN AR TRES W  DIS CAZ7
 RVDG    EP   1    04156.152                                           82.8  69 
 RVDG    ES   4    042 7.063                                           82.8  69 
 EVSP    EP   4    04153.117                                           75.0 283 
 EVSP    ES   2    042 6.951                                           75.0 283 
 YXLK    EP   1    04151.178                                           51.8  34 
 YXLK    ES   0    04158.660                                           51.8  34 
 YIBA    EP   4    04150.479                                           64.2   3 
 YIBA    ES   1    042 2.457                                           64.2   3 
 TVCN    EP   0    04144.527                                           20.4  49 
 TVCN    ES   4    04146.968                                           20.4  49 
 ZGXN    EP   3    042 7.813                                            162  87 
 ZGXN    ES   4    04232.457                                            162  87 
 ZSCP    EP   4    04157.236                                           79.3  82 
 ZSCP    ES   3    042 8.483                                           79.3  82 
 XIVZ    EP   1    04158.086                                           90.2 359 
 XIVZ    ES   1    04210.600                                           90.2 359 
 SRWZ    EP   1    04142.466                                           10.8 176 
 SRWZ    ES   3    04145.764                                           10.8 176 
 YAIP    EP   3    042 6.764                                            156  58 
 YAIP    ES   0    04228.203                                            156  58 
                                                                                

