 2020  1 1  228 20.0 L  35.936  52.298  9.0       8 0.0 4.0l                   1
 Action:ARG 22-07-04 18:17 OP:OBSP STATUS:               ID:20200101022820     I
 STAT SP IPHASW D HRMM SECON CODA AMPLIT PERI AZIMU VELO AIN AR TRES W  DIS CAZ7
 YXLK    EP   0    22832.867                                           65.2   4 
 YXLK    ES   1    22842.393                                           65.2   4 
 ZGXN    EP   2    22845.856                                            141  78 
 ZGXN    ES   0    229 4.330                                            141  78 
 EVSP    EP   1    22840.457                                            105 292 
 EVSP    ES   1    22855.594                                            105 292 
 XIVZ    EP   4    22840.295                                            115 347 
 XIVZ    ES   3    22858.516                                            115 347 
 ZSCP    EP   1    22833.141                                           63.4  58 
 ZSCP    ES   1    22842.789                                           63.4  58 
 YAIP    EP   4    22844.765                                            150  46 
 YAIP    ES   1    229 7.173                                            150  46 
 RVDG    EP   4    22836.665                                           73.7  46 
 RVDG    ES   3    22846.457                                           73.7  46 
 YIBA    EP   0    22837.469                                           88.9 346 
 YIBA    ES   4    22852.573                                           88.9 346 
                                                                                

 2020  1 1  230  0.0 L  35.928  52.152 13.2       5 0.0 2.5l                   1
 Action:ARG 22-07-04 18:17 OP:OBSP STATUS:               ID:20200101023000     I
 STAT SP IPHASW D HRMM SECON CODA AMPLIT PERI AZIMU VELO AIN AR TRES W  DIS CAZ7
 TVCN    EP   2    230 8.372                                           36.6   6 
 TVCN    ES   3    23014.418                                           36.6   6 
 YAIP    EP   2    23028.433                                            160  49 
 YAIP    ES   2    23048.072                                            160  49 
 EVSP    EP   0    23017.682                                           93.5 295 
 EVSP    ES   1    23030.878                                           93.5 295 
 SRWZ    EP   2    230 4.963                                           16.3 319 
 SRWZ    ES   3    230 6.564                                           16.3 319 
 ZSCP    EP   2    23015.397                                           75.4  63 
 ZSCP    ES   0    23025.982                                           75.4  63 
                                                                                

 2020  1 1  231 40.0 L  36.070  51.715 19.4       6 0.0 3.0l                   1
 Action:ARG 22-07-04 18:17 OP:OBSP STATUS:               ID:20200101023140     I
 STAT SP IPHASW D HRMM SECON CODA AMPLIT PERI AZIMU VELO AIN AR TRES W  DIS CAZ7
 YIBA    EP   4    23152.546                                           78.3  23 
 YIBA    ES   4    232 4.844                                           78.3  23 
 SRWZ    EP   1    23146.344                                           29.0  96 
 SRWZ    ES   4    23152.894                                           29.0  96 
 YAIP    EP   3    232 9.720                                            184  60 
 YAIP    ES   3    23234.431                                            184  60 
 ZGXN    EP   4    23213.312                                            190  85 
 ZGXN    ES   4    23237.475                                            190  85 
 EVSP    EP   4    23148.395                                           51.3 298 
 EVSP    ES   4    23155.921                                           51.3 298 
 YXLK    EP   3    23153.732                                           76.3  48 
 YXLK    ES   3    232 6.214                                           76.3  48 
                                                                                

 2020  1 1  233 20.0 L  36.289  52.113  5.1       5 0.0 2.5l                   1
 Action:ARG 22-07-04 18:17 OP:OBSP STATUS:               ID:20200101023320     I
 STAT SP IPHASW D HRMM SECON CODA AMPLIT PERI AZIMU VELO AIN AR TRES W  DIS CAZ7
 TVCN    EP   3    23323.120                                           8.71 114 
 TVCN    ES   4    23322.483                                           8.71 114 
 EVSP    EP   4    23334.440                                           80.7 270 
 EVSP    ES   1    23348.877                                           80.7 270 
 XIVZ    EP   0    23335.048                                           73.9 353 
 XIVZ    ES   4    23347.600                                           73.9 353 
 YXLK    EP   3    23326.318                                           33.8  40 
 YXLK    ES   3    23333.294                                           33.8  40 
 RVDG    EP   2    23335.153                                           71.1  80 
 RVDG    ES   0    23345.171                                           71.1  80 
                                                                                

 2020  1 1  235  0.0 L  35.862  51.975 16.8       8 0.0 4.0l                   1
 Action:ARG 22-07-04 18:17 OP:OBSP STATUS:               ID:20200101023500     I
 STAT SP IPHASW D HRMM SECON CODA AMPLIT PERI AZIMU VELO AIN AR TRES W  DIS CAZ7
 XIVZ    EP   4    23523.341                                            120   2 
 XIVZ    ES   4    23534.965                                            120   2 
 TVCN    EP   4    235 8.721                                           48.2  24 
 TVCN    ES   2    23516.861                                           48.2  24 
 YAIP    EP   4    23531.765                                            177  50 
 YAIP    ES   3    23553.124                                            177  50 
 RVDG    EP   3    23517.833                                            101  54 
 RVDG    ES   4    23531.667                                            101  54 
 ZGXN    EP   2    23529.668                                            171  77 
 ZGXN    ES   4    23551.878                                            171  77 
 ZSCP    EP   1    23517.016                                           92.9  63 
 ZSCP    ES   1    23530.223                                           92.9  63 
 YXLK    EP   4    23514.105                                           80.8  24 
 YXLK    ES   3    23528.011                                           80.8  24 
 SRWZ    EP   1    235 5.503                                           20.6  15 
 SRWZ    ES   4    235 7.559                                           20.6  15 
                                                                                

 2020  1 1  236 40.0 L  36.054  52.126 17.3       8 0.0 4.0l                   1
 Action:ARG 22-07-04 18:17 OP:OBSP STATUS:               ID:20200101023640     I
 STAT SP IPHASW D HRMM SECON CODA AMPLIT PERI AZIMU VELO AIN AR TRES W  DIS CAZ7
 TVCN    EP   1    23646.182                                           23.5  16 
 TVCN    ES   1    23650.482                                           23.5  16 
 ZGXN    EP   4    237 7.629                                            154  83 
 ZGXN    ES   1    23726.436                                            154  83 
 YIBA    EP   4    23655.245                                           73.6 356 
 YIBA    ES   3    237 5.843                                           73.6 356 
 ZSCP    EP   4    23652.566                                           72.5  74 
 ZSCP    ES   4    237 6.174                                           72.5  74 
 EVSP    EP   3    23655.341                                           86.1 287 
 EVSP    ES   4    237 7.106                                           86.1 287 
 SRWZ    EP   3    23642.797                                           8.30 260 
 SRWZ    ES   4    23645.290                                           8.30 260 
 YAIP    EP   4    237 9.466                                            153  53 
 YAIP    ES   4    23724.829                                            153  53 
 YXLK    EP   1    23651.699                                           55.8  21 
 YXLK    ES   2    237 0.419                                           55.8  21 
                                                                                

 2020  1 1  238 20.0 L  35.984  52.063 18.3       9 0.0 4.5l                   1
 Action:ARG 22-07-04 18:17 OP:OBSP STATUS:               ID:20200101023820     I
 STAT SP IPHASW D HRMM SECON CODA AMPLIT PERI AZIMU VELO AIN AR TRES W  DIS CAZ7
 EVSP    EP   4    23834.083                                           83.6 294 
 EVSP    ES   3    23848.460                                           83.6 294 
 YIBA    EP   0    23835.596                                           81.2   0 
 YIBA    ES   0    23846.904                                           81.2   0 
 YAIP    EP   4    23848.636                                            163  52 
 YAIP    ES   0    239 8.332                                            163  52 
 TVCN    EP   4    23828.387                                           32.7  22 
 TVCN    ES   1    23832.538                                           32.7  22 
 YXLK    EP   1    23833.176                                           65.2  23 
 YXLK    ES   4    23840.864                                           65.2  23 
 ZSCP    EP   4    23836.325                                           80.3  69 
 ZSCP    ES   1    23847.005                                           80.3  69 
 ZGXN    EP   1    23846.905                                            161  81 
 ZGXN    ES   1    239 7.257                                            161  81 
 XIVZ    EP   4    23840.389                                            107 358 
 XIVZ    ES   4    23855.026                                            107 358 
 RVDG    EP   1    23835.939                                           87.4  58 
 RVDG    ES   4    23850.187                                           87.4  58 
                                                                                

 2020  1 1  240  0.0 L  36.083  52.259 16.1       9 0.0 4.5l                   1
 Action:ARG 22-07-04 18:17 OP:OBSP STATUS:               ID:20200101024000     I
 STAT SP IPHASW D HRMM SECON CODA AMPLIT PERI AZIMU VELO AIN AR TRES W  DIS CAZ7
 XIVZ    EP   4    24017.080                                           98.6 347 
 XIVZ    ES   4    24030.724                                           98.6 347 
 TVCN    EP   4    240 6.654                                           20.0 344 
 TVCN    ES   1    240 9.400                                           20.0 344 
 EVSP    EP   4    24016.954                                           96.8 283 
 EVSP    ES   3    24030.695                                           96.8 283 
 YXLK    EP   2    24010.837                                           49.4  10 
 YXLK    ES   2    24018.384                                           49.4  10 
 ZSCP    EP   1    24012.325                                           60.0  73 
 ZSCP    ES   3    24020.163                                           60.0  73 
 YIBA    EP   1    24014.524                                           72.3 346 
 YIBA    ES   3    24025.565                                           72.3 346 
 ZGXN    EP   1    24024.363                                            142  84 
 ZGXN    ES   2    24043.755                                            142  84 
 SRWZ    EP   2    240 4.622                                           20.7 257 
 SRWZ    ES   1    240 9.618                                           20.7 257 
 RVDG    EP   1    24012.866                                           66.5  58 
 RVDG    ES   1    24022.574                                           66.5  58 
                                                                                

 2020  1 1  241 40.0 L  36.248  52.426 17.1       7 0.0 3.5l                   1
 Action:ARG 22-07-04 18:17 OP:OBSP STATUS:               ID:20200101024140     I
 STAT SP IPHASW D HRMM SECON CODA AMPLIT PERI AZIMU VELO AIN AR TRES W  DIS CAZ7
 ZGXN    EP   2    242 3.026                                            126  92 
 ZGXN    ES   4    24220.277                                            126  92 
 RVDG    EP   4    24152.176                                           44.9  69 
 RVDG    ES   4    24158.173                                           44.9  69 
 YXLK    EP   1    24146.644                                           30.9 348 
 YXLK    ES   1    24152.623                                           30.9 348 
 ZSCP    EP   2    24149.747                                           42.8  92 
 ZSCP    ES   4    24154.057                                           42.8  92 
 EVSP    EP   4    24158.478                                            109 272 
 EVSP    ES   0    24214.681                                            109 272 
 XIVZ    EP   2    24155.555                                           85.9 335 
 XIVZ    ES   1    242 8.709                                           85.9 335 
 YAIP    EP   2    242 1.885                                            119  54 
 YAIP    ES   4    24216.114                                            119  54 
                                                                                

 2020  1 1  243 20.0 L  35.636  52.147 12.8       6 0.0 3.0l                   1
 Action:ARG 22-07-04 18:17 OP:OBSP STATUS:               ID:20200101024320     I
 STAT SP IPHASW D HRMM SECON CODA AMPLIT PERI AZIMU VELO AIN AR TRES W  DIS CAZ7
 RVDG    EP   0    24340.088                                            107  38 
 RVDG    ES   0    24354.928                                            107  38 
 ZGXN    EP   0    24348.343                                            164  67 
 ZGXN    ES   3    244 8.864                                            164  67 
 ZSCP    EP   4    24339.548                                           94.8  45 
 ZSCP    ES   0    24351.990                                           94.8  45 
 YAIP    EP   1    24350.788                                            183  41 
 YAIP    ES   0    24414.808                                            183  41 
 SRWZ    EP   3    24328.592                                           46.0 347 
 SRWZ    ES   4    24338.506                                           46.0 347 
 TVCN    EP   2    24334.379                                           69.0   3 
 TVCN    ES   4    24345.496                                           69.0   3 
                                                                                

 2020  1 1  245  0.0 L  36.094  52.135 13.4       7 0.0 3.5l                   1
 Action:ARG 22-07-04 18:17 OP:OBSP STATUS:               ID:20200101024500     I
 STAT SP IPHASW D HRMM SECON CODA AMPLIT PERI AZIMU VELO AIN AR TRES W  DIS CAZ7
 TVCN    EP   0    245 4.459                                           19.0  18 
 TVCN    ES   4    245 6.671                                           19.0  18 
 ZSCP    EP   4    24515.093                                           70.6  77 
 ZSCP    ES   1    24524.994                                           70.6  77 
 ZGXN    EP   0    24526.753                                            153  85 
 ZGXN    ES   0    24546.913                                            153  85 
 YXLK    EP   4    24512.010                                           51.4  22 
 YXLK    ES   0    24518.107                                           51.4  22 
 XIVZ    EP   4    24517.082                                           95.6 354 
 XIVZ    ES   4    24533.168                                           95.6 354 
 RVDG    EP   0    24514.943                                           75.8  63 
 RVDG    ES   0    24525.981                                           75.8  63 
 EVSP    EP   2    24515.915                                           85.6 284 
 EVSP    ES   2    24529.536                                           85.6 284 
                                                                                

 2020  1 1  246 40.0 L  36.234  52.181 11.4       8 0.0 4.0l                   1
 Action:ARG 22-07-04 18:17 OP:OBSP STATUS:               ID:20200101024640     I
 STAT SP IPHASW D HRMM SECON CODA AMPLIT PERI AZIMU VELO AIN AR TRES W  DIS CAZ7
 RVDG    EP   0    24653.021                                           66.3  74 
 RVDG    ES   4    247 1.852                                           66.3  74 
 YXLK    EP   0    24647.368                                           35.6  26 
 YXLK    ES   1    24652.714                                           35.6  26 
 EVSP    EP   1    24656.495                                           87.2 274 
 EVSP    ES   1    247 9.233                                           87.2 274 
 YIBA    EP   0    24650.751                                           54.4 349 
 YIBA    ES   4    24657.908                                           54.4 349 
 TVCN    EP   1    24642.848                                           3.06  34 
 TVCN    ES   4    24642.468                                           3.06  34 
 ZGXN    EP   3    247 7.082                                            148  91 
 ZGXN    ES   4    24724.080                                            148  91 
 ZSCP    EP   1    24653.143                                           64.7  90 
 ZSCP    ES   4    247 3.632                                           64.7  90 
 YAIP    EP   2    247 5.316                                            138  59 
 YAIP    ES   4    24724.494                                            138  59 
                                                                                

 2020  1 1  248 20.0 L  36.184  51.910  5.8       6 0.0 3.0l                   1
 Action:ARG 22-07-04 18:17 OP:OBSP STATUS:               ID:20200101024820     I
 STAT SP IPHASW D HRMM SECON CODA AMPLIT PERI AZIMU VELO AIN AR TRES W  DIS CAZ7
 SRWZ    EP   4    24822.635                                           19.5 144 
 SRWZ    ES   2    24828.208                                           19.5 144 
 TVCN    EP   1    24825.423                                           27.3  72 
 TVCN    ES   0    24830.104                                           27.3  72 
 EVSP    EP   1    24832.793                                           63.7 280 
 EVSP    ES   0    24843.000                                           63.7 280 
 ZGXN    EP   4    24852.782                                            172  89 
 ZGXN    ES   3    24912.505                                            172  89 
 YXLK    EP   1    24830.868                                           54.8  46 
 YXLK    ES   2    24840.525                                           54.8  46 
 XIVZ    EP   0    24837.257                                           85.7   6 
 XIVZ    ES   2    24849.398                                           85.7   6 
                                                                                

