 2020  1 1  0 1 40.0 L  35.863  52.363  7.0       8 0.0 4.0l                   1
 Action:ARG 22-07-04 18:17 OP:OBSP STATUS:               ID:20200101000140     I
 STAT SP IPHASW D HRMM SECON CODA AMPLIT PERI AZIMU VELO AIN AR TRES W  DIS CAZ7
 RVDG    EP   4    0 153.844                                           75.6  39 
 RVDG    ES   4    0 2 8.188                                           75.6  39 
 ZSCP    EP   0    0 153.004                                           63.3  49 
 ZSCP    ES   2    0 2 3.107                                           63.3  49 
 YAIP    EP   1    0 2 7.504                                            151  42 
 YAIP    ES   1    0 227.977                                            151  42 
 SRWZ    EP   3    0 148.418                                           35.6 303 
 SRWZ    ES   4    0 150.337                                           35.6 303 
 YXLK    EP   4    0 153.157                                           73.0 359 
 YXLK    ES   1    0 2 5.388                                           73.0 359 
 ZGXN    EP   1    0 2 4.615                                            137  74 
 ZGXN    ES   1    0 223.532                                            137  74 
 EVSP    EP   1    0 2 1.933                                            113 294 
 EVSP    ES   0    0 218.056                                            113 294 
 YIBA    EP   2    0 159.733                                           98.2 344 
 YIBA    ES   2    0 212.891                                           98.2 344 
                                                                                

 2020  1 1  0 3 20.0 L  35.760  51.882 17.7       6 0.0 3.0l                   1
 Action:ARG 22-07-04 18:17 OP:OBSP STATUS:               ID:20200101000320     I
 STAT SP IPHASW D HRMM SECON CODA AMPLIT PERI AZIMU VELO AIN AR TRES W  DIS CAZ7
 TVCN    EP   3    0 331.341                                           62.1  27 
 TVCN    ES   0    0 341.704                                           62.1  27 
 YIBA    EP   1    0 339.764                                            107   8 
 YIBA    ES   4    0 355.204                                            107   8 
 YAIP    EP   3    0 352.600                                            191  49 
 YAIP    ES   2    0 415.067                                            191  49 
 ZSCP    EP   4    0 337.900                                            105  60 
 ZSCP    ES   4    0 352.591                                            105  60 
 YXLK    EP   1    0 337.343                                           94.6  26 
 YXLK    ES   2    0 350.069                                           94.6  26 
 ZGXN    EP   1    0 350.917                                            182  74 
 ZGXN    ES   4    0 412.087                                            182  74 
                                                                                

 2020  1 1  0 5  0.0 L  35.485  52.194 16.5       5 0.0 2.5l                   1
 Action:ARG 22-07-04 18:17 OP:OBSP STATUS:               ID:20200101000500     I
 STAT SP IPHASW D HRMM SECON CODA AMPLIT PERI AZIMU VELO AIN AR TRES W  DIS CAZ7
 YIBA    EP   0    0 523.821                                            136 355 
 YIBA    ES   4    0 540.433                                            136 355 
 TVCN    EP   1    0 515.807                                           85.5   0 
 TVCN    ES   4    0 529.796                                           85.5   0 
 ZGXN    EP   4    0 527.398                                            167  61 
 ZGXN    ES   3    0 548.933                                            167  61 
 RVDG    EP   2    0 521.847                                            118  31 
 RVDG    ES   3    0 538.113                                            118  31 
 XIVZ    EP   4    0 526.572                                            163 354 
 XIVZ    ES   3    0 549.693                                            163 354 
                                                                                

 2020  1 1  0 6 40.0 L  35.830  52.390  8.8       6 0.0 3.0l                   1
 Action:ARG 22-07-04 18:17 OP:OBSP STATUS:               ID:20200101000640     I
 STAT SP IPHASW D HRMM SECON CODA AMPLIT PERI AZIMU VELO AIN AR TRES W  DIS CAZ7
 TVCN    EP   1    0 650.152                                           50.3 340 
 TVCN    ES   1    0 657.958                                           50.3 340 
 XIVZ    EP   4    0 7 5.566                                            128 345 
 XIVZ    ES   0    0 721.575                                            128 345 
 EVSP    EP   0    0 7 1.994                                            117 296 
 EVSP    ES   2    0 719.296                                            117 296 
 SRWZ    EP   4    0 649.503                                           39.7 306 
 SRWZ    ES   0    0 654.624                                           39.7 306 
 YAIP    EP   2    0 7 7.839                                            153  41 
 YAIP    ES   3    0 726.715                                            153  41 
 YXLK    EP   1    0 654.946                                           76.8 357 
 YXLK    ES   1    0 7 6.362                                           76.8 357 
                                                                                

 2020  1 1  0 8 20.0 L  35.944  52.071 12.4       6 0.0 3.0l                   1
 Action:ARG 22-07-04 18:17 OP:OBSP STATUS:               ID:20200101000820     I
 STAT SP IPHASW D HRMM SECON CODA AMPLIT PERI AZIMU VELO AIN AR TRES W  DIS CAZ7
 YAIP    EP   3    0 849.463                                            165  51 
 YAIP    ES   1    0 910.350                                            165  51 
 YIBA    EP   4    0 838.189                                           85.6 359 
 YIBA    ES   3    0 848.217                                           85.6 359 
 RVDG    EP   0    0 837.273                                           89.1  55 
 RVDG    ES   2    0 849.410                                           89.1  55 
 YXLK    EP   3    0 832.894                                           69.0  21 
 YXLK    ES   0    0 843.754                                           69.0  21 
 XIVZ    EP   0    0 840.918                                            111 357 
 XIVZ    ES   1    0 856.640                                            111 357 
 ZSCP    EP   2    0 836.404                                           81.2  66 
 ZSCP    ES   4    0 850.056                                           81.2  66 
                                                                                

 2020  1 1  010  0.0 L  35.539  52.327 11.7       9 0.0 4.5l                   1
 Action:ARG 22-07-04 18:17 OP:OBSP STATUS:               ID:20200101001000     I
 STAT SP IPHASW D HRMM SECON CODA AMPLIT PERI AZIMU VELO AIN AR TRES W  DIS CAZ7
 YAIP    EP   4    01029.721                                            181  35 
 YAIP    ES   4    01055.905                                            181  35 
 ZGXN    EP   1    01026.667                                            153  61 
 ZGXN    ES   1    01047.577                                            153  61 
 ZSCP    EP   0    01017.873                                           92.6  33 
 ZSCP    ES   4    01032.892                                           92.6  33 
 RVDG    EP   2    01019.643                                            107  28 
 RVDG    ES   1    01035.653                                            107  28 
 YXLK    EP   2    01021.062                                            108   1 
 YXLK    ES   2    01034.957                                            108   1 
 YIBA    EP   0    01023.894                                            132 349 
 YIBA    ES   1    01041.379                                            132 349 
 SRWZ    EP   3    01011.501                                           61.6 334 
 SRWZ    ES   2    01020.798                                           61.6 334 
 XIVZ    EP   4    01029.555                                            158 350 
 XIVZ    ES   4    01050.538                                            158 350 
 EVSP    EP   4    01025.272                                            130 309 
 EVSP    ES   0    01041.270                                            130 309 
                                                                                

 2020  1 1  011 40.0 L  35.914  51.928 14.8       9 0.0 4.5l                   1
 Action:ARG 22-07-04 18:17 OP:OBSP STATUS:               ID:20200101001140     I
 STAT SP IPHASW D HRMM SECON CODA AMPLIT PERI AZIMU VELO AIN AR TRES W  DIS CAZ7
 YIBA    EP   0    01157.081                                           89.8   8 
 YIBA    ES   0    01210.244                                           89.8   8 
 SRWZ    EP   2    01143.798                                           17.1  34 
 SRWZ    ES   0    01147.853                                           17.1  34 
 YAIP    EP   4    01211.647                                            177  53 
 YAIP    ES   4    01231.127                                            177  53 
 ZSCP    EP   1    01157.483                                           94.5  67 
 ZSCP    ES   0    01211.246                                           94.5  67 
 RVDG    EP   4    01157.570                                            101  58 
 RVDG    ES   2    01212.649                                            101  58 
 TVCN    EP   0    01149.160                                           45.2  32 
 TVCN    ES   4    01154.911                                           45.2  32 
 YXLK    EP   1    01154.802                                           77.6  29 
 YXLK    ES   1    012 6.212                                           77.6  29 
 EVSP    EP   4    01152.255                                           76.6 303 
 EVSP    ES   4    012 7.578                                           76.6 303 
 XIVZ    EP   2    012 0.334                                            115   4 
 XIVZ    ES   3    01217.532                                            115   4 
                                                                                

 2020  1 1  013 20.0 L  35.754  52.254 16.8       7 0.0 3.5l                   1
 Action:ARG 22-07-04 18:17 OP:OBSP STATUS:               ID:20200101001320     I
 STAT SP IPHASW D HRMM SECON CODA AMPLIT PERI AZIMU VELO AIN AR TRES W  DIS CAZ7
 EVSP    EP   4    01338.219                                            110 302 
 EVSP    ES   4    01354.125                                            110 302 
 RVDG    EP   0    01337.315                                           91.3  39 
 RVDG    ES   1    01350.555                                           91.3  39 
 ZSCP    EP   2    01334.529                                           78.8  47 
 ZSCP    ES   1    01346.926                                           78.8  47 
 SRWZ    EP   1    01327.713                                           37.4 328 
 SRWZ    ES   0    01333.969                                           37.4 328 
 YAIP    EP   4    01346.222                                            167  42 
 YAIP    ES   3    014 8.810                                            167  42 
 XIVZ    EP   3    01342.672                                            134 351 
 XIVZ    ES   3    014 0.287                                            134 351 
 TVCN    EP   4    01332.592                                           55.9 355 
 TVCN    ES   2    01340.391                                           55.9 355 
                                                                                

 2020  1 1  015  0.0 L  35.804  51.961  6.4       6 0.0 3.0l                   1
 Action:ARG 22-07-04 18:17 OP:OBSP STATUS:               ID:20200101001500     I
 STAT SP IPHASW D HRMM SECON CODA AMPLIT PERI AZIMU VELO AIN AR TRES W  DIS CAZ7
 ZGXN    EP   2    01531.256                                            174  75 
 ZGXN    ES   1    01553.947                                            174  75 
 RVDG    EP   2    01521.326                                            106  51 
 RVDG    ES   0    01536.118                                            106  51 
 EVSP    EP   2    01516.509                                           86.2 308 
 EVSP    ES   3    01529.250                                           86.2 308 
 YIBA    EP   4    01518.770                                            101   5 
 YIBA    ES   1    01535.142                                            101   5 
 TVCN    EP   2    01511.978                                           54.6  23 
 TVCN    ES   4    01521.549                                           54.6  23 
 ZSCP    EP   2    01519.745                                           97.1  60 
 ZSCP    ES   1    01533.864                                           97.1  60 
                                                                                

 2020  1 1  016 40.0 L  36.130  52.009  5.4       8 0.0 4.0l                   1
 Action:ARG 22-07-04 18:17 OP:OBSP STATUS:               ID:20200101001640     I
 STAT SP IPHASW D HRMM SECON CODA AMPLIT PERI AZIMU VELO AIN AR TRES W  DIS CAZ7
 TVCN    EP   4    01643.477                                           22.2  50 
 TVCN    ES   1    01648.713                                           22.2  50 
 ZGXN    EP   4    017 8.104                                            164  87 
 ZGXN    ES   4    01733.280                                            164  87 
 YAIP    EP   1    017 7.857                                            157  58 
 YAIP    ES   4    01728.087                                            157  58 
 YIBA    EP   4    01654.549                                           65.2   4 
 YIBA    ES   4    017 5.523                                           65.2   4 
 RVDG    EP   3    01657.978                                           84.6  69 
 RVDG    ES   1    017 9.399                                           84.6  69 
 ZSCP    EP   0    01656.475                                           81.0  81 
 ZSCP    ES   1    017 8.838                                           81.0  81 
 EVSP    EP   4    01656.325                                           73.7 284 
 EVSP    ES   4    017 7.681                                           73.7 284 
 YXLK    EP   1    01651.393                                           53.4  35 
 YXLK    ES   0    01659.282                                           53.4  35 
                                                                                

 2020  1 1  018 20.0 L  36.256  51.754 17.5       9 0.0 4.5l                   1
 Action:ARG 22-07-04 18:17 OP:OBSP STATUS:               ID:20200101001820     I
 STAT SP IPHASW D HRMM SECON CODA AMPLIT PERI AZIMU VELO AIN AR TRES W  DIS CAZ7
 ZSCP    EP   1    01838.524                                            103  91 
 ZSCP    ES   1    01852.522                                            103  91 
 RVDG    EP   3    01838.018                                            103  81 
 RVDG    ES   0    01852.963                                            103  81 
 SRWZ    EP   0    01827.647                                           34.8 133 
 SRWZ    ES   4    01835.854                                           34.8 133 
 YAIP    EP   1    01849.247                                            171  66 
 YAIP    ES   0    01910.646                                            171  66 
 TVCN    EP   3    01829.461                                           40.1  89 
 TVCN    ES   4    01833.993                                           40.1  89 
 YIBA    EP   2    01831.068                                           58.3  28 
 YIBA    ES   2    01840.977                                           58.3  28 
 YXLK    EP   2    01831.708                                           61.5  61 
 YXLK    ES   3    01840.386                                           61.5  61 
 XIVZ    EP   2    01834.846                                           80.8  17 
 XIVZ    ES   4    01845.640                                           80.8  17 
 EVSP    EP   4    01831.212                                           48.7 274 
 EVSP    ES   4    01838.884                                           48.7 274 
                                                                                

 2020  1 1  020  0.0 L  36.112  52.202 11.5       8 0.0 4.0l                   1
 Action:ARG 22-07-04 18:17 OP:OBSP STATUS:               ID:20200101002000     I
 STAT SP IPHASW D HRMM SECON CODA AMPLIT PERI AZIMU VELO AIN AR TRES W  DIS CAZ7
 XIVZ    EP   4    02016.806                                           94.4 350 
 XIVZ    ES   0    02032.014                                           94.4 350 
 SRWZ    EP   1    020 4.591                                           17.0 242 
 SRWZ    ES   4    020 8.293                                           17.0 242 
 TVCN    EP   3    020 4.784                                           16.0 359 
 TVCN    ES   3    020 7.971                                           16.0 359 
 YAIP    EP   4    02026.711                                            144  54 
 YAIP    ES   3    02043.927                                            144  54 
 RVDG    EP   3    02012.935                                           69.5  63 
 RVDG    ES   2    02023.524                                           69.5  63 
 YIBA    EP   4    02011.921                                           68.0 349 
 YIBA    ES   1    02024.085                                           68.0 349 
 ZGXN    EP   3    02025.163                                            146  86 
 ZGXN    ES   4    02044.342                                            146  86 
 EVSP    EP   0    02017.778                                           91.0 282 
 EVSP    ES   1    02030.493                                           91.0 282 
                                                                                

 2020  1 1  021 40.0 L  35.847  52.201 16.4       8 0.0 4.0l                   1
 Action:ARG 22-07-04 18:17 OP:OBSP STATUS:               ID:20200101002140     I
 STAT SP IPHASW D HRMM SECON CODA AMPLIT PERI AZIMU VELO AIN AR TRES W  DIS CAZ7
 YAIP    EP   1    022 7.564                                            163  45 
 YAIP    ES   4    02230.519                                            163  45 
 XIVZ    EP   1    022 1.479                                            123 352 
 XIVZ    ES   4    02217.191                                            123 352 
 ZGXN    EP   4    022 4.764                                            151  74 
 ZGXN    ES   2    02225.216                                            151  74 
 YIBA    EP   2    02158.749                                           97.1 352 
 YIBA    ES   3    02212.512                                           97.1 352 
 YXLK    EP   4    02155.863                                           76.1  10 
 YXLK    ES   4    022 7.623                                           76.1  10 
 ZSCP    EP   4    02156.447                                           76.1  55 
 ZSCP    ES   2    022 6.438                                           76.1  55 
 EVSP    EP   4    022 0.108                                            101 299 
 EVSP    ES   2    02213.499                                            101 299 
 RVDG    EP   2    02155.971                                           86.8  45 
 RVDG    ES   3    022 9.752                                           86.8  45 
                                                                                

