 2017 1220 1957 37.3 L  35.675  50.950 12.8  Teh 95 0.3 5.2LTeh                1
 GAP=41                                                                        E
 Iranian Seismological Center, Institute of Geophysics, University of Tehran   6
 STAT SP IPHASW D HRMM SECON CODA AMPLIT PERI AZIMU VELO SNR AR TRES  W DIS CAZ7
 LAS  SZ E    0   1958 36.75    183838.0  0.4                           185 100
 KLH  SZ E    0   1958 59.11    127968.0  0.4                           268 167
 SRB  SZ E    0   1958 46.47     93255.9 0.92                           378 310
 QSDN BZ E    0   1958 32.12    421744.0 0.44                           184 300
 PRN  SZ E    0   1958 27.02    492749.0  0.8                           140  63
 ALA  SZ E    0   1958 34.22    290782.0 0.84                           174  74
 TBZ  SZ E    0   2000 15.59     12621.4 0.64                           513 305
 QOM  SZ E    0   1958  5.44     2014760 0.36                          93.0 174
 QAMS SZ E    0   1958 41.88    360362.0 0.28                           219 169
 KLST BZ E    0   1957 54.32    627275.0 0.28                          94.0   6
 MAHB BZ E    0   1959  3.30     20715.4  0.6                           487 286
 KLNJ BZ E    0   2000 21.96     20120.3    1                           521 173
 SFB  BZ E    0   1958 33.96    176111.0 0.48                           188 141
 KCHF BZ E    0   1959 44.56     52345.9 0.68                           389 248
 GAR  SZ E    0   1959 38.18     29149.3 0.64                           376 164
 SAD  SZ E    0   2000  5.70     25803.0 0.64                           488 148
 GLO  SZ E    0   1959 14.94    175311.0 0.84                           275  70
 JHBN BZ E    0   1959 42.86     57311.9 0.88                           383 184
 FIR  BZ E    0   1958 26.60    183146.0 0.28                           163  91
 PIR  SZ E    0   1959 16.26     97710.5 0.68                           332 181
 ANAR BZ E    0   1959 35.90     55547.2  0.8                           376 136
 ILBA BZ E    0   2000  8.90       -99.0 0.72                           491 244
 ANJ  SZ E    0   1958 54.82    166043.0  0.8                           270  94
 MEH  SZ E    0   2000 37.77     18774.1  0.8                           584 143
 HALM SZ E    0   1959  5.02    131903.0 0.84                           269 251
 HAGD BZ E    0   1958 35.18    520493.0 0.36                           190 241
 KGS1 BZ E    0   2000  9.26     21177.8  0.8                           506 257
 SHB  SZ E    0   1959 16.03     18848.4 0.56                           556 303
 LIN  BZ E    0   1959 25.90     65634.2 0.68                           372 258
 MND  BZ E    0   1959 47.88     20882.8 0.96                           434  65
 RAM  SZ E    0   2000  4.12     19755.5 0.84                           449 162
 HSH  SZ E    0   1958 41.55     80850.0 0.44                           377 300
 KOM  BZ E    0   1959 24.80     88441.7 1.12                           355 243
 ZEF  SZ E    0   1959  9.78     91478.0    1                           333 157
 GRMI BZ E    0   1959 52.60       -99.0 0.76                           441 323
 AMIS BZ E    0   2000  6.12     32755.6 1.04                           471 200
 SDS1 BZ E    0   2000 10.38     21285.6 0.84                           496 278
 AZR  SZ E    0   2000  8.12     51703.6 1.04                           496 298
 CHK  SZ E    0   2000 16.03     23924.6 0.68                           497 139
 BRJ  SZ E    0   2000  2.78     31555.9 0.96                           419 176
 DHR  BZ E    0   1959 56.94     29808.1  1.2                           429 257
 HRS  SZ E    0   1958 57.22     33513.3 0.56                           455 311
 MRD  SZ E    0   2000 31.20     33723.9  0.8                           575 307
 GHG  SZ E    0   1959 50.06     63042.7 0.84                           427 251
 MHD  SZ EPg  0   1957 42.5                                     -0.0   26.0 273
 HSB  BZ EPg  0   1957 44.6                                     -0.1   40.0 132
 TEH  BZ EPg  0   1957 44.9                                     -0.0   41.0  78
 MHD  SE ESg  4   1957 46.4                                      0.0   26.0 273
 HSB  BN ESg  4   1957 50.2                                      0.0   40.0 132
 TEH  BN ESg  4   1957 50.5                                      0.0   41.0  78
 QOM  SZ EPg  0   1957 53.4                                      0.2   93.0 174
 KLST BZ EPg  0   1957 53.4                                     -0.1   94.0   6
 DMV  SZ EPg  0   1957 54.0                                     -0.3   99.0  96
 RAZ  SZ EPg  0   1957 54.0                                      0.0   97.0 252
 MZPU BZ EPg  0   1957 54.5                                     -0.1    102  33
 VRN  BZ EPg  0   1957 54.9                                      0.1    103 137
 PRN  SZ EPg  0   1958 1.0                                       0.4    140  63
 JIR1 BZ EPg  0   1958 2.8                                      -0.1    154 318
 FIR  BZ EPg  4   1958 3.9                                      -0.6    163  91
 RAZ  SN ESg  0   1958 6.1                                       0.0   97.0 252
 ALA  SZ EPg  0   1958 6.1                                      -0.1    174  74
 QSDN BZ EPg  0   1958 7.3                                      -0.5    184 300
 LAS  SZ EPg  4   1958 7.6                                       0.0    0.0   0
 SFB  BZ EPn  0   1958 7.9                                      -0.8    188 141
 LHJ2 BZ EPg  0   1958 8.1                                       0.8    184 335
 HAGD BZ EPg  0   1958 8.6                                      -0.1    190 241
 KRSH BZ EPn  4   1958 11.6                                     -0.8    218 150
 QAMS SZ EPn  4   1958 12.1                                     -0.8    219 169
 CSN1 BZ EPn  4   1958 18.1                                     -0.2    267 322
 KLH  SZ EPn  4   1958 18.5                                     -0.2    268 167
 ANJ  SZ EPn  4   1958 18.6                                     -0.3    270  94
 HALM SZ EPn  4   1958 18.8                                     -0.0    269 251
 GLO  SZ EPn  4   1958 20.6                                      0.0    0.0   0
 BZA  BZ EPn  4   1958 24.8                                      0.6    312 246
 ZEF  SZ EPn  4   1958 27.0                                      0.2    333 157
 PIR  SZ EPn  4   1958 28.0                                      0.0    0.0   0
 GAS1 BZ EPn  4   1958 28.4                                     -0.8    355 329
 KOM  BZ EPn  4   1958 30.7                                      0.0    0.0   0
 HSH  SZ EPn  4   1958 31.2                                      0.0    0.0   0
 LIN  BZ EPn  4   1958 32.0                                      0.0    0.0   0
 SRB  SZ EPn  4   1958 32.0                                     -0.4    378 310
 ANAR BZ EPn  4   1958 32.0                                      0.1    376 136
 KFM  BZ EPn  4   1958 32.6                                      0.0    0.0   0
 GAR  SZ EPn  4   1958 33.4                                      1.3    376 164
 JHBN BZ EPn  4   1958 33.9                                      0.0    0.0   0
 KCHF BZ EPn  4   1958 34.5                                      0.0    0.0   0
 ZNGN BZ EPn  4   1958 35.0                                      0.5    395 181
 BRJ  SZ EPn  4   1958 38.3                                      0.9    419 176
 MND  BZ EPn  4   1958 38.4                                      0.0    0.0   0
 GHG  SZ EPn  4   1958 39.0                                      0.0    0.0   0
 DHR  BZ EPn  4   1958 39.0                                      0.3    429 257
 GRMI BZ EPn  4   1958 39.8                                      0.0    0.0   0
 HRS  SZ EPn  4   1958 41.1                                      0.0    0.0   0
 RAM  SZ EPn  4   1958 41.7                                      0.0    0.0   0
 AMIS BZ EPn  0   1958 44.3                                      0.8    471 200
 ILBA BZ EPn  4   1958 44.9                                      0.0    0.0   0
 MAHB BZ EPn  4   1958 45.0                                      0.0    0.0   0
 AZR  SZ EPn  4   1958 46.6                                     -0.4    496 298
 SAD  SZ EPn  4   1958 46.8                                      0.0    0.0   0
 SDS1 BZ EPn  4   1958 47.1                                      0.0    0.0   0
 CHK  SZ EPn  4   1958 47.2                                      0.2    497 139
 TBZ  SZ EPn  4   1958 47.3                                     -1.8    513 305
 KGS1 BZ EPn  4   1958 47.7                                     -0.7    506 257
 MRVT BZ EPn  4   1958 48.0                                      0.0    0.0   0
 KLNJ BZ EPn  4   1958 49.5                                      0.0    0.0   0
 SHB  SZ EPn  4   1958 52.3                                      0.0    0.0   0
 TNSJ BZ EPn  4   1958 53.0                                      0.0    0.0   0
 MRD  SZ EPn  4   1958 57.2                                      0.0    0.0   0
 MEH  SZ EPn  4   1958 57.5                                      0.0    0.0   0
 SBZV BZ EPn  4   1959 0.3                                       0.0    0.0   0
 TPRV BZ EPn  4   1959 0.3                                       0.2    604 117
 TKDS BZ EPn  4   1959 0.7                                       0.0    0.0   0
 BAF  SZ EPn  4   1959 3.0                                       0.4    623 135
 MAKU BZ EPn  4   1959 9.5                                       0.0    0.0   0
 SHI  BZ EPn  4   1959 10.2                                     -0.2    685 167
 AKL  SZ EPn  4   1959 13.8                                      0.2    710  79
 EMG  SZ EPn  4   1959 15.2                                      0.9    716  72
 PAY  SZ EPn  4   1959 16.6                                      0.0    0.0   0
 ZRDN BZ EPn  4   1959 17.1                                      0.3    737 134
 AHRM BN EPn  4   1959 18.3                                     -0.6    756 177
 TBHD SZ EPn  4   1959 18.9                                      0.8    752  90
 MOG  SZ EPn  4   1959 19.8                                      0.0    0.0   0
 AFRZ BZ EPn  4   1959 21.8                                     -0.4    781 106
 TEG  SZ EPn  4   1959 22.2                                      0.0    0.0   0
 KHGB BZ EPn  4   1959 22.7                                      0.0    0.0   0
 KRD  SZ EPn  4   1959 22.9                                      0.0    0.0   0
 KOO  SZ EPn  4   1959 27.9                                      0.0    0.0   0
 TVBK BZ EPn  4   1959 29.5                                      0.7    833 138
 MYA  SZ EPn  4   1959 30.2                                      0.0    0.0   0
 TBJM BZ EPn  4   1959 30.9                                     -0.5    852  90
 JRKH BZ EPn  4   1959 31.3                                      0.0    0.0   0
 BSRN BZ EPn  4   1959 31.7                                     -0.1    859 116
 NGRK BZ EPn  4   1959 32.2                                      0.0    0.0   0
 DAH  SZ EPn  4   1959 34.5                                     -0.6    884 109
 SHRT BZ EPn  4   1959 34.8                                     -0.3    885 102
 CHMN BZ EPn  4   1959 36.8                                      0.6    892 134
 NHDN BZ EPn  4   1959 46.2                                      0.0    0.0   0
 KBAM BZ EPn  4   1959 52.7                                      0.0    0.0   0
 GENO BZ EPn  4   1959 54.8                                      0.1   1042 150
 KHNJ BZ EPn  4   1959 58.6                                      0.0    0.0   0
 ZHDN BZ EPn  4   2000 9.1                                       0.1   1157 124
 JASK BZ EPn  4   2000 23.0                                      0.0    0.0   0

 2017 1221 0109 19.0 L  35.664  50.936 12.0  Teh  9 0.5 2.6LTeh                1
 GAP=113                                                                       E
 Iranian Seismological Center, Institute of Geophysics, University of Tehran   6
 STAT SP IPHASW D HRMM SECON CODA AMPLIT PERI AZIMU VELO SNR AR TRES  W DIS CAZ7
 MZPU BZ E    0   0109 50.68      1295.0 0.44                           103  33
 TEH  BZ E    0   0109 35.92      5423.4 0.24                          42.0  76
 HSB  BZ E    0   0109 32.86     27043.6 0.04                          40.0 129
 KLST BZ E    0   0109 47.76      2486.2 0.32                          96.0   7
 MHD  SZ E    0   0109 30.70     58840.0 0.04                          24.0 276
 DMV  SZ E    0   0109 55.44      1837.7 0.24                         100.0  95
 MHD  SZ EPg  0   0109 24.9                                      0.9   24.0 276
 HSB  BZ EPg  0   0109 27.2                                      0.8   40.0 129
 TEH  BZ EPg  0   0109 27.4                                      0.5   42.0  76
 RAZ  SZ E    0   0109 37.28      4610.1 0.12                          96.0 253
 FIR  BZ E    0   0110  9.66      1470.8  0.2                           165  90
 HSB  BN ESg  0   0109 32.6                                      0.0   40.0 129
 KLST BZ EPg  0   0109 35.8                                      0.2   96.0   7
 RAZ  SZ EPg  0   0109 36.1                                      0.5   96.0 253
 DMV  SZ EPg  0   0109 36.7                                      0.3  100.0  95
 MZPU BZ EPg  0   0109 37.2                                      0.3    103  33
 FIR  BZ EPg  0   0109 46.8                                     -0.0    165  90
 SFB  BZ EPg  0   0109 50.1                                     -0.4    188 140

