 2017 1210 0725 35.6 L  35.792  50.977 13.0  Teh 14 0.6 2.5LTeh                1
 GAP=124                                                                       E
 Iranian Seismological Center, Institute of Geophysics, University of Tehran   6
 STAT SP IPHASW D HRMM SECON CODA AMPLIT PERI AZIMU VELO SNR AR TRES  W DIS CAZ7
 MHD  SZ E    0   0725 47.22     31295.0 0.24                          30.0 247
 FIR  BZ E    0   0726 25.06       784.5 0.32                           162  95
 VRN  BZ E    0   0726 11.22      2003.0 0.28                           112 142
 LAS  SZ E    0   0726 33.68       737.6 0.16                           185 104
 JIR1 BZ E    0   0726 19.66      2511.6 0.24                           147 314
 QAMS SZ E    0   0726 43.74       792.0 0.24                           231 170
 ALA  SZ E    0   0726 30.50       890.9 0.36                           168  78
 KLH  SZ E    0   0726 54.97       495.4 0.16                           280 168
 DMV  SZ E    0   0725 53.98      1915.1 0.28                          98.0 104
 SFB  BZ E    0   0726 34.28       662.1 0.36                           197 144
 HAGD BZ E    0   0726 34.12       454.8 0.24                           199 238
 MHD  SZ EPg  0   0725 42.1                                      0.4   30.0 247
 HSB  BN EPg  0   0725 44.8                                      0.5   48.0 145
 MHD  SN ESg  0   0725 47.0                                      0.0   30.0 247
 RAZ  SZ EPg  0   0725 53.2                                     -0.4    104 246
 DMV  SZ EPg  0   0725 53.4                                      0.7   98.0 104
 QOM  SZ EPg  0   0725 53.5                                     -0.2    106 176
 VRN  BZ EPg  0   0725 54.8                                      0.1    112 142
 JIR1 BZ EPg  0   0726 0.1                                      -0.4    147 314
 FIR  BZ EPg  0   0726 2.7                                      -0.4    162  95
 ALA  SZ EPg  0   0726 3.7                                      -0.5    168  78
 DMV  SE ESg  0   0726 6.0                                       0.0   98.0 104
 RAZ  SN ESg  0   0726 6.2                                       0.0    104 246
 QOM  SN ESg  0   0726 6.5                                       0.0    106 176
 LAS  SZ EPg  0   0726 6.6                                      -0.3    185 104
 SFB  BZ EPg  0   0726 7.7                                      -1.0    197 144
 HAGD BZ EPn  0   0726 9.0                                       0.5    199 238
 KLH  SZ EPn  0   0726 19.1                                      0.5    280 168

 2017 1212 1948 54.8 L  35.763  50.951 17.7  Teh 26 0.3 3.1LTeh                1
 GAP=64                                                                        E
 Iranian Seismological Center, Institute of Geophysics, University of Tehran   6
 STAT SP IPHASW D HRMM SECON CODA AMPLIT PERI AZIMU VELO SNR AR TRES  W DIS CAZ7
 PRN  SZ E    0   1949 41.60      3190.4 0.92                           136  67
 DMV  SZ E    0   1949 26.86      5262.7 0.16                         100.0 102
 ANJ  SZ E    0   1950 19.26       569.3 0.28                           271  96
 MHD  SZ E    0   1949  5.86    513776.0 0.12                          27.0 251
 VRN  BZ E    0   1949 29.68      6059.4 0.28                           111 140
 KLH  SZ E    0   1950 13.49      1308.8  0.2                           277 168
 ANAR BZ E    0   1950 47.62       239.2 0.56                           383 137
 FIR  BZ E    0   1949 43.70      2095.3 0.44                           164  94
 JIR1 BZ E    0   1949 42.74      8108.7 0.32                           147 316
 HAGD BZ E    0   1949 52.70      1870.8 0.28                           195 238
 QAMS SZ E    0   1950  0.12      1317.6 0.44                           229 170
 QOM  SZ E    0   1949 25.48     12285.8 0.12                           103 174
 ZEF  SZ E    0   1950 40.31       421.3 0.52                           342 158
 HRS  SZ E    0   1950 14.90       183.9  0.4                           449 310
 SRB  SZ E    0   1950 45.05       391.4 0.32                           372 309
 LAS  SZ E    0   1949 50.81      1507.4  0.2                           187 103
 GLO  SZ E    0   1950 18.46      1295.7 0.56                           272  72
 MHD  SZ EPg  0   1949 0.7                                       0.1   27.0 251
 TEH  BZ EPg  0   1949 2.7                                       0.2   40.0  92
 HSB  BZ EPg  0   1949 3.5                                       0.1   47.0 141
 MHD  SN ESg  0   1949 5.5                                       0.0   27.0 251
 TEH  BN ESg  0   1949 8.1                                       0.0   40.0  92
 HSB  BE ESg  0   1949 9.3                                       0.0   47.0 141
 KLST BZ EPg  0   1949 9.4                                      -0.2   84.0   7
 MZPU BZ EPg  0   1949 11.2                                      0.2   93.0  36
 RAZ  SZ EPg  0   1949 11.7                                     -0.4    101 247
 DMV  SZ EPg  0   1949 11.8                                     -0.2  100.0 102
 QOM  SZ EPg  0   1949 12.1                                     -0.1    103 174
 VRN  BZ EPg  0   1949 13.6                                      0.1    111 140
 PRN  SZ EPg  0   1949 17.8                                      0.3    136  67
 JIR1 BZ EPg  0   1949 19.1                                     -0.3    147 316
 FIR  BZ EPg  4   1949 21.6                                     -0.5    164  94
 MZPU BE ESg  0   1949 22.6                                      0.0   93.0  36
 QSDN BZ EPg  0   1949 23.8                                     -0.9    180 298
 LHJ2 BZ EPg  0   1949 24.2                                      0.6    175 333
 RAZ  SN ESg  0   1949 24.8                                      0.0    101 247
 QOM  SE ESg  0   1949 25.0                                      0.0    103 174
 LAS  SZ EPn  4   1949 25.4                                     -0.2    187 103
 SFB  BZ EPn  0   1949 26.6                                     -0.0    196 143
 HAGD BZ EPg  0   1949 27.0                                      0.0    195 238
 KRSH BN EPn  4   1949 30.7                                      0.2    227 151
 QAMS SN EPn  0   1949 30.8                                     -0.0    229 170
 ANJ  SZ EPn  4   1949 36.1                                      0.1    271  96
 KLH  SE EPn  4   1949 37.5                                      0.6    277 168
 SRB  SZ EPn  4   1949 48.4                                     -0.2    372 309
 HRS  SZ EPn  4   1949 57.9                                     -0.3    449 310

 2017 1218 2246 48.7 L  35.771  50.950 19.4  Teh 24 0.4 3.0LTeh                1
 GAP=94                                                                        E
 Iranian Seismological Center, Institute of Geophysics, University of Tehran   6
 STAT SP IPHASW D HRMM SECON CODA AMPLIT PERI AZIMU VELO SNR AR TRES  W DIS CAZ7
 SRB  SZ E    0   2248 39.08       192.4 0.28                           371 309
 VRN  BZ E    0   2247 23.54      7793.3 0.08                           111 140
 ZEF  SZ E    0   2248 34.35       210.1 0.36                           343 158
 QAMS SZ E    0   2247 56.34      1345.6 0.24                           229 170
 FIR  BZ E    0   2247 17.04      1634.7 0.12                           164  94
 PRN  SZ E    0   2247 32.24      3314.2 0.36                           136  67
 RAZ  SZ E    0   2247 19.92     13048.6 0.24                           101 247
 QOM  SZ E    0   2247 19.44      7434.2 0.16                           104 174
 DMV  SZ E    0   2247  6.58      3689.2 0.28                         100.0 102
 LAS  SZ E    0   2247 44.67      1185.5  0.2                           187 103
 MHD  SZ E    0   2246 59.92    215630.0 0.16                          27.0 250
 HSB  BZ E    0   2247  4.28     25980.6 0.08                          47.0 141
 GLO  SZ E    0   2248 12.42       593.1 0.52                           272  72
 HRS  SZ E    0   2248  8.93       107.4 0.36                           448 310
 KRSH BN E    0   2247 53.22      2043.6 0.32                           227 151
 ALA  SZ E    0   2247 43.10      2031.3 0.36                           171  78
 ANJ  SZ E    0   2248 10.46       474.2 0.44                           271  96
 HAGD BZ E    0   2247 46.64      1141.8  0.4                           196 238
 SFB  BZ E    0   2247 46.90      1221.4 0.28                           197 143
 KLH  SZ E    0   2248  7.66       768.3 0.32                           278 168
 MHD  SZ EPg  0   2246 54.8                                      0.1   27.0 250
 TEH  BZ EPg  0   2246 56.5                                      0.1   40.0  93
 HSB  BZ EPg  0   2246 57.7                                      0.2   47.0 141
 MHD  SN ESg  0   2246 59.5                                      0.0   27.0 250
 TEH  BN ESg  0   2247 2.5                                       0.0   40.0  93
 HSB  BE ESg  0   2247 3.2                                       0.0   47.0 141
 RAZ  SZ EPg  0   2247 5.9                                      -0.2    101 247
 DMV  SZ EPg  0   2247 6.0                                       0.0  100.0 102
 QOM  SZ EPg  0   2247 6.1                                      -0.2    104 174
 VRN  BZ EPg  4   2247 7.6                                       0.0    111 140
 PRN  SZ EPg  0   2247 11.3                                     -0.1    136  67
 JIR1 BZ EPg  0   2247 13.1                                     -0.1    147 316
 FIR  BZ EPg  0   2247 15.5                                     -0.5    164  94
 ALA  SZ EPg  0   2247 17.6                                      0.4    171  78
 QSDN BZ EPg  0   2247 17.9                                     -0.6    179 297
 LHJ2 BZ EPg  2   2247 17.9                                      0.5    174 333
 RAZ  SE ESg  0   2247 18.6                                      0.0    101 247
 LAS  SZ EPg  4   2247 19.4                                     -0.2    187 103
 SFB  BZ EPn  4   2247 20.5                                      0.1    197 143
 HAGD BZ EPg  0   2247 21.4                                      0.5    196 238
 KRSH BN EPn  4   2247 24.9                                      0.6    227 151
 QAMS SZ EPn  0   2247 25.2                                      0.5    229 170
 GLO  SZ EPn  4   2247 30.3                                      0.4    272  72
 KLH  SZ EPn  4   2247 31.9                                      1.2    278 168
 SRB  SZ EPn  4   2247 42.4                                      0.1    371 309

 2017 1218 2329 38.3 L  35.403  50.790  8.0  Teh 18 0.5 2.8LTeh                1
 GAP=84                                                                        E
 Iranian Seismological Center, Institute of Geophysics, University of Tehran   6
 STAT SP IPHASW D HRMM SECON CODA AMPLIT PERI AZIMU VELO SNR AR TRES  W DIS CAZ7
 RAZ  SZ E    0   2329 52.74      4108.1  0.2                          78.0 270
 HSB  BZ E    0   2329 47.44     67009.5 0.08                          44.0  85
 PRN  SZ E    0   2330 34.16       742.8 0.52                           168  56
 MHD  SZ E    0   2329 49.92     65638.3 0.08                          33.0 340
 JIR1 BZ E    0   2330 29.16      1448.8 0.24                           170 329
 QSDN BZ E    0   2330 33.40      2345.5 0.08                           190 310
 TEH  BZ E    0   2330  0.22      6082.2 0.08                          67.0  54
 LAS  SZ E    0   2330 42.88       599.2 0.16                           197  90
 DMV  SZ E    0   2330 14.14      2085.9 0.28                           114  80
 FIR  BZ E    0   2330 36.16       483.1 0.28                           180  81
 KRSH BN E    0   2330 40.36       645.0  0.2                           201 142
 ALA  SZ E    0   2330 37.86       669.0 0.24                           198  67
 ZEF  SZ E    0   2331  7.93       167.1 0.36                           312 153
 QAMS SZ E    0   2330 36.86      1584.0 0.24                           193 163
 KLH  SZ E    0   2330 48.37       944.1 0.16                           242 162
 LHJ2 BZ E    0   2330 41.86      2405.3 0.24                           206 342
 MHD  SZ EPg  0   2329 44.8                                      0.2   33.0 340
 HSB  BZ EPg  0   2329 47.2                                      0.8   44.0  85
 TEH  BZ EPg  0   2329 50.1                                     -0.2   67.0  54
 RAZ  SZ EPg  0   2329 52.5                                      0.2   78.0 270
 DMV  SZ EPg  0   2329 58.3                                     -0.1    114  80
 HAGD BZ EPg  0   2330 7.0                                       0.4    164 247
 JIR1 BZ EPg  0   2330 7.1                                      -0.5    170 329
 PRN  SZ EPg  0   2330 7.7                                       0.4    168  56
 SFB  BZ EPg  0   2330 8.1                                      -0.6    177 131
 FIR  BZ EPg  0   2330 8.9                                      -0.5    180  81
 QSDN BZ EPn  0   2330 9.9                                      -0.2    190 310
 QAMS SZ EPn  0   2330 10.5                                     -0.1    193 163
 LAS  SZ EPn  0   2330 11.4                                      0.3    197  90
 KRSH BN EPn  0   2330 11.7                                     -0.1    201 142
 ALA  SZ EPn  0   2330 12.0                                      0.7    198  67
 LHJ2 BZ EPn  0   2330 12.9                                      0.6    206 342
 KLH  SZ EPn  0   2330 18.0                                      0.9    242 162
 ZEF  SZ EPn  0   2330 26.6                                      0.8    312 153

