 2017 1226 2124 34.0 L  35.679  50.941 14.9  Teh 62 0.3 4.2LTeh                1
 GAP=38                                                                        E
 Iranian Seismological Center, Institute of Geophysics, University of Tehran   6
 STAT SP IPHASW D HRMM SECON CODA AMPLIT PERI AZIMU VELO SNR AR TRES  W DIS CAZ7
 QOM  SZ E    0   2125  2.10    187274.0 0.28                          94.0 173
 SRB  SZ E    0   2126 24.39      4473.8 0.32                           377 310
 RAZ  SZ E    0   2125  3.72    120912.0 0.24                          97.0 252
 ANJ  SZ E    0   2125 53.51     13639.9  0.4                           271  94
 FIR  BZ E    0   2125 24.10     46904.8  0.2                           164  91
 DMV  SZ E    0   2125  4.98     76805.3  0.2                         100.0  96
 QAMS SZ E    0   2125 39.72     26706.0  0.4                           219 169
 KIA  SZ E    0   2125 19.76      8276.6 0.28                           254  76
 ZEF  SZ E    0   2126 15.51      3909.6 0.32                           334 157
 ALA  SZ E    0   2125 31.26     40260.6 0.24                           175  75
 GLO  SZ E    0   2125 21.76     10010.4 0.64                           276  70
 PIR  SZ E    0   2126  8.92      4220.6 0.28                           332 181
 LAS  SZ E    0   2125 28.75     31839.2 0.24                           186 100
 PRN  SZ E    0   2125 23.60     38544.1  0.8                           141  63
 HSH  SZ E    0   2126 35.84      3892.6 0.56                           376 300
 GHG  SZ E    0   2126  3.10      2954.0 0.76                           426 251
 KOM  BZ E    0   2126 21.04      3504.0 1.08                           355 243
 KFM  BZ E    0   2126 31.50      6616.8 1.04                           371 231
 SFB  BZ E    0   2125 30.82     22986.5 0.24                           189 141
 KLH  SZ E    0   2125 49.66     18491.9  0.2                           268 167
 HAGD BZ E    0   2125 31.10     16701.4 0.24                           190 240
 MEH  SZ E    0   2127 38.38       722.4 0.68                           585 143
 HSAM BZ E    0   2125 55.36      9253.2 0.64                           269 233
 CHK  SZ E    0   2127 12.98      1785.2  0.4                           498 139
 JHBN BZ E    0   2126 28.46      3524.9 0.48                           383 184
 MRD  SZ E    0   2127 27.48      2517.7 0.92                           574 307
 SHB  SZ E    0   2127 10.76      1103.0 0.32                           555 303
 HRS  SZ E    0   2126  2.86      2002.2  0.4                           454 311
 DHR  BZ E    0   2125 49.60      2147.9  0.4                           429 257
 KCHF BZ E    0   2125 43.92      2543.1 0.64                           389 248
 SAD  SZ E    0   2125 46.98      1491.4 0.32                           489 148
 HALM SZ E    0   2125 21.00     11529.9  0.2                           268 251
 MHD  SZ EPg  0   2124 39.1                                     -0.2   25.0 272
 AZR  SZ E    0   2127  2.80      1879.4 0.68                           495 298
 HSB  BZ EPg  0   2124 41.3                                     -0.3   40.0 131
 TEH  BZ EPg  0   2124 41.6                                     -0.1   41.0  79
 MHD  SN ESg  0   2124 42.9                                      0.0   25.0 272
 QOM  SZ EPg  0   2124 49.9                                     -0.1   94.0 173
 RAZ  SZ EPg  0   2124 50.4                                     -0.2   97.0 252
 DMV  SZ EPg  0   2124 51.0                                     -0.1  100.0  96
 MZPU BZ EPg  0   2124 51.4                                      0.1    102  34
 VRN  BZ EPg  0   2124 51.6                                     -0.1    104 136
 PRN  SZ EPg  0   2124 57.7                                      0.3    141  63
 JIR1 BZ EPg  0   2124 59.6                                      0.1    153 318
 FIR  BE EPg  4   2125 0.9                                      -0.5    164  91
 QOM  SN ESg  0   2125 1.6                                       0.0   94.0 173
 ALA  SZ EPg  0   2125 3.0                                       0.0    175  75
 MZPU BE ESg  0   2125 3.7                                       0.0    102  34
 QSDN BZ EPn  0   2125 3.9                                      -0.9    184 300
 LHJ2 BZ EPg  0   2125 4.7                                       0.6    183 335
 SFB  BZ EPg  4   2125 4.7                                      -0.4    189 141
 VRN  BN ESg  0   2125 4.8                                       0.0    104 136
 LAS  SZ EPg  4   2125 4.8                                       0.1    186 100
 HAGD BZ EPg  0   2125 5.1                                      -0.2    190 240
 KRSH BZ EPn  0   2125 8.9                                      -0.1    219 150
 QAMS SZ EPn  4   2125 8.9                                      -0.3    219 169
 KIA  SZ EPn  0   2125 13.6                                      0.1    254  76
 CSN1 BZ EPn  4   2125 14.7                                      0.0    266 322
 KLH  SZ EPn  4   2125 15.6                                      0.3    268 167
 HALM SZ EPn  4   2125 15.8                                      0.5    268 251
 ANJ  SZ EPn  4   2125 15.9                                      0.4    271  94
 HSAM BZ EPn  0   2125 15.9                                      0.6    269 233
 BZA  BZ EPn  4   2125 21.8                                      1.2    311 245
 ZEF  SZ EPn  4   2125 24.0                                      0.5    334 157
 PIR  SE EPn  4   2125 25.0                                      1.7    332 181
 GAS1 BZ EPn  4   2125 25.4                                     -0.1    354 329
 KOM  BZ EPn  4   2125 26.7                                      0.8    355 243
 HSH  SZ EPn  4   2125 28.0                                     -0.6    376 300
 KFM  BZ EPn  0   2125 28.3                                      0.4    371 231
 SRB  SZ EPn  4   2125 28.8                                      0.0    377 310
 LIN  BZ EPn  4   2125 29.0                                      1.0    372 258
 KCHF BZ EPn  4   2125 30.7                                      0.6    389 248
 JHBN BZ EPn  4   2125 31.3                                      1.7    383 184
 ZNGN BZ EPn  4   2125 31.8                                      0.7    395 181
 GHG  SZ EPn  4   2125 35.5                                      0.6    426 251
 DHR  BZ EPn  4   2125 35.8                                      0.7    429 257
 GRMI BZ EPn  4   2125 36.7                                      0.3    440 323
 HRS  SZ EPn  4   2125 38.7                                      0.4    454 311
 RAM  SZ EPn  4   2125 39.2                                      1.5    449 162
 AMIS BZ EPn  0   2125 40.4                                      0.3    471 199
 ILBA BN EPn  4   2125 42.4                                     -0.1    490 244
 AZR  SZ EPn  4   2125 43.9                                      0.4    495 298
 CHK  SE EPn  4   2125 44.4                                      0.8    498 139
 KGS1 BZ EPn  4   2125 44.7                                      0.3    505 257
 MRVT BZ EPn  4   2125 45.4                                      0.4    510  63
 KLNJ BZ EPn  4   2125 47.1                                      0.4    521 173
 MEH  SZ EPn  4   2125 54.9                                      0.3    585 143
 TPRV BZ EPn  4   2125 56.6                                     -0.2    605 117
 BAF  SZ EPn  4   2125 59.5                                      0.3    624 135
 AFRZ BZ EPn  4   2126 19.1                                      0.3    782 106
 KOO  SZ EPn  4   2126 24.9                                      0.4    827 114
 TBJM BZ EPn  4   2126 27.6                                     -0.1    853  90
 BSRN BZ EPn  4   2126 28.9                                      0.5    860 116
