 2021  2 8 0348  0.8 L  28.970  51.135 15.2  SLT 19 0.2                 1.7L BI1
 GAP= 67        0.49       1.3     1.1  2.5 -0.1895E+00  0.1196E+01  0.9484E+00E
 Action:ARG 21-12-02 15:38 OP:OBSP STATUS:               ID:20210208034800     I
 DUMMY                                                                         6
 STAT SP IPHASW D HRMM SECON CODA AMPLIT PERI AZIMU VELO AIN AR TRES W  DIS CAZ7
 TOLS BZ EP   1    348 3.580                             171   -0.22 7 1.98 300 
 P5   BZ  P   1    348 3.695                             159   -0.22 7 4.74 282 
 P9   BZ EP   1    348 4.390                             147    0.09 7 7.96  61 
 P9   BE ES   1    348 7.060                             147   -0.09 7 7.96  61 
 P4   BZ EP   1    348 4.030                             145   -0.19 7 8.35 268 
 KHIA BZ EP   1    348 4.550                             136   -0.03 7 11.2 164 
 KHIA BE ES   1    348 7.380                             136   -0.27 7 11.2 164 
 ABAD BZ EP   1    348 5.040                             131    0.21 7 13.1  60 
 ABAD BE ES   1    348 8.260                             131    0.17 7 13.1  60 
 ABTL BZ EP   1    348 5.200                             127    0.27 7 14.6 353 
 ABTL BE ES   1    348 8.530                             127    0.25 7 14.6 353 
 P3   BZ  P   1    348 5.099                             125    0.03 7 15.6 261 
 P3   BE  S   1    348 8.416                             125   -0.12 7 15.6 261 
 P2   BZ  P   1    348 5.622                             118    0.10 7 18.9 258 
 P2   BE  S   1    348 9.325                             118   -0.03 7 18.9 258 
 AHRM HZ EP   1    348 5.670                             117    0.06 7 19.6 127 
 N9   BZ  P   1    348 6.104                             108   -0.44 7 26.1 251 
 N9   BE  S   1    34811.389                             108    0.18 7 26.1 251 
 CAMP BZ  P   1    348 6.475                             108   -0.16 7 26.4 237 
 CAMP BE  S   1    34811.788                             108    0.41 7 26.4 237 
 N12  BZ  P   1    348 6.792                             107    0.14 7 27.2 256 
 N12  BE  S   1    34811.664                             107    0.26 7 27.2 256 
 N20  BZ  P   1    348 6.448                             106   -0.59 7 29.1 269 
 N20  BE  S   1    34812.009                             106   -0.09 7 29.1 269 
 N18  BZ  P   1    348 6.682                             105   -0.49 7 29.8 262 
 N18  BE  S   1    34812.311                             105   -0.04 7 29.8 262 
 N4   BZ  P   1    348 7.177                             105   -0.00 7 30.0 246 
 N4   BE  S   1    34812.724                             105    0.37 7 30.0 246 
 N11  BZ  P   1    348 7.342                             104    0.03 7 30.9 256 
 N11  BE  S   1    34812.669                             104    0.07 7 30.9 256 
 N13  BZ  P   1    348 7.508                             104    0.02 7 31.5 257 
 N13  BE  S   1    34812.917                             104    0.01 7 31.5 257 
 DLRM BZ  P   1    348 7.976                             102    0.14 7 34.3 189 
 DLRM BE ES   1    34813.690                             102    0.16 7 34.3 189 
                                                                                
 2021  2 8 0411 34.2 L  28.960  51.129 12.1  SLT 11 0.2                 1.6L BI1
 GAP=103        0.35       1.1     0.9  1.4 -0.3068E+00  0.2847E+00  0.1239E+00E
 Action:ARG 21-12-02 15:38 OP:OBSP STATUS:               ID:20210208041134     I
 DUMMY                                                                         6
 STAT SP IPHASW D HRMM SECON CODA AMPLIT PERI AZIMU VELO AIN AR TRES W  DIS CAZ7
 TOLS BZ EP   1    41136.660                             166   -0.12 7 2.38 329 
 TOLS BE ES   1    41138.760                             166   -0.07 7 2.38 329 
 P5   BZ EP   1    41136.840                             153   -0.06 7 4.62 296 
 P5   BE ES   1    41138.990                             153   -0.06 7 4.62 296 
 P4   BZ  P   1    41137.059                             138   -0.18 7 7.88 275 
 P4   BE  S   1    41139.566                             138   -0.09 7 7.88 275 
 P9   BZ  P   1    41137.528                             133    0.05 7 8.94  56 
 P9   BE  S   1    41140.129                             133    0.04 7 8.94  56 
 KHIA BZ  P   1    41137.528                             128   -0.07 7 10.3 160 
 KHIA BE  S   1    41140.517                             128    0.20 7 10.3 160 
 ABAD BZ  P   1    41138.158                             116    0.02 7 14.1  57 
 ABAD BN  S   1    41141.416                             116    0.13 7 14.1  57 
 P3   BZ  P   1    41137.971                             113   -0.22 7 15.0 265 
 P3   BN  S   1    41141.657                             113    0.27 7 15.0 265 
 ABTL BZ EP   1    41138.270                             111   -0.00 7 15.6 356 
 ABTL BE ES   1    41141.660                             111    0.12 7 15.6 356 
 P2   BZ  P   1    41138.493                             106   -0.19 7 18.2 261 
 P2   BE  S   1    41142.515                             106    0.23 7 18.2 261 
 N12  BZ  P   1    41139.887                              96   -0.00 7 26.5 258 
 N12  BE  S   1    41144.713                              96    0.26 7 26.5 258 
 N4   BZ  P   1    41140.156                              95   -0.25 7 29.2 247 
                                                                                
 2021  2 8 0520 32.9 L  28.963  51.124 11.6  SLT  7 0.1                 1.4L BI1
 GAP=116        0.23       0.7     0.9  1.3  0.2346E-03 -0.4350E+00 -0.1521E+00E
 Action:ARG 21-12-02 15:38 OP:OBSP STATUS:               ID:20210208052032     I
 DUMMY                                                                         6
 STAT SP IPHASW D HRMM SECON CODA AMPLIT PERI AZIMU VELO AIN AR TRES W  DIS CAZ7
 TOLS BZ EP   1    52035.250                             168   -0.09 7 1.92 340 
 TOLS BE ES   1    52037.300                             168   -0.01 7 1.92 340 
 P5   BZ EP   1    52035.400                             155   -0.05 7 4.00 297 
 P5   BE ES   1    52037.490                             155   -0.01 7 4.00 297 
 P4   BZ  P   1    52035.745                             138   -0.03 7 7.29 274 
 P4   BE  S   1    52038.121                             138    0.03 7 7.29 274 
 P9   BZ  P   1    52036.114                             129   -0.01 7 9.29  60 
 P9   BE  S   1    52038.781                             129    0.05 7 9.29  60 
 KHIA BZ  P   1    52036.299                             123    0.03 7 10.8 157 
 KHIA BE  S   1    52039.071                             123    0.08 7 10.8 157 
 ABAD BZ  P   1    52036.774                             111   -0.04 7 14.4  59 
 ABAD BN  S   1    52039.929                             111   -0.05 7 14.4  59 
 ABTL BZ  P   1    52036.880                             108    0.01 7 15.3 358 
 ABTL BE  S   1    52040.180                             108    0.11 7 15.3 358 
                                                                                
 2021  2 8 1610 59.4 L  28.983  51.013 12.7  SLT 25 0.2                 1.8L BI1
 GAP= 84        0.45       1.0     0.9  1.6 -0.4568E+00  0.4362E+00 -0.3467E+00E
 Action:ARG 21-12-02 15:38 OP:OBSP STATUS:               ID:20210208161059     I
 DUMMY                                                                         6
 STAT SP IPHASW D HRMM SECON CODA AMPLIT PERI AZIMU VELO AIN AR TRES W  DIS CAZ7
 P4   BZ EP   1   1611 2.000                             159   -0.14 7 3.92 116 
 P4   BE ES   1   1611 4.230                             159   -0.12 7 3.92 116 
 P3   BZ EP   1   1611 2.090                             152   -0.14 7 5.19 224 
 P3   BE ES   1   1611 4.400                             152   -0.13 7 5.19 224 
 P5   BZ  P   1   1611 1.843                             143   -0.52 7 7.22  93 
 P5   BE  S   1   1611 5.060                             143    0.30 7 7.22  93 
 P2   BZ EP   1   1611 2.400                             137   -0.15 7 8.48 231 
 P2   BE ES   1   1611 5.080                             137   -0.02 7 8.48 231 
 TOLS BZ EP   1   1611 2.780                             131    0.09 7 10.1  92 
 TOLS BE ES   1   1611 5.650                             131    0.30 7 10.1  92 
 P1   BZ EP   1   1611 2.900                             126    0.02 7 11.7 239 
 P1   BE ES   1   1611 5.890                             126    0.19 7 11.7 239 
 N19  BZ  P   1   1611 3.554                             117    0.20 7 14.9 254 
 N19  BE  S   1   1611 6.661                             117    0.10 7 14.9 254 
 N9   BZ  P   1   1611 3.472                             114   -0.04 7 16.1 233 
 N9   BE ES   1   1611 6.860                             114    0.02 7 16.1 233 
 ABTL BZ EP   1   1611 3.580                             113   -0.03 7 16.6  38 
 SHIF BZ  P   1   1611 3.267                             113   -0.26 7 16.6 305 
 SHIF BE  S   1   1611 6.976                             113    0.10 7 16.6 305 
 ABTL BE ES   1   1611 7.060                             113    0.04 7 16.6  38 
 N12  BZ EP   1   1611 3.420                             112   -0.11 7 16.7 241 
 N12  BE ES   1   1611 6.930                             112    0.07 7 16.7 241 
 N15  BZ EP   1   1611 3.510                             112   -0.16 7 16.9 245 
 N15  BE ES   1   1611 7.060                             112   -0.06 7 16.9 245 
 N20  BZ  P   1   1611 3.609                             111   -0.12 7 17.3 264 
 N20  BE ES   1   1611 7.120                             111   -0.11 7 17.3 264 
 N6   BZ EP   1   1611 3.680                             110   -0.17 7 18.1 230 
 N6   BE ES   1   1611 7.470                             110    0.02 7 18.1 230 
 N18  BZ EP   1   1611 3.770                             109   -0.16 7 18.5 253 
 N18  BE ES   1   1611 7.550                             109   -0.04 7 18.5 253 
 N14  BZ EP   1   1611 3.860                             108   -0.01 7 18.6 248 
 N14  BE ES   1   1611 7.200                             108   -0.28 7 18.6 248 
 CAMP BZ EP   1   1611 3.940                             108   -0.03 7 18.9 213 
 CAMP BE ES   1   1611 7.840                             108    0.17 7 18.9 213 
 P9   BZ EP   1   1611 4.080                             108   -0.01 7 19.0  82 
 KHIA BZ EP   1   1611 4.050                             107   -0.03 7 19.2 129 
 N17  BZ  P   1   1611 4.854                             107    0.83 7 19.3 256 
 N17  BE  S   1   1611 7.866                             107    0.09 7 19.3 256 
 N5   BZ EP   1   1611 4.060                             106   -0.06 7 19.9 219 
 N5   BE ES   1   1611 8.000                             106    0.07 7 19.9 219 
 N11  BZ EP   1   1611 3.920                             106   -0.23 7 20.2 244 
 N11  BE ES   1   1611 8.050                             106    0.06 7 20.2 244 
 N13  BZ  P   1   1611 4.882                             105    0.58 7 20.7 246 
 N13  BE  S   1   1611 8.181                             105   -0.08 7 20.7 246 
 N4   BZ EP   1   1611 4.040                             105   -0.20 7 20.8 228 
 N4   BE ES   1   1611 8.250                             105    0.09 7 20.8 228 
 NOKA BZ EP   1   1611 4.460                             103    0.01 7 22.6   5 
 NOKA BE ES   1   1611 8.600                             103    0.06 7 22.6   5 
                                                                                
 2021  2 8 1611 36.3 L  28.988  51.005 14.8  SLT  7 0.1                 1.3L BI1
 GAP=205        0.25       2.2     0.7  1.8 -0.3523E+00 -0.4215E-01 -0.8433E+00E
 Action:ARG 21-12-02 15:38 OP:OBSP STATUS:               ID:20210208161136     I
 DUMMY                                                                         6
 STAT SP IPHASW D HRMM SECON CODA AMPLIT PERI AZIMU VELO AIN AR TRES W  DIS CAZ7
 P2   BZ EP   1   161139.640                             145   -0.05 7 8.24 225 
 P2   BE ES   1   161142.260                             145   -0.17 7 8.24 225 
 TOLS BZ EP   1   161139.990                             135    0.07 7 11.0  95 
 TOLS BE ES   1   161142.870                             135    0.02 7 11.0  95 
 P1   BZ EP   1   161139.950                             134   -0.01 7 11.3 235 
 P1   BE ES   1   161143.050                             134    0.13 7 11.3 235 
 N12  BZ EP   1   161140.520                             122   -0.01 7 16.2 238 
 N12  BE ES   1   161144.000                             122    0.06 7 16.2 238 
 N15  BZ EP   1   161140.660                             121    0.00 7 16.5 242 
 N15  BE ES   1   161144.220                             121    0.04 7 16.5 242 
 N18  BZ EP   1   161140.760                             118   -0.12 7 17.9 250 
 N18  BE ES   1   161144.620                             118    0.03 7 17.9 250 
 KHIA BZ EP   1   161141.300                             115    0.04 7 20.2 129 
 KHIA BE ES   1   161145.230                             115   -0.03 7 20.2 129 
                                                                                
 2021  2 8 1614 49.3 L  28.993  51.007 14.3  SLT 26 0.2                 1.7L BI1
 GAP=142        0.38       1.3     0.7  1.4 -0.4575E+00  0.1980E+00 -0.2675E+00E
 Action:ARG 21-12-02 15:38 OP:OBSP STATUS:               ID:20210208161448     I
 DUMMY                                                                         6
 STAT SP IPHASW D HRMM SECON CODA AMPLIT PERI AZIMU VELO AIN AR TRES W  DIS CAZ7
 P4   BZ EP   1   161452.210                             156   -0.10 7 4.99 125 
 P4   BE ES   1   161454.440                             156   -0.32 7 4.99 125 
 P3   BZ EP   1   161452.270                             153   -0.10 7 5.73 212 
 P3   BE ES   1   161454.600                             153   -0.28 7 5.73 212 
 P5   BZ  P   1   161452.556                             144    0.05 7 7.93 101 
 P5   BN  S   1   161455.198                             144    0.08 7 7.93 101 
 P2   BZ EP   1   161452.600                             141   -0.05 7 8.82 223 
 P2   BE ES   1   161455.270                             141   -0.11 7 8.82 223 
 TOLS BZ EP   1   161453.000                             134    0.19 7 10.8  98 
 TOLS BE ES   1   161455.840                             134    0.17 7 10.8  98 
 P1   BZ EP   1   161453.070                             131    0.14 7 11.8 233 
 P1   BE ES   1   161456.050                             131    0.15 7 11.8 233 
 N19  BZ EP   1   161452.890                             124   -0.44 7 14.7 249 
 N19  BE ES   1   161456.750                             124    0.14 7 14.7 249 
 N16  BZ  P   1   161453.364                             122   -0.04 7 15.2 242 
 N16  BE  S   1   161456.841                             122    0.09 7 15.2 242 
 ABTL BZ EP   1   161453.810                             120    0.29 7 16.1  42 
 N9   BZ  P   1   161453.556                             120    0.02 7 16.4 229 
 N9   BE  S   1   161457.060                             120    0.07 7 16.4 229 
 N12  BZ EP   1   161453.580                             119    0.06 7 16.8 236 
 N12  BE ES   1   161457.030                             119    0.07 7 16.8 236 
 N20  BZ  P   1   161453.679                             119    0.03 7 16.9 260 
 N20  BE  S   1   161457.320                             119    0.14 7 16.9 260 
 N15  BZ EP   1   161453.730                             119    0.08 7 17.0 240 
 N15  BE ES   1   161457.210                             119    0.02 7 17.0 240 
 N18  BZ EP   1   161453.880                             116    0.01 7 18.3 249 
 N18  BE ES   1   161457.680                             116    0.09 7 18.3 249 
 N6   BZ  P   1   161453.912                             116    0.04 7 18.4 226 
 N6   BE ES   1   161457.630                             116    0.04 7 18.4 226 
 N14  BZ  P   1   161453.501                             115   -0.32 7 18.6 244 
 N14  BE  S   1   161457.415                             115   -0.09 7 18.6 244 
 N10  BZ  P   1   161453.528                             115   -0.39 7 18.7 234 
 N10  BE  S   1   161457.621                             115   -0.06 7 18.7 234 
 N17  BZ  P   1   161453.706                             115   -0.25 7 19.0 252 
 N17  BE  S   1   161458.168                             115    0.42 7 19.0 252 
 P9   BZ  P   1   161454.336                             114    0.22 7 19.4  86 
 N7   BZ EP   1   161454.030                             114    0.02 7 19.6 231 
 N7   BE ES   1   161457.860                             114    0.01 7 19.6 231 
 CAMP BZ EP   1   161454.130                             114    0.09 7 19.6 210 
 CAMP BE ES   1   161458.010                             114    0.11 7 19.6 210 
 N11  BZ  P   1   161453.679                             113   -0.43 7 20.2 240 
 N11  BE ES   1   161458.040                             113    0.02 7 20.2 240 
 N5   BZ EP   1   161454.200                             112    0.04 7 20.4 216 
 N5   BE ES   1   161458.180                             112    0.07 7 20.4 216 
 KHIA BZ EP   1   161454.210                             112   -0.01 7 20.4 131 
 KHIA BE ES   1   161458.180                             112   -0.04 7 20.4 131 
 N2   BZ  P   1   161454.048                             112   -0.13 7 20.5 213 
 N2   BE  S   1   161458.250                             112    0.11 7 20.5 213 
 N4   BZ  P   1   161454.172                             111   -0.08 7 21.1 225 
 N4   BE  S   1   161458.469                             111    0.19 7 21.1 225 
                                                                                
 2021  2 8 1615  8.0 L  28.984  51.010 13.0  SLT  5 0.1                 1.1L BI1
 GAP=159        0.32       2.4     1.8  2.9 -0.3663E+01  0.3274E+01 -0.4364E+01E
 Action:ARG 21-12-02 15:38 OP:OBSP STATUS:               ID:20210208161507     I
 DUMMY                                                                         6
 STAT SP IPHASW D HRMM SECON CODA AMPLIT PERI AZIMU VELO AIN AR TRES W  DIS CAZ7
 P4   BZ EP   1   161510.710                             157   -0.05 7 4.26 116 
 P4   BE ES   1   161512.840                             157   -0.19 7 4.26 116 
 TOLS BZ EP   1   161511.320                             131    0.00 7 10.4  93 
 TOLS BE ES   1   161514.200                             131    0.17 7 10.4  93 
 P1   BZ EP   1   161511.500                             128    0.05 7 11.5 238 
 P1   BE ES   1   161514.460                             128    0.19 7 11.5 238 
 N12  BZ EP   1   161511.940                             114   -0.13 7 16.5 240 
 N12  BE ES   1   161515.370                             114   -0.04 7 16.5 240 
 ABTL BZ EP   1   161512.180                             114   -0.02 7 16.6  39 
 ABTL BE ES   1   161515.650                             114    0.02 7 16.6  39 
                                                                                
