 2021  418 0911 10.8 L  29.718  50.705 52.8  SLT 23 0.3                 3.6L BI1
 GAP=333        0.48       5.0     5.7 10.5 -0.7224E+01  0.2698E+02 -0.4584E+02E
 Action:ARG 21-06-12 18:26 OP:OBSP STATUS:               ID:20210418091110     I
 DUMMY                                                                         6
 STAT SP IPHASW D HRMM SECON CODA AMPLIT PERI AZIMU VELO AIN AR TRES W  DIS CAZ7
 NOKA BZ  P   1    91124.918                             126   -0.37 7 67.0 151 
 SHIF BZ  P   1    91126.264                             123    0.08 7 73.7 167 
 ABTL BZ  P   1    91126.288                             121   -0.72 7 79.2 150 
 ABTL BE  S   1    91140.385                             121    0.27 7 79.2 150 
 N17  BZ  P   1    91127.805                             119   -0.28 6 86.8 172 
 N18  BZ  P   1    91128.026                             119   -0.22 6 87.8 172 
 P3   BZ  P   1    91128.711                             118    0.29 6 89.2 163 
 P3   BE  S   1    91142.392                             118   -0.27 6 89.2 163 
 N14  BZ  P   1    91128.344                             118   -0.04 6 89.4 172 
 P4   BZ  P   1    91128.735                             118    0.26 6 89.7 158 
 P4   BE  S   1    91142.661                             118   -0.11 6 89.7 158 
 N15  BZ  P   1    91128.760                             118    0.24 6 89.9 171 
 N15  BE  S   1    91143.199                             118    0.35 6 89.9 171 
 N10  BZ  P   1    91128.882                             117   -0.02 6 92.5 171 
 N10  BE  S   1    91143.787                             117    0.26 6 92.5 171 
 P9   BZ  P   1    91129.519                             117    0.48 6 92.8 148 
 P9   BE  S   1    91143.933                             117    0.15 6 92.8 148 
 ABAD BZ  P   1    91128.686                             117   -0.35 6 92.9 145 
 N4   BZ  P   1    91129.592                             116    0.16 6 96.4 171 
 N4   BE  S   1    91144.154                             116   -0.34 6 96.4 171 
 N5   BZ  P   1    91129.837                             116    0.09 6 98.5 170 
 N5   BE  S   1    91145.010                             116   -0.07 6 98.5 170 
 N3   BZ  P   1    91129.984                             116    0.17 6 99.0 170 
 N3   BE  S   1    91145.133                             116   -0.05 6 99.0 170 
 N2   BZ EP   1    91130.000                             116    0.13 6 99.3 169 
 N2   BE  S   1    91145.304                             116    0.01 6 99.3 169 
 N1   BZ  P   1    91130.419                             115    0.27 6  101 169 
 N1   BE  S   1    91145.695                             115   -0.10 6  101 169 
 KHIA BZ EP   1    91131.000                             114    0.41 6  104 154 
 KHIA BE  S   1    91146.944                             114    0.35 6  104 154 
 JNAK BZ EP   1    91131.000                             113   -0.26 6  109 161 
 JNAK BE  S   1    91147.629                             113   -0.17 6  109 161 
 AHRM HZ  P   1    91131.697                             113    0.16 6  111 149 
 DLRM BZ  P   1    91133.307                             111    0.07 5  122 163 
 DLRM BE  S   1    91150.908                             111   -0.48 5  122 163 
 KOLO BZ  P   1    91133.263                             111   -0.11 5  123 155 
 ABAS BZ  P   1    91136.172                             108   -0.33 5  143 156 
                                                                                
 2021  418 0912 53.0 L  29.760  50.732 48.6  SLT 20 0.2                 3.5L BI1
 GAP=333        0.40       4.6     5.0 10.5 -0.8032E+01  0.2493E+02 -0.4354E+02E
 Action:ARG 21-06-12 18:26 OP:OBSP STATUS:               ID:20210418091252     I
 DUMMY                                                                         6
 STAT SP IPHASW D HRMM SECON CODA AMPLIT PERI AZIMU VELO AIN AR TRES W  DIS CAZ7
 NOKA BZ  P   1    913 7.561                             122    0.06 7 70.0 155 
 ABTL BZ  P   1    913 9.687                             118    0.42 7 82.0 153 
 ABTL BE  S   1    91321.953                             118   -0.47 7 82.0 153 
 N17  BZ  P   1    91310.787                             115    0.19 6 91.2 175 
 N18  BZ  P   1    91310.738                             115   -0.03 6 92.2 174 
 N18  BE  S   1    91324.983                             115   -0.15 6 92.2 174 
 P4   BZ  P   1    91311.104                             115    0.23 6 93.1 161 
 P4   BE  S   1    91325.399                             115    0.07 6 93.1 161 
 N14  BZ  P   1    91311.226                             115    0.32 6 93.8 174 
 N14  BE  S   1    91325.448                             115    0.06 6 93.8 174 
 N15  BZ  P   1    91311.129                             115    0.09 6 94.2 173 
 N15  BE  S   1    91325.839                             115    0.22 6 94.2 173 
 ABAD BZ  P   1    91311.617                             114    0.32 6 95.4 148 
 ABAD BE  S   1    91325.912                             114   -0.18 6 95.4 148 
 N10  BZ  P   1    91311.349                             114   -0.08 6 96.8 173 
 N10  BE  S   1    91326.156                             114   -0.17 6 96.8 173 
 N4   BZ  P   1    91311.911                             113   -0.07 6  101 173 
 N4   BE  S   1    91327.354                             113    0.03 6  101 173 
 N2   BZ  P   1    91312.131                             112   -0.28 6  103 171 
 N2   BE  S   1    91328.160                             112    0.05 6  103 171 
 N5   BZ  P   1    91312.131                             113   -0.16 6  103 172 
 N5   BE  S   1    91327.989                             113    0.10 6  103 172 
 N3   BZ  P   1    91311.959                             112   -0.40 6  103 172 
 N3   BE  S   1    91328.062                             112    0.05 6  103 172 
 CAMP BZ  P   1    91312.131                             112   -0.28 6  104 170 
 CAMP BE  S   1    91328.135                             112    0.02 6  104 170 
 N1   BZ  P   1    91312.375                             112   -0.32 6  105 171 
 JNAK BZ  P   1    91313.817                             111    0.07 6  113 163 
 JNAK BE  S   1    91331.092                             111    0.57 6  113 163 
 AHRM HZ  P   1    91313.841                             111   -0.05 6  113 151 
 DLRM BZ  P   1    91315.527                             108   -0.25 5  126 164 
 DLRM BN  S   1    91334.122                             108   -0.08 5  126 164 
 KOLO BZ EP   1    91316.000                             109    0.17 5  126 157 
 ABAS BZ  P   1    91318.728                             106   -0.28 5  147 158 
                                                                                
 2021  418 0938 55.3 L  29.629  50.620 76.7  SLT 12 0.3                 4.6L BI1
 GAP=344        0.55      19.8    17.2 19.1  0.2632E+03 -0.2131E+03 -0.3646E+03E
 Action:ARG 21-06-12 18:26 OP:OBSP STATUS:               ID:20210418093854     I
 DUMMY                                                                         6
 STAT SP IPHASW D HRMM SECON CODA AMPLIT PERI AZIMU VELO AIN AR TRES W  DIS CAZ7
 P1   BZ  P   1    93914.248                             131    0.05 7 82.5 160 
 P1   BE  S   1    93929.455                             131   -0.02 7 82.5 160 
 N10  BZ EP   1    93915.000                             131    0.50 6 84.6 164 
 N10  BE  S   1    93930.271                             131    0.25 6 84.6 164 
 N4   BZ  P   1    93915.212                             129    0.27 6 88.4 165 
 N4   BE  S   1    93931.383                             129    0.56 6 88.4 165 
 N5   BZ EP   1    93915.000                             129   -0.26 6 90.8 163 
 N5   BE  S   1    93931.136                             129   -0.26 6 90.8 163 
 N3   BZ EP   1    93915.560                             129    0.27 6 91.2 164 
 N3   BE  S   1    93931.581                             129    0.12 6 91.2 164 
 N2   BZ EP   1    93915.000                             128   -0.37 6 91.6 163 
 N2   BE  S   1    93931.235                             128   -0.36 6 91.6 163 
 CAMP BZ EP   1    93915.000                             128   -0.40 6 91.9 162 
 CAMP BE  S   1    93931.507                             128   -0.15 6 91.9 162 
 N1   BZ EP   1    93915.000                             128   -0.62 6 93.4 163 
 N1   BE  S   1    93931.729                             128   -0.32 6 93.4 163 
 JNAK BZ EP   1    93916.840                             125    0.05 6  103 155 
 JNAK BE  S   1    93934.227                             125    0.06 6  103 155 
 DLRM BZ EP   1    93919.000                             122    0.48 6  116 157 
 DLRM BE  S   1    93937.540                             122    0.24 6  116 157 
 KOLO BZ  P   1    93919.119                             121    0.24 5  118 149 
 KOLO BE  S   1    93937.812                             121   -0.13 5  118 149 
 ABAS BZ  P   1    93921.592                             117   -0.11 5  138 152 
                                                                                
 2021  418 0938 55.2 L  29.770  50.733 57.8  SLT 20 0.3                 4.6L BI1
 GAP=336        0.55      12.8     9.4 22.8  0.6450E+02 -0.9806E+02 -0.2823E+03E
 Action:ARG 21-06-12 18:26 OP:OBSP STATUS:               ID:20210418093854     I
 DUMMY                                                                         6
 STAT SP IPHASW D HRMM SECON CODA AMPLIT PERI AZIMU VELO AIN AR TRES W  DIS CAZ7
 SHIF BZ  P   1    93911.410                             124   -0.23 7 78.9 170 
 N20  BZ EP   1    93913.000                             121   -0.19 6 89.7 174 
 N17  BZ  P   1    93913.693                             120    0.13 6 92.3 175 
 N17  BE  S   1    93928.411                             120   -0.07 6 92.3 175 
 N18  BZ  P   1    93913.619                             120   -0.11 6 93.3 174 
 N18  BN  S   1    93929.006                             120    0.24 6 93.3 174 
 P2   BZ  P   1    93913.594                             119   -0.34 6 94.8 167 
 P1   BE  S   1    93929.449                             119    0.41 6 94.8 169 
 P2   BE  S   1    93929.575                             119    0.43 6 94.8 167 
 P1   BZ  P   1    93913.569                             119   -0.31 6 94.8 169 
 N14  BZ  P   1    93914.487                             119    0.62 6 94.9 174 
 N14  BE  S   1    93928.540                             119   -0.48 6 94.9 174 
 N15  BZ  P   1    93914.041                             119    0.06 6 95.3 173 
 N15  BE  S   1    93929.297                             119    0.06 6 95.3 173 
 N13  BZ EP   1    93914.000                             119   -0.14 6 96.0 175 
 N11  BZ EP   1    93914.000                             119   -0.15 6 96.5 175 
 N9   BZ  P   1    93913.743                             118   -0.60 6 98.0 172 
 N9   BE  S   1    93929.776                             118   -0.10 6 98.0 172 
 N6   BZ EP   1    93915.000                             118    0.37 6 99.8 172 
 N4   BZ  P   1    93915.182                             117    0.29 6  102 173 
 N4   BE  S   1    93931.292                             117    0.42 6  102 173 
 N5   BZ  P   1    93915.381                             117    0.19 6  104 172 
 N5   BE  S   1    93931.140                             117   -0.29 6  104 172 
 CAMP BZ  P   1    93915.530                             117    0.22 6  105 171 
 N2   BZ  P   1    93915.430                             117    0.12 6  105 171 
 N2   BE  S   1    93931.367                             117   -0.27 6  105 171 
 CAMP BE  S   1    93931.468                             117   -0.17 6  105 171 
 N1   BZ  P   1    93915.604                             116    0.02 6  106 171 
 N1   BE  S   1    93931.771                             116   -0.36 6  106 171 
 JNAK BZ  P   1    93917.093                             115    0.50 6  114 163 
 JNAK BN  S   1    93934.296                             115    0.34 6  114 163 
 AHRM HZ  P   1    93917.168                             115    0.44 6  114 151 
 AHRM HE  S   1    93933.942                             115   -0.26 6  114 151 
 KOLO BZ  P   1    93917.788                             112   -0.83 5  127 157 
 KOLO BE  S   1    93937.654                             112    0.03 5  127 157 
                                                                                
 2021  418 0942  8.1 L  29.664  50.741 59.8  SLT 14 0.3                 3.5L BI1
 GAP=334        0.53      11.2     7.3 16.8  0.4105E+02 -0.5447E+02 -0.1801E+03E
 Action:ARG 21-06-12 18:26 OP:OBSP STATUS:               ID:20210418094207     I
 DUMMY                                                                         6
 STAT SP IPHASW D HRMM SECON CODA AMPLIT PERI AZIMU VELO AIN AR TRES W  DIS CAZ7
 N17  BZ  P   1    94225.172                             124    0.08 7 80.5 174 
 N17  BE  S   1    94239.068                             124    0.24 7 80.5 174 
 N18  BZ  P   1    94225.172                             124   -0.07 7 81.5 174 
 N18  BE  S   1    94238.803                             124   -0.31 7 81.5 174 
 P4   BZ  P   1    94226.045                             124    0.65 7 82.8 159 
 N11  BZ EP   1    94225.000                             123   -0.64 6 84.7 174 
 N10  BZ  P   1    94225.463                             123   -0.39 6 86.1 173 
 N10  BE  S   1    94240.391                             123    0.18 6 86.1 173 
 N9   BZ EP   1    94226.010                             123    0.18 6 86.3 171 
 N9   BE  S   1    94239.862                             123   -0.31 6 86.3 171 
 N4   BZ  P   1    94226.257                             121   -0.10 6 90.0 173 
 N4   BE  S   1    94241.450                             121    0.32 6 90.0 173 
 N5   BZ  P   1    94226.918                             121    0.27 6 92.1 171 
 N5   BE  S   1    94241.715                             121    0.05 6 92.1 171 
 N3   BZ  P   1    94226.945                             121    0.23 6 92.6 172 
 N3   BE  S   1    94241.820                             121    0.05 6 92.6 172 
 KHIA BZ  P   1    94227.236                             119   -0.16 6 96.9 155 
 KHIA BE  S   1    94243.117                             119    0.11 6 96.9 155 
 AHRM HZ EP   1    94228.160                             118   -0.14 6  104 149 
 AHRM HE  S   1    94244.203                             118   -0.44 6  104 149 
 DLRM BZ  P   1    94229.751                             115   -0.22 6  115 163 
 DLRM BE  S   1    94247.273                             115   -0.39 6  115 163 
 KOLO BZ  P   1    94230.148                             115    0.07 6  116 155 
 KOLO BE  S   1    94248.305                             115    0.45 6  116 155 
 ABAS BZ  P   1    94233.430                             112    0.31 5  136 157 
                                                                                
 2021  418 0957 30.1 L  29.647  50.712 75.5  SLT 15 0.4                 2.9L BI1
 GAP=330        0.64      10.4    11.6 16.0 -0.1267E+02  0.1007E+03 -0.1215E+03E
 Action:ARG 21-06-12 18:26 OP:OBSP STATUS:               ID:20210418095729     I
 DUMMY                                                                         6
 STAT SP IPHASW D HRMM SECON CODA AMPLIT PERI AZIMU VELO AIN AR TRES W  DIS CAZ7
 ABTL BZ  P   1    95747.280                             135   -0.40 7 72.2 147 
 N18  BZ  P   1    95748.954                             132    0.33 7 80.0 172 
 N15  BZ  P   1    95748.516                             131   -0.34 7 82.1 170 
 N11  BZ EP   1    95749.000                             131    0.02 7 83.2 172 
 N10  BZ  P   1    95749.702                             130    0.52 6 84.7 171 
 P9   BZ  P   1    95748.929                             130   -0.49 6 85.8 146 
 ABAD BZ  P   1    95750.243                             130    0.80 6 86.2 142 
 ABAD BN  S   1    958 4.904                             130   -0.19 6 86.2 142 
 N4   BZ  P   1    95749.702                             129    0.07 6 88.5 171 
 N3   BZ  P   1    95749.341                             128   -0.62 6 91.2 170 
 KHIA BZ  P   1    95750.578                             126   -0.15 6 96.5 153 
 KHIA BE  S   1    958 7.558                             126    0.15 6 96.5 153 
 JNAK BZ  P   1    95751.608                             125    0.34 6  102 160 
 JNAK BE  S   1    958 8.563                             125    0.18 6  102 160 
 AHRM HZ  P   1    95751.995                             124    0.39 6  104 147 
 DLRM BZ EP   1    95752.830                             122   -0.22 6  114 162 
 DLRM BE  S   1    95811.474                             122   -0.14 6  114 162 
 KOLO BZ  P   1    95753.283                             122    0.06 6  115 153 
 ABAS BZ  P   1    95755.679                             117   -0.42 5  136 155 
                                                                                
