 2021  2 1 0357 10.6 L  28.966  50.930 10.7  SLT 18 0.2                 1.6L BI1
 GAP=113        0.41       1.3     1.1  1.4 -0.3029E+00 -0.4249E-01 -0.5853E+00E
 Action:ARG 21-12-02 15:38 OP:OBSP STATUS:               ID:20210201035710     I
 DUMMY                                                                         6
 STAT SP IPHASW D HRMM SECON CODA AMPLIT PERI AZIMU VELO AIN AR TRES W  DIS CAZ7
 P2   BZ  P   1    35713.069                             156    0.03 7 3.75 157 
 P2   BE  S   1    35715.038                             156    0.03 7 3.75 157 
 P1   BZ  P   1    35713.109                             152    0.06 7 4.57 205 
 P1   BE  S   1    35714.971                             152   -0.06 7 4.57 205 
 P3   BZ  P   1    35713.202                             150    0.09 7 4.87 113 
 P3   BE  S   1    35715.291                             150    0.14 7 4.87 113 
 N19  BZ  P   1    35713.282                             141    0.01 7 6.64 250 
 N19  BE  S   1    35715.464                             141    0.02 7 6.64 250 
 N16  BZ  P   1    35713.322                             138   -0.03 7 7.23 234 
 N16  BE  S   1    35715.504                             138   -0.08 7 7.23 234 
 N15  BZ EP   1    35713.550                             131   -0.03 7 9.05 233 
 N15  BE ES   1    35715.910                             131   -0.08 7 9.05 233 
 N20  BZ  P   1    35713.761                             130    0.17 7 9.17 270 
 N20  BE  S   1    35716.169                             130    0.16 7 9.17 270 
 N9   BZ  P   1    35713.721                             130    0.15 7 9.23 211 
 N9   BE  S   1    35715.943                             130   -0.03 7 9.23 211 
 N18  BZ EP   1    35713.770                             126    0.00 7 10.2 249 
 N18  BE  S   1    35716.275                             126   -0.06 7 10.2 249 
 N14  BZ  P   1    35714.373                             125    0.65 7 10.6 240 
 N14  BE  S   1    35716.288                             125    0.03 7 10.6 240 
 N17  BZ  P   1    35713.881                             124    0.03 7 11.0 255 
 N17  BE  S   1    35716.461                             124   -0.02 7 11.0 255 
 N6   BZ  P   1    35713.535                             123   -0.38 7 11.3 211 
 N6   BE  S   1    35716.036                             123   -0.56 7 11.3 211 
 N7   BZ  P   1    35714.240                             121    0.24 7 12.1 220 
 N7   BE  S   1    35716.661                             121   -0.08 7 12.1 220 
 N11  BZ EP   1    35714.000                             120   -0.02 7 12.2 235 
 N11  BE ES   1    35716.740                             120   -0.05 7 12.2 235 
 N13  BZ  P   1    35714.014                             119   -0.14 7 12.7 239 
 N13  BE  S   1    35716.927                             119   -0.10 7 12.7 239 
 N4   BZ  P   1    35714.399                             115    0.09 7 14.1 212 
 N4   BE  S   1    35717.260                             115   -0.04 7 14.1 212 
 CAMP BZ  P   1    35714.399                             115    0.05 7 14.3 189 
 CAMP BN  S   1    35717.539                             115    0.16 7 14.3 189 
 NOKA BZ  P   1    35715.889                              68   -0.35 7 26.4  23 
                                                                                
 2021  2 1 0623  1.4 L  29.044  51.388  7.0  SLT  7 0.1                 2.1L BI1
 GAP=293        0.35       1.4     2.2  1.8  0.1670E+00 -0.1160E+01 -0.3975E+00E
 Action:ARG 21-12-02 15:38 OP:OBSP STATUS:               ID:20210201062301     I
 DUMMY                                                                         6
 STAT SP IPHASW D HRMM SECON CODA AMPLIT PERI AZIMU VELO AIN AR TRES W  DIS CAZ7
 ABAD BZ EP   1    623 4.780                              59    0.05 7 13.5 263 
 ABAD BE ES   1    623 7.110                              59   -0.31 7 13.5 263 
 P9   BZ EP   1    623 5.620                              59    0.03 7 18.3 256 
 P9   BE ES   1    623 8.940                              59   -0.04 7 18.3 256 
 TOLS BZ  P   1    623 7.154                              59    0.13 7 27.4 255 
 TOLS BE ES   1    62311.810                              59    0.24 7 27.4 255 
 KHIA BZ EP   1    623 7.460                              59    0.09 7 28.8 229 
 KHIA BE ES   1    62312.200                              59   -0.00 7 28.8 229 
 P4   BZ  P   1    623 8.310                              59    0.08 7 34.1 256 
 P4   BE  S   1    62313.791                              59    0.03 7 34.1 256 
 NOKA BZ  P   1    623 8.854                              59    0.06 7 37.9 295 
 NOKA BE  S   1    62314.662                              59   -0.12 7 37.9 295 
 JNAK BZ  P   1    623 9.534                              59    0.01 7 41.9 227 
 JNAK BE  S   1    62315.845                              59   -0.26 7 41.9 227 
                                                                                
 2021  2 1 0939 29.8 L  28.137  51.907 28.2  SLT 12 0.3                 3.2L BI1
 GAP=339        0.52       9.5    14.1 57.1  0.2837E+02 -0.5914E+03  0.1927E+03E
 Action:ARG 21-12-02 15:38 OP:OBSP STATUS:               ID:20210201093927     I
 DUMMY                                                                         6
 STAT SP IPHASW D HRMM SECON CODA AMPLIT PERI AZIMU VELO AIN AR TRES W  DIS CAZ7
 KOLO BZ  P   1    93945.684                             103   -0.69 6 91.6 315 
 DLRM BZ EP   1    93947.950                             101    0.29 6  100 306 
 JNAK BZ EP   1    93948.900                             100   -0.09 6  109 312 
 KHIA BZ EP   1    93949.290                             100    0.13 6  109 319 
 KHIA BE ES   1    940 5.470                             100    0.61 6  109 319 
 JNAK BE ES   1    940 4.510                             100   -0.04 6  109 312 
 P9   BZ  P   1    93950.757                             100    0.12 5  118 325 
 ABAD BZ  P   1    93950.275                             100   -0.29 5  118 327 
 TOLS BZ  P   1    93951.206                              99    0.24 5  121 321 
 P4   BZ  P   1    93951.880                              99    0.34 5  125 318 
 N6   BZ EP   1    93952.700                              99    0.19 5  130 309 
 N6   BE ES   1    94010.590                              99   -0.32 5  130 309 
 N9   BZ  P   1    93952.394                              98   -0.14 5  131 310 
 ABTL BZ  P   1    93952.683                              98   -0.02 5  132 324 
 NOKA BZ  P   1    93954.770                              98    0.18 5  144 324 
 NOKA BE ES   1    94014.210                              98   -0.48 5  144 324 
                                                                                
 2021  2 1 1513 23.5 L  29.351  51.385  2.5  SLT  8 0.2                 2.6L BI1
 GAP=318        0.40       8.3     7.2  9.1  0.5293E+02  0.6023E+02  0.7235E+02E
 Action:ARG 21-12-02 15:38 OP:OBSP STATUS:               ID:20210201151322     I
 DUMMY                                                                         6
 STAT SP IPHASW D HRMM SECON CODA AMPLIT PERI AZIMU VELO AIN AR TRES W  DIS CAZ7
 ABTL BZ EP   1   151331.930                              43    0.04 7 38.0 223 
 ABTL BE ES   1   151338.920                              43    0.24 7 38.0 223 
 ABAD BZ EP   1   151331.960                              43   -0.02 7 38.0 200 
 ABAD BE ES   1   151338.510                              43   -0.31 7 38.0 200 
 NOKA BZ EP   1   151331.770                              43   -0.16 7 38.7 242 
 NOKA BE ES   1   151338.560                              43   -0.17 7 38.7 242 
 P9   BZ EP   1   151332.830                              43    0.11 7 42.1 205 
 P9   BE ES   1   151340.160                              43   -0.01 7 42.1 205 
 KHIA BZ EP   1   151335.170                              40   -0.07 7 57.1 202 
 KHIA BE ES   1   151344.600                              40   -0.12 7 57.1 202 
 JNAK BZ EP   1   151337.020                              40   -0.09 7 69.5 206 
 JNAK BE ES   1   151348.510                              40    0.40 7 69.5 206 
 N18  BZ  P   1   151337.513                              40    0.07 7 71.0 229 
 N6   BZ  P   1   151337.823                              40    0.16 7 72.5 224 
                                                                                
 2021  2 1 1628 45.7 L  29.297  51.422  7.1  SLT 13 0.2                 2.7L BI1
 GAP=302        0.50       3.9     4.4  7.7  0.1059E+02  0.2728E+02  0.2444E+02E
 Action:ARG 21-12-02 15:38 OP:OBSP STATUS:               ID:20210201162844     I
 DUMMY                                                                         6
 STAT SP IPHASW D HRMM SECON CODA AMPLIT PERI AZIMU VELO AIN AR TRES W  DIS CAZ7
 ABAD BZ EP   1   162852.980                              90    0.20 7 34.0 209 
 ABAD BE ES   1   162858.320                              90   -0.22 7 34.0 209 
 ABTL BZ EP   1   162853.200                              90    0.04 7 36.8 234 
 ABTL BE ES   1   162859.160                              90   -0.07 7 36.8 234 
 P9   BZ  P   1   162853.782                              90    0.19 7 38.6 213 
 P9   BE  S   1   162859.952                              90   -0.07 7 38.6 213 
 NOKA BZ EP   1   162853.480                              90   -0.10 7 39.7 252 
 NOKA BE ES   1   162859.780                              90   -0.21 7 39.7 252 
 TOLS BZ EP   1   162854.970                              90    0.22 7 46.1 220 
 TOLS BE ES   1   1629 2.220                              90    0.12 7 46.1 220 
 P5   BZ  P   1   162855.080                              90   -0.00 7 48.0 223 
 P5   BE  S   1   1629 2.806                              90    0.10 7 48.0 223 
 AHRM HZ EP   1   162855.440                              68    0.06 7 49.6 194 
 P4   BZ  P   1   162855.743                              68    0.06 7 51.5 225 
 KHIA BZ EP   1   162856.210                              68    0.19 7 53.2 208 
 KHIA BE ES   1   1629 4.170                              68   -0.24 7 53.2 208 
 SHIF BZ  P   1   162856.175                              68   -0.63 7 59.0 245 
 SHIF BE  S   1   1629 6.495                              68    0.66 7 59.0 245 
 P2   BZ  P   1   162857.271                              68   -0.02 7 61.3 229 
 JNAK BZ EP   1   162857.980                              68    0.03 7 65.9 211 
 JNAK BE ES   1   1629 7.780                              68   -0.13 7 65.9 211 
 N6   BZ  P   1   162858.625                              68   -0.21 7 70.9 229 
                                                                                
 2021  2 1 1640 27.3 L  28.600  51.144 11.3  SLT  5 0.2                 1.2L BI1
 GAP=224        0.41       1.6     4.0 12.2  0.1545E+01  0.3402E+02 -0.3878E+01E
 Action:ARG 21-12-02 15:38 OP:OBSP STATUS:               ID:20210201164027     I
 DUMMY                                                                         6
 STAT SP IPHASW D HRMM SECON CODA AMPLIT PERI AZIMU VELO AIN AR TRES W  DIS CAZ7
 KOLO BZ EP   1   164031.480                             103    0.09 7 16.1  36 
 KOLO BE ES   1   164034.630                             103   -0.09 7 16.1  36 
 ABAS BZ EP   1   164031.490                             103    0.11 7 16.2 118 
 ABAS BE ES   1   164034.690                             103   -0.01 7 16.2 118 
 JNAK BZ  P   1   164032.050                              93   -0.14 7 21.9 342 
 KHIA BZ  P   1   164033.475                              91   -0.21 7 30.4   4 
 KHIA BE  S   1   164039.258                              91    0.37 7 30.4   4 
 AHRM HZ EP   1   164034.070                              91    0.05 7 32.8  27 
 AHRM HE ES   1   164039.330                              91   -0.16 7 32.8  27 
                                                                                
 2021  2 1 2135 55.7 L  28.154  51.860 24.4  SLT  7 0.4                 3.0L BI1
 GAP=338        0.74      16.3    22.4 59.5  0.1480E+03 -0.1085E+04  0.5316E+02E
 Action:ARG 21-12-02 15:38 OP:OBSP STATUS:               ID:20210201213554     I
 DUMMY                                                                         6
 STAT SP IPHASW D HRMM SECON CODA AMPLIT PERI AZIMU VELO AIN AR TRES W  DIS CAZ7
 ABAS BZ EP   1   2136 8.500                             104   -0.17 7 69.8 307 
 ABAS BE ES   1   213619.260                             104    0.04 7 69.8 307 
 KOLO BZ EP   1   213611.300                             101   -0.10 6 87.0 316 
 KOLO BE ES   1   213624.620                             101    0.47 6 87.0 316 
 DLRM BZ EP   1   213612.820                             100    0.17 6 95.3 307 
 DLRM BE ES   1   213625.810                             100   -0.61 6 95.3 307 
 JNAK BZ  P   1   213614.474                              99    0.46 6  104 312 
 KHIA BZ EP   1   213614.340                              99    0.12 6  105 320 
 ABAD BZ  P   1   213614.751                              98   -0.95 6  114 329 
 P4   BZ  P   1   213617.186                              97    0.58 5  120 319 
                                                                                
 2021  2 2 0030 58.3 L  28.904  51.343  2.9  SLT  9 0.1                 1.6L BI1
 GAP=232        0.33       0.8     1.3  0.8  0.3848E+00 -0.1907E+00  0.1529E+00E
 Action:ARG 21-12-02 15:38 OP:OBSP STATUS:               ID:20210202003058     I
 DUMMY                                                                         6
 STAT SP IPHASW D HRMM SECON CODA AMPLIT PERI AZIMU VELO AIN AR TRES W  DIS CAZ7
 P9   BZ EP   1    031 2.860                              99    0.00 7 17.4 310 
 P9   BE ES   1    031 6.340                              99   -0.22 7 17.4 310 
 KHIA BZ EP   1    031 3.010                              99    0.16 7 17.6 259 
 KHIA BE ES   1    031 6.590                              99    0.04 7 17.6 259 
 KOLO BZ  P   1    031 4.243                              43    0.21 7 23.0 206 
 KOLO BE  S   1    031 8.648                              43   -0.03 7 23.0 206 
 TOLS BZ EP   1    031 4.070                              43    0.04 7 23.5 291 
 TOLS BE ES   1    031 8.680                              43   -0.00 7 23.5 291 
 P5   BZ  P   1    031 4.656                              43    0.15 7 26.3 288 
 P5   BE  S   1    031 9.722                              43    0.17 7 26.3 288 
 P4   BZ  P   1    031 5.042                              43   -0.06 7 29.5 284 
 P4   BE  S   1    03110.713                              43    0.09 7 29.5 284 
 ABTL BZ EP   1    031 5.240                              43   -0.13 7 31.0 315 
 DLRM BZ  P   1    031 6.281                              43   -0.13 7 37.1 224 
 DLRM BE  S   1    03112.695                              43   -0.29 7 37.1 224 
 ABAS BZ  P   1    031 7.217                              43   -0.02 7 41.5 187 
                                                                                
 2021  2 2 0131  5.1 L  28.964  50.929 11.5  SLT 19 0.1                 1.1L BI1
 GAP=135        0.26       1.0     0.8  1.1 -0.2196E+00  0.1549E+00 -0.2711E+00E
 Action:ARG 21-12-02 15:38 OP:OBSP STATUS:               ID:20210202013104     I
 DUMMY                                                                         6
 STAT SP IPHASW D HRMM SECON CODA AMPLIT PERI AZIMU VELO AIN AR TRES W  DIS CAZ7
 P2   BZ EP   1    131 7.670                             158   -0.02 7 3.55 155 
 P2   BE ES   1    131 9.620                             158   -0.13 7 3.55 155 
 P1   BZ EP   1    131 7.680                             153   -0.01 7 4.31 206 
 P1   BE ES   1    131 9.680                             153   -0.07 7 4.31 206 
 P3   BZ  P   1    131 7.879                             150    0.11 7 4.84 110 
 P3   BE  S   1    131 9.982                             150    0.08 7 4.84 110 
 N19  BZ  P   1    131 7.932                             142    0.03 7 6.49 252 
 N19  BE  S   1    13110.182                             142    0.04 7 6.49 252 
 N16  BZ  P   1    131 8.039                             139    0.07 7 7.03 235 
 N16  BE  S   1    13110.128                             139   -0.14 7 7.03 235 
 N12  BZ EP   1    131 8.120                             131    0.05 7 8.82 226 
 N12  BE ES   1    13110.470                             131    0.03 7 8.82 226 
 N15  BZ EP   1    131 8.190                             131    0.02 7 8.85 234 
 N15  BE ES   1    13110.610                             131   -0.02 7 8.85 234 
 N9   BZ  P   1    131 8.425                             130    0.27 7 8.98 212 
 N9   BN  S   1    13110.501                             130   -0.10 7 8.98 212 
 N20  BZ  P   1    131 8.185                             129   -0.02 7 9.10 271 
 N20  BE  S   1    13110.834                             129    0.15 7 9.10 271 
 N18  BZ  P   1    131 8.305                             125   -0.06 7 10.1 250 
 N18  BE  S   1    13110.980                             125    0.01 7 10.1 250 
 N14  BZ  P   1    131 8.052                             124   -0.26 7 10.4 241 
 N14  BE  S   1    13110.980                             124    0.09 7 10.4 241 
 N10  BZ EP   1    131 8.520                             122    0.07 7 10.9 224 
 N10  BE ES   1    13111.090                             122   -0.05 7 10.9 224 
 N17  BZ  P   1    131 8.558                             122    0.12 7 10.9 256 
 N17  BE  S   1    13111.220                             122    0.10 7 10.9 256 
 N6   BZ  P   1    131 8.558                             121    0.08 7 11.1 211 
 N6   BE  S   1    13111.180                             121   -0.01 7 11.1 211 
 N7   BZ  P   1    131 8.744                             119    0.18 7 11.9 220 
 N7   BE  S   1    13111.379                             119    0.04 7 11.9 220 
 N11  BZ  P   1    131 8.358                             118   -0.23 7 12.0 236 
 N11  BE ES   1    13111.410                             118    0.02 7 12.0 236 
 N13  BZ  P   1    131 8.691                             116   -0.03 7 12.5 240 
 N13  BE  S   1    13111.539                             116   -0.09 7 12.5 240 
 SHIF BZ  P   1    131 8.465                             115   -0.17 7 12.8 335 
 N4   BZ  P   1    131 8.704                             112   -0.15 7 13.8 212 
                                                                                
