 2021  418 1117 13.3 L  29.697  50.727 57.2  SLT 21 0.4                 3.3L BI1
 GAP=334        0.64       7.8     6.5 13.6  0.4493E+01  0.5068E+01 -0.9704E+02E
 Action:ARG 21-06-12 18:26 OP:OBSP STATUS:               ID:20210418111712     I
 DUMMY                                                                         6
 STAT SP IPHASW D HRMM SECON CODA AMPLIT PERI AZIMU VELO AIN AR TRES W  DIS CAZ7
 NOKA BZ  P   1   111727.549                             130   -0.29 7 64.0 152 
 N17  BZ  P   1   111730.598                             122    0.00 6 84.3 174 
 N18  BZ  P   1   111730.925                             122    0.17 6 85.3 173 
 N18  BE  S   1   111744.706                             122   -0.15 6 85.3 173 
 P4   BZ EP   1   111731.000                             121    0.07 6 86.7 159 
 P4   BE  S   1   111745.135                             121   -0.03 6 86.7 159 
 N14  BZ  P   1   111731.253                             121    0.36 6 86.9 173 
 N14  BE  S   1   111745.034                             121   -0.07 6 86.9 173 
 N15  BZ  P   1   111731.127                             121    0.11 6 87.4 172 
 N15  BE  S   1   111745.487                             121    0.16 6 87.4 172 
 N13  BZ EP   1   111732.000                             121    0.84 6 88.0 174 
 P9   BZ  P   1   111731.832                             120    0.38 6 89.7 149 
 P9   BE  S   1   111745.891                             120   -0.23 6 89.7 149 
 N10  BZ  P   1   111731.505                             120    0.12 6 89.9 172 
 N10  BE  S   1   111746.143                             120    0.15 6 89.9 172 
 N9   BZ  P   1   111731.152                             120   -0.22 6 90.1 170 
 N9   BE  S   1   111745.790                             120   -0.18 6 90.1 170 
 N6   BZ EP   1   111731.000                             120   -0.65 6 91.8 171 
 N4   BZ EP   1   111732.000                             119    0.10 6 93.8 172 
 N4   BE  S   1   111747.503                             119    0.57 6 93.8 172 
 N5   BZ EP   1   111732.000                             119   -0.21 6 95.9 171 
 N5   BE  S   1   111746.697                             119   -0.79 6 95.9 171 
 N3   BZ  P   1   111732.311                             118    0.04 6 96.4 171 
 N3   BE  S   1   111748.082                             118    0.49 6 96.4 171 
 N2   BZ EP   1   111732.000                             118   -0.32 6 96.7 170 
 N2   BE  S   1   111746.848                             118   -0.84 6 96.7 170 
 KHIA BZ EP   1   111733.000                             117    0.03 6  101 155 
 KHIA BN  S   1   111749.594                             117    0.72 6  101 155 
 JNAK BZ  P   1   111733.445                             116   -0.20 6  106 161 
 JNAK BE  S   1   111750.652                             116    0.57 6  106 161 
 AHRM HZ  P   1   111733.898                             116    0.01 6  108 149 
 AHRM HE  S   1   111750.174                             116   -0.35 6  108 149 
 DLRM BZ  P   1   111735.485                             113   -0.11 5  119 163 
 DLRM BE  S   1   111753.348                             113   -0.27 5  119 163 
 KOLO BZ EP   1   111735.720                             113    0.02 5  120 155 
 KOLO BE  S   1   111754.129                             113    0.32 5  120 155 
 ABAS BZ  P   1   111738.232                             110   -0.55 5  140 157 
                                                                                
 2021  418 1226  3.6 L  29.689  50.735 54.9  SLT 26 0.5                 3.2L BI1
 GAP=334        0.79      10.3     7.5 17.4  0.1912E+02 -0.1831E+02 -0.1688E+03E
 Action:ARG 21-06-12 18:26 OP:OBSP STATUS:               ID:20210418122602     I
 DUMMY                                                                         6
 STAT SP IPHASW D HRMM SECON CODA AMPLIT PERI AZIMU VELO AIN AR TRES W  DIS CAZ7
 SHIF BZ  P   1   122618.252                             126   -0.37 7 70.0 169 
 N20  BZ  P   1   122620.702                             122    0.57 7 80.7 173 
 N20  BE  S   1   122633.205                             122   -0.34 7 80.7 173 
 N19  BZ  P   1   122621.471                             121    0.98 7 83.3 171 
 N19  BE  S   1   122634.071                             121   -0.11 7 83.3 171 
 N17  BZ  P   1   122620.097                             121   -0.40 7 83.3 174 
 N18  BZ  P   1   122620.605                             121   -0.06 6 84.3 174 
 N18  BE  S   1   122634.268                             121   -0.23 6 84.3 174 
 P4   BZ  P   1   122620.338                             120   -0.48 6 85.6 159 
 P4   BE  S   1   122634.776                             120    0.00 6 85.6 159 
 N14  BZ  P   1   122620.792                             120   -0.00 6 85.9 173 
 N14  BE  S   1   122634.776                             120    0.04 6 85.9 173 
 N15  BZ EP   1   122621.000                             120    0.08 6 86.3 172 
 N15  BE  S   1   122634.642                             120   -0.32 6 86.3 172 
 N13  BZ  P   1   122620.926                             120   -0.15 6 87.0 175 
 N13  BE  S   1   122635.385                             120    0.14 6 87.0 175 
 N11  BZ EP   1   122621.000                             120   -0.08 6 87.5 174 
 N11  BE  S   1   122635.577                             120    0.33 6 87.5 174 
 P9   BZ  P   1   122622.209                             119    0.87 6 88.5 149 
 P9   BE  S   1   122635.513                             119   -0.21 6 88.5 149 
 N10  BZ  P   1   122621.888                             119    0.60 6 88.9 173 
 N10  BE  S   1   122635.926                             119    0.29 6 88.9 173 
 N9   BZ  P   1   122621.247                             119   -0.03 6 89.1 171 
 N9   BE  S   1   122635.391                             119   -0.22 6 89.1 171 
 N6   BZ  P   1   122621.119                             119   -0.44 6 90.8 172 
 N4   BZ  P   1   122621.835                             118    0.02 6 92.8 173 
 N4   BE  S   1   122637.129                             118    0.54 6 92.8 173 
 N5   BZ  P   1   122621.856                             118   -0.27 6 94.9 171 
 N3   BZ  P   1   122623.074                             118    0.89 6 95.4 172 
 N2   BZ  P   1   122623.038                             117    0.80 6 95.6 171 
 N2   BE  S   1   122636.675                             117   -0.67 6 95.6 171 
 CAMP BZ  P   1   122622.049                             117   -0.19 6 95.7 170 
 CAMP BE  S   1   122637.851                             117    0.49 6 95.7 170 
 N1   BZ  P   1   122621.781                             117   -0.73 6 97.4 171 
 N1   BE  S   1   122636.915                             117   -0.93 6 97.4 171 
 KHIA BZ  P   1   122622.744                             116   -0.13 6 99.6 155 
 KHIA BE  S   1   122638.921                             116    0.41 6 99.6 155 
 JNAK BZ  P   1   122623.573                             115    0.02 6  105 162 
 JNAK BE  S   1   122640.338                             115    0.60 6  105 162 
 AHRM HZ EP   1   122623.160                             115   -0.63 6  106 149 
 AHRM HE  S   1   122639.963                             115   -0.20 6  106 149 
 DLRM BZ  P   1   122624.990                             113   -0.53 5  118 164 
 DLRM BE  S   1   122643.386                             113    0.09 5  118 164 
 KOLO BZ  P   1   122625.418                             113   -0.20 5  118 155 
 KOLO BE  S   1   122643.974                             113    0.50 5  118 155 
 ABAS BZ EP   1   122628.000                             109   -0.72 5  139 157 
                                                                                
 2021  418 1811 22.1 L  29.707  50.771 46.2  SLT 21 0.3                 2.9L BI1
 GAP=331        0.56       6.5     5.6 14.4 -0.4768E+01  0.1647E+02 -0.8566E+02E
 Action:ARG 21-06-12 18:26 OP:OBSP STATUS:               ID:20210418181121     I
 DUMMY                                                                         6
 STAT SP IPHASW D HRMM SECON CODA AMPLIT PERI AZIMU VELO AIN AR TRES W  DIS CAZ7
 NOKA BZ  P   1   181136.026                             123    0.64 7 63.1 156 
 N18  BZ EP   1   181139.000                             115    0.28 6 85.9 176 
 N18  BE  S   1   181151.930                             115   -0.29 6 85.9 176 
 P4   BZ  P   1   181138.149                             115   -0.60 6 86.3 162 
 P4   BE  S   1   181151.979                             115   -0.28 6 86.3 162 
 ABAD BZ  P   1   181139.043                             115   -0.10 6 88.4 148 
 P9   BZ  P   1   181139.490                             115    0.31 6 88.5 151 
 P9   BE  S   1   181152.258                             115   -0.78 6 88.5 151 
 N13  BZ  P   1   181139.323                             115    0.16 6 88.7 177 
 N13  BE  S   1   181152.985                             115   -0.03 6 88.7 177 
 N10  BZ  P   1   181139.379                             114    0.00 6 90.5 175 
 N10  BE  S   1   181153.292                             114   -0.11 6 90.5 175 
 N9   BZ  P   1   181139.351                             114    0.01 6 90.6 173 
 N9   BE  S   1   181153.488                             114    0.15 6 90.6 173 
 N6   BZ EP   1   181139.400                             114   -0.25 6 92.3 174 
 N6   BE  S   1   181153.872                             114   -0.02 6 92.3 174 
 N4   BZ  P   1   181139.798                             113   -0.13 6 94.4 175 
 N4   BE  S   1   181154.717                             113    0.32 6 94.4 175 
 N5   BZ  P   1   181140.161                             113   -0.07 6 96.3 173 
 N5   BE  S   1   181154.968                             113    0.03 6 96.3 173 
 N3   BZ  P   1   181139.826                             113   -0.47 6 96.9 174 
 N3   BE  S   1   181155.164                             113    0.10 6 96.9 174 
 CAMP BZ  P   1   181140.328                             113   -0.01 6 97.1 172 
 CAMP BE  S   1   181154.857                             113   -0.29 6 97.1 172 
 N2   BZ EP   1   181140.000                             113   -0.34 6 97.1 173 
 N2   BE  S   1   181155.269                             113    0.12 6 97.1 173 
 N1   BZ  P   1   181140.915                             112    0.29 6 98.8 173 
 KHIA BZ  P   1   181141.250                             112    0.40 6  100 157 
 KHIA BE  S   1   181156.505                             112    0.45 6  100 157 
 AHRM HZ  P   1   181141.732                             111   -0.00 6  106 151 
 JNAK BZ  P   1   181142.005                             111    0.38 6  106 164 
 JNAK BE  S   1   181157.986                             111    0.53 6  106 164 
 AHRM HN  S   1   181157.853                             111    0.19 6  106 151 
 KOLO BZ EP   1   181143.000                             108   -0.68 5  119 157 
 DLRM BZ  P   1   181143.597                             108   -0.07 5  119 165 
 DLRM BE  S   1   1812 1.059                             108   -0.10 5  119 165 
 ABAS BZ  P   1   181147.062                             106    0.19 5  140 159 
                                                                                
 2021  418 1923 53.3 L  29.721  50.739 56.9  SLT 13 0.4                 3.0L BI1
 GAP=332        0.70      14.2    10.2 26.2  0.2634E+01  0.1497E+02 -0.3560E+03E
 Action:ARG 21-06-12 18:26 OP:OBSP STATUS:               ID:20210418192352     I
 DUMMY                                                                         6
 STAT SP IPHASW D HRMM SECON CODA AMPLIT PERI AZIMU VELO AIN AR TRES W  DIS CAZ7
 N18  BZ  P   1   192410.409                             121   -0.58 6 87.8 174 
 P4   BZ EP   1   192411.000                             120   -0.10 6 88.9 160 
 P4   BE  S   1   192425.768                             120    0.21 6 88.9 160 
 N14  BZ  P   1   192410.354                             120   -0.77 6 89.4 174 
 N14  BE  S   1   192425.768                             120    0.17 6 89.4 174 
 N15  BZ EP   1   192411.000                             120   -0.24 6 89.9 173 
 N15  BE  S   1   192426.071                             120    0.25 6 89.9 173 
 N11  BZ  P   1   192411.180                             120   -0.23 6 91.1 175 
 N11  BN  S   1   192426.842                             120    0.73 6 91.1 175 
 ABAD BZ EP   1   192411.720                             120    0.17 6 91.4 147 
 N6   BZ  P   1   192411.841                             119   -0.05 6 94.3 172 
 N6   BE  S   1   192426.484                             119   -0.49 6 94.3 172 
 N5   BZ EP   1   192413.000                             118    0.55 6 98.4 172 
 N5   BE  S   1   192427.282                             118   -0.71 6 98.4 172 
 N3   BZ EP   1   192413.000                             118    0.49 6 98.9 172 
 N3   BE  S   1   192428.741                             118    0.64 6 98.9 172 
 N2   BZ EP   1   192413.000                             118    0.44 6 99.2 171 
 N2   BE  S   1   192427.887                             118   -0.31 6 99.2 171 
 N1   BZ EP   1   192413.000                             117    0.17 6  101 171 
 N1   BE  S   1   192428.383                             117   -0.31 6  101 171 
 AHRM HZ EP   1   192414.160                             115    0.13 6  109 150 
 AHRM HE  S   1   192430.585                             115   -0.27 6  109 150 
 DLRM BZ  P   1   192416.079                             113    0.26 5  122 164 
 DLRM BE  S   1   192434.053                             113   -0.04 5  122 164 
                                                                                
 2021  418 2130 12.6 L  29.950  50.608 71.0  SLT 17 0.4                 2.9L BI1
 GAP=341        0.60      16.6    21.4 28.7  0.9678E+01  0.6229E+02 -0.4555E+03E
 Action:ARG 21-06-12 18:26 OP:OBSP STATUS:               ID:20210418213011     I
 DUMMY                                                                         6
 STAT SP IPHASW D HRMM SECON CODA AMPLIT PERI AZIMU VELO AIN AR TRES W  DIS CAZ7
 NOKA BZ  P   1   213032.001                             125   -0.35 6 94.2 154 
 N20  BZ  P   1   213035.616                             121    0.87 6  111 168 
 N20  BE  S   1   213053.145                             121    0.47 6  111 168 
 N17  BZ  P   1   213035.671                             120    0.57 6  114 169 
 N15  BZ  P   1   213034.931                             119   -0.62 5  117 168 
 N15  BE  S   1   213054.322                             119    0.20 5  117 168 
 N11  BZ  P   1   213035.506                             119   -0.17 5  118 170 
 N11  BE  S   1   213054.048                             119   -0.30 5  118 170 
 N10  BE  S   1   213054.624                             119   -0.16 5  120 169 
 N9   BZ  P   1   213035.506                             119   -0.42 5  120 167 
 N9   BE  S   1   213054.185                             119   -0.62 5  120 167 
 N10  BZ EP   1   213036.000                             119    0.08 5  120 169 
 N6   BZ EP   1   213036.000                             118   -0.20 5  122 168 
 N6   BE  S   1   213055.226                             118   -0.07 5  122 168 
 N4   BZ  P   1   213036.547                             118    0.11 5  123 169 
 N5   BZ  P   1   213036.602                             118   -0.17 5  126 168 
 CAMP BZ  P   1   213036.766                             117   -0.14 5  127 167 
 CAMP BE  S   1   213057.034                             117    0.46 5  127 167 
 N1   BZ EP   1   213037.000                             117   -0.17 5  128 167 
 KHIA BZ  P   1   213038.437                             117    0.81 5  131 155 
 JNAK BZ  P   1   213038.519                             116    0.23 5  137 161 
 AHRM HZ  P   1   213038.410                             115   -0.10 5  138 151 
 KOLO BZ  P   1   213040.245                             114   -0.11 5  150 156 
 DLRM BZ EP   1   213040.000                             114   -0.23 5  150 162 
                                                                                
 2021  418 2221 32.8 L  29.645  50.661 34.4  SLT 14 0.4                 3.2L BI1
 GAP=334        0.66       6.9     8.2 24.9 -0.9470E+01  0.7846E+02 -0.1411E+03E
 Action:ARG 21-06-12 18:26 OP:OBSP STATUS:               ID:20210418222132     I
 DUMMY                                                                         6
 STAT SP IPHASW D HRMM SECON CODA AMPLIT PERI AZIMU VELO AIN AR TRES W  DIS CAZ7
 NOKA BZ EP   1   222145.000                             115   -0.04 7 62.4 144 
 ABTL BZ  P   1   222147.028                             111    0.06 7 74.8 144 
 N17  BZ  P   1   222148.010                             109    0.31 7 79.5 169 
 N6   BZ EP   1   222149.000                             108    0.09 6 87.4 166 
 N6   BE  S   1   2222 1.849                             108   -0.15 6 87.4 166 
 P9   BZ  P   1   222148.238                             107   -0.94 6 88.5 143 
 P9   BE  S   1   2222 2.762                             107    0.28 6 88.5 143 
 N5   BZ  P   1   222149.056                             107   -0.47 6 91.5 166 
 N5   BE  S   1   2222 3.060                             107   -0.06 6 91.5 166 
 N2   BZ  P   1   222149.816                             107    0.16 6 92.3 166 
 N2   BE  S   1   2222 3.155                             107   -0.20 6 92.3 166 
 CAMP BZ  P   1   222149.784                             107    0.10 6 92.5 165 
 CAMP BE  S   1   2222 3.313                             107   -0.09 6 92.5 165 
 N1   BZ  P   1   222150.165                             106    0.21 6 94.1 166 
 N1   BE  S   1   2222 3.884                             106   -0.01 6 94.1 166 
 KHIA BZ  P   1   222151.812                             105    1.11 6 98.6 150 
 JNAK BZ EP   1   222151.000                             105   -0.28 6  103 157 
 JNAK BE  S   1   2222 6.636                             105    0.35 6  103 157 
 AHRM HZ EP   1   222152.160                             104    0.34 6  106 144 
 AHRM HE  S   1   2222 6.912                             104   -0.36 6  106 144 
 DLRM BZ  P   1   222153.024                             103   -0.29 6  116 159 
 DLRM BE  S   1   222210.205                             103    0.24 6  116 159 
 ABAS BZ  P   1   222156.343                             101   -0.47 5  138 153 
                                                                                
