 2021  418 2223  5.5 L  29.674  50.965 11.2  SLT 22 0.4                 3.3L BI1
 GAP=329        0.65       8.6     9.9999.9 -0.3981E+02  0.7558E+04 -0.2207E+05E
 Action:ARG 21-06-12 18:26 OP:OBSP STATUS:               ID:20210418222304     I
 DUMMY                                                                         6
 STAT SP IPHASW D HRMM SECON CODA AMPLIT PERI AZIMU VELO AIN AR TRES W  DIS CAZ7
 ABTL BZ  P   1   222317.180                              90   -0.33 7 65.2 167 
 ABAD BZ  P   1   222319.396                              90   -0.06 7 76.7 159 
 P9   BZ  P   1   222319.562                              90   -0.08 7 77.8 162 
 P4   BZ  P   1   222319.091                              90   -0.61 7 78.8 174 
 N20  BZ  P   1   222319.784                              90   -0.02 7 79.5 189 
 N20  BE  S   1   222331.138                              90   -0.23 7 79.5 189 
 P2   BZ  P   1   222320.808                              90    0.59 7 81.9 181 
 N17  BZ  P   1   222320.088                              90   -0.21 7 82.4 190 
 N17  BE  S   1   222331.830                              90   -0.42 7 82.4 190 
 P1   BZ  P   1   222320.448                              90    0.15 7 82.7 184 
 N18  BZ  P   1   222321.390                              90    0.96 7 83.1 189 
 N18  BE  S   1   222332.273                              90   -0.22 7 83.1 189 
 N15  BZ  P   1   222320.808                              90    0.18 6 84.6 187 
 N15  BE  S   1   222333.159                              90    0.30 6 84.6 187 
 N13  BZ  P   1   222321.417                              90    0.47 6 86.2 189 
 N13  BE  S   1   222332.771                              90   -0.67 6 86.2 189 
 N11  BZ  P   1   222321.251                              90    0.32 6 86.5 189 
 N11  BE  S   1   222332.993                              90   -0.41 6 86.5 189 
 N9   BZ  P   1   222320.974                              90    0.03 6 86.7 185 
 N9   BE  S   1   222333.741                              90    0.31 6 86.7 185 
 N10  BZ  P   1   222320.697                              90   -0.38 6 87.2 187 
 N10  BE  S   1   222333.242                              90   -0.42 6 87.2 187 
 N6   BZ EP   1   222321.000                              90   -0.31 6 88.7 186 
 N6   BE  S   1   222334.128                              90    0.04 6 88.7 186 
 N4   BZ  P   1   222321.445                              90   -0.22 6 91.1 187 
 N4   BE  S   1   222334.461                              90   -0.28 6 91.1 187 
 N5   BZ  P   1   222321.833                              90   -0.07 6 92.4 185 
 N5   BN  S   1   222335.402                              90    0.25 6 92.4 185 
 CAMP BZ  P   1   222322.027                              90    0.08 6 92.7 183 
 CAMP BN  S   1   222335.596                              90    0.35 6 92.7 183 
 N2   BZ  P   1   222321.888                              90   -0.11 6 93.0 184 
 N2   BN  S   1   222335.790                              90    0.46 6 93.0 184 
 N3   BZ  P   1   222321.805                              90   -0.20 6 93.2 185 
 N3   BN  S   1   222335.901                              90    0.55 6 93.2 185 
 N1   BZ  P   1   222322.054                              90   -0.23 6 94.6 184 
 N1   BE  S   1   222336.344                              90    0.49 6 94.6 184 
 DLRM BZ  P   1   222325.239                              90    0.15 6  112 174 
                                                                                
 2021  418 2226 20.3 L  29.766  50.801 39.5  SLT 27 0.3                 3.5L BI1
 GAP=333        0.46       7.1     5.0 20.2 -0.8165E+01  0.2699E+02 -0.1384E+03E
 Action:ARG 21-06-12 18:26 OP:OBSP STATUS:               ID:20210418222619     I
 DUMMY                                                                         6
 STAT SP IPHASW D HRMM SECON CODA AMPLIT PERI AZIMU VELO AIN AR TRES W  DIS CAZ7
 SHIF BZ  P   1   222635.537                             114    0.35 7 77.6 175 
 ABTL BZ  P   1   222635.167                             113   -0.44 7 79.8 157 
 N20  BZ  P   1   222636.618                             111   -0.32 6 88.7 178 
 N19  BZ  P   1   222637.642                             110    0.35 6 91.1 176 
 P4   BZ EP   1   222637.000                             110   -0.40 6 91.8 165 
 P4   BE  S   1   222651.608                             110    0.37 6 91.8 165 
 P3   BZ  P   1   222637.556                             110    0.09 6 92.1 169 
 P3   BE  S   1   222650.954                             110   -0.40 6 92.1 169 
 N18  BZ  P   1   222637.443                             110   -0.08 6 92.4 178 
 N18  BE  S   1   222651.551                             110    0.10 6 92.4 178 
 ABAD BZ  P   1   222637.471                             110   -0.15 6 92.6 152 
 P9   BZ  P   1   222637.699                             110   -0.01 6 93.1 155 
 P9   BE  S   1   222651.893                             110    0.10 6 93.1 155 
 P2   BZ  P   1   222637.499                             110   -0.13 6 93.2 171 
 P2   BE  S   1   222651.722                             110    0.07 6 93.2 171 
 N14  BZ  P   1   222638.296                             109    0.63 6 94.0 178 
 N14  BN  S   1   222652.206                             109    0.48 6 94.0 178 
 N15  BZ  P   1   222637.926                             109    0.15 6 94.3 177 
 N15  BE  S   1   222652.177                             109    0.26 6 94.3 177 
 N13  BZ  P   1   222638.011                             109    0.03 6 95.2 179 
 N13  BN  S   1   222652.035                             109   -0.26 6 95.2 179 
 N11  BZ  P   1   222637.699                             109   -0.29 6 95.7 178 
 N11  BE  S   1   222651.921                             109   -0.37 6 95.7 178 
 N9   BZ  P   1   222638.125                             109   -0.02 6 96.9 175 
 N6   BZ  P   1   222638.467                             108    0.01 6 98.7 176 
 N6   BN  S   1   222653.059                             108   -0.10 6 98.7 176 
 N4   BZ EP   1   222639.000                             108    0.24 6  101 177 
 N4   BE  S   1   222653.486                             108   -0.21 6  101 177 
 N3   BN  S   1   222654.709                             108    0.33 6  103 176 
 N2   BZ EP   1   222639.000                             108   -0.17 6  103 175 
 N3   BZ EP   1   222639.000                             108   -0.13 6  103 176 
 N5   BZ EP   1   222639.000                             108   -0.06 6  103 175 
 CAMP BZ EP   1   222639.000                             108   -0.16 6  103 174 
 N5   BE  S   1   222653.884                             108   -0.35 6  103 175 
 N1   BZ EP   1   222639.270                             107   -0.19 6  105 175 
 KHIA BZ EP   1   222639.550                             107    0.04 6  105 160 
 AHRM HZ  P   1   222640.828                             106    0.49 6  111 154 
 AHRM HE  S   1   222656.501                             106   -0.05 6  111 154 
 JNAK BZ  P   1   222640.628                             106    0.24 6  112 166 
 DLRM BZ  P   1   222642.563                             104    0.07 5  125 168 
 ABAS BZ  P   1   222645.606                             102   -0.06 5  145 161 
                                                                                
 2021  418 2230 14.3 L  29.669  50.699 59.9  SLT 24 0.4                 3.7L BI1
 GAP=335        0.63       7.8     8.1 14.3  0.1239E+02 -0.2637E+01 -0.9782E+02E
 Action:ARG 21-06-12 18:26 OP:OBSP STATUS:               ID:20210418223013     I
 DUMMY                                                                         6
 STAT SP IPHASW D HRMM SECON CODA AMPLIT PERI AZIMU VELO AIN AR TRES W  DIS CAZ7
 NOKA BZ  P   1   223028.541                             132   -0.32 7 62.6 149 
 SHIF BZ  P   1   223029.618                             129    0.01 7 68.6 166 
 ABTL BZ  P   1   223030.287                             127   -0.20 7 74.9 147 
 N20  BZ  P   1   223031.073                             125    0.04 7 79.0 170 
 N17  BZ EP   1   223031.000                             124   -0.37 7 81.5 172 
 N19  BZ  P   1   223032.178                             124    0.79 7 81.7 169 
 N18  BZ  P   1   223031.567                             124    0.04 7 82.6 171 
 N14  BZ  P   1   223031.800                             123    0.14 6 84.2 171 
 N15  BZ  P   1   223031.916                             123    0.12 6 84.7 170 
 N13  BZ  P   1   223032.295                             123    0.37 6 85.2 172 
 N13  BE  S   1   223046.814                             123    0.58 6 85.2 172 
 N10  BZ  P   1   223032.702                             122    0.55 6 87.3 170 
 N9   BZ  P   1   223032.469                             122    0.32 6 87.6 168 
 N6   BZ EP   1   223032.000                             122   -0.42 6 89.2 169 
 N4   BZ  P   1   223032.789                             121    0.13 6 91.1 170 
 N4   BE  S   1   223047.279                             121   -0.28 6 91.1 170 
 N5   BZ  P   1   223032.615                             121   -0.35 6 93.3 169 
 N5   BE  S   1   223048.327                             121    0.20 6 93.3 169 
 N3   BZ  P   1   223032.644                             120   -0.38 6 93.8 169 
 N3   BE  S   1   223047.803                             120   -0.42 6 93.8 169 
 N2   BZ  P   1   223032.673                             120   -0.41 6 94.1 168 
 N2   BE  S   1   223048.472                             120    0.14 6 94.1 168 
 CAMP BZ  P   1   223032.789                             120   -0.31 6 94.2 168 
 N1   BZ EP   1   223033.000                             120   -0.35 6 95.8 168 
 N1   BE  S   1   223048.618                             120   -0.20 6 95.8 168 
 KHIA BZ  P   1   223034.128                             119    0.27 6 99.2 153 
 JNAK BZ  P   1   223034.186                             118   -0.27 6  104 160 
 AHRM HZ EP   1   223035.160                             117    0.34 6  106 147 
 AHRM HE  S   1   223051.266                             117   -0.20 6  106 147 
 DLRM BZ EP   1   223036.000                             115   -0.36 5  117 162 
 DLRM BE  S   1   223053.855                             115   -0.41 5  117 162 
 KOLO BZ  P   1   223037.212                             115    0.67 5  118 153 
 KOLO BE  S   1   223055.165                             115    0.57 5  118 153 
                                                                                
 2021  418 2236 35.9 L  29.712  50.787 47.2  SLT 19 0.4                 2.9L BI1
 GAP=334        0.65      11.6     8.9 24.0  0.6918E+02 -0.1373E+03 -0.2689E+03E
 Action:ARG 21-06-12 18:26 OP:OBSP STATUS:               ID:20210418223635     I
 DUMMY                                                                         6
 STAT SP IPHASW D HRMM SECON CODA AMPLIT PERI AZIMU VELO AIN AR TRES W  DIS CAZ7
 N20  BZ  P   1   223651.273                             117   -0.87 7 82.8 177 
 N20  BE  S   1   2237 4.528                             117   -0.77 7 82.8 177 
 N17  BZ EP   1   223653.000                             116    0.46 6 85.5 178 
 N17  BE  S   1   2237 5.827                             116   -0.19 6 85.5 178 
 N18  BZ EP   1   223652.000                             116   -0.70 6 86.4 177 
 N18  BE  S   1   2237 6.463                             116    0.16 6 86.4 177 
 N14  BZ  P   1   223653.381                             115    0.54 6 88.0 177 
 N14  BE  S   1   2237 6.780                             115    0.22 6 88.0 177 
 N15  BZ  P   1   223653.352                             115    0.40 6 88.3 176 
 N15  BE  S   1   2237 6.925                             115    0.17 6 88.3 176 
 N13  BZ  P   1   223653.294                             115    0.15 6 89.2 178 
 N13  BE  S   1   2237 7.127                             115    0.02 6 89.2 178 
 N11  BZ  P   1   223653.294                             115    0.15 6 89.7 178 
 N11  BE  S   1   2237 6.780                             115   -0.32 6 89.7 178 
 N9   BE  S   1   2237 7.618                             115    0.22 6 91.0 174 
 N10  BZ  P   1   223653.554                             115    0.21 6 91.0 176 
 N10  BE  S   1   2237 7.647                             115    0.18 6 91.0 176 
 N9   BZ  P   1   223652.948                             115   -0.36 6 91.0 174 
 N6   BZ  P   1   223653.872                             114    0.26 6 92.8 175 
 N6   BE  S   1   2237 7.964                             114    0.01 6 92.8 175 
 CAMP BZ EP   1   223653.980                             113   -0.31 6 97.4 173 
 CAMP BE  S   1   2237 9.091                             113   -0.10 6 97.4 173 
 N2   BZ  P   1   223653.872                             113   -0.43 6 97.5 174 
 N2   BN  S   1   2237 9.379                             113    0.18 6 97.5 174 
 N1   BZ  P   1   223654.276                             113   -0.31 6 99.2 174 
 N1   BN  S   1   223710.332                             113    0.62 6 99.2 174 
 KHIA BZ  P   1   223654.854                             112    0.12 6100.0 158 
 KHIA BE  S   1   223710.246                             112    0.26 6100.0 158 
 JNAK BZ  P   1   223656.327                             111    0.79 6  106 165 
 JNAK BE  S   1   223711.805                             111    0.37 6  106 165 
 AHRM HZ  P   1   223655.720                             111    0.13 6  106 152 
 AHRM HE  S   1   223711.343                             111   -0.20 6  106 152 
 KOLO BE  S   1   223715.068                             109   -0.03 5  119 158 
 DLRM BZ  P   1   223657.655                             109    0.08 5  119 166 
 DLRM BE  S   1   223714.866                             109   -0.27 5  119 166 
 KOLO BZ  P   1   223657.568                             109    0.01 5  119 158 
 ABAS BZ  P   1   2237 0.485                             106   -0.26 5  140 159 
 ABAS BE  S   1   223720.064                             106   -0.81 5  140 159 
                                                                                
 2021  418 2241 47.5 L  29.658  50.634 47.3  SLT 29 0.3                 4.0L BI1
 GAP=335        0.58       7.8     6.5 15.7  0.1783E+02 -0.1048E+02 -0.1094E+03E
 Action:ARG 21-06-12 18:26 OP:OBSP STATUS:               ID:20210418224146     I
 DUMMY                                                                         6
 STAT SP IPHASW D HRMM SECON CODA AMPLIT PERI AZIMU VELO AIN AR TRES W  DIS CAZ7
 SHIF BZ  P   1   2242 1.627                             122   -0.18 7 69.3 160 
 N20  BZ  P   1   2242 3.268                             118   -0.00 7 79.2 166 
 N17  BZ EP   1   2242 4.000                             117    0.39 7 81.5 167 
 N17  BE  S   1   224216.020                             117   -0.62 7 81.5 167 
 N19  BZ  P   1   2242 4.045                             117    0.37 7 82.1 164 
 N18  BZ EP   1   2242 4.000                             117    0.20 7 82.7 167 
 N14  BZ EP   1   2242 4.000                             116    0.06 6 84.3 166 
 N15  BZ EP   1   2242 4.000                             116   -0.10 6 84.9 165 
 N13  BZ EP   1   2242 4.000                             116   -0.19 6 85.2 168 
 P1   BZ EP   1   2242 4.000                             116   -0.09 6 85.2 162 
 P3   BZ EP   1   2242 4.000                             116   -0.16 6 85.3 157 
 P3   BE  S   1   224218.582                             116    0.95 6 85.3 157 
 P2   BZ EP   1   2242 4.000                             116   -0.22 6 85.7 159 
 N11  BZ  P   1   2242 4.391                             116    0.18 6 85.8 167 
 P4   BZ  P   1   2242 4.103                             116   -0.23 6 86.6 152 
 P4   BN  S   1   224218.409                             116    0.48 6 86.6 152 
 N10  BZ EP   1   2242 5.000                             116    0.53 6 87.4 166 
 N9   BZ  P   1   2242 4.448                             115   -0.05 6 87.9 164 
 N9   BE  S   1   224218.035                             115   -0.20 6 87.9 164 
 N6   BZ  P   1   2242 4.909                             115    0.14 6 89.5 165 
 P9   BZ  P   1   2242 4.535                             115   -0.60 6 91.2 142 
 N4   BZ EP   1   2242 4.990                             115   -0.01 6 91.2 166 
 N5   BZ  P   1   2242 5.283                             114   -0.08 6 93.6 165 
 N5   BE  S   1   224219.503                             114   -0.29 6 93.6 165 
 N3   BZ  P   1   2242 5.916                             114    0.51 6 94.0 166 
 N3   BE  S   1   224219.762                             114   -0.12 6 94.0 166 
 N2   BZ  P   1   2242 5.456                             114   -0.03 6 94.4 164 
 N2   BE  S   1   224219.590                             114   -0.44 6 94.4 164 
 CAMP BZ  P   1   2242 5.427                             114   -0.09 6 94.6 164 
 CAMP BE  S   1   224219.993                             114   -0.09 6 94.6 164 
 N1   BZ  P   1   2242 5.600                             113   -0.17 6 96.2 164 
 N1   BE  S   1   224220.396                             113   -0.15 6 96.2 164 
 KHIA BZ  P   1   2242 6.521                             112   -0.04 6  101 149 
 KHIA BE  S   1   224222.439                             112    0.47 6  101 149 
 JNAK BZ  P   1   2242 7.183                             111    0.10 6  106 156 
 JNAK BE  S   1   224223.303                             111    0.39 6  106 156 
 AHRM HZ  P   1   2242 7.154                             111   -0.51 6  109 144 
 AHRM HE  S   1   224223.332                             111   -0.63 6  109 144 
 DLRM BZ  P   1   2242 9.371                             109    0.33 5  118 159 
 DLRM BE  S   1   224226.383                             109   -0.07 5  118 159 
 KOLO BZ EP   1   2242 9.550                             109    0.19 5  120 150 
 KOLO BE  S   1   224227.275                             109    0.23 5  120 150 
 ABAS BZ  P   1   224212.249                             106   -0.23 5  140 153 
                                                                                
