 2021  2 8 1618  6.5 L  28.991  51.006 11.4  SLT 10 0.2                 1.4L BI1
 GAP=141        0.48       3.1     2.0  3.3 -0.4997E+01  0.4671E+01 -0.7299E+01E
 Action:ARG 21-12-02 15:38 OP:OBSP STATUS:               ID:20210208161806     I
 DUMMY                                                                         6
 STAT SP IPHASW D HRMM SECON CODA AMPLIT PERI AZIMU VELO AIN AR TRES W  DIS CAZ7
 P4   BZ EP   1   1618 8.970                             149   -0.14 7 4.95 122 
 P4   BE ES   1   161811.120                             149   -0.10 7 4.95 122 
 P3   BZ  P   1   1618 8.978                             147   -0.18 7 5.47 212 
 P3   BE  S   1   161811.353                             147    0.03 7 5.47 212 
 P5   BZ  P   1   1618 9.327                             134   -0.05 7 8.00  99 
 P5   BE  S   1   161811.930                             134    0.22 7 8.00  99 
 P2   BZ  P   1   1618 9.407                             131   -0.09 7 8.57 224 
 P2   BE  S   1   161811.943                             131    0.01 7 8.57 224 
 TOLS BZ EP   1   1618 9.640                             121   -0.11 7 10.9  97 
 TOLS BE ES   1   161812.500                             121    0.12 7 10.9  97 
 N19  BZ  P   1   161810.937                             109    0.63 7 14.5 250 
 N19  BE  S   1   161813.446                             109    0.05 7 14.5 250 
 ABTL BZ EP   1   161810.460                             104   -0.13 7 16.3  41 
 ABTL BE ES   1   161813.940                             104    0.03 7 16.3  41 
 N12  BZ  P   1   161810.266                             103   -0.26 7 16.5 237 
 N12  BE  S   1   161813.795                             103   -0.00 7 16.5 237 
 N15  BZ  P   1   161811.084                             102    0.42 7 16.7 241 
 N15  BE  S   1   161813.835                             102   -0.20 7 16.7 241 
 N20  BZ  P   1   161810.414                             102   -0.25 7 16.8 261 
                                                                                
 2021  2 8 1619 40.4 L  28.981  51.008 16.9  SLT 11 0.2                 1.3L BI1
 GAP=109        0.47       1.4     1.8  4.9 -0.4314E+00 -0.5258E+01 -0.6262E+00E
 Action:ARG 21-12-02 15:38 OP:OBSP STATUS:               ID:20210208161939     I
 DUMMY                                                                         6
 STAT SP IPHASW D HRMM SECON CODA AMPLIT PERI AZIMU VELO AIN AR TRES W  DIS CAZ7
 P2   BZ  P   1   161943.897                             150   -0.12 7 8.03 230 
 N9   BZ  P   1   161944.800                             129    0.02 7 15.7 232 
 N12  BZ  P   1   161944.800                             128    0.03 7 16.2 240 
 N12  BE ES   1   161948.300                             128   -0.04 7 16.2 240 
 N15  BZ  P   1   161944.732                             128   -0.18 7 16.5 244 
 N20  BZ  P   1   161945.238                             127    0.28 7 16.9 264 
 N20  BE  S   1   161948.494                             127   -0.18 7 16.9 264 
 N6   BZ  P   1   161945.033                             125   -0.04 7 17.6 229 
 N6   BE  S   1   161948.823                             125   -0.05 7 17.6 229 
 CAMP BZ  P   1   161945.293                             124    0.10 7 18.6 212 
 CAMP BE  S   1   161949.288                             124    0.20 7 18.6 212 
 N11  BZ  P   1   161944.650                             122   -0.68 7 19.7 244 
 N11  BE  S   1   161949.425                             122    0.08 7 19.7 244 
 N1   BZ  P   1   161945.676                             120    0.18 7 20.6 211 
 N1   BE  S   1   161949.890                             120    0.24 7 20.6 211 
 NOKA BZ EP   1   161945.990                             117    0.30 7 22.8   6 
 NOKA BE ES   1   161950.000                             117    0.01 7 22.8   6 
 AHRM HZ  P   1   161947.017                             109    0.04 7 30.8 115 
 AHRM HE ES   1   161952.130                             109   -0.19 7 30.8 115 
                                                                                
 2021  2 8 1619 40.9 L  28.984  51.012 12.1  SLT  9 0.1                 1.5L BI1
 GAP=145        0.35       1.8     1.1  2.1 -0.1272E+01  0.6581E+00 -0.1124E+01E
 Action:ARG 21-12-02 15:38 OP:OBSP STATUS:               ID:20210208161941     I
 DUMMY                                                                         6
 STAT SP IPHASW D HRMM SECON CODA AMPLIT PERI AZIMU VELO AIN AR TRES W  DIS CAZ7
 P4   BZ EP   1   161943.390                             156   -0.16 7 4.05 118 
 P4   BE ES   1   161945.600                             156   -0.09 7 4.05 118 
 P5   BZ  P   1   161943.720                             140   -0.07 7 7.31  94 
 TOLS BZ EP   1   161944.140                             128    0.00 7 10.2  93 
 TOLS BE ES   1   161947.020                             128    0.27 7 10.2  93 
 P1   BZ EP   1   161944.280                             122   -0.05 7 11.7 239 
 P1   BE ES   1   161947.240                             122    0.14 7 11.7 239 
 N19  BZ  P   1   161944.766                             113   -0.05 7 14.9 254 
 N19  BN  S   1   161947.903                             113   -0.07 7 14.9 254 
 ABTL BZ EP   1   161945.000                             109   -0.07 7 16.5  38 
 ABTL BE ES   1   161948.490                             109    0.06 7 16.5  38 
 N15  BZ  P   1   161945.516                             108    0.38 7 16.9 244 
 N15  BN  S   1   161948.439                             108   -0.12 7 16.9 244 
 P9   BZ  P   1   161945.490                             104   -0.08 7 19.0  83 
 KHIA BZ  P   1   161945.516                             103   -0.07 7 19.4 129 
                                                                                
 2021  2 8 1843 38.1 L  29.888  51.263 27.2  SLT  7 0.4                 1.9L BI1
 GAP=347        0.70     952.9   202.4227.7  0.1886E+06  0.3714E+05  0.1869E+06E
 Action:ARG 21-12-02 15:38 OP:OBSP STATUS:               ID:20210208184349     I
 DUMMY                                                                         6
 STAT SP IPHASW D HRMM SECON CODA AMPLIT PERI AZIMU VELO AIN AR TRES W  DIS CAZ7
 NOKA BZ EP   1   184352.450                             104   -0.38 7 80.9 196 
 ABTL BZ EP   1   184354.480                             102    0.39 6 88.3 189 
 P9   BZ  P   1   184356.177                             101    0.44 6 98.0 183 
 TOLS BZ  P   1   184356.091                             101   -0.08 6  102 188 
 P4   BZ  P   1   184356.463                             100   -0.13 6  104 192 
 P2   BZ  P   1   184358.010                             100    0.47 6  110 196 
 KHIA BZ  P   1   184357.294                              99   -0.75 6  113 185 
                                                                                
 2021  2 8 2130 42.6 L  28.837  50.689  6.2  SLT 19 0.1                 1.5L BI1
 GAP=311        0.24       0.8     1.1  1.1 -0.9928E-01 -0.6681E+00 -0.1881E-01E
 Action:ARG 21-12-02 15:38 OP:OBSP STATUS:               ID:20210208213042     I
 DUMMY                                                                         6
 STAT SP IPHASW D HRMM SECON CODA AMPLIT PERI AZIMU VELO AIN AR TRES W  DIS CAZ7
 N13  BZ  P   1   213046.406                              98   -0.02 7 14.9  59 
 N13  BE  S   1   213049.520                              98    0.00 7 14.9  59 
 N11  BZ EP   1   213046.510                              59    0.07 7 15.3  62 
 N11  BE ES   1   213049.530                              59   -0.02 7 15.3  62 
 N4   BZ  P   1   213046.647                              59    0.04 7 16.3  82 
 N7   BZ  P   1   213046.701                              59    0.05 7 16.6  73 
 N7   BE  S   1   213049.950                              59    0.01 7 16.6  73 
 N10  BZ EP   1   213046.750                              59   -0.02 7 17.1  69 
 N10  BE ES   1   213050.070                              59   -0.08 7 17.1  69 
 N17  BZ  P   1   213046.862                              59    0.07 7 17.3  48 
 N17  BE  S   1   213050.245                              59    0.05 7 17.3  48 
 N18  BZ EP   1   213046.890                              59    0.03 7 17.5  53 
 N18  BE ES   1   213050.250                              59   -0.07 7 17.5  53 
 N3   BZ  P   1   213046.916                              59   -0.02 7 18.2  90 
 N3   BE  S   1   213050.460                              59    0.01 7 18.2  90 
 N6   BZ  P   1   213046.996                              59    0.01 7 18.3  76 
 N6   BE ES   1   213050.450                              59   -0.10 7 18.3  76 
 N15  BZ  P   1   213047.184                              59    0.17 7 18.5  62 
 N15  BE  S   1   213050.621                              59    0.03 7 18.5  62 
 N12  BZ EP   1   213046.950                              59   -0.01 7 18.9  65 
 N12  BE ES   1   213050.530                              59    0.03 7 18.9  65 
 N5   BZ  P   1   213047.104                              59   -0.02 7 19.2  88 
 N5   BE  S   1   213050.648                              59   -0.13 7 19.2  88 
 N9   BZ  P   1   213047.292                              59    0.09 7 19.8  71 
 N2   BZ  P   1   213047.372                              59    0.12 7 19.9  90 
 N2   BE  S   1   213051.050                              59    0.02 7 19.9  90 
 N20  BZ  P   1   213047.023                              59   -0.28 7 20.2  45 
 N20  BE  S   1   213051.238                              59    0.13 7 20.2  45 
 N1   BZ  P   1   213047.399                              59    0.00 7 20.6  95 
 N19  BZ  P   1   213047.131                              59   -0.31 7 21.1  55 
 N19  BE  S   1   213051.426                              59    0.06 7 21.1  55 
 CAMP BZ  P   1   213047.480                              59   -0.03 7 21.4  90 
 CAMP BE  S   1   213051.560                              59    0.06 7 21.4  90 
 P2   BZ  P   1   213048.607                              59    0.07 7 27.2  67 
                                                                                
 2021  2 8 2213 56.8 L  28.845  51.357  7.0  SLT  6 0.5                 1.5L BI1
 GAP=218        1.06       3.2    12.7 12.2  0.2433E+02  0.1393E+02 -0.2327E+01E
 Action:ARG 21-12-02 15:38 OP:OBSP STATUS:               ID:20210208221357     I
 DUMMY                                                                         6
 STAT SP IPHASW D HRMM SECON CODA AMPLIT PERI AZIMU VELO AIN AR TRES W  DIS CAZ7
 KHIA BZ  P   1   2214 1.554                              59    0.51 7 18.9 279 
 ABAD BZ EP   1   2214 1.780                              59    0.03 7 22.8 333 
 ABAD BE ES   1   2214 4.980                              59   -0.78 7 22.8 333 
 P9   BZ EP   1   2214 2.100                              59    0.29 7 23.0 320 
 P9   BE ES   1   2214 5.830                              59   -0.04 7 23.0 320 
 DLRM BZ  P   1   2214 3.608                              59    0.05 7 33.9 234 
 ABAS BZ EP   1   2214 4.650                              59    0.78 7 35.3 191 
 ABAS BE ES   1   2214 8.630                              59   -0.97 7 35.3 191 
 P3   BZ  P   1   2214 4.594                              59    0.13 7 38.9 287 
                                                                                
 2021  2 8 2229 23.4 L  28.880  51.398  6.9  SLT  6 0.4                 1.6L BI1
 GAP=269        0.75       2.7     4.0  2.8  0.3069E+01 -0.4425E+01 -0.2156E+01E
 Action:ARG 21-12-02 15:38 OP:OBSP STATUS:               ID:20210208222923     I
 DUMMY                                                                         6
 STAT SP IPHASW D HRMM SECON CODA AMPLIT PERI AZIMU VELO AIN AR TRES W  DIS CAZ7
 KHIA BZ EP   1   222928.850                              59    0.33 7 22.7 268 
 KHIA BE ES   1   222932.700                              59    0.03 7 22.7 268 
 P9   BZ EP   1   222928.620                              59   -0.06 7 23.3 307 
 P9   BE ES   1   222932.510                              59   -0.45 7 23.3 307 
 KOLO BZ  P   1   222928.545                              59   -0.14 7 23.7 220 
 TOLS BZ  P   1   222929.732                              59    0.12 7 29.5 292 
 TOLS BE  S   1   222934.994                              59    0.35 7 29.5 292 
 P4   BZ  P   1   222929.975                              59   -0.69 7 35.4 286 
 ABTL BZ  P   1   222931.405                              59    0.50 7 36.8 312 
                                                                                
 2021  2 8 2339 13.5 L  29.281  51.036 10.8  SLT 12 0.3                 2.0L BI1
 GAP=305        0.57       3.0     5.3  3.4 -0.1505E+01  0.1434E+02 -0.6329E+00E
 Action:ARG 21-12-02 15:38 OP:OBSP STATUS:               ID:20210208233913     I
 DUMMY                                                                         6
 STAT SP IPHASW D HRMM SECON CODA AMPLIT PERI AZIMU VELO AIN AR TRES W  DIS CAZ7
 NOKA BZ EP   1   233916.860                             126    0.22 7 10.5 181 
 NOKA BE ES   1   233918.940                             126   -0.22 7 10.5 181 
 ABTL BZ EP   1   233918.810                             105    0.35 7 21.5 158 
 ABTL BE ES   1   233922.410                             105   -0.04 7 21.5 158 
 SHIF BZ EP   1   233919.560                              68    0.08 7 28.3 214 
 SHIF BE ES   1   233924.410                              68    0.11 7 28.3 214 
 P1   BZ  P   1   233921.116                              68   -0.45 7 40.9 197 
 P1   BE  S   1   233927.855                              68   -0.22 7 40.9 197 
 N17  BZ  P   1   233921.958                              68   -0.00 7 43.1 209 
 N18  BZ  P   1   233921.877                              68   -0.15 7 43.4 207 
 N15  BZ  P   1   233922.529                              68    0.43 7 44.0 204 
 N12  BZ  P   1   233922.094                              68    0.01 7 44.5 202 
 N12  BE  S   1   233928.725                              68   -0.28 7 44.5 202 
 N9   BZ  P   1   233922.040                              68   -0.25 7 45.4 199 
 N11  BZ  P   1   233922.067                              68   -0.44 7 46.6 206 
 N11  BE  S   1   233930.111                              68    0.34 7 46.6 206 
 N6   BZ  P   1   233922.556                              68   -0.12 7 47.5 200 
 N7   BZ  P   1   233922.964                              68    0.27 7 47.8 202 
 N7   BE  S   1   233930.464                              68    0.36 7 47.8 202 
                                                                                
 2021  2 9 0003  3.1 L  28.630  51.179  7.2  SLT  7 0.1                 1.7L BI1
 GAP=157        0.31       1.3     1.0 16.0 -0.3201E+00 -0.3528E+01  0.3483E+01E
 Action:ARG 21-12-02 15:38 OP:OBSP STATUS:               ID:20210209000303     I
 DUMMY                                                                         6
 STAT SP IPHASW D HRMM SECON CODA AMPLIT PERI AZIMU VELO AIN AR TRES W  DIS CAZ7
 DLRM BZ EP   1    0 3 5.920                              95   -0.11 7 10.7 292 
 DLRM BE ES   1    0 3 8.390                              95   -0.03 7 10.7 292 
 KOLO BZ EP   1    0 3 6.210                              94   -0.02 7 11.4  32 
 KOLO BE ES   1    0 3 8.920                              94    0.15 7 11.4  32 
 ABAS BZ EP   1    0 3 6.860                              92   -0.02 7 15.3 135 
 AHRM HZ EP   1    0 3 9.160                              91    0.04 7 28.3  24 
 AHRM HE ES   1    0 313.800                              91   -0.20 7 28.3  24 
 CAMP BZ  P   1    0 310.457                              90    0.14 7 35.2 311 
 N6   BZ  P   1    0 311.249                              90   -0.04 7 40.8 313 
 N9   BZ  P   1    0 311.440                              90    0.09 7 41.4 315 
                                                                                
 2021  2 9 1312  1.3 L  28.950  51.354  2.8  SLT  7 0.4                 1.9L BI1
 GAP=252        0.81       3.4     6.6  2.3  0.1436E+02 -0.2014E-01  0.1406E+01E
 Action:ARG 21-12-02 15:38 OP:OBSP STATUS:               ID:20210209131200     I
 DUMMY                                                                         6
 STAT SP IPHASW D HRMM SECON CODA AMPLIT PERI AZIMU VELO AIN AR TRES W  DIS CAZ7
 ABAD BZ EP   1   1312 5.150                             102    0.29 7 13.3 311 
 ABAD BE ES   1   1312 7.800                             102    0.09 7 13.3 311 
 P9   BZ  P   1   1312 4.901                             100   -0.57 7 15.7 293 
 KHIA BZ EP   1   1312 6.990                              98    0.43 7 20.2 245 
 TOLS BZ  P   1   1312 7.324                              43    0.26 7 23.3 278 
 TOLS BE  S   1   131211.912                              43    0.21 7 23.3 278 
 KOLO BZ  P   1   1312 8.269                              43    0.29 7 28.1 203 
 ABTL BZ EP   1   1312 8.050                              43    0.05 7 28.5 306 
 ABTL BE ES   1   131213.200                              43   -0.20 7 28.5 306 
 JNAK BZ  P   1   1312 7.831                              43   -0.86 7 32.9 237 
                                                                                
