 2021  217 2227 19.5 L  29.251  51.337  7.9  SLT 12 0.3                 2.5L BI1
 GAP=293        0.66       2.6     3.1  3.7  0.9866E+00 -0.3427E+00  0.6143E-01E
 Action:ARG 21-12-02 15:38 OP:OBSP STATUS:               ID:20210217222718     I
 DUMMY                                                                         6
 STAT SP IPHASW D HRMM SECON CODA AMPLIT PERI AZIMU VELO AIN AR TRES W  DIS CAZ7
 ABAD BZ EP   1   222725.040                              93   -0.14 7 26.0 199 
 ABAD BE ES   1   222729.920                              93    0.11 7 26.0 199 
 ABTL BZ EP   1   222725.120                              93   -0.16 7 27.1 232 
 ABTL BE ES   1   222729.910                              93   -0.08 7 27.1 232 
 P9   BZ EP   1   222725.810                              92   -0.11 7 30.1 205 
 P9   BE ES   1   222731.260                              92    0.11 7 30.1 205 
 NOKA BZ  P   1   222725.334                              92   -0.42 7 30.3 256 
 NOKA BE ES   1   222730.650                              92   -0.20 7 30.3 256 
 TOLS BZ  P   1   222726.793                              92   -0.17 7 37.0 215 
 TOLS BE  S   1   222733.028                              92   -0.01 7 37.0 215 
 P5   BZ  P   1   222727.994                              92    0.73 7 38.7 219 
 P5   BE  S   1   222733.743                              92    0.16 7 38.7 219 
 KHIA BZ EP   1   222728.270                              68   -0.19 7 45.1 202 
 KHIA BE ES   1   222735.640                              68   -0.11 7 45.1 202 
 P3   BZ  P   1   222729.539                              68    0.58 7 48.5 226 
 P3   BE  S   1   222736.546                              68   -0.10 7 48.5 226 
 SHIF BZ  P   1   222729.768                              68    0.77 7 49.3 246 
 SHIF BE  S   1   222736.804                              68    0.08 7 49.3 246 
 JNAK BZ EP   1   222730.080                              68   -0.25 7 57.5 207 
 JNAK BE ES   1   222739.000                              68   -0.14 7 57.5 207 
 KOLO BZ  P   1   222730.740                              68   -0.10 7 59.9 189 
 N18  BZ  P   1   222730.454                              68   -0.45 7 60.5 234 
                                                                                
 2021  217 2345 28.9 L  28.967  51.017 14.6  SLT 23 0.2                 1.4L BI1
 GAP= 94        0.34       1.4     0.8  1.4 -0.8231E+00  0.9596E-01 -0.3071E+00E
 Action:ARG 21-12-02 15:38 OP:OBSP STATUS:               ID:20210217234528     I
 DUMMY                                                                         6
 STAT SP IPHASW D HRMM SECON CODA AMPLIT PERI AZIMU VELO AIN AR TRES W  DIS CAZ7
 P4   BZ EP   1   234531.650                             165   -0.20 7 3.11  91 
 P3   BZ EP   1   234531.810                             159   -0.12 7 4.50 243 
 P3   BE ES   1   234534.110                             159   -0.30 7 4.50 243 
 P5   BZ EP   1   234532.110                             149    0.05 7 6.93  79 
 P5   BE ES   1   234534.660                             149    0.03 7 6.93  79 
 P2   BZ EP   1   234532.140                             145   -0.06 7 7.90 243 
 P2   BE ES   1   234534.790                             145   -0.10 7 7.90 243 
 TOLS BZ EP   1   234532.520                             139    0.19 7 9.82  82 
 TOLS BE ES   1   234535.390                             139    0.25 7 9.82  82 
 P1   BZ  P   1   234532.149                             134   -0.35 7 11.3 248 
 P1   BE  S   1   234535.656                             134    0.22 7 11.3 248 
 N19  BZ  P   1   234532.972                             124   -0.01 7 14.9 261 
 N19  BE  S   1   234536.317                             124    0.00 7 14.9 261 
 N16  BZ  P   1   234533.093                             124    0.08 7 15.0 253 
 N16  BE  S   1   234536.344                             124   -0.01 7 15.0 253 
 N9   BZ EP   1   234533.170                             123    0.13 7 15.5 239 
 N9   BE ES   1   234536.620                             123    0.21 7 15.5 239 
 N12  BZ EP   1   234533.090                             121    0.01 7 16.3 247 
 N12  BE ES   1   234536.600                             121    0.12 7 16.3 247 
 N15  BZ EP   1   234533.260                             120    0.03 7 16.7 250 
 N15  BE ES   1   234536.790                             120    0.03 7 16.7 250 
 N6   BZ EP   1   234532.880                             119   -0.46 7 17.3 235 
 N6   BE ES   1   234537.110                             119    0.15 7 17.3 235 
 N20  BZ  P   1   234533.309                             118   -0.06 7 17.6 270 
 ABTL BZ EP   1   234533.340                             118   -0.04 7 17.7  33 
 ABTL BE ES   1   234536.830                             118   -0.19 7 17.7  33 
 KHIA BZ EP   1   234533.410                             118   -0.06 7 17.9 126 
 N10  BZ EP   1   234533.470                             117    0.03 7 18.1 243 
 N10  BE ES   1   234537.260                             117    0.12 7 18.1 243 
 N18  BE ES   1   234537.310                             117    0.04 7 18.4 258 
 N14  BZ EP   1   234533.390                             117   -0.04 7 18.4 253 
 N14  BE ES   1   234537.150                             117    0.04 7 18.4 253 
 N18  BZ EP   1   234533.470                             117   -0.04 7 18.4 258 
 N2   BZ  P   1   234533.376                             116   -0.17 7 18.8 220 
 P9   BZ  P   1   234533.795                             116    0.14 7 18.9  77 
 N17  BZ EP   1   234533.550                             115   -0.07 7 19.3 261 
 N17  BE ES   1   234537.540                             115    0.08 7 19.3 261 
 ABAD BZ  P   1   234534.442                             109    0.07 7 23.8  73 
 NOKA BZ  P   1   234534.509                             108    0.25 7 24.3   4 
                                                                                
 2021  217 2348 45.1 L  28.977  51.018 13.0  SLT 14 0.2                 1.3L BI1
 GAP=138        0.43       2.4     1.3  2.0 -0.2531E+01  0.9098E+00 -0.1622E+01E
 Action:ARG 21-12-02 15:38 OP:OBSP STATUS:               ID:20210217234845     I
 DUMMY                                                                         6
 STAT SP IPHASW D HRMM SECON CODA AMPLIT PERI AZIMU VELO AIN AR TRES W  DIS CAZ7
 P4   BZ  P   1   234847.422                             163   -0.38 7 3.21 110 
 P4   BE  S   1   234849.976                             163   -0.05 7 3.21 110 
 P3   BZ  P   1   234847.771                             153   -0.16 7 5.14 233 
 P3   BE  S   1   234850.245                             153   -0.01 7 5.14 233 
 P2   BZ EP   1   234848.180                             138   -0.07 7 8.51 237 
 P2   BE ES   1   234850.820                             138   -0.01 7 8.51 237 
 TOLS BZ EP   1   234848.470                             134    0.15 7 9.64  89 
 TOLS BE ES   1   234851.380                             134    0.42 7 9.64  89 
 P1   BZ  P   1   234848.605                             127    0.02 7 11.8 243 
 P1   BE  S   1   234851.589                             127    0.14 7 11.8 243 
 N19  BZ EP   1   234848.950                             117   -0.13 7 15.2 257 
 N19  BE ES   1   234852.260                             117   -0.08 7 15.2 257 
 N16  BZ  P   1   234849.626                             117    0.50 7 15.4 249 
 N16  BE  S   1   234852.396                             117   -0.03 7 15.4 249 
 ABTL BE ES   1   234852.820                             114    0.05 7 16.8  35 
 N12  BZ  P   1   234849.008                             114   -0.21 7 16.8 243 
 N12  BE  S   1   234852.638                             114    0.04 7 16.8 243 
 ABTL BZ EP   1   234849.330                             114    0.01 7 16.8  35 
 N15  BZ EP   1   234849.060                             113   -0.31 7 17.1 247 
 N15  BE ES   1   234852.770                             113   -0.10 7 17.1 247 
 N6   BZ  P   1   234849.411                             111   -0.11 7 18.0 233 
 N6   BE  S   1   234853.310                             111    0.17 7 18.0 233 
 P9   BZ EP   1   234849.870                             110    0.17 7 18.6  80 
 P9   BE ES   1   234853.100                             110   -0.36 7 18.6  80 
 N18  BZ  P   1   234849.895                             110    0.25 7 18.8 255 
 N18  BE  S   1   234853.364                             110    0.00 7 18.8 255 
 N14  BZ  P   1   234849.707                             110    0.13 7 18.9 250 
 N14  BE  S   1   234853.202                             110   -0.03 7 18.9 250 
                                                                                
 2021  218 0044 20.1 L  29.258  51.321  3.4  SLT  5 0.1                 1.7L BI1
 GAP=301        0.28       6.1     7.0  7.7  0.4126E+02  0.5209E+02  0.4589E+02E
 Action:ARG 21-12-02 15:38 OP:OBSP STATUS:               ID:20210218004419     I
 DUMMY                                                                         6
 STAT SP IPHASW D HRMM SECON CODA AMPLIT PERI AZIMU VELO AIN AR TRES W  DIS CAZ7
 ABAD BZ EP   1    04426.300                              43   -0.08 7 26.2 195 
 ABAD BE ES   1    04431.480                              43    0.03 7 26.2 195 
 ABTL BZ EP   1    04426.370                              43    0.06 7 26.4 229 
 ABTL BE ES   1    04431.200                              43   -0.12 7 26.4 229 
 NOKA BZ EP   1    04426.710                              43    0.03 7 29.0 254 
 NOKA BE ES   1    04432.000                              43    0.00 7 29.0 254 
 P9   BZ  P   1    04427.115                              43    0.03 7 30.1 202 
 P9   BE  S   1    04432.662                              43   -0.06 7 30.1 202 
 TOLS BZ  P   1    04428.028                              43   -0.04 7 36.7 213 
 TOLS BE  S   1    04434.663                              43    0.15 7 36.7 213 
                                                                                
 2021  218 0213  0.1 L  28.647  51.112 10.8  SLT  9 0.3                 1.4L BI1
 GAP=173        0.70       2.4     2.7  2.4  0.2910E+01 -0.1034E+01 -0.2012E+01E
 Action:ARG 21-12-02 15:38 OP:OBSP STATUS:               ID:20210218021300     I
 DUMMY                                                                         6
 STAT SP IPHASW D HRMM SECON CODA AMPLIT PERI AZIMU VELO AIN AR TRES W  DIS CAZ7
 DLRM BZ EP   1    213 2.610                             156    0.04 7 3.94 300 
 DLRM BE ES   1    213 4.260                             156   -0.28 7 3.94 300 
 KOLO BZ  P   1    213 3.929                             115   -0.09 7 14.8  59 
 KOLO BE ES   1    213 6.690                             115   -0.48 7 14.8  59 
 JNAK BZ EP   1    213 4.660                             113    0.57 7 15.9 346 
 JNAK BE ES   1    213 7.860                             113    0.57 7 15.9 346 
 ABAS BZ EP   1    213 5.330                              68    0.21 7 21.6 126 
 ABAS BE ES   1    213 9.370                              68    0.21 7 21.6 126 
 KHIA BZ  P   1    213 5.483                              68   -0.30 7 25.5  12 
 KHIA BE  S   1    21310.422                              68    0.06 7 25.5  12 
 AHRM HZ  P   1    213 6.657                              68    0.23 7 29.9  37 
 P4   BZ  P   1    213 7.348                              68   -0.05 7 35.9 350 
 N14  BZ EP   1    213 7.950                              68   -0.11 7 40.4 318 
 N19  BZ  P   1    213 7.590                              68   -0.60 7 40.9 324 
                                                                                
 2021  218 1400  5.6 L  29.242  51.379  8.4  SLT  8 0.1                 2.3L BI1
 GAP=291        0.33       1.6     1.9  2.3  0.1565E+00 -0.1062E+01  0.1098E+01E
 Action:ARG 21-12-02 15:38 OP:OBSP STATUS:               ID:20210218140004     I
 DUMMY                                                                         6
 STAT SP IPHASW D HRMM SECON CODA AMPLIT PERI AZIMU VELO AIN AR TRES W  DIS CAZ7
 ABAD BZ EP   1   14 011.350                              94   -0.04 7 26.7 208 
 ABAD BE ES   1   14 015.950                              94   -0.17 7 26.7 208 
 ABTL BZ EP   1   14 011.900                              94    0.04 7 29.9 239 
 ABTL BE ES   1   14 017.040                              94    0.07 7 29.9 239 
 P9   BZ EP   1   14 012.250                              94    0.05 7 31.2 213 
 P9   BE ES   1   14 017.700                              94    0.11 7 31.2 213 
 NOKA BZ EP   1   14 012.470                              93   -0.04 7 34.1 260 
 NOKA BE ES   1   14 018.150                              93    0.01 7 34.1 260 
 AHRM HZ  P   1   14 014.397                              68    0.34 7 42.6 191 
 P4   BZ  P   1   14 014.307                              68   -0.01 7 44.3 227 
 P4   BE  S   1   14 021.423                              68    0.01 7 44.3 227 
 KHIA BZ EP   1   14 014.360                              68   -0.28 7 45.8 207 
 KHIA BE ES   1   14 021.920                              68   -0.07 7 45.8 207 
 JNAK BZ  P   1   14 016.463                              68   -0.10 7 58.6 211 
 JNAK BE  S   1   14 025.555                              68    0.08 7 58.6 211 
                                                                                
 2021  218 1553 57.1 L  29.199  51.341 24.6  SLT  8 0.3                 1.9L BI1
 GAP=298        0.60       7.5     9.1  8.4  0.5464E+02 -0.6047E+02 -0.4854E+02E
 Action:ARG 21-12-02 15:38 OP:OBSP STATUS:               ID:20210218155356     I
 DUMMY                                                                         6
 STAT SP IPHASW D HRMM SECON CODA AMPLIT PERI AZIMU VELO AIN AR TRES W  DIS CAZ7
 ABAD BZ  P   1   1554 3.039                             135    0.01 7 20.7 205 
 ABAD BE  S   1   1554 7.466                             135   -0.40 7 20.7 205 
 ABTL BZ  P   1   1554 3.425                             130    0.06 7 24.3 244 
 ABTL BE  S   1   1554 8.573                             130    0.10 7 24.3 244 
 P9   BZ EP   1   1554 3.850                             129    0.26 7 25.1 211 
 P9   BE ES   1   1554 9.170                             129    0.30 7 25.1 211 
 NOKA BZ EP   1   1554 3.960                             124   -0.03 7 29.9 267 
 NOKA BE ES   1   1554 9.550                             124   -0.06 7 29.9 267 
 TOLS BZ  P   1   1554 5.024                             121    0.60 7 32.7 222 
 P5   BZ  P   1   1554 4.391                             120   -0.31 7 34.7 226 
 P4   BZ  P   1   1554 4.866                             117   -0.39 7 38.3 228 
 KHIA BZ  P   1   1554 5.428                             116   -0.13 7 39.9 205 
                                                                                
 2021  218 1741 13.4 L  29.015  51.353 13.6  SLT  6 0.5                 1.5L BI1
 GAP=266        0.95       6.7     7.8  8.3  0.2474E+02 -0.1763E+02  0.3019E+01E
 Action:ARG 21-12-02 15:38 OP:OBSP STATUS:               ID:20210218174112     I
 DUMMY                                                                         6
 STAT SP IPHASW D HRMM SECON CODA AMPLIT PERI AZIMU VELO AIN AR TRES W  DIS CAZ7
 ABAD BZ EP   1   174117.420                             135    0.53 7 10.0 279 
 ABAD BE ES   1   174119.320                             135   -0.40 7 10.0 279 
 P9   BZ EP   1   174117.950                             122    0.49 7 14.3 266 
 P9   BE ES   1   174120.440                             122   -0.32 7 14.3 266 
 AHRM HZ EP   1   174118.210                             114    0.38 7 17.6 199 
 TOLS BZ  P   1   174117.996                             106   -0.65 7 23.3 260 
 TOLS BE  S   1   174123.241                             106    0.35 7 23.3 260 
 KHIA BZ  P   1   174118.549                             105   -0.31 7 24.0 229 
 ABTL BZ  P   1   174118.324                             104   -0.60 7 24.8 293 
 ABTL BE  S   1   174123.914                             104    0.52 7 24.8 293 
                                                                                
 2021  218 1834 28.8 L  29.241  51.383  8.3  SLT  8 0.2                 2.4L BI1
 GAP=305        0.36       1.7     2.2  2.5  0.8789E-01 -0.1325E+01  0.1161E+01E
 Action:ARG 21-12-02 15:38 OP:OBSP STATUS:               ID:20210218183428     I
 DUMMY                                                                         6
 STAT SP IPHASW D HRMM SECON CODA AMPLIT PERI AZIMU VELO AIN AR TRES W  DIS CAZ7
 ABAD BZ  P   1   183434.482                              94   -0.20 7 26.8 209 
 ABAD BE  S   1   183439.194                              94   -0.24 7 26.8 209 
 ABTL BZ EP   1   183435.140                              93   -0.05 7 30.2 239 
 ABTL BE ES   1   183440.340                              93    0.00 7 30.2 239 
 P9   BZ EP   1   183435.580                              93    0.08 7 31.4 213 
 P9   BE  S   1   183440.964                              93    0.05 7 31.4 213 
 NOKA BZ EP   1   183435.850                              93    0.01 7 34.5 260 
 NOKA BE ES   1   183441.460                              93   -0.07 7 34.5 260 
 TOLS BZ EP   1   183436.770                              92    0.10 7 38.9 222 
 TOLS BE ES   1   183443.310                              92    0.29 7 38.9 222 
 P4   BZ EP   1   183437.700                              68    0.07 7 44.5 227 
 P4   BE ES   1   183444.670                              68   -0.10 7 44.5 227 
 KHIA BZ EP   1   183438.170                              68    0.24 7 46.0 207 
 KHIA BE ES   1   183445.180                              68   -0.13 7 46.0 207 
 DLRM BZ EP   1   183441.580                              68   -0.22 7 70.5 205 
 DLRM BE ES   1   183452.490                              68    0.17 7 70.5 205 
                                                                                
 2021  218 2054 35.1 L  29.247  51.403  9.6  SLT  7 0.3                 1.9L BI1
 GAP=310        0.62       3.2     4.2  3.9  0.2620E+00  0.1680E+01 -0.2569E+01E
 Action:ARG 21-12-02 15:38 OP:OBSP STATUS:               ID:20210218205434     I
 DUMMY                                                                         6
 STAT SP IPHASW D HRMM SECON CODA AMPLIT PERI AZIMU VELO AIN AR TRES W  DIS CAZ7
 ABAD BZ EP   1   205441.540                              97    0.26 7 28.3 211 
 ABAD BE ES   1   205446.070                              97   -0.19 7 28.3 211 
 ABTL BZ EP   1   205442.020                              96    0.17 7 32.2 240 
 ABTL BE ES   1   205447.130                              96   -0.16 7 32.2 240 
 P9   BZ EP   1   205442.360                              96    0.26 7 33.0 216 
 P9   BE ES   1   205447.820                              96    0.07 7 33.0 216 
 NOKA BZ EP   1   205442.520                              68    0.05 7 36.5 259 
 NOKA BE ES   1   205448.300                              68   -0.11 7 36.5 259 
 TOLS BZ  P   1   205443.435                              68    0.23 7 40.7 223 
 TOLS BE  S   1   205449.989                              68    0.25 7 40.7 223 
 P5   BZ  P   1   205443.470                              68   -0.06 7 42.7 226 
 KHIA BZ  P   1   205443.541                              68   -0.85 7 47.4 209 
 KHIA BE  S   1   205451.980                              68    0.08 7 47.4 209 
                                                                                
