 2021  418 2243 52.7 L  29.666  50.707 63.0  SLT 27 0.2                 4.6L BI1
 GAP=331        0.40       4.3     3.7  6.1  0.3141E+01 -0.8293E+00 -0.2353E+02E
 Action:ARG 21-06-12 18:26 OP:OBSP STATUS:               ID:20210418224351     I
 DUMMY                                                                         6
 STAT SP IPHASW D HRMM SECON CODA AMPLIT PERI AZIMU VELO AIN AR TRES W  DIS CAZ7
 NOKA BZ  P   1   2244 7.460                             134   -0.09 7 61.9 149 
 SHIF BZ  P   1   2244 8.201                             131   -0.09 7 68.1 166 
 N20  BZ  P   1   2244 9.546                             127   -0.14 7 78.6 171 
 N20  BN  S   1   224423.077                             127   -0.39 7 78.6 171 
 N17  BZ  P   1   2244 9.875                             126   -0.15 7 81.1 172 
 N17  BE  S   1   224424.175                             126    0.10 7 81.1 172 
 N19  BZ  P   1   224410.232                             126    0.20 7 81.3 169 
 N19  BN  S   1   224423.846                             126   -0.24 7 81.3 169 
 N18  BZ  P   1   2244 9.958                             126   -0.22 7 82.1 171 
 N18  BE  S   1   224424.587                             126    0.23 7 82.1 171 
 P3   BZ  P   1   224410.342                             125   -0.02 6 83.6 162 
 P3   BE  S   1   224424.449                             125   -0.24 6 83.6 162 
 N14  BZ  P   1   224410.040                             125   -0.26 6 83.7 171 
 N14  BE  S   1   224424.806                             125    0.22 6 83.7 171 
 P1   BZ  P   1   224410.287                             125   -0.08 6 84.0 166 
 P1   BE  S   1   224424.230                             125   -0.47 6 84.0 166 
 P2   BZ  P   1   224410.616                             125    0.17 6 84.2 164 
 P2   BE  S   1   224424.998                             125    0.16 6 84.2 164 
 P4   BZ  P   1   224410.397                             125   -0.04 6 84.3 157 
 P4   BE  S   1   224424.943                             125    0.12 6 84.3 157 
 N11  BZ  P   1   224410.589                             124    0.02 6 85.3 172 
 N11  BE  S   1   224425.437                             124    0.38 6 85.3 172 
 N10  BZ  P   1   224410.671                             124   -0.11 6 86.8 171 
 N9   BZ  P   1   224410.671                             124   -0.11 6 87.1 169 
 N9   BE  S   1   224425.712                             124    0.27 6 87.1 169 
 ABAD BZ  P   1   224411.467                             124    0.42 6 88.2 143 
 ABAD BE  S   1   224426.206                             124    0.28 6 88.2 143 
 N6   BZ  P   1   224411.110                             123    0.06 6 88.8 170 
 N6   BE  S   1   224426.014                             123    0.08 6 88.8 170 
 N4   BZ  P   1   224411.330                             123    0.05 6 90.7 171 
 N4   BE  S   1   224426.398                             123    0.05 6 90.7 171 
 N3   BZ  P   1   224411.769                             122    0.13 6 93.3 170 
 N3   BE  S   1   224427.084                             122    0.09 6 93.3 170 
 N2   BZ  P   1   224411.797                             122    0.10 6 93.6 169 
 CAMP BZ  P   1   224411.522                             122   -0.19 6 93.7 168 
 N1   BZ  P   1   224411.714                             121   -0.25 6 95.4 169 
 KHIA BZ  P   1   224412.675                             121    0.23 6 98.6 153 
 KHIA BE  S   1   224428.429                             121   -0.03 6 98.6 153 
 JNAK BZ  P   1   224413.251                             119    0.22 6  104 160 
 AHRM HZ  P   1   224413.334                             119   -0.05 6  106 147 
 AHRM HE  S   1   224429.582                             119   -0.56 6  106 147 
 KOLO BZ  P   1   224415.392                             116    0.30 5  117 154 
 KOLO BE  S   1   224433.232                             116   -0.02 5  117 154 
 DLRM BZ  P   1   224415.090                             116    0.17 6  117 162 
 DLRM BE  S   1   224433.260                             116    0.32 6  117 162 
 ABAS BZ  P   1   224418.054                             113   -0.05 5  138 156 
 ABAS BE  S   1   224438.118                             113   -0.58 5  138 156 
                                                                                
 2021  418 2259 52.7 L  29.767  50.795 34.0  SLT 27 0.3                 4.0L BI1
 GAP=335        0.53       7.2     5.6 24.9  0.5420E+01  0.9256E+00 -0.1676E+03E
 Action:ARG 21-06-12 18:26 OP:OBSP STATUS:               ID:20210418225952     I
 DUMMY                                                                         6
 STAT SP IPHASW D HRMM SECON CODA AMPLIT PERI AZIMU VELO AIN AR TRES W  DIS CAZ7
 SHIF BZ  P   1   23 0 6.954                             110   -0.32 7 77.7 174 
 N20  BZ EP   1   23 0 9.000                             107   -0.06 6 88.8 177 
 N20  BE  S   1   23 022.212                             107   -0.09 6 88.8 177 
 N19  BZ  P   1   23 010.483                             107    1.06 6 91.2 176 
 N17  BZ  P   1   23 0 9.928                             106    0.44 6 91.6 178 
 P4   BZ  P   1   23 0 9.733                             106    0.18 6 92.0 164 
 P4   BE  S   1   23 022.880                             106   -0.31 6 92.0 164 
 P3   BZ  P   1   23 0 9.789                             106    0.18 6 92.3 169 
 P3   BE  S   1   23 023.630                             106    0.34 6 92.3 169 
 N18  BZ  P   1   23 0 9.288                             106   -0.36 6 92.5 178 
 P2   BZ  P   1   23 010.039                             106    0.27 6 93.3 171 
 P2   BE  S   1   23 023.825                             106    0.23 6 93.3 171 
 P9   BZ EP   1   23 0 9.000                             106   -0.88 6 93.4 155 
 P9   BE  S   1   23 023.991                             106    0.21 6 93.4 155 
 N14  BZ  P   1   23 010.011                             106    0.20 6 94.0 178 
 N15  BZ  P   1   23 0 9.650                             106   -0.27 6 94.4 176 
 N15  BE  S   1   23 023.491                             106   -0.36 6 94.4 176 
 N13  BZ  P   1   23 010.372                             106    0.25 6 95.3 179 
 N11  BZ  P   1   23 0 9.955                             106   -0.17 6 95.8 178 
 N9   BZ  P   1   23 010.150                             106   -0.14 6 97.0 175 
 N9   BE  S   1   23 024.241                             106   -0.29 6 97.0 175 
 N10  BZ  P   1   23 010.428                             106    0.09 6 97.0 177 
 N6   BZ  P   1   23 010.650                             105    0.03 6 98.8 176 
 N6   BE  S   1   23 025.242                             105    0.12 6 98.8 176 
 N4   BZ  P   1   23 011.039                             105    0.12 6  101 177 
 N4   BE  S   1   23 025.520                             105   -0.14 6  101 177 
 N2   BZ  P   1   23 011.345                             104    0.01 6  103 175 
 N3   BZ  P   1   23 011.345                             104    0.04 6  103 176 
 N3   BE  S   1   23 026.159                             104   -0.20 6  103 176 
 CAMP BZ  P   1   23 011.373                             104    0.04 6  103 174 
 N5   BZ EP   1   23 011.000                             105   -0.22 6  103 175 
 CAMP BE  S   1   23 026.270                             104   -0.14 6  103 174 
 KHIA BE  S   1   23 027.549                             104    0.47 6  105 160 
 N1   BZ  P   1   23 011.651                             104    0.02 6  105 174 
 KHIA BZ  P   1   23 011.456                             104   -0.25 6  105 160 
 AHRM HZ  P   1   23 012.346                             103   -0.20 6  111 154 
 AHRM HE  S   1   23 028.633                             103    0.02 6  111 154 
 JNAK BZ  P   1   23 012.679                             103    0.09 6  112 166 
 JNAK BE  S   1   23 029.022                             103    0.33 6  112 166 
 DLRM BZ  P   1   23 014.541                             102   -0.18 5  125 167 
 DLRM BE  S   1   23 032.329                             102   -0.22 5  125 167 
 ABAS BZ  P   1   23 017.904                             100   -0.03 5  145 161 
                                                                                
 2021  418 2311 14.1 L  29.710  50.750 48.6  SLT 22 0.3                 3.3L BI1
 GAP=341        0.50       9.1     8.1 18.8  0.2424E+02 -0.2886E+02 -0.1619E+03E
 Action:ARG 21-06-12 18:26 OP:OBSP STATUS:               ID:20210418231113     I
 DUMMY                                                                         6
 STAT SP IPHASW D HRMM SECON CODA AMPLIT PERI AZIMU VELO AIN AR TRES W  DIS CAZ7
 N20  BZ EP   1   231130.000                             118   -0.41 7 82.9 174 
 N17  BZ  P   1   231130.224                             117   -0.58 6 85.5 175 
 N18  BZ EP   1   231131.000                             117    0.04 6 86.5 175 
 P4   BZ EP   1   231131.000                             116   -0.05 6 87.3 161 
 P4   BE  S   1   231144.801                             116   -0.02 6 87.3 161 
 P1   BZ EP   1   231131.000                             116   -0.11 6 88.0 170 
 P2   BZ  P   1   231131.245                             116    0.08 6 88.0 168 
 P1   BE  S   1   231145.064                             116    0.14 6 88.0 170 
 N14  BZ  P   1   231131.419                             116    0.31 6 88.1 175 
 N14  BE  S   1   231144.743                             116   -0.17 6 88.1 175 
 N15  BZ EP   1   231131.000                             116   -0.23 6 88.5 173 
 N15  BE  S   1   231145.122                             116   -0.01 6 88.5 173 
 N13  BZ  P   1   231131.536                             116    0.14 6 89.3 176 
 N11  BZ  P   1   231131.478                             116    0.08 6 89.8 175 
 N9   BZ  P   1   231132.177                             115    0.59 6 91.2 172 
 N6   BZ EP   1   231131.720                             115   -0.17 6 93.0 173 
 N6   BE  S   1   231146.055                             115   -0.28 6 93.0 173 
 N4   BZ  P   1   231132.323                             114    0.17 6 95.0 174 
 N4   BE  S   1   231147.163                             114    0.34 6 95.0 174 
 N5   BZ EP   1   231132.280                             114   -0.19 6 97.0 172 
 N5   BE  S   1   231146.813                             114   -0.57 6 97.0 172 
 N3   BZ  P   1   231132.702                             114    0.17 6 97.5 173 
 N2   BZ  P   1   231132.469                             114   -0.11 6 97.8 172 
 CAMP BZ  P   1   231132.702                             114    0.12 6 97.8 171 
 CAMP BE  S   1   231147.950                             114    0.36 6 97.8 171 
 N2   BE  S   1   231147.688                             114    0.10 6 97.8 172 
 N1   BZ  P   1   231132.761                             113   -0.10 6 99.5 172 
 N1   BE  S   1   231148.766                             113    0.66 6 99.5 172 
 KHIA BZ  P   1   231133.315                             113    0.16 6  101 156 
 KHIA BE  S   1   231148.650                             113    0.02 6  101 156 
 JNAK BZ  P   1   231133.927                             112    0.03 6  107 163 
 JNAK BE  S   1   231149.991                             112    0.03 6  107 163 
 KOLO BZ  P   1   231136.055                             109    0.09 5  120 156 
 DLRM BZ EP   1   231136.010                             109    0.09 5  120 165 
 DLRM BE  S   1   231152.906                             109   -0.72 5  120 165 
                                                                                
 2021  418 2349 51.7 L  29.718  50.902 29.2  SLT 20 0.4                 2.8L BI1
 GAP=334        0.72      13.4    15.2 59.5 -0.8959E+02  0.3160E+03 -0.7372E+03E
 Action:ARG 21-06-12 18:26 OP:OBSP STATUS:               ID:20210418234950     I
 DUMMY                                                                         6
 STAT SP IPHASW D HRMM SECON CODA AMPLIT PERI AZIMU VELO AIN AR TRES W  DIS CAZ7
 ABTL BZ EP   1   2350 5.000                             107   -0.17 7 71.5 163 
 SHIF BZ  P   1   2350 4.574                             107   -0.59 7 72.0 182 
 N20  BZ  P   1   2350 7.618                             105    0.57 6 83.6 184 
 P9   BZ  P   1   2350 6.926                             105   -0.35 6 84.3 159 
 P4   BZ  P   1   2350 8.061                             105    0.88 6 84.4 170 
 P2   BZ EP   1   2350 7.000                             104   -0.58 6 86.9 177 
 N18  BZ  P   1   2350 7.397                             104   -0.25 6 87.3 185 
 P1   BZ  P   1   2350 7.868                             104    0.25 6 87.4 180 
 N14  BZ  P   1   2350 7.895                             104    0.09 6 88.8 184 
 N14  BE  S   1   235021.734                             104    0.91 6 88.8 184 
 N15  BZ  P   1   2350 8.144                             104    0.27 6 88.9 183 
 N13  BZ  P   1   2350 8.366                             104    0.22 6 90.2 185 
 N11  BZ  P   1   2350 7.951                             103   -0.18 6 90.6 185 
 N10  BZ  P   1   2350 8.338                             103    0.03 6 91.6 183 
 N6   BZ  P   1   2350 8.532                             103   -0.02 6 93.1 182 
 N4   BZ  P   1   2350 8.781                             103   -0.11 6 95.4 183 
 N4   BN  S   1   235022.648                             103   -0.15 6 95.4 183 
 N5   BZ EP   1   2350 9.000                             102   -0.15 6 97.0 181 
 N5   BN  S   1   235022.869                             102   -0.39 6 97.0 181 
 KHIA BZ  P   1   2350 9.860                             102    0.63 6 97.1 165 
 CAMP BZ  P   1   2350 9.224                             102    0.00 6 97.4 180 
 N2   BZ EP   1   2350 9.000                             102   -0.25 6 97.6 181 
 N2   BE  S   1   235023.007                             102   -0.44 6 97.6 181 
 N3   BZ EP   1   2350 9.000                             102   -0.24 6 97.7 182 
                                                                                
 2021  418 2352 39.0 L  29.621  50.709 45.4  SLT 22 0.3                 3.5L BI1
 GAP=334        0.53       5.4    10.9 11.2 -0.1093E+02  0.4345E+02 -0.5272E+02E
 Action:ARG 21-06-12 18:26 OP:OBSP STATUS:               ID:20210418235238     I
 DUMMY                                                                         6
 STAT SP IPHASW D HRMM SECON CODA AMPLIT PERI AZIMU VELO AIN AR TRES W  DIS CAZ7
 NOKA BZ  P   1   235251.323                             125   -0.15 7 57.6 147 
 SHIF BZ  P   1   235252.669                             123    0.44 7 63.2 165 
 SHIF BE  S   1   2353 3.006                             123    0.02 7 63.2 165 
 ABTL BZ  P   1   235253.356                             120    0.12 7 69.9 145 
 N17  BZ EP   1   235254.000                             118   -0.12 7 76.1 172 
 N17  BE  S   1   2353 5.869                             118   -0.53 7 76.1 172 
 N19  BZ  P   1   235253.872                             118   -0.26 7 76.3 168 
 N18  BZ EP   1   235254.000                             118   -0.29 7 77.2 171 
 N14  BZ EP   1   235255.000                             117    0.57 7 78.8 171 
 P1   BZ EP   1   235254.000                             117   -0.51 7 79.1 166 
 P1   BE  S   1   2353 7.616                             117    0.51 7 79.1 166 
 P2   BZ EP   1   235254.000                             117   -0.60 7 79.4 163 
 N10  BZ EP   1   235255.000                             116    0.05 7 81.9 170 
 N9   BZ EP   1   235255.000                             116    0.05 7 82.2 168 
 N6   BZ  P   1   235255.361                             115    0.13 6 83.8 169 
 N6   BE  S   1   2353 8.246                             115   -0.17 6 83.8 169 
 N4   BZ  P   1   235255.532                             115    0.05 6 85.7 170 
 N4   BN  S   1   2353 9.362                             115    0.49 6 85.7 170 
 N5   BZ EP   1   235256.000                             114    0.19 6 87.9 169 
 N5   BE  S   1   2353 9.305                             114   -0.17 6 87.9 169 
 N3   BZ EP   1   235256.000                             114    0.13 6 88.4 169 
 N3   BE  S   1   2353 9.964                             114    0.39 6 88.4 169 
 N2   BZ EP   1   235256.000                             114    0.06 6 88.7 168 
 N2   BE  S   1   2353 9.420                             114   -0.27 6 88.7 168 
 CAMP BZ EP   1   235256.000                             114    0.05 6 88.8 167 
 CAMP BE  S   1   2353 9.592                             114   -0.13 6 88.8 167 
 N1   BZ EP   1   235256.270                             114    0.05 6 90.4 168 
 N1   BE  S   1   235310.050                             114   -0.15 6 90.4 168 
 KHIA BZ EP   1   235257.000                             113    0.21 6 94.0 152 
 JNAK BZ  P   1   235257.480                             112    0.08 6 99.0 159 
 DLRM BZ  P   1   235259.312                             109   -0.07 6  112 161 
 KOLO BZ  P   1   235259.398                             109   -0.20 6  113 153 
                                                                                
