 2021  2 5 0351  7.3 L  28.634  51.128  6.2  SLT  6 0.2                 1.3L BI1
 GAP=179        0.49       1.6     1.7  1.9  0.5919E+00 -0.1465E+01  0.3695E+00E
 Action:ARG 21-12-02 15:38 OP:OBSP STATUS:               ID:20210205035107     I
 DUMMY                                                                         6
 STAT SP IPHASW D HRMM SECON CODA AMPLIT PERI AZIMU VELO AIN AR TRES W  DIS CAZ7
 DLRM BZ EP   1    351 9.240                             124   -0.07 7 6.03 305 
 DLRM BE ES   1    35111.040                             124    0.07 7 6.03 305 
 KOLO BZ EP   1    35110.880                              98   -0.10 7 14.4  50 
 KOLO BE ES   1    35114.090                              98    0.09 7 14.4  50 
 ABAS BZ  P   1    35112.341                              59    0.46 7 19.5 125 
 ABAS BE  S   1    35115.430                              59   -0.18 7 19.5 125 
 KHIA BZ EP   1    35112.990                              59   -0.18 7 26.7   8 
 KHIA BE ES   1    35118.210                              59    0.26 7 26.7   8 
 AHRM HZ  P   1    35113.380                              59   -0.34 7 30.3  33 
 N12  BZ  P   1    35115.266                              59   -0.02 7 39.9 320 
                                                                                
 2021  2 5 1448 34.7 L  29.353  51.302  7.7  SLT 13 0.1                 2.8L BI1
 GAP=313        0.26       1.8     2.8  3.3  0.9220E+00 -0.3445E+00 -0.3567E+01E
 Action:ARG 21-12-02 15:38 OP:OBSP STATUS:               ID:20210205144833     I
 DUMMY                                                                         6
 STAT SP IPHASW D HRMM SECON CODA AMPLIT PERI AZIMU VELO AIN AR TRES W  DIS CAZ7
 NOKA BZ EP   1   144841.310                              92    0.03 7 31.9 235 
 ABTL BZ EP   1   144841.620                              92    0.04 7 33.2 213 
 ABTL BE ES   1   144847.150                              92   -0.00 7 33.2 213 
 ABAD BZ EP   1   144842.210                              91    0.01 7 36.2 188 
 ABAD BE ES   1   144848.240                              91   -0.03 7 36.2 188 
 P9   BZ EP   1   144842.750                              91   -0.07 7 39.6 194 
 P9   BE ES   1   144849.420                              91    0.02 7 39.6 194 
 P4   BZ  P   1   144844.337                              68    0.00 7 49.3 210 
 KHIA BZ  P   1   144845.352                              68    0.07 7 54.8 194 
 P3   BZ  P   1   144845.267                              68    0.03 7 54.8 215 
 P2   BZ  P   1   144845.718                              68   -0.01 7 57.9 217 
 N19  BZ  P   1   144846.564                              68    0.21 7 61.9 223 
 N12  BZ  P   1   144846.592                              68   -0.18 7 65.1 221 
 N18  BZ  P   1   144846.705                              68   -0.22 7 65.2 225 
 N6   BZ  P   1   144847.297                              68    0.05 7 67.3 219 
 N7   BZ  P   1   144847.410                              68    0.05 7 68.2 220 
                                                                                
 2021  2 6 0300 15.6 L  29.438  51.298  0.0  SLT 10 0.2                 2.9L BI1
 GAP=323        0.37      12.7     8.5 14.4  0.9631E+02  0.1130E+03  0.1811E+03E
 Action:ARG 21-12-02 15:38 OP:OBSP STATUS:               ID:20210206030014     I
 DUMMY                                                                         6
 STAT SP IPHASW D HRMM SECON CODA AMPLIT PERI AZIMU VELO AIN AR TRES W  DIS CAZ7
 NOKA BZ EP   1    3 024.290                              43    0.00 7 37.9 223 
 NOKA BE ES   1    3 031.440                              43    0.08 7 37.9 223 
 ABTL BZ EP   1    3 024.890                              43   -0.07 7 41.3 205 
 ABTL BE ES   1    3 032.130                              43   -0.44 7 41.3 205 
 ABAD BZ  P   1    3 025.803                              43    0.01 7 45.5 186 
 P9   BZ EP   1    3 026.230                              43   -0.15 7 48.8 191 
 P9   BE ES   1    3 035.270                              43    0.12 7 48.8 191 
 TOLS BZ  P   1    3 027.241                              43    0.14 7 53.8 199 
 TOLS BE  S   1    3 036.717                              43    0.26 7 53.8 199 
 P4   BZ  P   1    3 027.710                              40   -0.06 7 57.5 205 
 KHIA BZ EP   1    3 028.800                              40   -0.06 7 63.9 192 
 P2   BZ  P   1    3 029.118                              40    0.05 7 65.5 212 
 N18  BZ  P   1    3 030.174                              40    0.04 7 72.0 219 
 N12  BZ  P   1    3 030.145                              40    0.10 7 72.2 216 
                                                                                
 2021  2 6 1713 43.8 L  28.757  51.313 14.3  SLT  4 0.1                 1.2L BI1
 GAP=194        0.29       1.4     2.1  2.6 -0.1289E+00 -0.1002E+01  0.5697E+00E
 Action:ARG 21-12-02 15:38 OP:OBSP STATUS:               ID:20210206171342     I
 DUMMY                                                                         6
 STAT SP IPHASW D HRMM SECON CODA AMPLIT PERI AZIMU VELO AIN AR TRES W  DIS CAZ7
 KOLO BZ EP   1   171347.230                             143    0.03 7 8.34 238 
 KOLO BE ES   1   171349.880                             143   -0.05 7 8.34 238 
 AHRM HZ EP   1   171347.600                             131    0.04 7 12.0 351 
 ABAS BZ EP   1   171349.440                             107   -0.02 7 25.1 185 
 ABAS BE ES   1   171354.050                             107    0.04 7 25.1 185 
 DLRM BZ EP   1   171349.320                             106   -0.11 7 25.2 246 
 DLRM BE ES   1   171354.040                             106    0.08 7 25.2 246 
                                                                                
 2021  2 7 1237 30.5 L  28.703  51.447 16.3  SLT  4 0.1                 1.7L BI1
 GAP=259        0.35       2.9     3.4  7.0 -0.1857E+01 -0.1200E+02  0.5512E+01E
 Action:ARG 21-12-02 15:38 OP:OBSP STATUS:               ID:20210207123728     I
 DUMMY                                                                         6
 STAT SP IPHASW D HRMM SECON CODA AMPLIT PERI AZIMU VELO AIN AR TRES W  DIS CAZ7
 KOLO BZ EP   1   123735.530                             119   -0.00 7 20.2 275 
 KOLO BE  S   1   123739.690                             119    0.07 7 20.2 275 
 AHRM HZ EP   1   123735.840                             115   -0.08 7 23.2 320 
 ABAS BZ EP   1   123736.060                             114   -0.06 7 24.4 219 
 DLRM BZ  P   1   123738.087                             104    0.18 7 36.4 263 
 DLRM BE  S   1   123743.793                             104   -0.12 7 36.4 263 
                                                                                
 2021  2 7 1755 40.6 L  29.205  51.251 28.9  SLT  6 0.1                 1.7L BI1
 GAP=269        0.30       4.0     6.3  4.3  0.2043E+02 -0.9973E+01 -0.9781E+01E
 Action:ARG 21-12-02 15:38 OP:OBSP STATUS:               ID:20210207175540     I
 DUMMY                                                                         6
 STAT SP IPHASW D HRMM SECON CODA AMPLIT PERI AZIMU VELO AIN AR TRES W  DIS CAZ7
 ABTL BZ EP   1   175546.600                             146   -0.08 7 17.3 229 
 NOKA BZ EP   1   175546.890                             140   -0.07 7 21.2 264 
 P9   BZ EP   1   175547.430                             138    0.12 7 22.5 191 
 P9   BE ES   1   175552.790                             138    0.05 7 22.5 191 
 TOLS BZ  P   1   175547.907                             132    0.11 7 28.2 207 
 AHRM HZ  P   1   175549.087                             123   -0.02 7 38.0 173 
 AHRM HE  S   1   175555.897                             123   -0.10 7 38.0 173 
 P3   BZ  P   1   175549.225                             122   -0.02 7 39.0 223 
                                                                                
 2021  2 8 0202 32.4 L  28.963  51.129 11.7  SLT 18 0.2                 1.3L BI1
 GAP= 87        0.35       0.9     0.7  1.2 -0.2175E+00  0.2931E+00  0.1480E+00E
 Action:ARG 21-12-02 15:38 OP:OBSP STATUS:               ID:20210208020232     I
 DUMMY                                                                         6
 STAT SP IPHASW D HRMM SECON CODA AMPLIT PERI AZIMU VELO AIN AR TRES W  DIS CAZ7
 TOLS BZ EP   1    2 234.790                             167   -0.09 7 2.17 327 
 TOLS BE ES   1    2 236.850                             167   -0.02 7 2.17 327 
 P5   BZ EP   1    2 234.930                             153   -0.08 7 4.50 294 
 P5   BE ES   1    2 237.010                             153   -0.09 7 4.50 294 
 P4   BZ EP   1    2 235.240                             136   -0.12 7 7.83 274 
 P4   BE ES   1    2 237.620                             136   -0.12 7 7.83 274 
 P9   BZ EP   1    2 235.660                             132    0.07 7 8.83  58 
 P9   BE  S   1    2 238.281                             132    0.12 7 8.83  58 
 KHIA BZ EP   1    2 235.770                             125    0.01 7 10.6 160 
 KHIA BE ES   1    2 238.590                             125    0.12 7 10.6 160 
 ABAD BZ  P   1    2 236.314                             113    0.05 7 14.0  58 
 ABAD BE ES   1    2 239.420                             113    0.04 7 14.0  58 
 P3   BZ  P   1    2 236.219                             110   -0.13 7 15.0 264 
 P3   BE  S   1    2 239.714                             110    0.19 7 15.0 264 
 ABTL BZ EP   1    2 236.430                             109    0.04 7 15.4 356 
 ABTL BE ES   1    2 239.700                             109    0.10 7 15.4 356 
 P2   BZ  P   1    2 236.683                             102   -0.17 7 18.2 260 
 P2   BN  S   1    2 240.547                             102    0.11 7 18.2 260 
 AHRM HZ EP   1    2 237.050                             100    0.01 7 19.5 124 
 NOKA BZ  P   1    2 238.294                              94    0.24 7 26.4 339 
 N12  BZ EP   1    2 237.880                              94   -0.18 7 26.5 257 
 N12  BE ES   1    2 242.870                              94    0.24 7 26.5 257 
 N6   BZ  P   1    2 238.076                              94   -0.15 7 26.9 250 
 N6   BN  S   1    2 243.046                              94    0.11 7 26.9 250 
 N15  BZ  P   1    2 238.103                              94   -0.15 7 27.1 259 
 N15  BN  S   1    2 243.142                              94    0.16 7 27.1 259 
 N18  BZ EP   1    2 238.360                              93   -0.25 7 29.2 264 
 N18  BE ES   1    2 243.360                              93   -0.27 7 29.2 264 
 N4   BZ  P   1    2 238.526                              93   -0.06 7 29.2 247 
 N4   BN  S   1    2 244.043                              93    0.46 7 29.2 247 
 N17  BZ  P   1    2 238.636                              93   -0.11 7 30.1 266 
 N17  BE  S   1    2 243.920                              93    0.05 7 30.1 266 
 N11  BZ EP   1    2 238.510                              93   -0.23 7 30.2 257 
 N11  BE  S   1    2 243.975                              93    0.11 7 30.2 257 
                                                                                
 2021  2 8 0229 58.2 L  28.956  51.125 10.8  SLT 11 0.2                 1.2L BI1
 GAP=100        0.44       1.2     1.3  1.5 -0.3228E+00  0.5600E+00 -0.4651E-01E
 Action:ARG 21-12-02 15:38 OP:OBSP STATUS:               ID:20210208022958     I
 DUMMY                                                                         6
 STAT SP IPHASW D HRMM SECON CODA AMPLIT PERI AZIMU VELO AIN AR TRES W  DIS CAZ7
 TOLS BZ EP   1    230 0.500                             163   -0.07 7 2.64 342 
 TOLS BE ES   1    230 2.540                             163    0.09 7 2.64 342 
 P5   BZ  P   1    230 0.607                             152   -0.08 7 4.49 304 
 P4   BZ  P   1    230 0.968                             137   -0.06 7 7.52 279 
 P4   BE ES   1    230 3.400                             137    0.11 7 7.52 279 
 P9   BZ EP   1    230 1.380                             129   -0.02 7 9.55  56 
 P9   BE ES   1    230 3.920                             129   -0.04 7 9.55  56 
 KHIA BZ  P   1    230 1.263                             127   -0.16 7 10.0 157 
 KHIA BE  S   1    230 4.330                             127    0.33 7 10.0 157 
 ABAD BZ  P   1    230 2.053                             115   -0.08 7 14.7  57 
 ABAD BN  S   1    230 5.200                             115   -0.09 7 14.7  57 
 ABTL BZ EP   1    230 2.180                             112   -0.08 7 16.0 357 
 ABTL BE ES   1    230 5.470                             112   -0.06 7 16.0 357 
 P2   BZ  P   1    230 2.455                             109   -0.10 7 17.7 262 
 N12  BZ  P   1    230 3.580                              68   -0.22 7 26.0 258 
 N6   BZ  P   1    230 3.848                              68   -0.10 7 26.3 251 
 NOKA BZ  P   1    230 4.597                              68    0.63 7 27.0 341 
                                                                                
 2021  2 8 0301 32.5 L  28.964  51.131 13.1  SLT 22 0.2                 1.6L BI1
 GAP= 79        0.38       1.0     0.9  2.0 -0.2980E+00  0.9532E+00  0.8059E-01E
 Action:ARG 21-12-02 15:38 OP:OBSP STATUS:               ID:20210208030132     I
 DUMMY                                                                         6
 STAT SP IPHASW D HRMM SECON CODA AMPLIT PERI AZIMU VELO AIN AR TRES W  DIS CAZ7
 TOLS BZ EP   1    3 135.020                             168   -0.16 7 2.15 319 
 P5   BZ EP   1    3 135.120                             156   -0.18 7 4.63 291 
 P4   BZ EP   1    3 135.460                             140   -0.17 7 8.04 272 
 P9   BZ EP   1    3 135.840                             138    0.04 7 8.56  58 
 P9   BE ES   1    3 138.450                             138   -0.02 7 8.56  58 
 KHIA BZ EP   1    3 136.080                             131    0.08 7 10.7 162 
 KHIA BE ES   1    3 138.820                             131   -0.01 7 10.7 162 
 ABAD BZ EP   1    3 136.480                             121    0.06 7 13.7  58 
 ABAD BE ES   1    3 139.640                             121    0.06 7 13.7  58 
 P3   BZ  P   1    3 136.540                             117   -0.01 7 15.2 264 
 ABTL BZ EP   1    3 136.630                             117    0.09 7 15.2 355 
 P3   BE  S   1    3 139.866                             117    0.04 7 15.2 264 
 ABTL BE ES   1    3 139.950                             117    0.14 7 15.2 355 
 P2   BZ EP   1    3 136.960                             111   -0.08 7 18.4 260 
 P2   BE ES   1    3 140.780                             111    0.08 7 18.4 260 
 AHRM HZ EP   1    3 137.220                             109    0.04 7 19.4 125 
 N9   BZ  P   1    3 138.648                             101    0.55 7 25.6 253 
 N19  BZ  P   1    3 138.059                             101   -0.12 7 25.9 266 
 N19  BE  S   1    3 142.863                             101    0.09 7 25.9 266 
 NOKA BZ  P   1    3 138.319                             101    0.16 7 26.3 339 
 N12  BZ EP   1    3 138.040                             100   -0.18 7 26.8 257 
 N12  BE ES   1    3 143.050                             100    0.21 7 26.8 257 
 N15  BZ  P   1    3 138.100                             100   -0.31 7 27.3 259 
 N15  BE  S   1    3 143.000                             100   -0.19 7 27.3 259 
 N5   BZ  P   1    3 138.333                             100   -0.10 7 27.5 241 
 N5   BE  S   1    3 143.438                             100    0.20 7 27.5 241 
 N20  BE  S   1    3 143.451                              99   -0.15 7 28.8 270 
 N7   BZ  P   1    3 138.648                              99    0.02 7 28.8 252 
 N20  BZ  P   1    3 138.648                              99    0.01 7 28.8 270 
 N7   BE  S   1    3 143.711                              99    0.13 7 28.8 252 
 N18  BZ  P   1    3 138.648                              99   -0.11 7 29.4 263 
 N18  BE  S   1    3 143.766                              99   -0.06 7 29.4 263 
 N4   BZ  P   1    3 138.593                              99   -0.15 7 29.5 247 
 N4   BE ES   1    3 144.180                              99    0.40 7 29.5 247 
 N17  BZ  P   1    3 138.908                              98    0.01 7 30.4 265 
 N11  BZ  P   1    3 138.552                              98   -0.34 7 30.4 257 
 N11  BE  S   1    3 143.985                              98   -0.07 7 30.4 257 
                                                                                
