 2021  216 0017 52.7 L  29.000  51.257 10.5  SLT 22 0.1                 1.9L BI1
 GAP=176        0.26       0.6     0.8  0.6  0.6573E-01  0.2250E+00  0.1051E+00E
 Action:ARG 21-12-02 15:38 OP:OBSP STATUS:               ID:20210216001752     I
 DUMMY                                                                         6
 STAT SP IPHASW D HRMM SECON CODA AMPLIT PERI AZIMU VELO AIN AR TRES W  DIS CAZ7
 ABAD BZ EP   1    01755.220                             159    0.09 7 3.26 350 
 ABAD BE ES   1    01756.920                             159   -0.19 7 3.26 350 
 P9   BZ EP   1    01755.250                             149   -0.04 7 4.96 276 
 P9   BE ES   1    01757.180                             149   -0.21 7 4.96 276 
 TOLS BZ EP   1    01756.420                             115    0.12 7 13.8 260 
 TOLS BE ES   1    01759.440                             115    0.21 7 13.8 260 
 AHRM HZ EP   1    01756.600                             112   -0.02 7 15.5 166 
 KHIA BZ EP   1    01757.020                             110    0.16 7 16.6 212 
 KHIA BE ES   1    018 0.300                             110    0.06 7 16.6 212 
 ABTL BZ EP   1    01757.030                             108    0.08 7 17.6 310 
 ABTL BE ES   1    018 0.500                             108    0.09 7 17.6 310 
 P4   BZ EP   1    01757.460                             105    0.02 7 20.5 260 
 P4   BE ES   1    018 1.350                             105    0.05 7 20.5 260 
 P3   BZ  P   1    01758.701                              68    0.01 7 27.9 258 
 P3   BE  S   1    018 3.648                              68    0.10 7 27.9 258 
 JNAK BZ EP   1    01758.900                              68    0.01 7 29.6 217 
 JNAK BE ES   1    018 3.960                              68    0.04 7 29.6 217 
 NOKA BZ EP   1    01758.940                              68    0.03 7 29.9 314 
 NOKA BE ES   1    018 4.030                              68    0.08 7 29.9 314 
 P2   BZ  P   1    01759.173                              68   -0.05 7 31.2 257 
 P2   BN  S   1    018 4.565                              68    0.04 7 31.2 257 
 KOLO BZ EP   1    01759.450                              68    0.15 7 31.4 183 
 SHIF BZ EP   1    018 0.400                              68    0.17 7 38.0 282 
 SHIF BE ES   1    018 6.430                              68    0.09 7 38.0 282 
 CAMP BZ  P   1    018 0.257                              68   -0.12 7 38.4 242 
 N2   BZ  P   1    018 0.591                              68   -0.01 7 39.8 243 
 N1   BZ  P   1    018 0.563                              68   -0.11 7 40.1 241 
 N1   BN  S   1    018 7.178                              68    0.05 7 40.1 241 
 N5   BZ  P   1    018 0.535                              68   -0.12 7 40.2 244 
 N5   BN  S   1    018 7.206                              68    0.09 7 40.2 244 
 N10  BZ  P   1    018 0.785                              68   -0.05 7 41.2 253 
 N10  BN  S   1    018 7.234                              68   -0.19 7 41.2 253 
 N3   BZ  P   1    018 0.841                              68    0.01 7 41.4 244 
 N3   BN  S   1    018 7.428                              68   -0.01 7 41.4 244 
 N14  BZ  P   1    018 0.952                              68    0.06 7 42.0 258 
 N14  BN  S   1    018 7.456                              68   -0.07 7 42.0 258 
 N17  BZ  P   1    018 1.035                              68   -0.08 7 42.9 261 
 N17  BE  S   1    018 7.762                              68   -0.17 7 42.9 261 
 N13  BZ  P   1    018 1.091                              68   -0.22 7 43.9 257 
 N13  BN  S   1    018 8.151                              68   -0.15 7 43.9 257 
                                                                                
 2021  216 0107 51.0 L  29.001  51.261 10.3  SLT 13 0.1                 1.3L BI1
 GAP=184        0.30       1.0     1.1  1.0  0.1693E+00  0.2509E-01  0.5394E+00E
 Action:ARG 21-12-02 15:38 OP:OBSP STATUS:               ID:20210216010751     I
 DUMMY                                                                         6
 STAT SP IPHASW D HRMM SECON CODA AMPLIT PERI AZIMU VELO AIN AR TRES W  DIS CAZ7
 ABAD BZ EP   1    1 753.590                             159    0.15 7 3.24 343 
 ABAD BE ES   1    1 755.310                             159   -0.08 7 3.24 343 
 P9   BZ EP   1    1 753.540                             146   -0.10 7 5.34 275 
 P9   BE ES   1    1 755.520                             146   -0.22 7 5.34 275 
 TOLS BZ EP   1    1 754.790                             113    0.09 7 14.2 260 
 TOLS BE ES   1    1 757.800                             113    0.14 7 14.2 260 
 AHRM HZ EP   1    1 754.940                             111   -0.02 7 15.5 168 
 KHIA BZ  P   1    1 755.399                             108    0.16 7 16.9 213 
 KHIA BE  S   1    1 758.669                             108    0.02 7 16.9 213 
 P5   BZ  P   1    1 755.234                             108    0.07 7 17.1 262 
 P5   BE  S   1    1 758.641                             108    0.13 7 17.1 262 
 ABTL BZ EP   1    1 755.360                             107    0.03 7 17.8 308 
 ABTL BE ES   1    1 758.830                             107    0.03 7 17.8 308 
 P4   BZ  P   1    1 755.783                             104   -0.07 7 21.0 260 
 P4   BE ES   1    1 759.720                             104   -0.03 7 21.0 260 
 JNAK BZ EP   1    1 757.180                              68   -0.13 7 29.9 218 
 JNAK BE ES   1    1 8 2.270                              68   -0.12 7 29.9 218 
 KOLO BZ  P   1    1 757.515                              68   -0.16 7 31.5 183 
 N18  BZ  P   1    1 759.356                              68   -0.06 7 42.4 260 
 N4   BZ  P   1    1 759.301                              68   -0.11 7 42.7 248 
 ABAS BZ  P   1    1 8 1.252                              68    0.28 7 52.0 177 
                                                                                
 2021  216 1025 25.4 L  28.978  51.347  5.5  SLT  7 0.1                 2.0L BI1
 GAP=290        0.32       1.3     1.9  1.7  0.6439E+00  0.3807E+00  0.1216E+01E
 Action:ARG 21-12-02 15:38 OP:OBSP STATUS:               ID:20210216102524     I
 DUMMY                                                                         6
 STAT SP IPHASW D HRMM SECON CODA AMPLIT PERI AZIMU VELO AIN AR TRES W  DIS CAZ7
 ABAD BZ  P   1   102528.433                              97    0.03 7 10.9 301 
 ABAD BN  S   1   102530.802                              97   -0.07 7 10.9 301 
 P9   BZ  P   1   102529.150                              94    0.09 7 14.1 282 
 P9   BN  S   1   102532.097                              94    0.04 7 14.1 282 
 KHIA BZ EP   1   102530.510                              59    0.16 7 21.1 237 
 KHIA BE ES   1   102534.460                              59    0.07 7 21.1 237 
 ABTL BZ EP   1   102531.290                              59    0.12 7 26.2 301 
 ABTL BE ES   1   102535.940                              59    0.06 7 26.2 301 
 P4   BZ  P   1   102531.436                              59   -0.23 7 29.1 268 
 P4   BN  S   1   102536.779                              59    0.01 7 29.1 268 
 JNAK BZ EP   1   102532.500                              59    0.03 7 34.1 232 
 JNAK BE ES   1   102538.200                              59   -0.04 7 34.1 232 
 P3   BZ  P   1   102532.675                              59   -0.26 7 36.3 265 
                                                                                
 2021  216 2045 31.4 L  28.700  51.204 10.5  SLT  9 0.3                 1.1L BI1
 GAP= 97        0.67       2.6     2.5  2.8 -0.4269E+00  0.1389E+01 -0.2163E+01E
 Action:ARG 21-12-02 15:38 OP:OBSP STATUS:               ID:20210216204531     I
 DUMMY                                                                         6
 STAT SP IPHASW D HRMM SECON CODA AMPLIT PERI AZIMU VELO AIN AR TRES W  DIS CAZ7
 KOLO BZ EP   1   204533.800                             154   -0.10 7 4.03  63 
 KOLO BE ES   1   204535.440                             154   -0.46 7 4.03  63 
 DLRM BZ EP   1   204534.950                             117    0.00 7 13.0 253 
 DLRM BE ES   1   204537.630                             117   -0.16 7 13.0 253 
 JNAK BZ EP   1   204535.690                             111    0.31 7 16.0 307 
 JNAK BE ES   1   204538.860                             111    0.28 7 16.0 307 
 KHIA BZ EP   1   204536.530                             106    0.45 7 19.5 349 
 AHRM HZ EP   1   204536.410                             105    0.28 7 20.2  26 
 ABAS BZ EP   1   204536.590                             105    0.39 7 20.4 156 
 TOLS BZ  P   1   204537.756                              68   -0.29 7 32.0 345 
 P5   BZ  P   1   204537.973                              68   -0.22 7 32.9 340 
 N6   BZ  P   1   204538.568                              68   -0.50 7 38.0 301 
                                                                                
 2021  216 2224 49.8 L  28.922  51.280 14.9  SLT  7 0.2                 0.9L BI1
 GAP=203        0.42       1.5     2.7  4.3 -0.5576E-02 -0.2688E+00  0.4007E+01E
 Action:ARG 21-12-02 15:38 OP:OBSP STATUS:               ID:20210216222449     I
 DUMMY                                                                         6
 STAT SP IPHASW D HRMM SECON CODA AMPLIT PERI AZIMU VELO AIN AR TRES W  DIS CAZ7
 P9   BZ EP   1   222453.800                             134    0.17 7 11.7 322 
 P9   BE ES   1   222456.710                             134   -0.05 7 11.7 322 
 ABAD BZ  P   1   222453.743                             132    0.08 7 12.2 347 
 ABAD BN  S   1   222456.721                             132   -0.10 7 12.2 347 
 KHIA BZ  P   1   222453.655                             132   -0.00 7 12.4 244 
 TOLS BZ  P   1   222453.716                             121   -0.46 7 17.1 292 
 TOLS BE  S   1   222458.020                             121    0.28 7 17.1 292 
 KOLO BZ EP   1   222455.290                             111    0.17 7 23.0 190 
 KOLO BE ES   1   222459.370                             111   -0.09 7 23.0 190 
 P4   BZ  P   1   222455.043                             111   -0.03 7 23.1 283 
 JNAK BZ EP   1   222455.410                             109    0.09 7 25.1 234 
 JNAK BE ES   1   222459.760                             109   -0.07 7 25.1 234 
                                                                                
 2021  217 0056 46.5 L  29.109  51.221 26.8  SLT  6 0.2                 1.2L BI1
 GAP=252        0.40       4.7     5.9  3.6  0.1879E+02  0.8879E+00  0.6536E+01E
 Action:ARG 21-12-02 15:38 OP:OBSP STATUS:               ID:20210217005646     I
 DUMMY                                                                         6
 STAT SP IPHASW D HRMM SECON CODA AMPLIT PERI AZIMU VELO AIN AR TRES W  DIS CAZ7
 ABTL BZ EP   1    05651.490                             157   -0.27 7 10.2 265 
 ABTL BE ES   1    05655.850                             157   -0.13 7 10.2 265 
 P9   BZ EP   1    05652.030                             154    0.06 7 11.6 187 
 NOKA BZ  P   1    05652.556                             139    0.03 7 20.1 295 
 NOKA BE  S   1    05657.595                             139    0.23 7 20.1 295 
 KHIA BZ  P   1    05653.645                             131    0.21 7 26.7 192 
 P2   BZ  P   1    05654.135                             124   -0.07 7 33.1 234 
 SHIF BZ  P   1    05654.163                             123   -0.08 7 34.1 263 
                                                                                
 2021  217 1835 35.4 L  30.504  51.265137.4  SLT 36 0.5                 5.9L BI1
 GAP=345        0.49      17.9    20.8 20.6 -0.1495E+03  0.7586E+02 -0.3494E+03E
 Action:ARG 21-12-02 15:38 OP:OBSP STATUS:               ID:20210217183531     I
 DUMMY                                                                         6
 STAT SP IPHASW D HRMM SECON CODA AMPLIT PERI AZIMU VELO AIN AR TRES W  DIS CAZ7
 NOKA BZ EP   1   1836 8.310                             132   -0.27 5  148 189 
 NOKA BE ES   1   183635.180                             132   -0.28 5  148 189 
 ABTL BZ EP   1   1836 9.330                             131   -0.35 4  156 185 
 ABTL BE ES   1   183636.870                             131   -0.59 4  156 185 
 SHIF BZ EP   1   183610.790                             129    0.28 4  163 193 
 ABAD BZ EP   1   183610.540                             129   -0.14 4  163 180 
 SHIF BE ES   1   183638.880                             129   -0.07 4  163 193 
 P5   BZ  P   1   183612.100                             128    0.74 4  170 186 
 P5   BE  S   1   183641.486                             128    1.00 4  170 186 
 TOLS BZ  P   1   183612.100                             128    0.77 4  170 185 
 P4   BZ  P   1   183612.503                             128    0.89 4  172 187 
 N20  BZ  P   1   183611.564                             127   -0.54 4  175 194 
 N20  BE  S   1   183642.291                             127    0.45 4  175 194 
 P3   BZ  P   1   183612.637                             127    0.63 4  175 189 
 P3   BE  S   1   183642.425                             127    0.76 4  175 189 
 P2   BZ  P   1   183613.039                             127    0.76 4  177 190 
 N19  BZ  P   1   183612.771                             127    0.48 4  177 193 
 P2   BE  S   1   183641.888                             127   -0.26 4  177 190 
 N19  BE  S   1   183641.754                             127   -0.43 4  177 193 
 P1   BZ EP   1   183612.510                             127    0.12 4  178 191 
 P1   BE  S   1   183643.230                             127    0.87 4  178 191 
 N17  BZ  P   1   183612.771                             127    0.27 4  178 194 
 N17  BE  S   1   183642.827                             127    0.26 4  178 194 
 N18  BE  S   1   183642.425                             127   -0.32 4  179 194 
 N16  BZ  P   1   183613.039                             127    0.49 4  179 192 
 N16  BE  S   1   183642.962                             127    0.32 4  179 192 
 N18  BZ  P   1   183612.234                             127   -0.37 4  179 194 
 N15  BZ  P   1   183613.039                             126    0.31 4  180 193 
 N15  BE  S   1   183642.156                             126   -0.82 4  180 193 
 N12  BZ  P   1   183613.039                             126    0.32 4  181 192 
 N12  BE  S   1   183643.096                             126    0.14 4  181 192 
 KHIA BZ EP   1   183612.590                             126   -0.30 4  181 183 
 N14  BZ  P   1   183612.637                             126   -0.07 4  181 193 
 N14  BE  S   1   183642.693                             126   -0.23 4  181 193 
 AHRM HZ EP   1   183612.110                             126   -0.82 4  182 179 
 N9   BZ  P   1   183612.905                             126   -0.04 4  182 192 
 N11  BE  S   1   183642.962                             126   -0.50 4  182 194 
 N13  BZ  P   1   183612.369                             126   -0.67 4  182 194 
 N13  BE  S   1   183643.096                             126   -0.44 4  182 194 
 N11  BZ  P   1   183613.039                             126    0.04 4  182 194 
 N10  BZ  P   1   183613.039                             126   -0.05 4  183 193 
 N7   BZ  P   1   183613.039                             126   -0.19 3  184 193 
 N6   BZ  P   1   183613.174                             126   -0.08 3  184 192 
 N4   BZ  P   1   183613.442                             125   -0.12 3  187 192 
 N4   BE  S   1   183644.974                             125    0.50 3  187 192 
 CAMP BZ  P   1   183613.576                             125   -0.13 3  188 191 
 N2   BZ  P   1   183613.576                             125   -0.20 3  188 191 
 N2   BE  S   1   183644.437                             125   -0.42 3  188 191 
 N5   BZ  P   1   183613.174                             125   -0.53 3  188 191 
 N5   BE  S   1   183645.108                             125    0.37 3  188 191 
 CAMP BE  S   1   183644.572                             125   -0.18 3  188 191 
 N3   BZ  P   1   183613.710                             125   -0.09 3  189 192 
 N1   BZ  P   1   183613.174                             125   -0.83 3  190 191 
 JNAK BZ  P   1   183613.308                             125   -0.79 3  191 186 
 KOLO BZ  P   1   183615.052                             124   -0.08 3  198 181 
 DLRM BZ EP   1   183616.150                             123    0.21 3  205 185 
 ABAS BZ  P   1   183617.333                             121   -0.57 2  219 179 
                                                                                
 2021  217 2219 20.6 L  29.266  51.340  7.0  SLT  9 0.1                 2.5L BI1
 GAP=296        0.33       3.2     3.0  6.3  0.7308E+01  0.1488E+02  0.1792E+02E
 Action:ARG 21-12-02 15:38 OP:OBSP STATUS:               ID:20210217221919     I
 DUMMY                                                                         6
 STAT SP IPHASW D HRMM SECON CODA AMPLIT PERI AZIMU VELO AIN AR TRES W  DIS CAZ7
 ABAD BZ EP   1   221926.520                              59   -0.05 7 27.7 198 
 ABAD BE ES   1   221931.390                              59   -0.05 7 27.7 198 
 ABTL BZ EP   1   221926.580                              59   -0.02 7 28.4 230 
 ABTL BE ES   1   221931.400                              59   -0.10 7 28.4 230 
 NOKA BZ EP   1   221926.920                              59   -0.06 7 31.0 253 
 NOKA BE ES   1   221932.170                              59   -0.00 7 31.0 253 
 P9   BZ EP   1   221927.310                              59    0.00 7 31.8 204 
 P9   BE ES   1   221932.640                              59   -0.13 7 31.8 204 
 TOLS BZ EP   1   221928.720                              59    0.39 7 38.5 214 
 TOLS BE ES   1   221934.890                              59    0.26 7 38.5 214 
 KHIA BZ EP   1   221929.780                              59   -0.09 7 46.8 201 
 KHIA BE ES   1   221937.280                              59   -0.13 7 46.8 201 
 JNAK BZ  P   1   221931.678                              53   -0.08 7 59.1 206 
 KOLO BZ  P   1   221932.241                              53   -0.04 7 61.6 189 
 KOLO BE  S   1   221941.893                              53    0.12 7 61.6 189 
 N18  BZ  P   1   221932.241                              53   -0.02 7 61.7 233 
                                                                                
