 2021  418 2356 55.8 L  29.647  50.725 58.2  SLT 29 0.3                 3.3L BI1
 GAP=333        0.57       7.3     5.9 11.5  0.6557E+01  0.3076E+01 -0.7609E+02E
 Action:ARG 21-06-12 18:26 OP:OBSP STATUS:               ID:20210418235655     I
 DUMMY                                                                         6
 STAT SP IPHASW D HRMM SECON CODA AMPLIT PERI AZIMU VELO AIN AR TRES W  DIS CAZ7
 SHIF BZ  P   1   235710.435                             129   -0.19 7 65.7 167 
 N20  BZ  P   1   235711.611                             125   -0.45 7 76.2 172 
 N17  BZ  P   1   235712.678                             124    0.27 7 78.8 173 
 N19  BZ  P   1   235713.033                             124    0.62 7 78.9 170 
 N18  BZ  P   1   235712.541                             124   -0.03 7 79.8 173 
 P3   BZ  P   1   235712.705                             123   -0.02 7 81.1 162 
 P3   BE  S   1   235726.243                             123   -0.17 7 81.1 162 
 N14  BZ  P   1   235712.541                             123   -0.16 7 81.4 172 
 P1   BZ  P   1   235712.815                             123    0.07 7 81.6 167 
 P1   BN  S   1   235726.462                             123    0.01 7 81.6 167 
 P4   BZ EP   1   235713.000                             123    0.21 7 81.7 157 
 P4   BE  S   1   235726.872                             123    0.34 7 81.7 157 
 P2   BZ  P   1   235712.842                             123    0.03 7 81.7 165 
 N15  BZ EP   1   235713.000                             123    0.18 7 81.9 171 
 N15  BE  S   1   235726.954                             123    0.36 7 81.9 171 
 N13  BZ  P   1   235713.033                             123    0.07 7 82.5 174 
 N11  BZ  P   1   235713.198                             123    0.23 7 83.0 173 
 N10  BZ EP   1   235713.000                             122   -0.18 6 84.5 172 
 N9   BZ EP   1   235713.000                             122   -0.17 6 84.7 170 
 N9   BE  S   1   235726.626                             122   -0.60 6 84.7 170 
 P9   BZ  P   1   235713.143                             122   -0.23 6 85.1 147 
 P9   BN  S   1   235727.857                             122    0.27 6 85.1 147 
 N6   BZ EP   1   235712.840                             122   -0.61 6 86.4 171 
 N6   BE  S   1   235728.076                             122    0.35 6 86.4 171 
 N4   BZ  P   1   235713.827                             121    0.14 6 88.3 172 
 N5   BZ  P   1   235714.100                             121    0.11 6 90.4 170 
 N5   BE  S   1   235728.021                             121   -0.69 6 90.4 170 
 N3   BZ EP   1   235714.020                             120   -0.03 6 90.9 171 
 N3   BE  S   1   235729.334                             120    0.52 6 90.9 171 
 N2   BZ  P   1   235714.182                             120    0.08 6 91.2 170 
 N2   BE  S   1   235729.443                             120    0.52 6 91.2 170 
 CAMP BZ  P   1   235714.100                             120   -0.02 6 91.3 169 
 CAMP BE  S   1   235728.240                             120   -0.70 6 91.3 169 
 N1   BZ  P   1   235714.127                             120   -0.25 6 93.0 170 
 KHIA BZ  P   1   235715.112                             119    0.29 6 95.9 153 
 JNAK BZ  P   1   235715.495                             118    0.06 6  101 160 
 AHRM HZ  P   1   235715.604                             117   -0.16 6  103 147 
 AHRM HE  S   1   235731.358                             117   -0.56 6  103 147 
 DLRM BZ  P   1   235717.327                             115   -0.03 6  114 162 
 DLRM BE  S   1   235734.968                             115    0.17 6  114 162 
 KOLO BZ  P   1   235717.656                             115    0.15 6  115 154 
 KOLO BE  S   1   235735.214                             115    0.14 6  115 154 
 ABAS BZ  P   1   235720.691                             111    0.13 5  135 156 
                                                                                
 2021  5 1 1914 22.8 L  29.767  50.580 15.0  SLT 26 0.5                 2.9L BI1
 GAP=335        0.84     123.2    65.2110.7 -0.7981E+04 -0.7183E+04  0.1362E+05E
 Action:ARG 21-12-02 15:38 OP:OBSP STATUS:               ID:20210501191420     I
 DUMMY                                                                         6
 STAT SP IPHASW D HRMM SECON CODA AMPLIT PERI AZIMU VELO AIN AR TRES W  DIS CAZ7
 NOKA BZ  P   1   191437.029                              94    0.21 7 78.0 146 
 NOKA BN  S       191447.853                              94   -0.2910 78.0 146 
 ABTL BZ  P   1   191439.120                              93    0.22 7 90.4 145 
 ABTL BN  S   1   191451.863                              93   -0.03 7 90.4 145 
 N20  BZ  P   1   191439.169                              93   -0.02 7 92.2 164 
 N20  BN  S   1   191452.011                              93   -0.42 7 92.2 164 
 N17  BZ  P   1   191440.497                              93    0.93 7 94.5 166 
 N17  BN  S   1   191452.675                              93   -0.44 7 94.5 166 
 N18  BZ  P   1   191439.267                              93   -0.51 7 95.6 165 
 N18  BN  S   1   191452.970                              93   -0.52 7 95.6 165 
 N15  BZ  P   1   191440.030                              93   -0.09 7 98.0 164 
 P3   BZ  P       191439.120                              93   -1.10 9 98.5 157 
 N11  BZ EP   1   191440.010                              93   -0.23 7 98.7 166 
 N11  BE ES   1   191453.630                              93   -0.69 7 98.7 166 
 P4   BZ  P   1   191440.473                              93    0.07 7 99.7 153 
 P4   BE  S   1   191455.406                              93    0.79 7 99.7 153 
 N9   BZ  P   1   191441.235                              93    0.66 7  101 163 
 N9   BN  S   1   191454.766                              93   -0.17 7  101 163 
 N7   BZ EP   1   191440.870                              93    0.18 7  102 165 
 N7   BE ES   1   191454.670                              93   -0.47 7  102 165 
 TOLS BZ EP   1   191440.660                              93   -0.03 7  102 149 
 TOLS BE ES   1   191455.880                              93    0.73 7  102 149 
 N6   BZ EP   1   191441.080                              93    0.21 7  103 164 
 N6   BE ES   1   191456.410                              93    0.94 7  103 164 
 P9   BZ  P   1   191441.014                              93   -0.21 7  104 144 
 N4   BZ EP   1   191441.440                              93    0.32 7  104 165 
 P9   BN  S   1   191456.119                              93    0.02 7  104 144 
 N4   BE ES       191457.020                              93    1.10 9  104 165 
 ABAD BZ  P   1   191441.408                              93    0.13 7  105 141 
 N3   BE ES   1   191456.340                              93   -0.39 7  107 164 
 N2   BZ EP   1   191441.550                              93   -0.11 7  107 163 
 N5   BE ES   1   191456.420                              93   -0.22 7  107 164 
 N2   BE ES   1   191456.760                              93   -0.13 7  107 163 
 N5   BZ EP   1   191441.590                              93    0.07 7  107 164 
 N3   BZ EP   1   191441.550                              93   -0.02 7  107 164 
 CAMP BZ EP   1   191441.690                              93   -0.00 6  108 163 
 CAMP BE ES   1   191456.720                              93   -0.24 6  108 163 
 N1   BZ EP   1   191441.920                              92   -0.05 6  109 163 
 N1   BE ES   1   191458.150                              92    0.69 6  109 163 
 KHIA BZ EP   1   191443.440                              92    0.62 6  114 150 
 KHIA BE ES   1   191458.950                              92   -0.05 6  114 150 
 JNAK BZ EP   1   191444.210                              92    0.80 6  119 156 
 JNAK BE ES   1   1915 0.440                              92    0.38 6  119 156 
 DLRM BZ EP   1   191445.010                              92   -0.48 6  131 158 
 DLRM BE ES   1   1915 3.470                              92   -0.35 6  131 158 
 KOLO BZ EP   1   191445.200                              92   -0.62 6  133 151 
 KOLO BE ES   1   1915 3.960                              92   -0.46 6  133 151 
 ABAS BZ  P   1   191448.594                              92   -0.49 5  153 153 
 ABAS BE  S   1   1915 9.801                              92   -0.53 5  153 153 
                                                                                
 2021  5 1 2128 10.6 L  29.624  50.841 51.4  SLT 35 1.3                 4.0L BI1
 GAP=327        2.82      16.0    19.9 24.0 -0.1147E+03  0.2048E+03 -0.3221E+03E
 Action:ARG 21-12-02 15:38 OP:OBSP STATUS:               ID:20210501212805     I
 DUMMY                                                                         6
 STAT SP IPHASW D HRMM SECON CODA AMPLIT PERI AZIMU VELO AIN AR TRES W  DIS CAZ7
 NOKA BZ  P       212823.428                             132    0.4210 52.0 159 
 NOKA BE  S       212831.929                             132   -1.1410 52.0 159 
 SHIF BZ  P       212826.262                             127    2.0710 61.6 177 
 SHIF BE  S       212833.883                             127   -1.3410 61.6 177 
 ABTL BZ  P   1   212824.210                             126   -0.36 7 63.8 155 
 ABTL BE  S       212835.471                             126   -0.4310 63.8 155 
 N20  BZ  P       212827.703                             123    1.93 9 72.9 180 
 N20  BE  S   1   212837.816                             123   -0.26 7 72.9 180 
 N19  BZ  P       212831.636                             122    5.56 9 75.2 178 
 N19  BN  S       212839.877                             122    1.25 9 75.2 178 
 P5   BZ  P   1   212825.651                             122   -0.42 7 75.3 161 
 P4   BZ  P   1   212825.553                             122   -0.58 7 75.5 164 
 N17  BZ  P   1   212824.405                             122   -1.76 7 75.7 182 
 N17  BE ES   1   212838.120                             122   -0.67 7 75.7 182 
 P3   BZ  P       212827.605                             122    1.41 9 75.9 170 
 TOLS BZ  P   1   212825.773                             121   -0.43 7 76.3 159 
 N18  BZ  P   1   212824.967                             121   -1.34 7 76.6 181 
 ABAD BE ES   1   212839.920                             121    0.66 7 77.0 149 
 P2   BZ  P   1   212825.602                             121   -0.75 7 77.0 172 
 P2   BE ES       212841.980                             121    2.85 9 77.0 172 
 ABAD BZ  P   1   212825.504                             121   -0.92 7 77.0 149 
 P9   BZ  P   1   212825.700                             121   -0.78 7 77.2 153 
 N16  BZ  P       212827.605                             121    1.24 9 77.2 178 
 P9   BE ES   1   212840.250                             121    0.90 7 77.2 153 
 P1   BZ  P   1   212825.431                             121   -0.91 7 77.3 175 
 P1   BE ES   1   212839.530                             121    0.42 7 77.3 175 
 N14  BZ  P       212827.117                             121    0.68 9 78.1 180 
 N14  BE ES   1   212839.270                             121   -0.00 7 78.1 180 
 N15  BZ  P   1   212825.358                             121   -1.17 7 78.4 179 
 N15  BE ES   1   212839.120                             121   -0.32 7 78.4 179 
 N13  BZ  P       212827.239                             120    0.50 9 79.5 182 
 N13  BE ES   1   212839.780                             120   -0.05 7 79.5 182 
 N11  BZ EP   1   212825.230                             120   -1.50 7 79.9 181 
 N11  BE ES   1   212840.030                             120    0.22 7 79.9 181 
 N9   BZ EP   1   212826.710                             120   -0.13 7 80.9 177 
 N9   BE ES   1   212840.030                             120    0.02 7 80.9 177 
 N10  BZ EP   1   212825.610                             120   -1.29 7 81.0 179 
 N10  BE ES   1   212840.450                             120    0.32 7 81.0 179 
 N7   BZ EP   1   212825.990                             119   -1.06 7 82.2 179 
 N7   BE ES   1   212840.830                             119    0.44 7 82.2 179 
 N6   BZ EP   1   212825.680                             119   -1.47 7 82.7 178 
 N6   BE ES   1   212840.630                             119    0.07 7 82.7 178 
 N4   BZ EP   1   212826.420                             119   -1.01 7 84.9 179 
 N4   BE ES   1   212841.490                             119    0.42 7 84.9 179 
 N5   BZ EP   1   212826.500                             118   -1.19 6 86.6 177 
 N5   BE ES       212840.500                             118   -1.05 9 86.6 177 
 CAMP BZ EP   1   212826.270                             118   -1.51 6 87.2 176 
 CAMP BE ES       212840.930                             118   -0.77 9 87.2 176 
 N2   BZ EP   1   212826.650                             118   -1.14 6 87.3 177 
 N3   BE ES       212840.630                             118   -1.05 9 87.3 178 
 N2   BE ES       212840.680                             118   -1.05 9 87.3 177 
 N3   BZ EP   1   212826.640                             118   -1.12 6 87.3 178 
 N1   BE ES       212841.290                             117   -0.93 9 89.0 176 
 KHIA BZ EP   1   212827.100                             117   -0.99 6 89.0 159 
 N1   BZ EP   1   212826.800                             117   -1.26 6 89.0 176 
 KHIA BE ES   1   212843.570                             117    1.30 6 89.0 159 
 JNAK BZ EP   1   212828.120                             116   -0.77 6 95.4 166 
 JNAK BE ES   1   212845.340                             116    1.62 6 95.4 166 
 KOLO BZ  P   1   212830.854                             113    0.04 6  108 159 
 DLRM BZ EP   1   212830.110                             113   -0.78 6  109 168 
 DLRM BE ES   1   212847.490                             113    0.16 6  109 168 
 ABAS BZ  P   1   212833.492                             109   -0.45 5  129 160 
                                                                                
 2021  5 2 2007 23.5 L  29.814  50.558 11.4  SLT 14 1.0                 2.8L BI1
 GAP=304        1.70      13.8    10.2999.9  0.6532E+02 -0.7264E+04 -0.1767E+05E
 Action:ARG 21-12-02 15:38 OP:OBSP STATUS:               ID:20210502200721     I
 DUMMY                                                                         6
 STAT SP IPHASW D HRMM SECON CODA AMPLIT PERI AZIMU VELO AIN AR TRES W  DIS CAZ7
 KHRK SZ  P   1   20 734.532                              90   -1.11 8 66.3 201 
 KHRK SE ES   1   20 744.610                              90   -0.90 8 66.3 201 
 NOKA BZ  P       20 737.873                              90   -0.4310 83.5 146 
 NOKA BE ES       20 749.680                              90   -0.6410 83.5 146 
 ABTL BZ  P       20 738.904                              90   -1.48 9 95.8 145 
 ABTL BE  S       20 753.592                              90   -0.48 9 95.8 145 
 N19  BN  S   1   20 756.098                              90    0.61 7  101 163 
 N18  BZ EP   1   20 742.060                              90    0.79 7  101 165 
 N18  BE ES   1   20 756.930                              90    1.24 7  101 165 
 N19  BZ  P       20 739.690                              90   -1.47 9  101 163 
 N7   BZ EP   1   20 743.480                              90    1.29 7  107 165 
 N7   BE ES   1   20 758.620                              90    1.27 7  107 165 
 N6   BZ EP   1   20 742.910                              90    0.54 7  108 164 
 N6   BE ES   1   20 758.910                              90    1.23 7  108 164 
 P9   BZ EP   1   20 743.950                              90    1.25 7  109 145 
 P9   BE ES       20 757.850                              90   -0.43 9  109 145 
 KHIA BZ  P   1   20 745.659                              90    1.34 6  120 150 
 KHIA BN  S   1   20 8 1.452                              90    0.25 6  120 150 
 JNAK BZ  P       20 746.690                              90    1.78 8  124 156 
 JNAK BE  S   1   20 8 2.705                              90    0.42 6  124 156 
 AHRM HZ EP   1   20 744.910                              90   -0.55 6  127 146 
 AHRM HE ES   1   20 8 2.500                              90   -0.77 6  127 146 
 DLRM BZ  P   1   20 747.599                              90    0.60 6  137 158 
 DLRM BN  S   1   20 8 5.886                              90   -0.16 6  137 158 
 KOLO BZ  P   1   20 748.422                              90    1.10 6  138 151 
 KOLO BE  S   1   20 8 6.426                              90   -0.21 6  138 151 
 ABAS BZ  P   1   20 751.714                              90    1.12 5  159 153 
 ABAS BN  S   1   20 811.805                              90   -0.75 5  159 153 
                                                                                
