 2021  418 0701  8.5 L  29.644  50.791 32.4  SLT 13 0.2                 2.5L BI1
 GAP=332        0.45     166.6    56.0 71.5 -0.9064E+04 -0.3672E+04  0.1036E+05E
 Action:ARG 21-06-12 18:26 OP:OBSP STATUS:               ID:20210418070117     I
 DUMMY                                                                         6
 STAT SP IPHASW D HRMM SECON CODA AMPLIT PERI AZIMU VELO AIN AR TRES W  DIS CAZ7
 SHIF BZ EP   1    7 121.000                             112    0.10 7 64.2 173 
 N20  BZ EP   1    7 123.000                             109    0.36 7 75.2 177 
 N17  BZ EP   1    7 123.000                             108   -0.06 7 77.9 178 
 N18  BZ  P   1    7 123.297                             108    0.07 7 78.9 177 
 P1   BZ EP   1    7 123.000                             108   -0.35 7 80.1 172 
 N6   BZ  P   1    7 123.672                             107   -0.52 6 85.2 175 
 N5   BZ  P   1    7 124.754                             106   -0.04 6 89.2 174 
 N3   BZ EP   1    7 125.000                             106    0.13 6 89.8 175 
 CAMP BZ EP   1    7 125.000                             106    0.09 6 89.9 173 
 KHIA BZ  P   1    7 125.448                             105    0.02 6 92.9 157 
 AHRM HZ EP   1    7 126.170                             104   -0.20 6 99.3 150 
 DLRM BZ  P   1    7 128.459                             102    0.12 6  112 166 
 KOLO BZ  P   1    7 128.681                             102    0.32 6  112 157 
                                                                                
 2021  418 0710 28.4 L  29.793  50.731 53.8  SLT 25 0.5                 4.9L BI1
 GAP=334        0.75      11.4     8.5 23.3 -0.1538E+02  0.5574E+02 -0.2520E+03E
 Action:ARG 21-06-12 18:26 OP:OBSP STATUS:               ID:20210418071027     I
 DUMMY                                                                         6
 STAT SP IPHASW D HRMM SECON CODA AMPLIT PERI AZIMU VELO AIN AR TRES W  DIS CAZ7
 SHIF BZ  P   1    71045.640                             121    0.76 7 81.5 170 
 N17  BZ  P   1    71046.525                             117   -0.34 6 94.9 175 
 N18  BZ  P   1    71046.830                             117   -0.19 6 95.9 174 
 P3   BZ  P   1    71046.636                             117   -0.47 6 96.6 166 
 P3   BE  S   1    711 2.689                             117    0.42 6 96.6 166 
 P4   BZ  P   1    71046.664                             117   -0.45 6 96.7 161 
 P4   BE  S   1    711 2.772                             117    0.50 6 96.7 161 
 N14  BZ  P   1    71047.217                             116    0.05 6 97.4 174 
 N14  BE  S   1    711 2.163                             116   -0.21 6 97.4 174 
 P1   BZ  P   1    71047.577                             116    0.40 6 97.4 170 
 P1   BE  S   1    711 2.274                             116   -0.12 6 97.4 170 
 N15  BZ  P   1    71048.158                             116    0.87 6 97.9 173 
 N15  BE  S   1    711 2.800                             116    0.20 6 97.9 173 
 N13  BZ  P   1    71046.885                             116   -0.57 6 98.6 175 
 N13  BE  S   1    711 2.053                             116   -0.84 6 98.6 175 
 ABAD BZ  P   1    71046.830                             116   -0.66 6 98.6 149 
 ABAD BE  S   1    711 3.049                             116    0.10 6 98.6 149 
 P9   BZ  P   1    71046.802                             116   -0.73 6 98.8 152 
 P9   BE  S   1    711 3.132                             116    0.09 6 98.8 152 
 N11  BZ  P   1    71046.885                             116   -0.57 6 99.1 175 
 N11  BE  S   1    711 2.717                             116   -0.18 6 99.1 175 
 N10  BZ  P   1    71047.882                             116    0.21 6  100 173 
 N10  BE  S   1    711 3.686                             116    0.39 6  100 173 
 N9   BZ  P   1    71048.324                             116    0.67 6  101 172 
 N9   BE  S   1    711 2.938                             116   -0.32 6  101 172 
 N4   BZ  P   1    71048.574                             115    0.36 6  104 173 
 N4   BE  S   1    711 4.267                             115   -0.01 6  104 173 
 N5   BZ  P   1    71048.684                             114    0.16 6  106 172 
 N2   BZ  P   1    71048.574                             114   -0.07 6  107 171 
 N3   BZ  P   1    71048.795                             114    0.20 6  107 172 
 N3   BE  S   1    711 5.042                             114    0.09 6  107 172 
 CAMP BZ  P   1    71049.349                             114    0.70 6  107 171 
 CAMP BE  S   1    711 3.990                             114   -1.06 6  107 171 
 N1   BZ  P   1    71049.321                             114    0.40 6  109 171 
 KHIA BZ  P   1    71048.740                             114   -0.45 6  110 157 
 KHIA BE  S   1    711 6.537                             114    0.50 6  110 157 
 JNAK BZ  P   1    71049.819                             112   -0.13 6  116 163 
 JNAK BE  S   1    711 7.644                             112    0.24 6  116 163 
 KOLO BZ  P   1    71051.535                             110   -0.45 5  129 157 
 DLRM BZ  P   1    71052.421                             110    0.46 5  130 165 
 DLRM BN  S   1    71111.242                             110    0.19 5  130 165 
 ABAS BZ  P   1    71054.995                             107   -0.15 5  150 159 
                                                                                
 2021  418 0730  9.3 L  29.700  50.740 54.8  SLT 17 0.3                 4.0L BI1
 GAP=334        0.48       7.8     5.1 13.6  0.8161E+01 -0.7446E+01 -0.9893E+02E
 Action:ARG 21-06-12 18:26 OP:OBSP STATUS:               ID:20210418073008     I
 DUMMY                                                                         6
 STAT SP IPHASW D HRMM SECON CODA AMPLIT PERI AZIMU VELO AIN AR TRES W  DIS CAZ7
 N18  BZ  P   1    73026.683                             120    0.16 6 85.4 174 
 P2   BZ  P   1    73026.903                             120    0.16 6 87.0 167 
 P2   BE  S   1    73041.043                             120    0.17 6 87.0 167 
 N14  BZ  P   1    73026.732                             120    0.07 6 87.0 174 
 N14  BE  S   1    73040.384                             120   -0.34 6 87.0 174 
 N15  BZ  P   1    73027.049                             120    0.26 6 87.5 173 
 N15  BE  S   1    73040.970                             120    0.02 6 87.5 173 
 N13  BZ  P   1    73026.756                             119   -0.19 6 88.2 175 
 N13  BE  S   1    73041.019                             119   -0.22 6 88.2 175 
 N11  BZ  P   1    73027.073                             119    0.13 6 88.7 174 
 N11  BE  S   1    73041.263                             119    0.02 6 88.7 174 
 P9   BZ  P   1    73027.586                             119    0.43 6 89.3 149 
 P9   BE  S   1    73041.214                             119   -0.41 6 89.3 149 
 N9   BZ  P   1    73027.025                             119   -0.11 6 90.2 171 
 N4   BZ  P   1    73027.049                             118   -0.64 6 93.9 173 
 N4   BE  S   1    73042.630                             118    0.05 6 93.9 173 
 N5   BZ  P   1    73027.928                             117   -0.06 6 96.0 171 
 N5   BE  S   1    73043.803                             117    0.67 6 96.0 171 
 N3   BZ  P   1    73027.904                             117   -0.15 6 96.5 172 
 N3   BE  S   1    73043.485                             117    0.24 6 96.5 172 
 KHIA BZ  P   1    73028.661                             116   -0.05 6  101 156 
 KHIA BE  S   1    73044.584                             116    0.14 6  101 156 
 JNAK BZ  P   1    73029.442                             115    0.03 6  106 162 
 JNAK BE  S   1    73045.292                             115   -0.41 6  106 162 
 AHRM HZ  P   1    73029.394                             115   -0.23 6  107 150 
 AHRM HE  S   1    73046.123                             115    0.04 6  107 150 
 KOLO BE  S   1    73049.859                             112    0.44 5  119 156 
 DLRM BE  S   1    73048.858                             112   -0.41 5  119 164 
 KOLO BZ  P   1    73031.763                             112    0.30 5  119 156 
 DLRM BZ  P   1    73031.372                             112   -0.01 5  119 164 
 ABAS BZ  P   1    73034.400                             109   -0.18 5  140 157 
                                                                                
 2021  418 0802  4.6 L  29.643  50.845 49.0  SLT 15 0.5                 3.5L BI1
 GAP=328        0.88      10.4     8.8 17.7 -0.1145E+02  0.2077E+02 -0.1647E+03E
 Action:ARG 21-06-12 18:26 OP:OBSP STATUS:               ID:20210418080204     I
 DUMMY                                                                         6
 STAT SP IPHASW D HRMM SECON CODA AMPLIT PERI AZIMU VELO AIN AR TRES W  DIS CAZ7
 ABTL BZ  P   1    8 218.731                             124    0.14 7 65.6 156 
 ABTL BE  S   1    8 229.507                             124   -0.43 7 65.6 156 
 N17  BZ  P   1    8 220.964                             120    0.69 7 77.8 182 
 N17  BE  S   1    8 232.298                             120   -0.68 7 77.8 182 
 ABAD BZ  P   1    8 220.115                             119   -0.36 7 78.6 150 
 N18  BZ  P   1    8 220.139                             119   -0.28 7 78.7 181 
 N18  BE  S   1    8 232.662                             119   -0.58 7 78.7 181 
 P2   BZ  P   1    8 220.454                             119   -0.01 7 79.1 173 
 P2   BE  S   1    8 233.851                             119    0.54 7 79.1 173 
 N15  BZ  P   1    8 220.916                             119    0.27 7 80.5 179 
 N15  BE  S   1    8 233.754                             119    0.11 7 80.5 179 
 N9   BZ  P   1    8 220.454                             118   -0.51 7 83.0 178 
 N9   BE  S   1    8 234.676                             118    0.45 7 83.0 178 
 N10  BZ  P   1    8 221.668                             118    0.64 7 83.1 180 
 N10  BE  S   1    8 234.118                             118   -0.23 7 83.1 180 
 N4   BZ  P   1    8 221.814                             117    0.25 6 87.0 179 
 N4   BE  S   1    8 235.428                             117    0.12 6 87.0 179 
 KHIA BZ  P   1    8 223.076                             116    0.87 6 90.9 160 
 KHIA BE  S   1    8 237.321                             116    0.86 6 90.9 160 
 AHRM HZ EP   1    8 223.160                             114    0.15 6 96.8 153 
 AHRM HE  S   1    8 237.904                             114   -0.02 6 96.8 153 
 JNAK BZ  P   1    8 223.148                             114    0.11 6 97.4 167 
 KOLO BZ EP   1    8 224.000                             111   -0.97 6  110 159 
 DLRM BZ  P   1    8 224.216                             111   -0.84 6  111 168 
 DLRM BE  S   1    8 241.593                             111   -0.04 6  111 168 
 ABAS BZ  P   1    8 227.395                             108   -0.73 5  131 161 
                                                                                
 2021  418 0811 20.2 L  29.692  50.713 48.2  SLT 14 0.4                 3.2L BI1
 GAP=335        0.65      15.9     9.6 29.8  0.6730E+02 -0.1100E+03 -0.4567E+03E
 Action:ARG 21-06-12 18:26 OP:OBSP STATUS:               ID:20210418081119     I
 DUMMY                                                                         6
 STAT SP IPHASW D HRMM SECON CODA AMPLIT PERI AZIMU VELO AIN AR TRES W  DIS CAZ7
 N18  BZ EP   1    81137.000                             117    0.14 6 84.9 172 
 N18  BE  S   1    81150.580                             117    0.23 6 84.9 172 
 N15  BZ EP   1    81137.000                             116   -0.14 6 87.0 171 
 N15  BN  S   1    81150.137                             116   -0.71 6 87.0 171 
 N11  BZ  P   1    81137.622                             116    0.33 6 88.1 173 
 N11  BN  S   1    81150.899                             116   -0.22 6 88.1 173 
 N9   BZ  P   1    81137.548                             115    0.03 6 89.8 169 
 N9   BE  S   1    81151.662                             115    0.13 6 89.8 169 
 N4   BZ  P   1    81137.744                             115   -0.32 6 93.4 172 
 N4   BE  S   1    81152.940                             115    0.42 6 93.4 172 
 N5   BZ  P   1    81138.162                             114   -0.23 6 95.5 170 
 N2   BZ EP   1    81139.000                             114    0.49 6 96.3 169 
 N2   BE  S   1    81152.891                             114   -0.43 6 96.3 169 
 CAMP BZ EP   1    81139.000                             114    0.48 6 96.4 169 
 KHIA BZ  P   1    81138.777                             113   -0.47 6  101 154 
 KHIA BE  S   1    81154.907                             113    0.25 6  101 154 
 JNAK BZ  P   1    81140.203                             112    0.29 6  106 161 
 AHRM HZ  P   1    81140.769                             111    0.55 6  108 148 
 AHRM HE  S   1    81156.284                             111   -0.13 6  108 148 
 DLRM BZ  P   1    81141.629                             109   -0.29 5  119 163 
 DLRM BN  S   1    812 0.022                             109    0.53 5  119 163 
 KOLO BZ  P   1    81141.531                             109   -0.52 5  120 154 
 ABAS BZ  P   1    81144.531                             106   -0.68 5  140 156 
                                                                                
 2021  418 0850 40.6 L  29.768  50.736 50.4  SLT 24 0.3                 4.2L BI1
 GAP=334        0.47       5.3     4.7 12.1 -0.3712E+01  0.1591E+02 -0.5851E+02E
 Action:ARG 21-06-12 18:26 OP:OBSP STATUS:               ID:20210418085039     I
 DUMMY                                                                         6
 STAT SP IPHASW D HRMM SECON CODA AMPLIT PERI AZIMU VELO AIN AR TRES W  DIS CAZ7
 NOKA BZ  P   1    85055.106                             123   -0.25 7 70.7 156 
 SHIF BZ  P   1    85056.238                             120   -0.22 7 78.6 170 
 ABTL BZ  P   1    85057.297                             119    0.20 7 82.6 153 
 N17  BZ  P   1    85058.306                             116   -0.15 6 92.0 175 
 N17  BE  S   1    85112.779                             116   -0.10 6 92.0 175 
 N18  BZ  P   1    85058.700                             116    0.08 6 93.0 174 
 N18  BE  S   1    85112.853                             116   -0.32 6 93.0 174 
 P4   BZ  P   1    85058.970                             116    0.26 6 93.8 161 
 P4   BE  S   1    85113.493                             116    0.16 6 93.8 161 
 N14  BZ  P   1    85058.626                             115   -0.13 6 94.6 174 
 N14  BE  S   1    85113.616                             115    0.18 6 94.6 174 
 N15  BZ  P   1    85058.774                             115   -0.11 6 95.0 173 
 ABAD BZ  P   1    85059.487                             115    0.38 6 95.9 148 
 ABAD BE  S   1    85113.665                             115   -0.39 6 95.9 148 
 P9   BZ  P   1    85059.414                             115    0.27 6 96.1 152 
 P9   BE  S   1    85114.059                             115   -0.08 6 96.1 152 
 N11  BZ EP   1    851 0.010                             115    0.96 6 96.3 175 
 N9   BZ  P   1    85058.872                             115   -0.38 6 97.8 172 
 N9   BE  S   1    85114.280                             115   -0.05 6 97.8 172 
 N6   BZ EP   1    851                                   114    0.45 6 99.5 172 
 N4   BZ  P   1    85059.783                             114   -0.04 6  102 174 
 N4   BE  S   1    85115.634                             114    0.28 6  102 174 
 N2   BZ EP   1    851 0.010                             113   -0.24 6  104 172 
 N5   BE  S   1    85115.930                             113    0.01 6  104 172 
 N3   BE  S   1    85116.250                             113    0.21 6  104 173 
 N2   BE  S   1    85116.274                             113    0.14 6  104 172 
 N5   BZ EP   1    851                                   113   -0.13 6  104 172 
 N3   BZ EP   1    851                                   113   -0.20 6  104 173 
 N1   BZ EP   1    851                                   113   -0.53 6  106 171 
 N1   BE  S   1    85116.520                             113   -0.12 6  106 171 
 KHIA BZ  P   1    851 0.743                             112   -0.06 6  108 157 
 KHIA BE  S   1    85117.357                             112    0.22 6  108 157 
 JNAK BZ  P   1    851 1.629                             111    0.07 6  114 163 
 JNAK BE  S   1    85118.736                             111    0.23 6  114 163 
 AHRM HZ  P   1    851 1.900                             111    0.21 6  114 151 
 AHRM HE  S   1    85118.711                             111   -0.03 6  114 151 
 KOLO BZ  P   1    851 3.499                             109   -0.13 5  126 157 
 DLRM BZ  P   1    851 3.401                             109   -0.19 5  127 165 
 DLRM BE  S   1    85121.837                             109   -0.34 5  127 165 
 ABAS BZ  P   1    851 6.502                             106   -0.30 5  147 158 
                                                                                
