 2021  5 2 2128 55.4 L  29.706  50.781 11.4  SLT 23 1.2                 3.4L BI1
 GAP=286        2.39      54.2    17.0138.0 -0.3962E+03 -0.1113E+04  0.7382E+04E
 Action:ARG 21-12-02 15:38 OP:OBSP STATUS:               ID:20210502212853     I
 DUMMY                                                                         6
 STAT SP IPHASW D HRMM SECON CODA AMPLIT PERI AZIMU VELO AIN AR TRES W  DIS CAZ7
 NOKA BZ  P       2129 6.952                              91    0.0710 62.6 157 
 NOKA BE ES       212914.810                              91   -1.3610 62.6 157 
 KHRK SZ EP   1   2129 2.850                              90   -4.93 7 67.6 222 
 SHIF BN  P   1   2129 8.688                              90    0.42 7 71.1 173 
 SHIF BN  S       212918.513                              90   -0.1610 71.1 173 
 ABTL BZ EP       2129 6.850                              90   -2.04 9 74.5 154 
 ABTL BE ES       212918.290                              90   -1.52 9 74.5 154 
 N20  BZ  P   1   212910.020                              90   -0.10 7 82.2 176 
 N20  BN  S   1   212921.344                              90   -0.69 7 82.2 176 
 N19  BZ  P   1   212910.568                              90    0.06 7 84.6 174 
 N18  BZ EP   1   212911.070                              90    0.33 7 85.8 177 
 N18  BE ES   1   212922.620                              90   -0.53 7 85.8 177 
 TOLS BZ  P   1   212912.161                              90    1.31 7 86.9 158 
 P1   BZ EP   1   212911.050                              90    0.18 7 87.0 172 
 P1   BE ES   1   212923.640                              90    0.25 7 87.0 172 
 ABAD BZ  P       212910.377                              90   -0.74 9 87.8 149 
 N10  BZ  P       212912.780                              90    1.33 9 90.3 176 
 N9   BZ  P   1   212911.567                              90    0.15 7 90.4 174 
 N9   BE ES   1   212924.640                              90    0.26 7 90.4 174 
 N7   BZ EP       212913.530                              90    1.91 9 91.6 176 
 N7   BE ES       212925.810                              90    1.06 9 91.6 176 
 N6   BZ  P   1   212912.328                              90    0.58 7 92.2 175 
 N4   BZ  P       212913.184                              90    1.13 9 94.2 176 
 N4   BE ES       212926.630                              90    1.09 9 94.2 176 
 N5   BZ  P       212913.613                              90    1.23 9 96.2 174 
 N3   BZ  P   1   212913.018                              90    0.56 6 96.7 175 
 N3   BE  S   1   212925.722                              90   -0.54 6 96.7 175 
 CAMP BZ EP   1   212912.590                              90    0.09 6 96.9 173 
 CAMP BE ES   1   212926.120                              90   -0.22 6 96.9 173 
 N1   BZ EP   1   212912.730                              90   -0.08 6 98.6 173 
 N1   BE ES   1   212926.690                              90   -0.21 6 98.6 173 
 KHIA BZ  P   1   212913.755                              90    0.76 6 99.6 158 
 AHRM HZ EP   1   212914.270                              90    0.33 6  106 152 
 AHRM HE ES   1   212929.220                              90    0.27 6  106 152 
 KOLO BZ  P   1   212916.087                              90    0.07 6  118 158 
 KOLO BE  S   1   212933.810                              90    1.11 6  118 158 
 DLRM BZ  P   1   212916.729                              90    0.70 6  119 166 
 DLRM BN  S   1   212932.763                              90    0.04 6  119 166 
                                                                                
 2021  5 2 2133 23.2 L  29.663  50.686 11.1  SLT 36 1.2                 3.8L BI1
 GAP=283        2.52      47.2    19.0 65.8 -0.6564E+03 -0.9621E+03  0.3069E+04E
 Action:ARG 21-12-02 15:38 OP:OBSP STATUS:               ID:20210502213321     I
 DUMMY                                                                         6
 STAT SP IPHASW D HRMM SECON CODA AMPLIT PERI AZIMU VELO AIN AR TRES W  DIS CAZ7
 KHRK SZ  P   1   213329.725                              90   -4.25 8 58.0 219 
 NOKA BZ  P       213333.750                              90   -0.9010 62.8 147 
 NOKA BE  S       213343.837                              90   -0.1310 62.8 147 
 ABTL BZ  P       213333.985                              90   -2.74 9 75.1 146 
 N20  BZ  P   1   213337.447                              90    0.15 7 78.7 169 
 N20  BE  S   1   213349.101                              90    0.35 7 78.7 169 
 N17  BZ  P   1   213337.815                              90    0.11 7 81.1 171 
 N17  BE  S   1   213349.052                              90   -0.44 7 81.1 171 
 N19  BZ  P       213339.324                              90    1.58 9 81.4 168 
 N19  BN  S       213350.693                              90    1.14 9 81.4 168 
 N18  BZ  P   1   213338.320                              90    0.42 7 82.2 170 
 N18  BN  S   1   213349.582                              90   -0.26 7 82.2 170 
 N16  BZ  P       213339.393                              90    1.31 9 83.4 168 
 N16  BN  S       213348.870                              90   -1.30 9 83.4 168 
 N14  BZ  P   1   213338.720                              90    0.65 7 83.8 170 
 N14  BE  S       213351.378                              90    1.23 9 83.8 170 
 P3   BZ  P       213340.473                              90    2.29 9 84.0 160 
 P3   BN  S       213349.825                              90   -0.52 9 84.0 160 
 P1   BZ  P   1   213338.049                              90   -0.12 7 84.3 165 
 P1   BN  S   1   213349.727                              90   -0.60 7 84.3 165 
 N15  BZ  P   1   213338.538                              90    0.32 7 84.4 169 
 N15  BE ES   1   213349.980                              90   -0.44 7 84.4 169 
 P2   BZ EP   1   213338.090                              90   -0.18 7 84.6 163 
 P2   BE ES   1   213350.330                              90   -0.18 7 84.6 163 
 N13  BZ EP       213339.990                              90    1.63 9 84.8 171 
 N13  BE ES   1   213349.740                              90   -0.93 7 84.8 171 
 P4   BZ  P   1   213338.171                              90   -0.13 7 84.9 155 
 P4   BE ES       213349.380                              90   -1.19 9 84.9 155 
 P5   BZ  P       213342.162                              90    3.83 9 85.3 153 
 N11  BZ  P       213339.126                              90    0.75 9 85.4 171 
 N11  BE ES   1   213349.850                              90   -0.85 7 85.4 171 
 TOLS BZ  P       213340.571                              90    2.02 9 86.7 151 
 TOLS BE ES       213351.300                              90    0.28 9 86.7 151 
 N10  BZ  P   1   213338.416                              90   -0.23 7 86.9 169 
 N10  BN  S   1   213350.241                              90   -0.94 7 86.9 169 
 N9   BZ  P   1   213338.906                              90    0.25 7 87.2 167 
 N9   BN  S   1   213350.878                              90   -0.33 7 87.2 167 
 N7   BZ  P   1   213339.322                              90    0.52 7 88.1 169 
 N7   BN  S       213352.371                              90    0.89 9 88.1 169 
 P9   BZ  P       213338.636                              90   -0.41 9 88.8 145 
 P9   BE ES       213352.060                              90    0.15 9 88.8 145 
 N6   BZ EP   1   213339.000                              90    0.04 7 88.9 168 
 N6   BN  S   1   213351.270                              90   -0.50 7 88.9 168 
 ABAD BZ  P       213336.115                              90   -2.98 9 89.2 142 
 N4   BZ EP       213340.000                              90    0.76 9 90.7 170 
 N4   BE ES       213353.320                              90    1.06 9 90.7 170 
 N5   BZ  P   1   213339.322                              90   -0.29 7 93.0 168 
 N5   BE ES   1   213352.720                              90   -0.21 7 93.0 168 
 N3   BZ  P   1   213339.493                              90   -0.18 7 93.4 169 
 N3   BE ES   1   213352.680                              90   -0.36 7 93.4 169 
 N2   BZ  P   1   213339.469                              90   -0.27 7 93.8 168 
 N2   BE ES   1   213352.940                              90   -0.24 7 93.8 168 
 CAMP BZ  P   1   213339.567                              90   -0.20 7 93.9 167 
 CAMP BE ES   1   213353.140                              90   -0.07 7 93.9 167 
 N1   BZ  P   1   213339.591                              90   -0.46 6 95.5 167 
 N1   BE ES   1   213353.600                              90   -0.14 6 95.5 167 
 KHIA BZ EP       213340.010                              90   -0.68 8 99.3 152 
 KHIA BE ES       213354.940                              90    0.05 8 99.3 152 
 JNAK BZ  P   1   213341.550                              90    0.20 6  104 159 
 JNAK BE  S   1   213356.044                              90   -0.05 6  104 159 
 AHRM HZ  P   1   213340.889                              90   -0.92 6  107 146 
 AHRM HE  S   1   213356.313                              90   -0.60 6  107 146 
 DLRM BZ  P   1   213342.823                              90   -0.65 6  117 161 
 DLRM BE ES   1   213359.910                              90   -0.01 6  117 161 
 KOLO BZ EP       213343.000                              90   -0.70 8  118 153 
 KOLO BE ES   1   2134 0.820                              90    0.49 6  118 153 
 ABAS BZ EP       213345.980                              90   -1.01 7  139 155 
 ABAS BE ES   1   2134 6.590                              90    0.30 5  139 155 
                                                                                
 2021  5 3 1755 20.7 L  29.594  50.821 58.5  SLT 29 1.1                 3.3L BI1
 GAP=330        2.25      20.0    15.9 29.7 -0.6429E+02  0.1261E+03 -0.5439E+03E
 Action:ARG 21-12-02 15:38 OP:OBSP STATUS:               ID:20210503175516     I
 DUMMY                                                                         6
 STAT SP IPHASW D HRMM SECON CODA AMPLIT PERI AZIMU VELO AIN AR TRES W  DIS CAZ7
 SHIF BZ  P   1   175534.124                             133   -0.55 8 58.4 175 
 ABTL BZ  P       175535.145                             132   -0.0010 61.7 152 
 ABTL BE  S   1   175545.888                             132   -0.96 7 61.7 152 
 N20  BZ  P   1   175535.899                             128   -0.23 7 69.6 179 
 N17  BZ  P       175537.017                             127    0.5310 72.3 180 
 N17  BN  S   1   175549.048                             127   -0.22 7 72.3 180 
 P5   BZ  P       175539.277                             127    2.7710 72.9 159 
 P3   BZ  P       175539.520                             127    2.9410 73.0 168 
 N18  BZ  P       175536.968                             127    0.3410 73.2 179 
 N18  BE ES   1   175548.870                             127   -0.65 7 73.2 179 
 TOLS BZ EP   1   175536.010                             126   -0.64 7 73.9 157 
 TOLS BE ES   1   175550.320                             126    0.76 7 73.9 157 
 P2   BZ  P       175537.697                             126    0.99 9 74.0 171 
 P2   BN  S   1   175549.680                             126    0.01 7 74.0 171 
 P1   BZ  P       175537.649                             126    0.97 9 74.2 173 
 P1   BN  S   1   175549.291                             126   -0.33 7 74.2 173 
 N14  BZ  P       175537.600                             126    0.86 9 74.8 179 
 N14  BN  S   1   175549.534                             126   -0.20 7 74.8 179 
 N15  BZ EP   1   175536.130                             126   -0.71 7 75.1 177 
 N15  BE ES   1   175549.020                             126   -0.88 7 75.1 177 
 P9   BZ EP       175533.570                             126   -3.39 9 75.2 150 
 P9   BE ES   1   175550.400                             126    0.27 7 75.2 150 
 N13  BZ  P   1   175536.360                             125   -0.67 7 76.1 180 
 N13  BE  S   1   175550.190                             125   -0.07 7 76.1 180 
 N11  BZ  P       175537.649                             125    0.63 9 76.6 180 
 N11  BN  S   1   175550.190                             125   -0.04 7 76.6 180 
 N9   BZ EP       175537.540                             125    0.40 9 77.7 176 
 N9   BE ES   1   175551.020                             125    0.56 7 77.7 176 
 N7   BZ EP   1   175536.360                             124   -0.97 7 78.9 178 
 N7   BE ES   1   175551.050                             124    0.25 7 78.9 178 
 N6   BZ EP   1   175537.400                             124   -0.03 7 79.5 177 
 N6   BE ES   1   175550.670                             124   -0.31 7 79.5 177 
 N4   BZ  P   1   175537.187                             123   -0.50 7 81.6 178 
 N4   BN  S   1   175551.843                             123    0.40 7 81.6 178 
 N5   BZ EP   1   175537.150                             123   -0.80 7 83.4 176 
 N5   BE ES       175550.910                             123   -1.01 9 83.4 176 
 N3   BZ  P   1   175536.895                             123   -1.12 7 84.0 176 
 N3   BN  S   1   175552.742                             123    0.70 7 84.0 176 
 CAMP BZ EP   1   175536.650                             123   -1.39 7 84.1 174 
 CAMP BE ES   1   175551.810                             123   -0.27 7 84.1 174 
 N2   BZ  P   1   175537.867                             123   -0.18 7 84.2 175 
 N2   BE  S   1   175552.840                             123    0.74 7 84.2 175 
 N1   BZ EP   1   175537.220                             122   -1.09 7 85.9 175 
 N1   BE ES       175551.620                             122   -0.95 9 85.9 175 
 KHIA BZ EP   1   175537.590                             122   -0.86 7 86.6 157 
 KHIA BE ES   1   175553.600                             122    0.78 7 86.6 157 
 JNAK BZ EP   1   175538.420                             120   -0.74 7 92.7 165 
 JNAK BE ES   1   175555.000                             120    0.89 7 92.7 165 
 AHRM HZ EP   1   175538.110                             120   -1.17 7 93.1 150 
 AHRM HE ES       175555.090                             120    0.76 9 93.1 150 
 KOLO BZ EP   1   175540.230                             117   -0.85 6  105 157 
 DLRM BZ EP   1   175540.330                             117   -0.75 6  106 166 
 DLRM BE ES   1   175558.190                             117    0.61 6  106 166 
                                                                                
 2021  5 3 1830  2.7 L  29.776  50.607 12.5  SLT 11 0.9                 3.0L BI1
 GAP=300        1.67      48.1    10.0110.3 -0.1545E+03 -0.4117E+03  0.5191E+04E
 Action:ARG 21-12-02 15:38 OP:OBSP STATUS:               ID:20210503182958     I
 DUMMY                                                                         6
 STAT SP IPHASW D HRMM SECON CODA AMPLIT PERI AZIMU VELO AIN AR TRES W  DIS CAZ7
 KHRK SZ  P   1   183012.881                              92   -1.71 8 64.5 206 
 KHRK SE  S   1   183023.633                              92   -0.57 8 64.5 206 
 NOKA BZ  P   1   183017.192                              91    0.62 7 77.4 148 
 NOKA BE ES       183026.820                              91   -0.9710 77.4 148 
 N18  BZ EP   1   183020.010                              91    0.33 7 95.9 167 
 N18  BE ES   1   183034.450                              91    1.03 7 95.9 167 
 N7   BZ EP       183021.990                              91    1.40 9  102 166 
 N7   BE ES   1   183035.870                              91    0.80 7  102 166 
 N6   BZ EP   1   183019.770                              91   -0.99 7  103 165 
 N6   BE ES   1   183036.170                              91    0.79 7  103 165 
 CAMP BZ EP   1   183021.060                              91   -0.52 6  108 164 
 CAMP BE ES   1   183037.280                              91    0.42 6  108 164 
 N1   BZ EP       183022.990                              91    1.13 9  109 165 
 N1   BE ES   1   183038.500                              91    1.13 6  109 165 
 KHIA BZ  P   1   183022.180                              91   -0.42 6  114 151 
 KHIA BE  S       183038.138                              91   -0.58 8  114 151 
 JNAK BZ  P       183024.166                              91    0.93 8  119 157 
 AHRM HZ EP   1   183022.570                              91   -1.15 6  121 146 
 AHRM HE ES   1   183039.870                              91   -0.86 6  121 146 
 KOLO BZ  P   1   183025.497                              91   -0.11 6  133 152 
 KOLO BE  S       183043.271                              91   -0.88 8  133 152 
                                                                                
 2021  5 3 1841 32.5 L  29.779  50.554 10.7  SLT 12 1.2                 3.1L BI1
 GAP=302        2.15      88.8    17.4196.2 -0.1129E+04 -0.2602E+04  0.1723E+05E
 Action:ARG 21-12-02 15:38 OP:OBSP STATUS:               ID:20210503184130     I
 DUMMY                                                                         6
 STAT SP IPHASW D HRMM SECON CODA AMPLIT PERI AZIMU VELO AIN AR TRES W  DIS CAZ7
 KHRK SZ EP   1   184143.130                              68   -1.00 8 62.6 202 
 KHRK SE ES   1   184153.520                              68   -0.01 8 62.6 202 
 NOKA BZ EP       184144.520                              68   -2.4010 80.6 145 
 NOKA BE ES       184158.290                              68   -0.2810 80.6 145 
 ABTL BZ  P       184147.536                              68   -1.46 9 92.9 144 
 ABTL BN  S       1842 2.316                              68   -0.02 9 92.9 144 
 N17  BZ  P   1   184150.333                              68    0.76 7 96.4 164 
 N19  BZ  P   1   184149.297                              68   -0.38 7 97.2 162 
 P9   BZ  P   1   184152.455                              68    1.13 7  107 143 
 P9   BN  S   1   1842 7.765                              68    1.22 7  107 143 
 KHIA BZ  P   1   184154.007                              68    1.10 6  117 149 
 KHIA BN  S   1   1842 9.438                              68    0.03 6  117 149 
 JNAK BZ  P       184156.153                              68    2.69 8  121 155 
 JNAK BE  S   1   184210.981                              68    0.56 6  121 155 
 AHRM HZ  P       184154.336                              68    0.26 8  124 144 
 AHRM HE  S       184210.972                              68   -0.56 8  124 144 
 DLRM BZ  P       184157.383                              68    1.85 8  134 157 
 DLRM BN  S   1   184214.260                              68    0.10 6  134 157 
 KOLO BZ  P   1   184156.394                              68    0.50 6  135 150 
 KOLO BE  S   1   184214.911                              68    0.09 6  135 150 
 ABAS BZ  P   1   184159.601                              68    0.44 5  156 152 
 ABAS BN  S   1   184219.927                              68   -0.80 5  156 152 
                                                                                
