 2021  2 2 2332 56.6 L  28.329  50.984  5.5  SLT 10 0.3                 2.2L BI1
 GAP=295        0.61       4.4     5.1366.5  0.1563E+02  0.1512E+04  0.1179E+04E
 Action:ARG 21-12-02 15:38 OP:OBSP STATUS:               ID:20210202233255     I
 DUMMY                                                                         6
 STAT SP IPHASW D HRMM SECON CODA AMPLIT PERI AZIMU VELO AIN AR TRES W  DIS CAZ7
 ABAS BZ EP   1   2333 4.190                              59   -0.26 7 37.5  53 
 ABAS BE ES   1   233310.570                              59   -0.20 7 37.5  53 
 DLRM BZ EP   1   2333 4.430                              59   -0.11 7 38.3  14 
 DLRM BE ES   1   233310.810                              59   -0.14 7 38.3  14 
 KOLO BZ EP   1   2333 6.360                              59   -0.25 7 49.8  30 
 KOLO BE ES   1   233315.640                              59    0.95 7 49.8  30 
 N6   BZ  P   1   2333 8.608                              53    0.08 7 61.9 350 
 N6   BE  S   1   233317.902                              53   -0.26 7 61.9 350 
 KHIA BZ  P   1   2333 8.870                              53    0.13 7 62.9  16 
 KHIA BE  S   1   233318.310                              53   -0.24 7 62.9  16 
 N9   BZ  P   1   2333 9.249                              53    0.49 7 63.6 351 
 N9   BE  S   1   233318.514                              53   -0.06 7 63.6 351 
 N10  BZ  P   1   2333 9.045                              53    0.20 7 63.9 348 
 N10  BE  S   1   233318.631                              53   -0.11 7 63.9 348 
 N12  BZ EP   1   2333 8.920                              53   -0.06 7 65.4 350 
 N12  BE ES   1   233318.950                              53   -0.03 7 65.4 350 
 N15  BZ EP   1   2333 9.400                              53    0.16 7 66.4 349 
 N15  BE ES   1   233319.340                              53   -0.12 7 66.4 349 
 AHRM HZ  P   1   2333 9.132                              53   -0.16 7 66.6  27 
                                                                                
 2021  2 3 0244  7.0 L  28.607  51.160 10.3  SLT  5 0.1                 1.1L BI1
 GAP=185        0.35       1.4     1.6  1.9  0.1035E+01 -0.1192E+01 -0.1292E+01E
 Action:ARG 21-12-02 15:38 OP:OBSP STATUS:               ID:20210203024407     I
 DUMMY                                                                         6
 STAT SP IPHASW D HRMM SECON CODA AMPLIT PERI AZIMU VELO AIN AR TRES W  DIS CAZ7
 DLRM BZ EP   1    24410.030                             124   -0.05 7 10.4 308 
 DLRM BE ES   1    24412.520                             124   -0.07 7 10.4 308 
 KOLO BZ EP   1    24410.840                             113    0.06 7 14.5  33 
 KOLO BE ES   1    24413.940                             113    0.07 7 14.5  33 
 ABAS BZ EP   1    24410.770                             112   -0.09 7 15.1 123 
 ABAS BE ES   1    24414.030                             112    0.02 7 15.1 123 
 KHIA BZ  P   1    24413.572                              68    0.27 7 29.5   1 
 AHRM HZ  P   1    24413.572                              68    0.03 7 31.4  25 
 AHRM HE  S   1    24418.624                              68   -0.24 7 31.4  25 
                                                                                
 2021  2 3 0810 55.0 L  28.829  51.321  9.8  SLT  7 0.1                 2.3L BI1
 GAP=263        0.30       0.9     2.1  2.3 -0.4047E+00 -0.1679E+01 -0.2489E+00E
 Action:ARG 21-12-02 15:38 OP:OBSP STATUS:               ID:20210203081054     I
 DUMMY                                                                         6
 STAT SP IPHASW D HRMM SECON CODA AMPLIT PERI AZIMU VELO AIN AR TRES W  DIS CAZ7
 P9   BZ EP   1    811 0.110                             101   -0.03 7 22.5 330 
 P9   BE ES   1    811 4.150                             101   -0.18 7 22.5 330 
 JNAK BZ EP   1    811 0.340                              99    0.00 7 24.6 259 
 JNAK BE ES   1    811 4.540                              99   -0.15 7 24.6 259 
 TOLS BZ EP   1    811 0.690                              99    0.11 7 25.9 310 
 TOLS BE ES   1    811 5.370                              99    0.25 7 25.9 310 
 DLRM BZ EP   1    811 1.390                              97    0.09 7 30.0 233 
 DLRM BE ES   1    811 6.420                              97   -0.01 7 30.0 233 
 P4   BZ EP   1    811 1.380                              97   -0.04 7 30.6 300 
 P4   BE ES   1    811 6.650                              97   -0.00 7 30.6 300 
 ABTL BZ EP   1    811 2.270                              68   -0.05 7 36.1 327 
 ABTL BE ES   1    811 8.280                              68    0.00 7 36.1 327 
 N7   BZ  P   1    811 3.943                              68   -0.00 7 46.2 277 
                                                                                
 2021  2 3 0810 55.1 L  28.828  51.251 16.7  SLT  5 0.2                 2.2L BI1
 GAP=185        0.53       2.7     5.4  4.2  0.5415E+01 -0.2710E+01 -0.4163E+01E
 Action:ARG 21-12-02 15:38 OP:OBSP STATUS:               ID:20210203081055     I
 DUMMY                                                                         6
 STAT SP IPHASW D HRMM SECON CODA AMPLIT PERI AZIMU VELO AIN AR TRES W  DIS CAZ7
 KHIA BZ EP   1    81058.970                             144    0.09 7 9.66 301 
 KHIA BE ES   1    811 1.860                             144   -0.11 7 9.66 301 
 KOLO BZ EP   1    81059.160                             137    0.01 7 12.4 185 
 KOLO BE ES   1    811 2.500                             137    0.04 7 12.4 185 
 ABAD BZ  P   1    811 0.207                             117   -0.26 7 22.2 360 
 P5   BZ  P   1    811 0.956                             116    0.49 7 23.1 316 
 N1   BZ  P   1    811 1.971                             106   -0.26 7 34.4 269 
                                                                                
 2021  2 3 0816  0.9 L  28.841  51.301  8.6  SLT 10 0.1                 1.8L BI1
 GAP=195        0.35       1.0     1.8  1.9 -0.2307E+00 -0.1455E+01  0.9449E+00E
 Action:ARG 21-12-02 15:38 OP:OBSP STATUS:               ID:20210203081601     I
 DUMMY                                                                         6
 STAT SP IPHASW D HRMM SECON CODA AMPLIT PERI AZIMU VELO AIN AR TRES W  DIS CAZ7
 KHIA BZ EP   1    816 4.540                             104    0.04 7 13.6 285 
 KHIA BE ES   1    816 7.440                             104    0.04 7 13.6 285 
 KOLO BZ  P   1    816 4.718                             102    0.01 7 15.0 203 
 P9   BZ  P   1    816 5.714                              97    0.02 7 20.4 333 
 ABAD BZ  P   1    816 5.824                              97   -0.02 7 21.4 347 
 JNAK BZ EP   1    816 5.940                              96   -0.05 7 23.1 255 
 JNAK BE ES   1    81610.180                              96    0.09 7 23.1 255 
 TOLS BZ EP   1    816 6.220                              96    0.12 7 23.6 310 
 P4   BZ  P   1    816 6.792                              94   -0.16 7 28.3 300 
 DLRM BZ EP   1    816 6.940                              94   -0.18 7 29.3 228 
 DLRM BE ES   1    81611.930                              94   -0.21 7 29.3 228 
 ABTL BZ  P   1    816 7.926                              93   -0.00 7 33.9 328 
 ABAS BZ EP   1    816 7.930                              93   -0.10 7 34.3 182 
 ABAS BE ES   1    81614.180                              93    0.39 7 34.3 182 
                                                                                
 2021  2 3 0831 10.6 L  28.704  51.565  3.1  SLT 11 0.3                 2.9L BI1
 GAP=275        0.64       2.4     8.2  6.5 -0.9222E+01  0.4911E+02 -0.7641E+01E
 Action:ARG 21-12-02 15:38 OP:OBSP STATUS:               ID:20210203083109     I
 DUMMY                                                                         6
 STAT SP IPHASW D HRMM SECON CODA AMPLIT PERI AZIMU VELO AIN AR TRES W  DIS CAZ7
 KOLO BZ EP   1    83117.950                              43    0.14 7 31.6 273 
 KOLO BE ES   1    83123.470                              43   -0.19 7 31.6 273 
 ABAS BZ EP   1    83118.100                              43    0.08 7 33.0 235 
 ABAS BE ES   1    83123.980                              43   -0.06 7 33.0 235 
 KHIA BZ EP   1    83119.980                              43    0.15 7 43.2 296 
 KHIA BE ES   1    83127.240                              43   -0.06 7 43.2 296 
 ABAD BZ  P   1    83119.850                              43   -0.70 7 47.2 320 
 DLRM BZ EP   1    83120.380                              43   -0.18 7 47.8 265 
 DLRM BE ES   1    83128.210                              43   -0.41 7 47.8 265 
 JNAK BZ EP   1    83120.590                              43   -0.10 7 48.9 281 
 JNAK BE ES   1    83128.600                              43   -0.27 7 48.9 281 
 TOLS BZ  P   1    83121.661                              43    0.19 7 53.2 305 
 TOLS BE  S   1    83130.604                              43    0.32 7 53.2 305 
 P4   BZ  P   1    83122.283                              40   -0.02 7 58.1 300 
 P4   BE  S   1    83131.764                              40   -0.01 7 58.1 300 
 ABTL BZ  P   1    83122.708                              40   -0.21 7 61.9 315 
 ABTL BE  S   1    83132.641                              40   -0.25 7 61.9 315 
 N9   BZ  P   1    83124.321                              40    0.14 7 70.0 288 
 N9   BE  S   1    83135.585                              40    0.40 7 70.0 288 
 N4   BZ  P   1    83125.198                              40    0.76 7 71.4 284 
 N4   BE  S   1    83136.179                              40    0.53 7 71.4 284 
                                                                                
 2021  2 3 0845 30.5 L  28.802  51.217 16.0  SLT  4 0.3                 1.2L BI1
 GAP=192        0.66       4.0    10.3  6.0  0.3179E+02  0.1238E+02 -0.6198E+00E
 Action:ARG 21-12-02 15:38 OP:OBSP STATUS:               ID:20210203084530     I
 DUMMY                                                                         6
 STAT SP IPHASW D HRMM SECON CODA AMPLIT PERI AZIMU VELO AIN AR TRES W  DIS CAZ7
 KHIA BZ EP   1    84533.930                             144   -0.24 7 9.32 328 
 KHIA BE ES   1    84536.770                             144   -0.39 7 9.32 328 
 KOLO BZ EP   1    84534.050                             143   -0.14 7 9.70 166 
 KOLO BE ES   1    84537.530                             143    0.33 7 9.70 166 
 JNAK BZ  P   1    84534.564                             130   -0.00 7 14.1 263 
 TOLS BZ  P   1    84535.500                             116   -0.15 7 21.9 334 
 TOLS BE  S   1    84540.422                             116    0.58 7 21.9 334 
                                                                                
 2021  2 3 0908 34.9 L  28.864  51.323 28.9  SLT  5 0.4                 1.4L BI1
 GAP=242        0.72       5.8    15.4 10.0  0.5903E+02 -0.8963E+02 -0.3141E+02E
 Action:ARG 21-12-02 15:38 OP:OBSP STATUS:               ID:20210203090834     I
 DUMMY                                                                         6
 STAT SP IPHASW D HRMM SECON CODA AMPLIT PERI AZIMU VELO AIN AR TRES W  DIS CAZ7
 KHIA BZ EP   1    9 840.380                             149   -0.53 7 15.3 274 
 KOLO BZ  P   1    9 840.773                             145   -0.38 7 18.2 206 
 KOLO BE  S   1    9 846.476                             145    0.29 7 18.2 206 
 P9   BZ  P   1    9 841.503                             143    0.19 7 19.3 324 
 TOLS BZ  P   1    9 842.124                             137    0.50 7 23.7 302 
 TOLS BE  S   1    9 846.828                             137   -0.21 7 23.7 302 
 JNAK BZ EP   1    9 841.990                             134    0.15 7 25.8 251 
                                                                                
 2021  2 3 1918 49.5 L  28.362  50.704  8.8  SLT  5 0.0                 2.3L BI1
 GAP=302        0.27       7.9     9.2 28.7  0.6692E+02 -0.2597E+03 -0.2123E+03E
 Action:ARG 21-12-02 15:38 OP:OBSP STATUS:               ID:20210203191848     I
 DUMMY                                                                         6
 STAT SP IPHASW D HRMM SECON CODA AMPLIT PERI AZIMU VELO AIN AR TRES W  DIS CAZ7
 DLRM BZ  P   1   191859.154                              68    0.03 7 49.6  47 
 DLRM BE  S   1   1919 6.820                              68   -0.06 7 49.6  47 
 N7   BZ  P   1   1919 0.675                              68   -0.03 7 59.4  14 
 ABAS BZ EP   1   1919 0.880                              68   -0.04 7 60.4  72 
 ABAS BE ES   1   191910.150                              68    0.01 7 60.4  72 
 N10  BZ  P   1   1919 0.968                              68    0.04 7 60.6  14 
 KOLO BZ EP   1   1919 1.790                              68    0.00 7 65.6  53 
 KOLO BE ES   1   191911.750                              68    0.05 7 65.6  53 
                                                                                
 2021  2 3 2307  4.8 L  29.750  51.670 58.3  SLT 26 0.4                 3.1L BI1
 GAP=330        0.59      10.5     8.6 27.1  0.4246E+02 -0.1688E+03 -0.2586E+03E
 Action:ARG 21-12-02 15:38 OP:OBSP STATUS:               ID:20210203230702     I
 DUMMY                                                                         6
 STAT SP IPHASW D HRMM SECON CODA AMPLIT PERI AZIMU VELO AIN AR TRES W  DIS CAZ7
 ABAD BZ  P   1   23 722.841                             121   -0.12 6 89.7 207 
 P5   BZ  P   1   23 724.452                             117   -0.19 6  103 214 
 AHRM HZ EP   1   23 724.960                             117   -0.04 6  105 200 
 P4   BZ  P   1   23 724.066                             117   -1.07 6  106 215 
 SHIF BZ  P   1   23 725.355                             116   -0.03 6  108 226 
 KHIA BZ  P   1   23 725.355                             116   -0.30 6  109 207 
 KHIA BE ES   1   23 743.030                             116    0.47 6  109 207 
 P2   BZ  P   1   23 727.031                             115    0.59 6  115 218 
 P1   BZ EP   1   23 727.170                             114    0.40 5  117 219 
 P1   BE ES   1   23 745.320                             114    0.74 5  117 219 
 N16  BZ  P   1   23 727.224                             114    0.03 5  120 221 
 N16  BE  S   1   23 744.759                             114   -0.58 5  120 221 
 JNAK BZ EP   1   23 727.130                             113   -0.25 5  121 209 
 JNAK BE ES   1   23 746.170                             113    0.49 5  121 209 
 N12  BE ES   1   23 745.740                             113    0.06 5  122 220 
 N17  BZ  P   1   23 727.740                             113    0.24 5  122 223 
 N9   BE ES   1   23 746.290                             113    0.45 5  122 219 
 N15  BE ES   1   23 746.010                             113    0.19 5  122 221 
 N17  BE  S   1   23 745.661                             113   -0.23 5  122 223 
 N12  BZ EP   1   23 727.090                             113   -0.29 5  122 220 
 N15  BZ EP   1   23 727.270                             113   -0.19 5  122 221 
 N9   BZ EP   1   23 727.970                             113    0.50 5  122 219 
 N18  BZ EP   1   23 727.300                             113   -0.21 5  122 222 
 KOLO BZ EP   1   23 727.570                             113    0.01 5  122 200 
 KOLO BN  S   1   23 746.242                             113    0.25 5  122 200 
 N14  BZ  P   1   23 727.676                             113    0.11 5  123 222 
 N14  BN  S   1   23 746.371                             113    0.37 5  123 222 
 N6   BZ EP   1   23 728.050                             113    0.22 5  124 219 
 N6   BE ES   1   23 745.930                             113   -0.55 5  124 219 
 N7   BZ EP   1   23 728.010                             113    0.08 5  125 220 
 N11  BZ EP   1   23 728.030                             113    0.14 5  125 221 
 N11  BE ES   1   23 746.050                             113   -0.56 5  125 221 
 N13  BZ  P   1   23 727.676                             113   -0.31 5  125 222 
 CAMP BN  S   1   23 746.628                             113   -0.18 5  125 216 
 N7   BE ES   1   23 746.560                             113   -0.11 5  125 220 
 N13  BN  S   1   23 746.757                             113   -0.02 5  125 222 
 CAMP BZ  P   1   23 728.900                             113    0.90 5  125 216 
 N4   BZ EP   1   23 728.250                             112    0.04 5  127 219 
 N1   BZ  P   1   23 728.836                             112    0.50 5  127 216 
 N4   BE ES   1   23 746.760                             112   -0.42 5  127 219 
 N1   BN  S   1   23 747.144                             112   -0.26 5  127 216 
 DLRM BZ EP   1   23 729.000                             111   -0.20 5  133 206 
 ABAS BZ EP   1   23 730.020                             110   -0.23 5  140 195 
 ABAS BE ES   1   23 750.500                             110   -0.37 5  140 195 
                                                                                
 2021  2 4 0106  0.9 L  29.049  51.311  9.1  SLT  6 0.1                 1.1L BI1
 GAP=257        0.34       2.0     2.2  2.4  0.1986E+01 -0.1628E+01 -0.8367E+00E
 Action:ARG 21-12-02 15:38 OP:OBSP STATUS:               ID:20210204010600     I
 DUMMY                                                                         6
 STAT SP IPHASW D HRMM SECON CODA AMPLIT PERI AZIMU VELO AIN AR TRES W  DIS CAZ7
 ABAD BZ EP   1    1 6 3.460                             136    0.08 7 6.24 250 
 ABAD BE ES   1    1 6 5.420                             136    0.01 7 6.24 250 
 P9   BZ EP   1    1 6 4.070                             114   -0.06 7 11.3 245 
 P9   BE ES   1    1 6 6.730                             114   -0.05 7 11.3 245 
 ABTL BZ EP   1    1 6 5.380                             100   -0.05 7 19.8 287 
 ABTL BE ES   1    1 6 9.160                             100    0.03 7 19.8 287 
 TOLS BZ  P   1    1 6 5.422                              99   -0.08 7 20.4 248 
 TOLS BE  S   1    1 6 9.247                              99   -0.02 7 20.4 248 
 AHRM HZ  P   1    1 6 5.395                              99   -0.17 7 20.5 184 
 KHIA BZ  P   1    1 6 6.553                              97    0.32 7 24.1 216 
                                                                                
 2021  2 4 0904 11.2 L  28.965  51.287 17.3  SLT  6 0.4                 1.4L BI1
 GAP=203        0.86       7.7     6.8  8.7  0.8666E+01  0.3065E+01  0.4535E+02E
 Action:ARG 21-12-02 15:38 OP:OBSP STATUS:               ID:20210204090411     I
 DUMMY                                                                         6
 STAT SP IPHASW D HRMM SECON CODA AMPLIT PERI AZIMU VELO AIN AR TRES W  DIS CAZ7
 ABAD BZ EP   1    9 415.290                             151    0.36 7 7.88 334 
 ABAD BE ES   1    9 417.740                             151   -0.24 7 7.88 334 
 P9   BZ  P   1    9 415.320                             148    0.27 7 9.04 299 
 P9   BE  S   1    9 417.949                             148   -0.25 7 9.04 299 
 AHRM HZ  P   1    9 414.998                             141   -0.15 7 11.2 176 
 KHIA BZ EP   1    9 415.870                             131    0.17 7 15.6 229 
 TOLS BZ EP   1    9 416.170                             128    0.45 7 16.6 275 
 TOLS BE ES   1    9 419.770                             128    0.35 7 16.6 275 
 P4   BZ  P   1    9 415.695                             118   -0.95 7 23.2 271 
                                                                                
