 2021  210 2019 11.3 L  29.256  51.329 10.1  SLT 18 0.3                 2.3L BI1
 GAP=289        0.61       2.5     2.6  2.9 -0.7514E-01  0.5268E+00  0.2142E+01E
 Action:ARG 21-12-02 15:38 OP:OBSP STATUS:               ID:20210210201910     I
 DUMMY                                                                         6
 STAT SP IPHASW D HRMM SECON CODA AMPLIT PERI AZIMU VELO AIN AR TRES W  DIS CAZ7
 ABAD BZ EP   1   201917.410                              99    0.32 7 26.3 197 
 ABAD BE ES   1   201921.750                              99   -0.05 7 26.3 197 
 ABTL BZ EP   1   201917.260                              99    0.17 7 26.8 230 
 ABTL BE ES   1   201921.580                              99   -0.22 7 26.8 230 
 NOKA BZ EP   1   201917.550                              98    0.05 7 29.7 255 
 NOKA BE ES   1   201922.740                              98    0.21 7 29.7 255 
 P9   BZ EP   1   201918.010                              68    0.21 7 30.3 203 
 P9   BE ES   1   201922.930                              68   -0.15 7 30.3 203 
 TOLS BZ  P   1   201918.298                              68   -0.43 7 37.0 214 
 TOLS BE ES   1   201924.860                              68    0.10 7 37.0 214 
 AHRM HZ  P   1   201919.807                              68   -0.03 7 43.6 184 
 KHIA BZ EP   1   201920.450                              68    0.27 7 45.3 200 
 KHIA BE ES   1   201927.240                              68   -0.14 7 45.3 200 
 SHIF BZ  P   1   201919.988                              68   -0.61 7 48.9 245 
 P2   BZ  P   1   201921.301                              68    0.16 7 51.6 226 
 P2   BE  S   1   201929.151                              68    0.03 7 51.6 226 
 P1   BZ  P   1   201921.916                              68    0.35 7 54.5 228 
 P1   BE  S   1   201929.878                              68   -0.02 7 54.5 228 
 N15  BZ  P   1   201922.097                              68   -0.29 7 59.4 231 
 N12  BZ  P   1   201922.349                              68    0.07 7 59.4 230 
 N12  BE  S   1   201931.177                              68   -0.01 7 59.4 230 
 N15  BE  S   1   201931.218                              68   -0.16 7 59.4 231 
 N18  BZ  P   1   201922.433                              68   -0.10 7 60.2 234 
 N18  BE  S   1   201932.294                              68    0.64 7 60.2 234 
 N6   BZ  P   1   201923.075                              68    0.39 7 61.2 227 
 N6   BE  S   1   201931.735                              68   -0.18 7 61.2 227 
 CAMP BZ  P   1   201922.377                              68   -0.40 7 61.8 222 
 CAMP BE  S   1   201932.140                              68    0.06 7 61.8 222 
 N1   BZ  P   1   201922.335                              68   -0.78 7 63.8 221 
 N3   BZ  P   1   201923.341                              68    0.21 7 64.1 224 
 DLRM BZ  P   1   201924.430                              68    0.36 7 70.0 201 
                                                                                
 2021  210 2140 43.9 L  28.670  51.143  7.6  SLT 13 0.2                 1.2L BI1
 GAP=128        0.53       1.5     1.3  4.2  0.4652E+00 -0.1409E+01 -0.1965E+01E
 Action:ARG 21-12-02 15:38 OP:OBSP STATUS:               ID:20210210214044     I
 DUMMY                                                                         6
 STAT SP IPHASW D HRMM SECON CODA AMPLIT PERI AZIMU VELO AIN AR TRES W  DIS CAZ7
 DLRM BZ EP   1   214046.180                             123   -0.00 7 6.50 265 
 DLRM BE ES   1   214048.060                             123    0.03 7 6.50 265 
 KOLO BZ EP   1   214046.890                             101   -0.07 7 10.9  62 
 KOLO BE ES   1   214049.390                             101   -0.05 7 10.9  62 
 ABAS BZ EP   1   214048.640                              93   -0.06 7 21.0 137 
 ABAS BE ES   1   214052.660                              93    0.08 7 21.0 137 
 KHIA BZ EP   1   214049.090                              92    0.09 7 22.6   6 
 KHIA BE ES   1   214053.120                              92   -0.01 7 22.6   6 
 AHRM HZ  P   1   214049.612                              92    0.06 7 26.1  35 
 N1   BZ  P   1   214049.405                              92   -0.71 7 29.2 305 
 CAMP BZ  P   1   214050.040                              92   -0.13 7 29.6 309 
 N2   BZ  P   1   214050.109                              92   -0.23 7 30.6 307 
 N5   BZ  P   1   214050.496                              91   -0.02 7 31.7 307 
 N4   BZ  P   1   214051.186                              91    0.09 7 35.1 306 
 N6   BZ  P   1   214051.297                              91    0.16 7 35.2 311 
 N9   BZ  P   1   214051.407                              91    0.22 7 35.7 314 
 N11  BZ  P   1   214052.567                              91    0.57 7 40.2 310 
                                                                                
 2021  211 1303 43.6 L  29.045  51.482  7.2  SLT  8 0.1                 2.4L BI1
 GAP=309        0.33       2.1     2.7  5.9 -0.8701E+00 -0.6347E+01  0.2890E+01E
 Action:ARG 21-12-02 15:38 OP:OBSP STATUS:               ID:20210211130342     I
 DUMMY                                                                         6
 STAT SP IPHASW D HRMM SECON CODA AMPLIT PERI AZIMU VELO AIN AR TRES W  DIS CAZ7
 ABAD BZ EP   1   13 348.580                              91   -0.15 7 22.6 266 
 P9   BZ  P   1   13 349.710                              91    0.14 7 27.3 261 
 ABTL BZ EP   1   13 351.000                              90    0.01 7 36.1 280 
 ABTL BE ES   1   13 356.840                              90   -0.12 7 36.1 280 
 KHIA BZ EP   1   13 350.990                              90   -0.09 7 36.2 238 
 KHIA BE ES   1   13 357.030                              90   -0.11 7 36.2 238 
 TOLS BZ  P   1   13 351.118                              90    0.13 7 36.3 258 
 TOLS BE  S   1   13 357.164                              90    0.19 7 36.3 258 
 NOKA BZ  P   1   13 352.664                              90   -0.02 7 46.3 290 
 N1   BZ  P   1   13 355.231                              68   -0.11 7 62.0 247 
 N5   BZ  P   1   13 355.508                              68    0.13 7 62.4 249 
                                                                                
 2021  212 0251 43.7 L  28.911  51.063 15.8  SLT 11 0.5                 1.0L BI1
 GAP=151        1.03       5.2     3.3  5.9 -0.8341E+01 -0.5778E+01  0.1465E+02E
 Action:ARG 21-12-02 15:38 OP:OBSP STATUS:               ID:20210212025144     I
 DUMMY                                                                         6
 STAT SP IPHASW D HRMM SECON CODA AMPLIT PERI AZIMU VELO AIN AR TRES W  DIS CAZ7
 P4   BZ EP   1    25147.210                             154    0.18 7 6.31 348 
 P4   BE ES   1    25149.440                             154   -0.30 7 6.31 348 
 P5   BZ EP   1    25147.520                             148    0.41 7 7.85  17 
 P5   BN  S   1    25150.142                             148    0.25 7 7.85  17 
 TOLS BZ  P   1    25147.909                             144    0.68 7 9.16  35 
 TOLS BN  S   1    25150.939                             144    0.83 7 9.16  35 
 P3   BZ  P   1    25147.351                             143    0.04 7 9.45 296 
 P3   BE  S   1    25149.584                             143   -0.66 7 9.45 296 
 KHIA BZ  P   1    25147.351                             139   -0.16 7 10.9 113 
 P2   BZ EP   1    25147.640                             136    0.08 7 11.8 283 
 P2   BE ES   1    25150.320                             136   -0.38 7 11.8 283 
 P1   BZ  P   1    25148.202                             128    0.30 7 15.0 277 
 P1   BN  S   1    25151.045                             128   -0.27 7 15.0 277 
 N9   BZ  P   1    25149.105                             122    0.83 7 17.8 264 
 N9   BN  S   1    25152.188                             122    0.20 7 17.8 264 
 N12  BZ  P   1    25148.467                             119    0.04 7 19.4 269 
 N12  BN  S   1    25152.029                             119   -0.23 7 19.4 269 
 ABTL BZ  P   1    25148.919                             116    0.08 7 21.7  14 
 ABTL BN  S   1    25152.294                             116   -0.73 7 21.7  14 
 AHRM HZ  P   1    25147.909                             114   -1.17 7 23.2 103 
                                                                                
 2021  212 1618 55.4 L  28.708  51.175  6.5  SLT  6 0.3                 0.9L BI1
 GAP= 94        0.54       1.6     1.4  2.1 -0.1001E+00  0.2299E-01 -0.1262E+01E
 Action:ARG 21-12-02 15:38 OP:OBSP STATUS:               ID:20210212161855     I
 DUMMY                                                                         6
 STAT SP IPHASW D HRMM SECON CODA AMPLIT PERI AZIMU VELO AIN AR TRES W  DIS CAZ7
 KOLO BZ EP   1   161857.430                             125   -0.23 7 6.49  81 
 KOLO BE ES   1   161859.620                             125    0.14 7 6.49  81 
 DLRM BZ EP   1   161858.110                             107   -0.25 7 10.7 244 
 DLRM BE ES   1   1619 0.830                             107    0.09 7 10.7 244 
 JNAK BZ EP   1   161858.910                             102    0.08 7 13.3 311 
 JNAK BE ES   1   1619 1.580                             102   -0.00 7 13.3 311 
 KHIA BZ  P   1   1619 0.427                              59    0.60 7 18.3 357 
 KHIA BE  S   1   1619 3.070                              59   -0.33 7 18.3 357 
 AHRM HZ  P   1   1619 0.107                              59   -0.10 7 20.9  34 
 ABAS BZ  P   1   1619 0.534                              59    0.01 7 22.5 150 
                                                                                
 2021  213 0003 24.0 L  28.490  51.533 10.7  SLT 12 0.3                 2.5L BI1
 GAP=333        0.50      89.4   101.2162.8 -0.8968E+04  0.1646E+05 -0.1449E+05E
 Action:ARG 21-12-02 15:38 OP:OBSP STATUS:               ID:20210213000322     I
 DUMMY                                                                         6
 STAT SP IPHASW D HRMM SECON CODA AMPLIT PERI AZIMU VELO AIN AR TRES W  DIS CAZ7
 CAMP BZ  P   1    0 337.409                              68    0.32 7 72.3 303 
 CAMP BE  S   1    0 347.670                              68   -0.06 7 72.3 303 
 N5   BZ  P   1    0 337.071                              68   -0.36 7 74.4 302 
 N6   BZ EP   1    0 337.770                              68   -0.19 7 77.6 304 
 N6   BE ES   1    0 348.750                              68   -0.57 7 77.6 304 
 N9   BZ  P   1    0 338.146                              68    0.19 7 77.9 305 
 N4   BZ EP   1    0 337.990                              68    0.02 7 77.9 302 
 N4   BE ES   1    0 349.230                              68   -0.10 7 77.9 302 
 P1   BZ  P   1    0 338.238                              68    0.28 7 77.9 309 
 ABTL BZ  P   1    0 338.023                              68   -0.13 7 78.9 329 
 N7   BZ  P   1    0 338.453                              68    0.21 7 79.5 303 
 N7   BE ES   1    0 350.150                              68    0.34 7 79.5 303 
 N12  BZ EP   1    0 338.180                              68   -0.07 7 80.1 306 
 N17  BZ EP   1    0 339.010                              68   -0.23 6 85.6 306 
 N17  BE ES   1    0 352.050                              68    0.42 6 85.6 306 
 SHIF BZ EP   1    0 339.890                              68   -0.11 6 90.8 315 
 NOKA BZ  P   1    0 340.112                              68    0.06 6 91.2 328 
                                                                                
 2021  214 1441 25.5 L  28.748  51.414 27.9  SLT 25 0.3                 2.8L BI1
 GAP=234        0.55       2.2     2.4  4.5  0.2025E+01 -0.4267E+01 -0.3840E+01E
 Action:ARG 21-12-02 15:38 OP:OBSP STATUS:               ID:20210214144123     I
 DUMMY                                                                         6
 STAT SP IPHASW D HRMM SECON CODA AMPLIT PERI AZIMU VELO AIN AR TRES W  DIS CAZ7
 ABAS BZ EP   1   144132.600                             132    0.14 7 26.8 207 
 ABAS BE  S   1   144138.410                             132    0.28 7 26.8 207 
 KHIA BZ EP   1   144132.090                             131   -0.53 7 27.9 300 
 JNAK BZ EP   1   144132.770                             125   -0.44 7 33.5 277 
 DLRM BZ EP   1   144132.850                             124   -0.49 7 34.2 254 
 P9   BZ EP   1   144133.680                             124    0.11 7 34.9 325 
 ABAD BZ  P   1   144133.685                             124    0.13 7 34.9 333 
 TOLS BZ EP   1   144133.880                             121   -0.05 7 38.6 312 
 TOLS BE  S   1   144140.987                             121    0.21 7 38.6 312 
 P5   BZ  P   1   144133.657                             119   -0.58 7 40.9 309 
 P4   BZ  P   1   144134.516                             118   -0.07 7 43.1 304 
 ABTL BZ  P   1   144135.718                             115    0.33 7 48.6 324 
 N1   BZ EP   1   144136.180                             114    0.42 7 50.9 279 
 N1   BE ES   1   144143.830                             114   -0.27 7 50.9 279 
 N2   BZ  P   1   144135.919                             113    0.06 7 51.8 281 
 N2   BN  S   1   144143.936                             113   -0.34 7 51.8 281 
 N5   BZ EP   1   144136.070                             113    0.08 7 52.7 282 
 N5   BE ES   1   144144.260                             113   -0.26 7 52.7 282 
 N9   BZ  P   1   144136.291                             112    0.06 7 54.5 288 
 N9   BN  S   1   144145.425                             112    0.48 7 54.5 288 
 N6   BZ  P   1   144136.434                             112    0.10 7 54.9 285 
 N6   BE ES   1   144145.350                             112    0.21 7 54.9 285 
 N4   BZ  P   1   144136.606                             111    0.13 7 56.0 283 
 N4   BN  S   1   144145.224                             111   -0.16 7 56.0 283 
 N12  BZ  P   1   144136.692                             111    0.22 7 56.5 289 
 N12  BE ES   1   144145.530                             111    0.15 7 56.5 289 
 N7   BZ  P   1   144136.749                             111    0.14 7 56.9 285 
 N7   BE ES   1   144145.960                             111    0.33 7 56.9 285 
 N15  BZ EP   1   144136.830                             111    0.11 7 57.6 289 
 N15  BE ES   1   144145.660                             111   -0.18 7 57.6 289 
 N19  BZ  P   1   144136.377                             111   -0.37 7 57.8 292 
 N14  BZ  P   1   144136.778                             110   -0.18 7 59.5 289 
 N14  BN  S   1   144146.312                             110    0.05 7 59.5 289 
 N11  BZ  P   1   144136.921                             110   -0.13 7 59.8 287 
 N18  BZ EP   1   144137.230                             110    0.06 7 60.3 290 
 N18  BE ES   1   144146.640                             110   -0.02 7 60.3 290 
 N13  BZ  P   1   144137.322                             110    0.07 7 60.7 287 
 N17  BZ  P   1   144137.579                             109    0.23 7 61.7 290 
                                                                                
 2021  215 1111 57.7 L  28.872  51.416  6.5  SLT 10 0.3                 2.3L BI1
 GAP=247        0.69       3.7    11.1 20.7  0.2790E+02  0.2127E+03  0.5667E+02E
 Action:ARG 21-12-02 15:38 OP:OBSP STATUS:               ID:20210215111157     I
 DUMMY                                                                         6
 STAT SP IPHASW D HRMM SECON CODA AMPLIT PERI AZIMU VELO AIN AR TRES W  DIS CAZ7
 KOLO BZ EP   1   1112 2.950                              59   -0.20 7 24.3 225 
 KOLO BE ES   1   1112 7.230                              59   -0.31 7 24.3 225 
 KHIA BZ EP   1   1112 3.030                              59   -0.15 7 24.4 270 
 KHIA BE ES   1   1112 7.420                              59   -0.19 7 24.4 270 
 P9   BZ  P   1   1112 3.237                              59   -0.13 7 25.2 306 
 TOLS BZ EP   1   1112 4.200                              59   -0.11 7 31.5 292 
 P5   BZ  P   1   1112 4.832                              59    0.05 7 34.2 290 
 JNAK BZ EP   1   1112 5.820                              59    0.96 7 34.8 254 
 JNAK BE ES   1   111210.990                              59    0.34 7 34.8 254 
 P4   BZ  P   1   1112 5.195                              59   -0.16 7 37.3 286 
 ABTL BZ  P   1   1112 5.615                              59    0.03 7 38.6 311 
 ABAS BZ EP   1   1112 6.000                              59    0.19 7 39.7 198 
 DLRM BZ  P   1   1112 5.531                              59   -0.33 7 40.3 235 
                                                                                
