 2021  5 4 1853 25.4 L  29.712  50.656 20.7  SLT 18 0.7                 3.0L BI1
 GAP=292        1.22       7.8     6.0 37.6  0.2382E+02 -0.1195E+03 -0.2122E+03E
 Action:ARG 21-12-02 15:38 OP:OBSP STATUS:               ID:20210504185324     I
 DUMMY                                                                         6
 STAT SP IPHASW D HRMM SECON CODA AMPLIT PERI AZIMU VELO AIN AR TRES W  DIS CAZ7
 KHRK SZ EP   1   185334.670                             102   -2.19 7 60.6 213 
 KHRK SE ES       185346.860                             102    0.7510 60.6 213 
 NOKA BZ EP   1   185338.230                             100    0.17 7 68.8 148 
 NOKA BE ES       185348.190                             100   -0.0810 68.8 148 
 SHIF BZ  P       185338.214                              99   -0.72 9 74.3 163 
 SHIF BN  S   1   185349.944                              99    0.08 7 74.3 163 
 N9   BZ  P       185340.799                              97   -1.19 9 93.1 166 
 N9   BE  S   1   185355.186                              97   -0.20 6 93.1 166 
 N7   BZ  P   1   185343.145                              97    1.02 6 93.9 168 
 N7   BN  S   1   185355.258                              97   -0.38 6 93.9 168 
 N6   BZ EP       185343.390                              97    1.10 9 94.7 167 
 N6   BE ES   1   185355.870                              97   -0.06 6 94.7 167 
 P9   BZ  P   1   185342.762                              97    0.36 6 94.8 146 
 P9   BN  S   1   185356.958                              97    0.82 6 94.8 146 
 N4   BZ EP   1   185342.990                              97    0.43 6 96.5 168 
 N4   BE ES   1   185356.210                              97   -0.21 6 96.5 168 
 N5   BZ  P   1   185343.480                              97    0.55 6 98.8 167 
 N5   BE ES   1   185357.090                              97   -0.00 6 98.8 167 
 N3   BZ  P   1   185342.954                              97   -0.03 6 99.2 168 
 N3   BN  S   1   185356.742                              97   -0.45 6 99.2 168 
 N2   BZ  P   1   185343.696                              97    0.63 6 99.6 167 
 N2   BN  S   1   185357.006                              97   -0.33 6 99.6 167 
 CAMP BZ EP   1   185343.650                              97    0.56 6 99.8 166 
 CAMP BE ES   1   185357.570                              97    0.19 6 99.8 166 
 KHIA BZ EP   1   185344.310                              96    0.27 6  105 152 
 KHIA BE ES   1   185359.330                              96    0.23 6  105 152 
 JNAK BZ  P   1   185344.557                              96   -0.14 6  110 158 
 JNAK BE  S   1   1854 0.285                              96   -0.00 6  110 158 
 AHRM HZ EP   1   185345.050                              96   -0.10 6  113 146 
 AHRM HE ES       1854 0.580                              96   -0.52 8  113 146 
 DLRM BZ  P   1   185346.880                              95    0.09 6  123 160 
 DLRM BN  S   1   1854 3.991                              95   -0.09 6  123 160 
 KOLO BZ  P   1   185347.665                              95    0.63 6  124 153 
 KOLO BN  S   1   1854 4.614                              95    0.10 6  124 153 
 ABAS BZ  P   1   185350.825                              94    0.51 5  145 155 
 ABAS BN  S   1   1854 9.785                              94   -0.67 5  145 155 
                                                                                
 2021  5 4 2111  7.8 L  29.911  50.493  7.1  SLT 15 3.0                 3.3L BI1
 GAP=312        5.05     212.0    58.2276.6 -0.9235E+04 -0.1249E+05  0.5812E+05E
 Action:ARG 21-12-02 15:38 OP:OBSP STATUS:               ID:20210504211108     I
 DUMMY                                                                         6
 STAT SP IPHASW D HRMM SECON CODA AMPLIT PERI AZIMU VELO AIN AR TRES W  DIS CAZ7
 KHRK SZ EP   1   211121.240                              53   -0.09 9 74.8 194 
 KHRK SE ES   1   211131.730                              53   -0.58 9 74.8 194 
 NOKA BZ EP   1   211116.980                              53   -7.65 8 95.9 147 
 NOKA BE ES   1   211137.440                              53   -0.84 8 95.9 147 
 SHIF BZ  P   1   211125.683                              53    0.33 8  100 158 
 N17  BZ EP   1   211129.570                              53    2.23 8  112 163 
 N17  BE ES   1   211143.760                              53    0.58 8  112 163 
 N19  BZ EP   1   211129.990                              53    2.54 8  113 161 
 N18  BZ EP   1   211130.240                              53    2.69 8  113 163 
 N18  BE ES   1   211144.080                              53    0.53 8  113 163 
 N19  BE ES   1   211144.120                              53    0.74 8  113 161 
 N11  BE ES   1   211144.930                              53    0.56 8  116 164 
 N15  BZ EP   1   211130.840                              53    2.94 8  116 162 
 N15  BE ES   1   211144.510                              53    0.31 8  116 162 
 N11  BZ EP   1   211130.820                              53    2.82 8  116 164 
 P4   BZ EP   1   211130.650                              53    2.42 8  118 153 
 N10  BZ EP       211117.950                              53   -10.410  118 163 
 P4   BE ES   1   211145.370                              53    0.58 8  118 153 
 P5   BZ  P   1   211130.754                              53    2.47 7  118 151 
 P5   BE  S   1   211145.364                              53    0.47 7  118 151 
 N10  BE ES   1   211145.160                              53    0.23 7  118 163 
 N7   BZ EP   1   211130.860                              53    2.40 7  119 163 
 N7   BE ES   1   211145.600                              53    0.39 7  119 163 
 TOLS BZ EP   1   211129.970                              53    1.45 7  120 149 
 TOLS BE ES   1   211145.580                              53    0.26 7  120 149 
 P9   BZ EP   1   211131.100                              53    2.07 7  122 145 
 P9   BE ES   1   211145.690                              53   -0.54 7  122 145 
 N2   BZ EP   1   211131.270                              53    1.82 7  125 162 
 N2   BE ES   1   211146.260                              53   -0.73 7  125 162 
                                                                                
 2021  5 4 2111 12.8 L  29.737  50.651 40.6  SLT 23 0.6                 3.2L BI1
 GAP=333        1.15      10.6    10.8 26.1  0.2616E+02 -0.8245E+01 -0.2377E+03E
 Action:ARG 21-12-02 15:38 OP:OBSP STATUS:               ID:20210504211110     I
 DUMMY                                                                         6
 STAT SP IPHASW D HRMM SECON CODA AMPLIT PERI AZIMU VELO AIN AR TRES W  DIS CAZ7
 NOKA BZ  P   1   211127.491                             116    0.67 8 71.5 149 
 SHIF BZ  P   1   211128.719                             114    1.07 7 77.1 164 
 SHIF BN  S       211139.044                             114   -0.6510 77.1 164 
 N20  BZ  P   1   211129.471                             112    0.23 7 87.3 168 
 N20  BN  S       211141.275                             112   -1.3010 87.3 168 
 N14  BZ  P   1   211130.449                             110    0.50 7 92.4 169 
 N14  BN  S   1   211144.758                             110    0.89 7 92.4 169 
 P3   BZ  P       211128.043                             110   -2.04 9 92.8 160 
 P1   BZ  P   1   211130.298                             110    0.23 7 93.0 164 
 P2   BZ  P   1   211130.449                             110    0.28 7 93.3 162 
 P2   BN  S   1   211144.307                             110    0.05 7 93.3 162 
 N13  BZ  P   1   211130.148                             110   -0.07 7 93.4 170 
 N13  BN  S   1   211144.733                             110    0.38 7 93.4 170 
 N10  BZ  P   1   211130.824                             110    0.33 7 95.5 168 
 N9   BZ EP   1   211131.000                             110    0.49 7 95.9 166 
 N9   BE ES   1   211145.470                             110    0.59 7 95.9 166 
 N6   BZ EP   1   211130.970                             109    0.17 7 97.5 167 
 N6   BE ES   1   211145.700                             109    0.29 7 97.5 167 
 ABAD BZ  P   1   211130.975                             109    0.07 7 97.7 143 
 ABAD BN  S   1   211146.587                             109    0.99 7 97.7 143 
 N4   BZ EP   1   211131.050                             109   -0.01 7 99.4 168 
 N4   BE ES   1   211146.570                             109    0.71 7 99.4 168 
 N5   BZ EP   1   211131.190                             109   -0.22 7  102 167 
 N5   BE ES   1   211146.280                             109   -0.23 7  102 167 
 N3   BZ  P   1   211132.077                             108    0.61 7  102 168 
 N3   BN  S   1   211146.838                             108    0.23 7  102 168 
 CAMP BZ EP   1   211131.770                             108    0.20 7  103 166 
 CAMP BE ES   1   211146.840                             108    0.05 7  103 166 
 N1   BZ EP   1   211131.810                             108   -0.03 7  104 167 
 N1   BE ES   1   211147.670                             108    0.39 7  104 167 
 KHIA BZ EP   1   211132.700                             107    0.24 6  108 152 
 KHIA BE ES   1   211148.650                             107    0.24 6  108 152 
 JNAK BZ EP   1   211132.540                             107   -0.56 6  113 159 
 JNAK BE ES   1   211149.770                             107    0.21 6  113 159 
 AHRM HZ EP   1   211132.820                             106   -0.69 6  115 147 
 AHRM HE ES       211150.100                             106   -0.20 8  115 147 
 DLRM BZ EP   1   211134.990                             105   -0.14 6  126 161 
 DLRM BE ES   1   211153.040                             105   -0.20 6  126 161 
 KOLO BZ EP   1   211135.220                             105   -0.13 6  127 153 
 KOLO BE ES   1   211153.760                             105    0.12 6  127 153 
 ABAS BZ EP   1   211138.140                             103   -0.41 5  147 155 
 ABAS BE ES   1   211158.800                             103   -0.64 5  147 155 
                                                                                
 2021  5 5 1515 25.5 L  29.794  50.608 15.0  SLT 16 1.8                 3.2L BI1
 GAP=303        3.12      23.7    20.1327.6  0.2533E+03 -0.3032E+04 -0.6091E+04E
 Action:ARG 21-12-02 15:38 OP:OBSP STATUS:               ID:20210505151525     I
 DUMMY                                                                         6
 STAT SP IPHASW D HRMM SECON CODA AMPLIT PERI AZIMU VELO AIN AR TRES W  DIS CAZ7
 KHRK SZ EP       151536.540                              95   -1.1310 66.3 206 
 KHRK SE ES   1   151547.220                              95   -0.32 7 66.3 206 
 NOKA BZ EP   1   151540.990                              94    1.36 7 79.1 148 
 NOKA BE ES       151550.000                              94   -1.08 9 79.1 148 
 N17  BZ EP       151540.900                              93   -1.67 9 96.8 168 
 N17  BE ES   1   151556.810                              93    0.39 7 96.8 168 
 N18  BZ EP   1   151544.000                              93    1.23 6 97.9 167 
 N18  BE ES   1   151557.400                              93    0.62 6 97.9 167 
 N14  BZ EP   1   151544.010                              93    1.07 6 99.5 167 
 N14  BE ES   1   151557.560                              93    0.47 6 99.5 167 
 N15  BZ EP       151545.030                              93    1.92 9  100 166 
 N15  BE ES   1   151557.770                              93    0.38 6  100 166 
 N11  BZ EP   1   151543.960                              93    0.72 6  101 168 
 N11  BE ES   1   151557.770                              93    0.15 6  101 168 
 P4   BZ EP   1   151543.590                              93    0.31 6  101 155 
 P4   BE ES   1   151558.000                              93    0.32 6  101 155 
 N9   BZ EP       151543.020                              93   -0.54 8  103 165 
 TOLS BZ EP   1   151545.020                              93    1.49 6  103 151 
 TOLS BE ES   1   151558.470                              93    0.33 6  103 151 
 N9   BE ES   1   151558.390                              93    0.20 6  103 165 
 N7   BZ EP       151545.900                              93    2.22 8  104 167 
 N7   BE ES   1   151558.480                              93    0.05 6  104 167 
 N6   BZ EP   1   151545.010                              93    1.15 6  105 166 
 N6   BE ES   1   151558.600                              93   -0.14 6  105 166 
 N4   BZ EP   1   151545.040                              93    0.92 6  106 167 
 N4   BE ES   1   1516 0.060                              93    0.85 6  106 167 
 N5   BZ EP   1   151545.010                              92    0.51 6  109 166 
 N5   BE ES   1   151559.110                              92   -0.80 6  109 166 
 CAMP BZ EP   1   151545.020                              92    0.35 6  110 165 
 CAMP BE ES   1   151559.610                              92   -0.60 6  110 165 
 ABAS BZ EP       151543.030                              92   -8.93 6  155 154 
 ABAS BE ES   1   151611.820                              92   -1.58 5  155 154 
                                                                                
 2021  5 5 1515 27.7 L  29.716  50.711 28.8  SLT  9 0.2                 3.3L BI1
 GAP=338        0.41      11.1     5.7 54.0  0.6938E+01  0.7093E+01 -0.5766E+03E
 Action:ARG 21-12-02 15:38 OP:OBSP STATUS:               ID:20210505151525     I
 DUMMY                                                                         6
 STAT SP IPHASW D HRMM SECON CODA AMPLIT PERI AZIMU VELO AIN AR TRES W  DIS CAZ7
 N3   BZ EP   1   151545.530                             102    0.14 8 98.7 171 
 N3   BE ES   1   151559.470                             102   -0.24 8 98.7 171 
 N2   BZ EP   1   151545.580                             102    0.13 8 99.0 170 
 N2   BE ES   1   151559.550                             102   -0.27 8 99.0 170 
 CAMP BZ  P   1   151545.590                             102    0.12 8 99.1 169 
 N1   BZ EP   1   151545.880                             102    0.12 8  101 170 
 N1   BE ES   1   1516 0.310                             102   -0.06 8  101 170 
 KHIA BZ EP   1   151546.000                             101   -0.20 8  103 155 
 KHIA BE ES   1   1516 1.640                             101    0.46 8  103 155 
 JNAK BZ EP   1   151547.000                             101    0.06 8  109 161 
 JNAK BE ES   1   1516 3.040                             101    0.54 8  109 161 
 AHRM HZ EP   1   151546.930                             101   -0.29 7  110 149 
 AHRM HE ES       1516 2.810                             101   -0.2010  110 149 
 KOLO BZ EP   1   151549.180                              99    0.01 7  122 155 
 KOLO BE ES   1   1516 6.620                              99    0.08 7  122 155 
 DLRM BZ EP   1   151548.960                              99   -0.08 7  122 163 
 DLRM BE ES   1   1516 6.110                              99   -0.21 7  122 163 
                                                                                
 2021  5 6 0121 24.7 L  29.743  50.636  8.7  SLT 26 0.6                 3.5L BI1
 GAP=298        1.11      21.7     5.0 27.4  0.6476E+01  0.2459E+01  0.5835E+03E
 Action:ARG 21-12-02 15:38 OP:OBSP STATUS:               ID:20210506012123     I
 DUMMY                                                                         6
 STAT SP IPHASW D HRMM SECON CODA AMPLIT PERI AZIMU VELO AIN AR TRES W  DIS CAZ7
 KHRK SZ EP   1    12134.580                              68   -1.80 7 62.5 210 
 KHRK SE ES        12146.230                              68    0.3710 62.5 210 
 NOKA BZ  P        12136.742                              68   -1.1910 72.8 148 
 NOKA BE ES        12147.590                              68   -1.0910 72.8 148 
 SHIF BZ  P   1    12139.728                              68    0.92 7 78.2 163 
 SHIF BE ES   1    12150.490                              68    0.23 7 78.2 163 
 N20  BZ EP   1    12140.480                              68   -0.04 7 88.3 167 
 N20  BE ES   1    12153.150                              68   -0.20 7 88.3 167 
 N17  BZ EP   1    12140.760                              68   -0.15 7 90.7 169 
 N17  BE ES   1    12153.600                              68   -0.46 7 90.7 169 
 N19  BZ EP   1    12141.370                              68    0.40 7 91.1 166 
 N19  BE ES   1    12154.070                              68   -0.09 7 91.1 166 
 N18  BZ EP   1    12140.830                              68   -0.28 7 91.7 168 
 N18  BE ES   1    12153.980                              68   -0.44 7 91.7 168 
 N14  BZ EP   1    12141.620                              68    0.34 7 93.3 168 
 N14  BE ES   1    12153.950                              68   -0.78 7 93.3 168 
 P1   BE ES   1    12155.000                              68    0.02 7 94.0 163 
 N15  BZ EP   1    12141.570                              68    0.13 7 94.0 167 
 P1   BZ EP   1    12142.140                              68    0.72 7 94.0 163 
 N15  BE ES   1    12155.210                              68    0.19 7 94.0 167 
 P2   BZ EP   1    12142.270                              68    0.74 6 94.4 161 
 P2   BE ES        12156.390                              68    1.21 9 94.4 161 
 P4   BZ EP   1    12142.210                              68    0.62 6 94.9 155 
 N11  BZ EP   1    12141.430                              68   -0.15 6 94.9 169 
 N11  BE ES   1    12154.810                              68   -0.46 6 94.9 169 
 P4   BE ES   1    12156.190                              68    0.91 6 94.9 155 
 N10  BZ EP   1    12142.180                              68    0.32 6 96.5 167 
 N10  BE ES   1    12155.340                              68   -0.44 6 96.5 167 
 TOLS BZ EP   1    12142.710                              68    0.87 6 96.7 151 
 TOLS BE ES   1    12156.440                              68    0.70 6 96.7 151 
 N9   BZ EP   1    12141.390                              68   -0.50 6 96.9 166 
 N9   BE ES   1    12155.830                              68    0.00 6 96.9 166 
 N7   BZ EP   1    12142.470                              68    0.45 6 97.7 168 
 N7   BE ES   1    12155.730                              68   -0.34 6 97.7 168 
 N6   BZ EP   1    12141.840                              68   -0.35 6 98.5 167 
 N6   BE ES   1    12156.230                              68   -0.14 6 98.5 167 
 N4   BZ EP   1    12142.580                              68    0.13 6  100 168 
 N4   BE ES        12157.500                              68    0.65 8  100 168 
 N5   BE ES   1    12157.290                              68   -0.25 6  103 166 
 N3   BZ EP   1    12142.540                              68   -0.35 6  103 167 
 N2   BE ES   1    12157.580                              68   -0.21 6  103 166 
 N3   BE ES   1    12157.430                              68   -0.21 6  103 167 
 N5   BZ EP   1    12142.980                              68    0.15 6  103 166 
 N2   BZ EP   1    12143.560                              68    0.59 6  103 166 
 CAMP BZ EP   1    12143.050                              68    0.05 6  104 165 
 CAMP BE ES   1    12157.730                              68   -0.11 6  104 165 
 N1   BZ EP   1    12143.770                              68    0.49 6  105 166 
 N1   BE ES   1    12158.440                              68    0.09 6  105 166 
 KHIA BZ EP   1    12143.780                              68   -0.20 6  109 152 
 KHIA BE ES   1    12159.250                              68   -0.36 6  109 152 
 JNAK BZ EP   1    12145.080                              68    0.45 6  114 158 
 JNAK BE ES   1    122 1.000                              68    0.21 6  114 158 
                                                                                
