 2017 1226 2124 33.6 L  35.683  50.925 22.7  ABA 10 0.5 4.7LABA-2.9CABA        1
 GAP= 61        0.76       2.1     2.7  4.9  0.2452E+00 -0.6622E+01  0.5589E-01E
 Iranian Seismological Center, Institute of Geophysics, University of Tehran   6
 STAT SP IPHASW D HRMM SECON CODA AMPLIT PERI AZIMU VELO SNR AR TRES  W DIS CAZ7
 MHD  SZ EPg  0   2124 39.1                              134   -0.1410 23.3 271 
 MHD  SN ESg  0   2124 42.9                              134   -0.4710 23.3 271 
 HSB  BZ EPg  0   2124 41.3                              116   -0.33 9 41.9 130 
 TEH  BZ EPg  0   2124 41.6                              115   -0.19 9 42.7  80 
 QOM  SZ EPg  0   2124 49.9                               98    0.23 7 94.1 172 
 QOM  SN ESg  0   2125 1.6                                98    0.18 7 94.1 172 
 QOM  SZ E    0   2125  2.10    187274.0 0.28                          94.1 172 
 RAZ  SZ EPg  0   2124 50.4                               99    0.44 7 95.4 251 
 RAZ  SZ E    0   2125  3.72    120912.0 0.24                          95.4 251 
 DMV  SZ EPg  0   2124 51.0                               98    0.10 7  101  96 
 DMV  SZ E    0   2125  4.98     76805.3  0.2                           101  96 
 MZPU BZ EPg  0   2124 51.4                               98    0.37 7  102  34 
 MZPU BE ESg  0   2125 3.7                                98   -0.07 7  102  34 
 VRN  BZ EPg  0   2124 51.6                               97    0.11 7  106 136 
 VRN  BN ESg  0   2125 4.8                                97    0.22 7  106 136 
 PRN  SZ EPg  0   2124 57.7                               94    0.42 6  142  64 
 PRN  SZ E    0   2125 23.60     38544.1  0.8                           142  64 
 JIR1 BZ EPg  0   2124 59.6                               94    0.66 5  152 319 
 FIR  BE EPg  4   2125 0.9                                94   -0.29 0  166  91 
 FIR  BZ E    0   2125 24.10     46904.8  0.2                           166  91 
 ALA  SZ EPg  0   2125 3.0                                93    0.15 4  176  75 
 ALA  SZ E    0   2125 31.26     40260.6 0.24                           176  75 
 LHJ2 BZ EPg  0   2125 4.7                                93    1.14 4  182 335 
 QSDN BZ EPn  0   2125 3.9                                51   -1.49 4  182 301 
 LAS  SZ EPg  4   2125 4.8                                93    0.21 0  188 100 
 HAGD BZ EPg  0   2125 5.1                                93    0.32 4  188 240 
 LAS  SZ E    0   2125 28.75     31839.2 0.24                           188 100 
 HAGD BZ E    0   2125 31.10     16701.4 0.24                           188 240 
 SFB  BZ EPg  4   2125 4.7                                93   -0.30 0  190 140 
 SFB  BZ E    0   2125 30.82     22986.5 0.24                           190 140 
 QAMS SZ EPn  4   2125 8.9                                51   -1.27 0  220 169 
 KRSH BZ EPn  0   2125 8.9                                51   -1.16 3  220 149 
 QAMS SZ E    0   2125 39.72     26706.0  0.4                           220 169 
 KIA  SZ EPn  0   2125 13.6                               51   -0.99 2  256  76 
 KIA  SZ E    0   2125 19.76      8276.6 0.28                           256  76 
 CSN1 BZ EPn  4   2125 14.7                               51   -0.79 0  265 322 
 HALM SZ EPn  4   2125 15.8                               51   -0.23 0  267 251 
 HALM SZ E    0   2125 21.00     11529.9  0.2                           267 251 
 HSAM BZ EPn  0   2125 15.9                               51   -0.21 1  268 233 
 HSAM BZ E    0   2125 55.36      9253.2 0.64                           268 233 
 KLH  SZ EPn  4   2125 15.6                               51   -0.67 0  269 167 
 KLH  SZ E    0   2125 49.66     18491.9  0.2                           269 167 
 ANJ  SZ EPn  4   2125 15.9                               51   -0.70 0  272  94 
 ANJ  SZ E    0   2125 53.51     13639.9  0.4                           272  94 
 GLO  SZ E    0   2125 21.76     10010.4 0.64                           277  70 
 BZA  BZ EPn  4   2125 21.8                               51    0.38 0  310 245 
 PIR  SE EPn  4   2125 25.0                               51    0.73 0  333 181 
 PIR  SZ E    0   2126  8.92      4220.6 0.28                           333 181 
 ZEF  SZ EPn  4   2125 24.0                               51   -0.53 0  335 157 
 ZEF  SZ E    0   2126 15.51      3909.6 0.32                           335 157 
 GAS1 BZ EPn  4   2125 25.4                               51   -1.02 0  353 329 
 KOM  BZ EPn  4   2125 26.7                               51   -0.07 0  354 243 
 KOM  BZ E    0   2126 21.04      3504.0 1.08                           354 243 
 KFM  BZ E    0   2126 31.50      6616.8 1.04                           370 231 
 LIN  BZ EPn  4   2125 29.0                               51    0.11 0  370 258 
 KFM  BZ EPn  0   2125 28.3                               51   -0.53 0  370 231 
 HSH  SZ EPn  4   2125 28.0                               51   -1.39 0  374 300 
 HSH  SZ E    0   2126 35.84      3892.6 0.56                           374 300 
 SRB  SZ EPn  4   2125 28.8                               51   -0.79 0  376 310 
 SRB  SZ E    0   2126 24.39      4473.8 0.32                           376 310 
 JHBN BZ EPn  4   2125 31.3                               51    0.65 0  384 184 
 JHBN BZ E    0   2126 28.46      3524.9 0.48                           384 184 
 KCHF BZ EPn  4   2125 30.7                               51   -0.31 0  388 247 
 KCHF BZ E    0   2125 43.92      2543.1 0.64                           388 247 
 ZNGN BZ EPn  4   2125 31.8                               51   -0.34 0  396 181 
 GHG  SZ EPn  4   2125 35.5                               51   -0.25 0  425 251 
 GHG  SZ E    0   2126  3.10      2954.0 0.76                           425 251 
 DHR  BZ EPn  4   2125 35.8                               51   -0.21 0  427 257 
 DHR  BZ E    0   2125 49.60      2147.9  0.4                           427 257 
 GRMI BZ EPn  4   2125 36.7                               51   -0.67 0  439 323 
 RAM  SZ EPn  4   2125 39.2                               51    0.30 0  450 162 
 HRS  SZ EPn  4   2125 38.7                               51   -0.51 0  453 311 
 HRS  SZ E    0   2126  2.86      2002.2  0.4                           453 311 
 AMIS BZ EPn  0   2125 40.4                               51   -0.84 0  471 199 
 ILBA BN EPn  4   2125 42.4                               51   -1.16 0  489 244 
 SAD  SZ E    0   2125 46.98      1491.4 0.32                           490 148 
 AZR  SZ EPn  4   2125 43.9                               51   -0.49 0  494 298 
 AZR  SZ E    0   2127  2.80      1879.4 0.68                           494 298 
 CHK  SE EPn  4   2125 44.4                               51   -0.52 0  499 139 
 CHK  SZ E    0   2127 12.98      1785.2  0.4                           499 139 
 KGS1 BZ EPn  4   2125 44.7                               51   -0.64 0  504 257 
 MRVT BZ EPn  4   2125 45.4                               51   -0.94 0  511  63 
 KLNJ BZ EPn  4   2125 47.1                               51   -0.86 0  522 173 
 SHB  SZ E    0   2127 10.76      1103.0 0.32                           553 303 
 MRD  SZ E    0   2127 27.48      2517.7 0.92                           573 308 
 MEH  SZ EPn  4   2125 54.9                               51   -1.01 0  586 143 
 MEH  SZ E    0   2127 38.38       722.4 0.68                           586 143 
 TPRV BZ EPn  4   2125 56.6                               51   -1.64 0  606 117 
 BAF  SZ EPn  4   2125 59.5                               51   -1.22 0  626 135 
 AFRZ BZ EPn  4   2126 19.1                               51   -1.35 0  783 106 
 KOO  SZ EPn  4   2126 24.9                               51   -1.26 0  828 114 
 TBJM BZ EPn  4   2126 27.6                               51   -1.78 0  854  90 
 BSRN BZ EPn  4   2126 28.9                               51   -1.56 0  863 116 
                                                                                
