 2017 1220 1957 37.1 L  35.674  50.948 24.3  ABA  9 0.4 5.6LABA-2.1CABA        1
 GAP= 67        0.72       2.8     2.5  6.7 -0.5542E+00  0.2580E+00 -0.1837E+01E
 Iranian Seismological Center, Institute of Geophysics, University of Tehran   6
 STAT SP IPHASW D HRMM SECON CODA AMPLIT PERI AZIMU VELO SNR AR TRES  W DIS CAZ7
 MHD  SZ EPg  0   1957 42.5                              132   -0.6510 25.5 273 
 MHD  SE ESg  4   1957 46.4                              132   -1.20 0 25.5 273 
 HSB  BZ EPg  0   1957 44.6                              117   -0.32 9 39.6 131 
 HSB  BN ESg  4   1957 50.2                              117   -0.46 0 39.6 131 
 TEH  BZ EPg  0   1957 44.9                              116   -0.22 9 40.8  78 
 TEH  BN ESg  4   1957 50.5                              116   -0.51 0 40.8  78 
 QOM  SZ EPg  0   1957 53.4                               91    0.41 8 92.9 174 
 QOM  SZ E    0   1958  5.44     2014760 0.36                          92.9 174 
 KLST BZ EPg  0   1957 53.4                               91    0.04 7 94.2   6 
 KLST BZ E    0   1957 54.32    627275.0 0.28                          94.2   6 
 RAZ  SZ EPg  0   1957 54.0                               91    0.26 7 97.1 252 
 RAZ  SN ESg  0   1958 6.1                                91    0.18 7 97.1 252 
 DMV  SZ EPg  0   1957 54.0                               91   -0.06 7 98.8  96 
 MZPU BZ EPg  0   1957 54.5                               91    0.04 7  102  33 
 VRN  BZ EPg  0   1957 54.9                               91    0.26 7  103 137 
 PRN  SZ EPg  0   1958 1.0                                90    0.57 6  140  63 
 PRN  SZ E    0   1958 27.02    492749.0  0.8                           140  63 
 JIR1 BZ EPg  0   1958 2.8                                90    0.18 5  154 318 
 FIR  BZ EPg  4   1958 3.9                                90   -0.26 0  164  91 
 FIR  BZ E    0   1958 26.60    183146.0 0.28                           164  91 
 ALA  SZ EPg  0   1958 6.1                                90    0.26 5  174  74 
 ALA  SZ E    0   1958 34.22    290782.0 0.84                           174  74 
 QSDN BZ EPg  0   1958 7.3                                90   -0.10 4  184 300 
 QSDN BZ E    0   1958 32.12    421744.0 0.44                           184 300 
 LHJ2 BZ EPg  0   1958 8.1                                90    1.03 4  184 335 
 LAS  SZ EPg  4   1958 7.6                                90    0.14 0  185 100 
 LAS  SZ E    0   1958 36.75    183838.0  0.4                           185 100 
 SFB  BZ EPn  0   1958 7.9                                              188 141 
 SFB  BZ E    0   1958 33.96    176111.0 0.48                           188 141 
 HAGD BZ EPg  0   1958 8.6                                90    0.38 4  190 241 
 HAGD BZ E    0   1958 35.18    520493.0 0.36                           190 241 
 KRSH BZ EPn  4   1958 11.6                                             218 150 
 QAMS SZ EPn  4   1958 12.1                                             219 169 
 QAMS SZ E    0   1958 41.88    360362.0 0.28                           219 169 
 CSN1 BZ EPn  4   1958 18.1                                             267 322 
 KLH  SZ EPn  4   1958 18.5                                             268 167 
 KLH  SZ E    0   1958 59.11    127968.0  0.4                           268 167 
 HALM SZ EPn  4   1958 18.8                                             269 251 
 HALM SZ E    0   1959  5.02    131903.0 0.84                           269 251 
 ANJ  SZ EPn  4   1958 18.6                                             270  94 
 ANJ  SZ E    0   1958 54.82    166043.0  0.8                           270  94 
 GLO  SZ EPn  4   1958 20.6                                             275  70 
 GLO  SZ E    0   1959 14.94    175311.0 0.84                           275  70 
 BZA  BZ EPn  4   1958 24.8                                             312 246 
 PIR  SZ EPn  4   1958 28.0                                             332 181 
 PIR  SZ E    0   1959 16.26     97710.5 0.68                           332 181 
 ZEF  SZ EPn  4   1958 27.0                                             333 157 
 ZEF  SZ E    0   1959  9.78     91478.0    1                           333 157 
 GAS1 BZ EPn  4   1958 28.4                                             355 329 
 KOM  BZ EPn  4   1958 30.7                                             355 243 
 KOM  BZ E    0   1959 24.80     88441.7 1.12                           355 243 
 KFM  BZ EPn  4   1958 32.6                                             371 231 
 LIN  BZ EPn  4   1958 32.0                                             372 258 
 LIN  BZ E    0   1959 25.90     65634.2 0.68                           372 258 
 ANAR BZ EPn  4   1958 32.0                                             376 136 
 ANAR BZ E    0   1959 35.90     55547.2  0.8                           376 136 
 GAR  SZ E    0   1959 38.18     29149.3 0.64                           376 164 
 HSH  SZ EPn  4   1958 31.2                                             376 300 
 HSH  SZ E    0   1958 41.55     80850.0 0.44                           376 300 
 GAR  SZ EPn  4   1958 33.4                                             376 164 
 SRB  SZ EPn  4   1958 32.0                                             378 310 
 SRB  SZ E    0   1958 46.47     93255.9 0.92                           378 310 
 JHBN BZ EPn  4   1958 33.9                                             383 184 
 JHBN BZ E    0   1959 42.86     57311.9 0.88                           383 184 
 KCHF BZ EPn  4   1958 34.5                                             389 248 
 KCHF BZ E    0   1959 44.56     52345.9 0.68                           389 248 
 ZNGN BZ EPn  4   1958 35.0                                             395 181 
 BRJ  SZ EPn  4   1958 38.3                                             419 176 
 BRJ  SZ E    0   2000  2.78     31555.9 0.96                           419 176 
 GHG  SZ EPn  4   1958 39.0                                             427 251 
 GHG  SZ E    0   1959 50.06     63042.7 0.84                           427 251 
 DHR  BZ EPn  4   1958 39.0                                             429 257 
 DHR  BZ E    0   1959 56.94     29808.1  1.2                           429 257 
 MND  BZ EPn  4   1958 38.4                                             434  65 
 MND  BZ E    0   1959 47.88     20882.8 0.96                           434  65 
 GRMI BZ EPn  4   1958 39.8                                             441 323 
 GRMI BZ E    0   1959 52.60       -99.0 0.76                           441 323 
 RAM  SZ EPn  4   1958 41.7                                             449 162 
 RAM  SZ E    0   2000  4.12     19755.5 0.84                           449 162 
 HRS  SZ EPn  4   1958 41.1                                             455 311 
 HRS  SZ E    0   1958 57.22     33513.3 0.56                           455 311 
 AMIS BZ EPn  0   1958 44.3                                             471 200 
 AMIS BZ E    0   2000  6.12     32755.6 1.04                           471 200 
 MAHB BZ EPn  4   1958 45.0                                             487 286 
 MAHB BZ E    0   1959  3.30     20715.4  0.6                           487 286 
 SAD  SZ EPn  4   1958 46.8                                             488 148 
 SAD  SZ E    0   2000  5.70     25803.0 0.64                           488 148 
 ILBA BZ EPn  4   1958 44.9                                             490 244 
 ILBA BZ E    0   2000  8.90       -99.0 0.72                           490 244 
 SDS1 BZ EPn  4   1958 47.1                                             496 278 
 AZR  SZ EPn  4   1958 46.6                                             496 298 
 SDS1 BZ E    0   2000 10.38     21285.6 0.84                           496 278 
 AZR  SZ E    0   2000  8.12     51703.6 1.04                           496 298 
 CHK  SZ EPn  4   1958 47.2                                             497 139 
 CHK  SZ E    0   2000 16.03     23924.6 0.68                           497 139 
 KGS1 BZ EPn  4   1958 47.7                                             506 257 
 KGS1 BZ E    0   2000  9.26     21177.8  0.8                           506 257 
 MRVT BZ EPn  4   1958 48.0                                             510  63 
 TBZ  SZ EPn  4   1958 47.3                                             513 305 
 TBZ  SZ E    0   2000 15.59     12621.4 0.64                           513 305 
 KLNJ BZ EPn  4   1958 49.5                                             521 173 
 KLNJ BZ E    0   2000 21.96     20120.3    1                           521 173 
 TNSJ BZ EPn  4   1958 53.0                                             551 109 
 SHB  SZ EPn  4   1958 52.3                                             556 303 
 SHB  SZ E    0   1959 16.03     18848.4 0.56                           556 303 
 MRD  SZ EPn  4   1958 57.2                                             575 307 
 MRD  SZ E    0   2000 31.20     33723.9  0.8                           575 307 
 MEH  SZ EPn  4   1958 57.5                                             584 143 
 MEH  SZ E    0   2000 37.77     18774.1  0.8                           584 143 
 TPRV BZ EPn  4   1959 0.3                                              604 117 
 SBZV BZ EPn  4   1959 0.3                                              606  81 
 TKDS BZ EPn  4   1959 0.7                                              610 110 
 BAF  SZ EPn  4   1959 3.0                                              623 135 
 SHI  BZ EPn  4   1959 10.2                                             685 167 
 MAKU BZ EPn  4   1959 9.5                                              688 308 
 AKL  SZ EPn  4   1959 13.8                                             710  79 
 EMG  SZ EPn  4   1959 15.2                                             716  72 
 PAY  SZ EPn  4   1959 16.6                                             729  81 
 ZRDN BZ EPn  4   1959 17.1                                             737 134 
 TBHD SZ EPn  4   1959 18.9                                             752  90 
 AHRM BN EPn  4   1959 18.3                                             755 179 
 MOG  SZ EPn  4   1959 19.8                                             759  84 
 KRD  SZ EPn  4   1959 22.9                                             780  78 
 AFRZ BZ EPn  4   1959 21.8                                             781 106 
 TEG  SZ EPn  4   1959 22.2                                             781 111 
 KHGB BZ EPn  4   1959 22.7                                             782 137 
 KOO  SZ EPn  4   1959 27.9                                             826 114 
 MYA  SZ EPn  4   1959 30.2                                             828  82 
 TVBK BZ EPn  4   1959 29.5                                             833 138 
 JRKH BZ EPn  4   1959 31.3                                             850  86 
 TBJM BZ EPn  4   1959 30.9                                             852  90 
 BSRN BZ EPn  4   1959 31.7                                             861 116 
 NGRK BZ EPn  4   1959 32.2                                             861 139 
 DAH  SZ EPn  4   1959 34.5                                             884 109 
 SHRT BZ EPn  4   1959 34.8                                             885 102 
 CHMN BZ EPn  4   1959 36.8                                             892 134 
 NHDN BZ EPn  4   1959 46.2                                             969 117 
 KBAM BZ EPn  4   1959 52.7                                            1011 134 
 GENO BZ EPn  4   1959 54.8                                            1042 150 
 KHNJ BZ EPn  4   1959 58.6                                            1068 141 
 ZHDN BZ EPn  4   2000 9.1                                             1157 124 
 JASK BZ EPn  4   2000 23.0                                            1272 147 
                                                                                
 2017 1221 0109 19.6 L  35.669  50.937 18.4  ABA  1 0.2 3.8LABA                1
 GAP=112        0.35       1.8     1.5  4.6  0.9156E+00 -0.1359E+01 -0.4308E+01E
 Iranian Seismological Center, Institute of Geophysics, University of Tehran   6
 STAT SP IPHASW D HRMM SECON CODA AMPLIT PERI AZIMU VELO SNR AR TRES  W DIS CAZ7
 MHD  SZ EPg  0   0109 24.9                              125   -0.0510 24.5 274 
 MHD  SZ E    0   0109 30.70     58840.0 0.04                          24.5 274 
 HSB  BZ EPg  0   0109 27.2                              110    0.10 9 40.0 130 
 HSB  BN ESg  0   0109 32.6                              110    0.00 9 40.0 130 
 HSB  BZ E    0   0109 32.86     27043.6 0.04                          40.0 130 
 TEH  BZ EPg  0   0109 27.4                              109   -0.02 9 41.9  77 
 TEH  BZ E    0   0109 35.92      5423.4 0.24                          41.9  77 
 KLST BZ EPg  0   0109 35.8                               94   -0.08 7 94.9   7 
 KLST BZ E    0   0109 47.76      2486.2 0.32                          94.9   7 
 RAZ  SZ EPg  0   0109 36.1                               94    0.11 7 96.0 253 
 RAZ  SZ E    0   0109 37.28      4610.1 0.12                          96.0 253 
 DMV  SZ EPg  0   0109 36.7                               93    0.06 7 99.7  96 
 DMV  SZ E    0   0109 55.44      1837.7 0.24                          99.7  96 
 MZPU BZ EPg  0   0109 37.2                               93    0.13 7  103  33 
 MZPU BZ E    0   0109 50.68      1295.0 0.44                           103  33 
 FIR  BZ EPg  0   0109 46.8                               91   -0.19 5  165  91 
 FIR  BZ E    0   0110  9.66      1470.8  0.2                           165  91 
 SFB  BZ EPg  0   0109 50.1                               91   -0.58 4  188 140 
                                                                                
