 2022  611 2359 59.9 L  36.677  52.011 13.2  New  5 0.5                        1
 GAP=203        1.33       9.9    12.5  7.3  0.1145E+03  0.5495E+02  0.3754E+02E
 Action:ARG 22-06-12 20:22 OP:OBSP STATUS:               ID:20220612155332     I
 STAT SP IPHASW D HRMM SECON CODA AMPLIT PERI AZIMU VELO AIN AR TRES W  DIS CAZ7
 MTOS    EP   0   24 012.755                              94   -0.6710 67.6 107 
 MTOS    ES   0   24 023.908                              94    0.3810 67.6 107 
 JFVP    EP   0   24 014.776                              64   -0.7310 79.7 129 
 JFVP    ES   0   24 027.605                              64    0.4310 79.7 129 
 UMUW    EP   0   24 019.543                              53    0.40 9  102 124 
 UMUW    ES   0   24 033.534                              53   -0.01 9  102 124 
 VMZK    EP   0   24 020.532                              53    0.74 9  107 124 
 VMZK    ES   0   24 034.025                              53   -0.66 9  107 124 
 CMGM    EP   0   24 022.485                              53    0.49 9  122 332 
 CMGM    ES   0   24 038.246                              53   -0.28 9  122 332 
                                                                                
 2022  611 2359 58.1 L  36.709  51.488 18.2  New  7 0.7                        1
 GAP=260        1.67     362.6   999.9999.9 -0.4799E+06 -0.1934E+07  0.5295E+06E
 Action:ARG 22-06-12 20:22 OP:OBSP STATUS:               ID:20220612155432     I
 STAT SP IPHASW D HRMM SECON CODA AMPLIT PERI AZIMU VELO AIN AR TRES W  DIS CAZ7
 MCRG    EP   0   24 0 8.591                              90   -0.5910 55.1 201 
 MCRG    ES   0   24 017.618                              90    0.1210 55.1 201 
 MTOS    EP   0   24 018.917                              62    0.45 9  114 102 
 MTOS    ES   0   24 032.729                              62   -1.01 9  114 102 
 JFVP    EP   0   24 018.727                              62   -0.83 9  121 116 
 JFVP    ES   0   24 036.873                              62    1.22 9  121 116 
 OMHQ    EP   0   24 020.028                              62   -0.08 9  125 105 
 OMHQ    ES   0   24 035.580                              62   -1.02 9  125 105 
 EQSO    EP   0   24 021.534                              62    0.60 9  131 104 
 EQSO    ES   0   24 038.162                              62    0.11 9  131 104 
 UMUW    EP   0   24 024.296                              62    1.25 8  145 114 
 UMUW    ES   0   24 041.928                              62    0.17 8  145 114 
 VMZK    EP   0   24 023.868                              62    0.19 8  149 115 
 VMZK    ES   0   24 042.622                              62   -0.24 8  149 115 
                                                                                
 2022  612 0000  0.5 L  36.097  51.836 14.6  New  6 0.7                        1
 GAP=259        1.70      16.7    12.8 18.7  0.1753E+03 -0.1734E+03 -0.2250E+03E
 Action:ARG 22-06-12 20:22 OP:OBSP STATUS:               ID:20220612155532     I
 STAT SP IPHASW D HRMM SECON CODA AMPLIT PERI AZIMU VELO AIN AR TRES W  DIS CAZ7
 JFVP    EP   0    0 015.442                              64   -0.3910 78.8  80 
 JFVP    ES   0    0 027.510                              64    0.2010 78.8  80 
 OMHQ    EP   0    0 019.162                              53    0.5010 96.0  69 
 OMHQ    ES   0    0 032.454                              53    0.1810 96.0  69 
 UMUW    EP   0    0 020.423                              53    0.99 9  101  86 
 UMUW    ES   0    0 032.293                              53   -1.32 9  101  86 
 EQSO    EP   0    0 019.689                              53    0.13 9  102  69 
 EQSO    ES   0    0 033.397                              53   -0.44 9  102  69 
 VMZK    EP   0    0 019.245                              53   -0.66 9  104  87 
 VMZK    ES   0    0 035.495                              53    1.06 9  104  87 
 CMGM    EP   0    0 029.664                              53   -0.81 8  176 346 
 CMGM    ES   0    0 053.370                              53    0.44 8  176 346 
                                                                                
 2022  611 2359 59.4 L  36.327  51.047 10.4  New  8 1.0                        1
 GAP=256        2.16       7.8    14.2  5.6  0.7844E+02 -0.1261E+02  0.9252E+00E
 Action:ARG 22-06-12 20:22 OP:OBSP STATUS:               ID:20220612155632     I
 STAT SP IPHASW D HRMM SECON CODA AMPLIT PERI AZIMU VELO AIN AR TRES W  DIS CAZ7
 XMTN    EP   0   24 0 2.248                             114   -0.9510 15.1  23 
 XMTN    ES   0   24 0 6.549                             114    0.5010 15.1  23 
 MCRG    EP   0   24 0 5.332                             100    0.9810 21.6 114 
 MCRG    ES   0   24 0 7.920                             100   -0.1610 21.6 114 
 CMGM    EP   0   24 026.317                              53    0.64 8  148  11 
 CMGM    ES   0   24 045.897                              53    0.50 8  148  11 
 JFVP    EP   0   24 025.669                              53   -0.09 8  149  94 
 JFVP    ES   0   24 045.702                              53    0.16 8  149  94 
 MTOS    EP   0   24 024.285                              53   -1.99 8  152  82 
 MTOS    ES   0   24 046.124                              53   -0.31 8  152  82 
 EQSO    EP   0   24 026.626                              53   -1.76 8  167  86 
 EQSO    ES   0   24 049.485                              53   -0.65 8  167  86 
 UMUW    EP   0   24 030.766                              53    1.50 8  173  95 
 UMUW    ES   0   24 053.194                              53    1.52 8  173  95 
 VMZK    EP   0   24 030.149                              53    0.34 8  176  96 
 VMZK    ES   0   24 052.349                              53   -0.28 8  176  96 
                                                                                
 2022  612 0000  1.1 L  36.516  51.339 29.2  New  5 0.9                        1
 GAP=169        2.15      13.2    17.5 53.9  0.1820E+03 -0.8345E+03 -0.6392E+03E
 Action:ARG 22-06-12 20:22 OP:OBSP STATUS:               ID:20220612155732     I
 STAT SP IPHASW D HRMM SECON CODA AMPLIT PERI AZIMU VELO AIN AR TRES W  DIS CAZ7
 MCRG    EP   0    0 0 8.600                             119   -0.2510 30.7 192 
 MCRG    ES   0    0 014.795                             119    0.1410 30.7 192 
 CMGM    EP   0    0 023.044                              92    0.59 9  125   1 
 CMGM    ES   0    0 037.909                              92   -0.55 9  125   1 
 OMHQ    EP   0    0 023.717                              92   -0.19 9  134  95 
 OMHQ    ES   0    0 043.153                              92    2.16 9  134  95 
 EQSO    EP   0    0 025.473                              92    0.69 8  140  94 
 EQSO    ES   0    0 041.344                              92   -1.20 8  140  94 
 VMZK    EP   0    0 026.705                              92   -0.15 8  155 105 
 VMZK    ES   0    0 044.786                              92   -1.38 8  155 105 
                                                                                
 2022  612 0000  0.0 L  36.543  51.115  8.4  New  7 0.8                        1
 GAP=189        1.94      26.4    50.1 39.3  0.1292E+04 -0.1948E+04 -0.1030E+04E
 Action:ARG 22-06-12 20:22 OP:OBSP STATUS:               ID:20220612155832     I
 STAT SP IPHASW D HRMM SECON CODA AMPLIT PERI AZIMU VELO AIN AR TRES W  DIS CAZ7
 XMTN    EP   0    0 0 2.317                             126   -0.4610 10.1 181 
 XMTN    ES   0    0 0 4.337                             126   -0.5110 10.1 181 
 MCRG    EP   0    0 0 8.536                              99    0.9410 35.6 158 
 MCRG    ES   0    0 013.308                              99    0.0310 35.6 158 
 CMGM    EP   0    0 024.520                              47    1.58 9  124  10 
 CMGM    ES   0    0 038.904                              47   -1.23 9  124  10 
 MTOS    EP   0    0 026.188                              47    0.11 8  145  92 
 MTOS    ES   0    0 045.429                              47   -0.19 8  145  92 
 JFVP    EP   0    0 024.924                              47   -1.37 8  146 104 
 JFVP    ES   0    0 045.698                              47   -0.32 8  146 104 
 OMHQ    EP   0    0 028.872                              47    1.37 8  155  95 
 OMHQ    ES   0    0 047.872                              47   -0.25 8  155  95 
 UMUW    EP   0    0 029.806                              47   -0.05 8  171 104 
 UMUW    ES   0    0 052.630                              47    0.40 8  171 104 
                                                                                
 2022  612 0000  0.2 L  36.670  51.181 21.2  New  3 0.7                        1
 GAP=174        1.60     999.9   999.9999.9  0.3418E+07 -0.7923E+07 -0.3888E+07E
 Action:ARG 22-06-12 20:22 OP:OBSP STATUS:               ID:20220612155932     I
 STAT SP IPHASW D HRMM SECON CODA AMPLIT PERI AZIMU VELO AIN AR TRES W  DIS CAZ7
 XMTN    EP   0    0 0 7.525                             120    0.9910 24.9 194 
 XMTN    ES   0    0 010.531                             120   -0.7310 24.9 194 
 CMGM    EP   0    0 019.993                              62    0.38 9  109   8 
 CMGM    ES   0    0 033.738                              62   -0.41 9  109   8 
 UMUW    EP   0    0 027.586                              62   -0.87 8  169 109 
 UMUW    ES   0    0 050.104                              62    0.47 8  169 109 
                                                                                
 2022  611 2359 60.0 L  36.244  51.237  4.5  New  8 0.8                        1
 GAP=270        1.71       9.8    11.7  3.4  0.7921E+02 -0.1631E+02 -0.1403E+02E
 Action:ARG 22-06-12 20:22 OP:OBSP STATUS:               ID:20220612160032     I
 STAT SP IPHASW D HRMM SECON CODA AMPLIT PERI AZIMU VELO AIN AR TRES W  DIS CAZ7
 MCRG    EP   0   24 0 0.027                             146   -1.0810 2.64  85 
 MCRG    ES   0   24 0 2.639                             146    0.6710 2.64  85 
 JFVP    EP   0   24 024.802                              47    0.22 9  131  91 
 JFVP    ES   0   24 042.406                              47   -0.63 9  131  91 
 OMHQ    EP   0   24 026.474                              47   -0.03 8  144  82 
 OMHQ    ES   0   24 047.322                              47    0.92 8  144  82 
 EQSO    EP   0   24 027.778                              47    0.37 8  151  82 
 EQSO    ES   0   24 047.998                              47    0.01 8  151  82 
 UMUW    EP   0   24 029.037                              47    0.99 8  155  93 
 UMUW    ES   0   24 048.302                              47   -0.80 8  155  93 
 CMGM    EP   0   24 027.462                              47   -0.63 8  155   4 
 CMGM    ES   0   24 049.974                              47    0.79 8  155   4 
 VMZK    EP   0   24 029.760                              47    1.19 8  159  94 
 VMZK    ES   0   24 049.488                              47   -0.54 8  159  94 
 WKAM    EP   0   24 036.093                              47   -1.35 7  219  44 
 WKAM    ES   0   24 1 5.026                              47   -0.51 7  219  44 
                                                                                
 2022  612 0000  0.7 L  36.619  51.455 18.1  New 10 0.9                        1
 GAP=117        2.04       4.4     4.9 13.8 -0.3329E+01 -0.3386E+02 -0.5895E+01E
 Action:ARG 22-06-12 20:22 OP:OBSP STATUS:               ID:20220612160132     I
 STAT SP IPHASW D HRMM SECON CODA AMPLIT PERI AZIMU VELO AIN AR TRES W  DIS CAZ7
 XMTN    EP   0    0 0 9.057                              64    0.5110 35.8 239 
 XMTN    ES   0    0 014.027                              64   -0.4110 35.8 239 
 MCRG    EP   0    0 010.448                              64    0.4010 44.8 202 
 MCRG    ES   0    0 016.479                              64   -0.5810 44.8 202 
 CMGM    EP   0    0 021.494                              53    0.49 9  113 356 
 CMGM    ES   0    0 036.149                              53   -0.10 9  113 356 
 MTOS    EP   0    0 019.863                              53   -1.39 9  115  96 
 MTOS    ES   0    0 036.657                              53   -0.02 9  115  96 
 JFVP    EP   0    0 023.509                              53    1.55 9  120 111 
 JFVP    ES   0    0 037.128                              53   -0.78 9  120 111 
 OMHQ    EP   0    0 022.427                              53   -0.36 9  126 100 
 OMHQ    ES   0    0 039.403                              53    0.03 9  126 100 
 EQSO    EP   0    0 024.974                              53    1.33 9  131  99 
 EQSO    ES   0    0 039.749                              53   -1.12 9  131  99 
 UMUW    EP   0    0 024.098                              53   -1.39 8  144 110 
 UMUW    ES   0    0 044.861                              53    0.77 8  144 110 
 VMZK    EP   0    0 026.456                              53    0.35 8  148 111 
 VMZK    ES   0    0 046.659                              53    1.49 8  148 111 
 WKAM    EP   0    0 030.236                              53    0.03 8  176  50 
 WKAM    ES   0    0 051.550                              53   -0.80 8  176  50 
                                                                                
 2022  612 0000  0.4 L  36.138  51.205 11.6  New  5 0.9                        1
 GAP=257        2.17      13.9    13.8  9.3  0.1135E+03 -0.1231E+02  0.7378E+02E
 Action:ARG 22-06-12 20:22 OP:OBSP STATUS:               ID:20220612160232     I
 STAT SP IPHASW D HRMM SECON CODA AMPLIT PERI AZIMU VELO AIN AR TRES W  DIS CAZ7
 MCRG    EP   0    0 0 5.340                             125    1.3510 13.1  25 
 MCRG    ES   0    0 0 5.910                             125   -0.7810 13.1  25 
 XMTN    EP   0    0 0 8.336                              96    0.3710 35.7 347 
 XMTN    ES   0    0 013.510                              96   -0.1310 35.7 347 
 MTOS    EP   0    0 023.670                              53   -2.07 8  143  73 
 MTOS    ES   0    0 045.365                              53    0.61 8  143  73 
 UMUW    EP   0    0 027.601                              53   -0.34 8  158  88 
 UMUW    ES   0    0 049.677                              53    1.07 8  158  88 
 VMZK    EP   0    0 028.062                              53   -0.38 8  161  90 
 VMZK    ES   0    0 049.458                              53   -0.02 8  161  90 
                                                                                
