 2017 1210 0725 35.9 L  35.780  50.952 24.4  ABA  3 0.2 3.6LABA                1
 GAP=123        0.40       2.0     1.4  3.0 -0.2934E-01 -0.2291E+01  0.3760E+00E
 Iranian Seismological Center, Institute of Geophysics, University of Tehran   6
 STAT SP IPHASW D HRMM SECON CODA AMPLIT PERI AZIMU VELO SNR AR TRES  W DIS CAZ7
 MHD  SZ EPg  0   0725 42.1                              129   -0.1410 27.9 248 
 MHD  SN ESg  0   0725 47.0                              129    0.0910 27.9 248 
 MHD  SZ E    0   0725 47.22     31295.0 0.24                          27.9 248 
 HSB  BN EPg  0   0725 44.8                              111   -0.11 9 48.0 142 
 DMV  SZ EPg  0   0725 53.4                               91    0.31 7  100 103 
 DMV  SZ E    0   0725 53.98      1915.1 0.28                           100 103 
 DMV  SE ESg  0   0726 6.0                                91    0.32 7  100 103 
 RAZ  SZ EPg  0   0725 53.2                               91   -0.04 7  102 246 
 RAZ  SN ESg  0   0726 6.2                                91    0.26 7  102 246 
 QOM  SZ EPg  0   0725 53.5                               91   -0.10 7  105 174 
 QOM  SN ESg  0   0726 6.5                                91   -0.06 7  105 174 
 VRN  BZ EPg  0   0725 54.8                               91    0.02 7  112 141 
 VRN  BZ E    0   0726 11.22      2003.0 0.28                           112 141 
 JIR1 BZ EPg  0   0726 0.1                                90   -0.02 6  146 315 
 JIR1 BZ E    0   0726 19.66      2511.6 0.24                           146 315 
 FIR  BZ EPg  0   0726 2.7                                90   -0.29 5  164  95 
 FIR  BZ E    0   0726 25.06       784.5 0.32                           164  95 
 ALA  SZ EPg  0   0726 3.7                                90   -0.44 5  171  78 
 ALA  SZ E    0   0726 30.50       890.9 0.36                           171  78 
 LAS  SZ EPg  0   0726 6.6                                90    0.04 4  187 103 
 LAS  SZ E    0   0726 33.68       737.6 0.16                           187 103 
 HAGD BZ EPn  0   0726 9.0                                              196 238 
 HAGD BZ E    0   0726 34.12       454.8 0.24                           196 238 
 SFB  BZ EPg  0   0726 7.7                                90   -0.39 4  197 143 
 SFB  BZ E    0   0726 34.28       662.1 0.36                           197 143 
 QAMS SZ E    0   0726 43.74       792.0 0.24                           230 170 
 KLH  SZ EPn  0   0726 19.1                                             279 168 
 KLH  SZ E    0   0726 54.97       495.4 0.16                           279 168 
                                                                                
 2017 1212 1948 54.6 L  35.756  50.953 24.0  ABA  8 0.4 3.8LABA-1.1CABA        1
 GAP= 64        0.62       1.6     1.6  3.3 -0.2045E+00 -0.3171E+00 -0.8354E+00E
 Iranian Seismological Center, Institute of Geophysics, University of Tehran   6
 STAT SP IPHASW D HRMM SECON CODA AMPLIT PERI AZIMU VELO SNR AR TRES  W DIS CAZ7
 MHD  SZ EPg  0   1949 0.7                               131   -0.1910 27.1 253 
 MHD  SN ESg  0   1949 5.5                               131    0.0410 27.1 253 
 MHD  SZ E    0   1949  5.86    513776.0 0.12                          27.1 253 
 TEH  BZ EPg  0   1949 2.7                               119    0.2210 39.4  90 
 TEH  BN ESg  0   1949 8.1                               119   -0.1110 39.4  90 
 HSB  BZ EPg  0   1949 3.5                               115    0.15 9 45.8 140 
 HSB  BE ESg  0   1949 9.3                               115   -0.42 9 45.8 140 
 KLST BZ EPg  0   1949 9.4                               102   -0.14 8 85.2   6 
 MZPU BZ EPg  0   1949 11.2                              100    0.35 8 94.0  36 
 MZPU BE ESg  0   1949 22.6                              100   -0.09 8 94.0  36 
 DMV  SZ EPg  0   1949 11.8                               99    0.01 7 99.6 101 
 DMV  SZ E    0   1949 26.86      5262.7 0.16                          99.6 101 
 RAZ  SZ EPg  0   1949 11.7                               99   -0.19 7  101 248 
 RAZ  SN ESg  0   1949 24.8                               99    0.31 7  101 248 
 QOM  SZ EPg  0   1949 12.1                               99    0.11 7  102 174 
 QOM  SE ESg  0   1949 25.0                               99    0.35 7  102 174 
 QOM  SZ E    0   1949 25.48     12285.8 0.12                           102 174 
 VRN  BZ EPg  0   1949 13.6                               98    0.34 7  110 140 
 VRN  BZ E    0   1949 29.68      6059.4 0.28                           110 140 
 PRN  SZ EPg  0   1949 17.8                               96    0.35 6  136  66 
 PRN  SZ E    0   1949 41.60      3190.4 0.92                           136  66 
 JIR1 BZ EPg  0   1949 19.1                               95   -0.27 6  148 316 
 JIR1 BZ E    0   1949 42.74      8108.7 0.32                           148 316 
 FIR  BZ EPg  4   1949 21.6                               94   -0.32 0  163  94 
 FIR  BZ E    0   1949 43.70      2095.3 0.44                           163  94 
 LHJ2 BZ EPg  0   1949 24.2                               94    0.54 5  176 333 
 QSDN BZ EPg  0   1949 23.8                               94   -0.81 4  180 298 
 LAS  SZ EPn  4   1949 25.4                               51   -1.39 0  186 102 
 LAS  SZ E    0   1949 50.81      1507.4  0.2                           186 102 
 HAGD BZ EPg  0   1949 27.0                               93    0.12 4  195 238 
 HAGD BZ E    0   1949 52.70      1870.8 0.28                           195 238 
 SFB  BZ EPn  0   1949 26.6                               51   -1.19 4  195 143 
 KRSH BN EPn  4   1949 30.7                               51   -1.01 0  226 151 
 QAMS SN EPn  0   1949 30.8                               51   -1.24 3  228 170 
 QAMS SZ E    0   1950  0.12      1317.6 0.44                           228 170 
 ANJ  SZ EPn  4   1949 36.1                               51   -1.21 0  270  96 
 ANJ  SZ E    0   1950 19.26       569.3 0.28                           270  96 
 GLO  SZ E    0   1950 18.46      1295.7 0.56                           272  71 
 KLH  SE EPn  4   1949 37.5                               51   -0.62 0  276 168 
 KLH  SZ E    0   1950 13.49      1308.8  0.2                           276 168 
 ZEF  SZ E    0   1950 40.31       421.3 0.52                           341 158 
 SRB  SZ EPn  4   1949 48.4                               51   -1.75 0  373 309 
 SRB  SZ E    0   1950 45.05       391.4 0.32                           373 309 
 ANAR BZ E    0   1950 47.62       239.2 0.56                           382 137 
 HRS  SZ EPn  4   1949 57.9                               51   -1.84 0  449 310 
 HRS  SZ E    0   1950 14.90       183.9  0.4                           449 310 
                                                                                
 2017 1218 2246 48.7 L  35.751  50.952 24.2  ABA  4 0.3 3.8LABA-2.2CABA        1
 GAP= 93        0.56       2.5     1.4  3.2 -0.5645E-01 -0.1173E+00 -0.1196E+01E
 Iranian Seismological Center, Institute of Geophysics, University of Tehran   6
 STAT SP IPHASW D HRMM SECON CODA AMPLIT PERI AZIMU VELO SNR AR TRES  W DIS CAZ7
 MHD  SZ EPg  0   2246 54.8                              130   -0.1410 26.8 254 
 MHD  SN ESg  0   2246 59.5                              130   -0.0010 26.8 254 
 MHD  SZ E    0   2246 59.92    215630.0 0.16                          26.8 254 
 TEH  BZ EPg  0   2246 56.5                              117   -0.0710 39.5  90 
 TEH  BN ESg  0   2247 2.5                               117    0.1810 39.5  90 
 HSB  BZ EPg  0   2246 57.7                              112    0.32 9 45.4 140 
 HSB  BE ESg  0   2247 3.2                               112   -0.52 9 45.4 140 
 HSB  BZ E    0   2247  4.28     25980.6 0.08                          45.4 140 
 DMV  SZ EPg  0   2247 6.0                                91    0.17 7 99.6 101 
 DMV  SZ E    0   2247  6.58      3689.2 0.28                          99.6 101 
 RAZ  SZ EPg  0   2247 5.9                                91    0.01 7  100 248 
 RAZ  SE ESg  0   2247 18.6                               91    0.16 7  100 248 
 RAZ  SZ E    0   2247 19.92     13048.6 0.24                           100 248 
 QOM  SZ EPg  0   2247 6.1                                91    0.16 7  101 174 
 QOM  SZ E    0   2247 19.44      7434.2 0.16                           101 174 
 VRN  BZ EPg  4   2247 7.6                                90    0.37 0  109 140 
 VRN  BZ E    0   2247 23.54      7793.3 0.08                           109 140 
 PRN  SZ EPg  0   2247 11.3                               90   -0.14 6  136  66 
 PRN  SZ E    0   2247 32.24      3314.2 0.36                           136  66 
 JIR1 BZ EPg  0   2247 13.1                               90   -0.23 6  148 316 
 FIR  BZ EPg  0   2247 15.5                               90   -0.30 5  164  94 
 FIR  BZ E    0   2247 17.04      1634.7 0.12                           164  94 
 ALA  SZ EPg  0   2247 17.6                               90    0.51 5  172  77 
 ALA  SZ E    0   2247 43.10      2031.3 0.36                           172  77 
 LHJ2 BZ EPg  2   2247 17.9                               90    0.36 2  176 333 
 QSDN BZ EPg  0   2247 17.9                               90   -0.54 4  181 298 
 LAS  SZ EPg  4   2247 19.4                               90    0.11 0  186 102 
 LAS  SZ E    0   2247 44.67      1185.5  0.2                           186 102 
 HAGD BZ EPg  0   2247 21.4                               90    0.82 4  194 239 
 HAGD BZ E    0   2247 46.64      1141.8  0.4                           194 239 
 SFB  BZ EPn  4   2247 20.5                                             195 142 
 SFB  BZ E    0   2247 46.90      1221.4 0.28                           195 142 
 KRSH BN EPn  4   2247 24.9                                             225 151 
 KRSH BN E    0   2247 53.22      2043.6 0.32                           225 151 
 QAMS SZ EPn  0   2247 25.2                                             227 170 
 QAMS SZ E    0   2247 56.34      1345.6 0.24                           227 170 
 ANJ  SZ E    0   2248 10.46       474.2 0.44                           270  96 
 GLO  SZ EPn  4   2247 30.3                                             272  71 
 GLO  SZ E    0   2248 12.42       593.1 0.52                           272  71 
 KLH  SZ EPn  4   2247 31.9                                             276 168 
 KLH  SZ E    0   2248  7.66       768.3 0.32                           276 168 
 ZEF  SZ E    0   2248 34.35       210.1 0.36                           341 158 
 SRB  SZ EPn  4   2247 42.4                                             373 309 
 SRB  SZ E    0   2248 39.08       192.4 0.28                           373 309 
 HRS  SZ E    0   2248  8.93       107.4 0.36                           450 310 
                                                                                
 2017 1218 2329 38.8 L  35.430  50.787 24.2  ABA  2 0.6 3.7LABA                1
 GAP=115        0.99       6.6     4.5  7.5  0.2649E+01  0.6999E-01  0.1866E+02E
 Iranian Seismological Center, Institute of Geophysics, University of Tehran   6
 STAT SP IPHASW D HRMM SECON CODA AMPLIT PERI AZIMU VELO SNR AR TRES  W DIS CAZ7
 MHD  SZ EPg  0   2329 44.8                              126   -0.6310 30.3 339 
 MHD  SZ E    0   2329 49.92     65638.3 0.08                          30.3 339 
 HSB  BZ EPg  0   2329 47.2                              113   -0.10 9 44.4  89 
 HSB  BZ E    0   2329 47.44     67009.5 0.08                          44.4  89 
 TEH  BZ EPg  0   2329 50.1                              101   -0.34 9 65.2  57 
 TEH  BZ E    0   2330  0.22      6082.2 0.08                          65.2  57 
 RAZ  SZ EPg  0   2329 52.5                               96    0.05 8 77.9 268 
 RAZ  SZ E    0   2329 52.74      4108.1  0.2                          77.9 268 
 DMV  SZ EPg  0   2329 58.3                               90    0.14 7  114  81 
 DMV  SZ E    0   2330 14.14      2085.9 0.28                           114  81 
 HAGD BZ EPg  0   2330 7.0                                90    1.02 5  165 246 
 PRN  SZ E    0   2330 34.16       742.8 0.52                           167  57 
 JIR1 BZ EPg  0   2330 7.1                                90    0.73 5  167 328 
 JIR1 BZ E    0   2330 29.16      1448.8 0.24                           167 328 
 PRN  SZ EPg  0   2330 7.7                                90    1.46 5  167  57 
 SFB  BZ EPg  0   2330 8.1                                90   -0.01 4  179 132 
 FIR  BZ EPg  0   2330 8.9                                90    0.47 4  180  82 
 FIR  BZ E    0   2330 36.16       483.1 0.28                           180  82 
 QSDN BZ EPn  0   2330 9.9                                              188 310 
 QSDN BZ E    0   2330 33.40      2345.5 0.08                           188 310 
 QAMS SZ EPn  0   2330 10.5                                             196 163 
 QAMS SZ E    0   2330 36.86      1584.0 0.24                           196 163 
 ALA  SZ EPn  0   2330 12.0                                             197  68 
 ALA  SZ E    0   2330 37.86       669.0 0.24                           197  68 
 LAS  SZ EPn  0   2330 11.4                                             197  91 
 LAS  SZ E    0   2330 42.88       599.2 0.16                           197  91 
 LHJ2 BZ EPn  0   2330 12.9                                             203 342 
 LHJ2 BZ E    0   2330 41.86      2405.3 0.24                           203 342 
 KRSH BN EPn  0   2330 11.7                                             204 142 
 KRSH BN E    0   2330 40.36       645.0  0.2                           204 142 
 KLH  SZ EPn  0   2330 18.0                                             245 163 
 KLH  SZ E    0   2330 48.37       944.1 0.16                           245 163 
 ZEF  SZ EPn  0   2330 26.6                                             315 153 
 ZEF  SZ E    0   2331  7.93       167.1 0.36                           315 153 
                                                                                
