 2021  4 2 0944 47.5 L  28.933  50.926 11.9  SLT 12 0.1                 1.1L BI1
 GAP=106        0.33       1.3     1.4  1.5 -0.5819E+00 -0.2957E+00 -0.3751E+00E
 Action:ARG 21-06-12 18:26 OP:OBSP STATUS:               ID:20210402094447     I
 DUMMY                                                                         6
 STAT SP IPHASW D HRMM SECON CODA AMPLIT PERI AZIMU VELO AIN AR TRES W  DIS CAZ7
 P1   BZ  P   1    94450.082                             170    0.09 7 1.61 254 
 P1   BE ES   1    94451.970                             170   -0.02 7 1.61 254 
 P2   BZ EP   1    94450.160                             169    0.11 7 1.88  83 
 P2   BE ES   1    94452.130                             169    0.06 7 1.88  83 
 P3   BZ  P   1    94450.455                             150    0.19 7 5.20  70 
 N9   BZ  P   1    94450.253                             145   -0.05 7 6.07 226 
 N9   BN  S   1    94452.363                             145   -0.18 7 6.07 226 
 N15  BZ  P   1    94450.482                             140    0.07 7 7.04 255 
 N15  BE ES   1    94452.630                             140   -0.11 7 7.04 255 
 N6   BZ  P   1    94450.548                             135    0.02 7 8.11 221 
 N6   BE ES   1    94452.830                             135   -0.13 7 8.11 221 
 N11  BZ  P   1    94450.682                             127   -0.08 7 10.2 251 
 N11  BE ES   1    94453.330                             127   -0.04 7 10.2 251 
 N17  BZ  P   1    94450.979                             127    0.18 7 10.3 275 
 CAMP BZ  P   1    94450.962                             125    0.14 7 10.6 189 
 CAMP BE ES   1    94453.550                             125    0.07 7 10.6 189 
 N5   BZ  P   1    94450.939                             125    0.09 7 10.7 202 
 SHIF BZ  P   1    94451.584                             109   -0.00 7 15.9 341 
 TOLS BZ  P   1    94451.705                             102   -0.40 7 19.3  75 
                                                                                
 2021  4 2 0947 14.2 L  28.925  50.922 11.3  SLT 24 0.1                 1.8L BI1
 GAP=106        0.20       0.4     0.5  0.7 -0.2081E-01 -0.1122E+00  0.2047E-01E
 Action:ARG 21-06-12 18:26 OP:OBSP STATUS:               ID:20210402094714     I
 DUMMY                                                                         6
 STAT SP IPHASW D HRMM SECON CODA AMPLIT PERI AZIMU VELO AIN AR TRES W  DIS CAZ7
 P1   BZ EP   1    94716.430                             172   -0.08 7 1.22 290 
 P1   BE ES   1    94718.410                             172   -0.00 7 1.22 290 
 P2   BZ EP   1    94716.570                             164   -0.02 7 2.51  64 
 P2   BE ES   1    94718.550                             164   -0.02 7 2.51  64 
 N9   BZ EP   1    94716.720                             148   -0.05 7 5.20 230 
 N9   BE ES   1    94718.750                             148   -0.13 7 5.20 230 
 N19  BZ EP   1    94716.810                             144   -0.04 7 5.90 293 
 N19  BE ES   1    94719.020                             144   -0.00 7 5.90 293 
 P3   BZ EP   1    94716.870                             144    0.01 7 5.91  64 
 P3   BE ES   1    94719.090                             144    0.04 7 5.91  64 
 N15  BZ EP   1    94716.950                             141    0.05 7 6.48 262 
 N15  BE ES   1    94719.050                             141   -0.07 7 6.48 262 
 N6   BZ EP   1    94717.000                             137    0.02 7 7.21 223 
 N6   BE ES   1    94719.230                             137   -0.04 7 7.21 223 
 N10  BZ EP   1    94717.000                             135   -0.04 7 7.69 242 
 N10  BE ES   1    94719.330                             135   -0.05 7 7.69 242 
 N14  BZ EP   1    94717.000                             131   -0.09 7 8.39 265 
 N14  BE ES   1    94719.490                             131    0.03 7 8.39 265 
 N18  BZ  P   1    94717.190                             129   -0.00 7 8.80 276 
 N18  BE ES   1    94719.660                             129    0.01 7 8.80 276 
 N20  BZ  P   1    94717.218                             126    0.01 7 9.50 298 
 N20  BE ES   1    94719.850                             126    0.17 7 9.50 298 
 N11  BZ  P   1    94717.148                             126   -0.09 7 9.57 255 
 N11  BE ES   1    94719.790                             126    0.05 7 9.57 255 
 CAMP BZ EP   1    94717.280                             126    0.01 7 9.65 188 
 CAMP BE ES   1    94719.910                             126    0.12 7 9.65 188 
 N5   BZ  P   1    94717.287                             125   -0.00 7 9.80 201 
 N5   BN  S   1    94719.743                             125   -0.09 7 9.80 201 
 N4   BZ  P   1    94717.315                             124   -0.01 7 9.96 222 
 N4   BE ES   1    94719.910                             124    0.03 7 9.96 222 
 N17  BZ  P   1    94717.301                             124   -0.02 7 9.98 280 
 N17  BE ES   1    94719.930                             124    0.05 7 9.98 280 
 N13  BZ  P   1    94717.454                             123    0.04 7 10.2 259 
 N13  BE ES   1    94719.950                             123   -0.11 7 10.2 259 
 N2   BZ  P   1    94717.398                             123    0.06 7 10.2 196 
 N2   BE ES   1    94720.000                             123    0.09 7 10.2 196 
 N3   BZ  P   1    94717.412                             121   -0.00 7 10.8 205 
 N3   BE ES   1    94720.150                             121    0.10 7 10.8 205 
 N1   BZ  P   1    94717.592                             118    0.03 7 11.6 191 
 N1   BE ES   1    94720.430                             118    0.12 7 11.6 191 
 P4   BZ  P   1    94717.801                             112    0.05 7 13.2  70 
 JNAK BZ  P   1    94718.703                              93   -0.30 7 21.3 136 
 ABTL BZ  P   1    94720.146                              92    0.11 7 27.2  44 
 AHRM HZ  P   1    94721.548                              91    0.05 7 37.0 100 
                                                                                
 2021  4 2 0958 49.7 L  28.930  50.925 11.5  SLT 19 0.2                 1.3L BI1
 GAP=141        0.38       1.0     1.1  1.4 -0.3203E+00 -0.4648E+00  0.2982E+00E
 Action:ARG 21-06-12 18:26 OP:OBSP STATUS:               ID:20210402095849     I
 DUMMY                                                                         6
 STAT SP IPHASW D HRMM SECON CODA AMPLIT PERI AZIMU VELO AIN AR TRES W  DIS CAZ7
 P1   BZ EP   1    95852.000                             170   -0.09 7 1.50 264 
 P1   BE ES   1    95854.040                             170    0.02 7 1.50 264 
 P2   BZ EP   1    95852.210                             167    0.07 7 1.99  75 
 P2   BE ES   1    95854.170                             167    0.04 7 1.99  75 
 P3   BZ  P   1    95852.491                             148    0.12 7 5.35  67 
 P3   BE ES   1    95854.680                             148    0.13 7 5.35  67 
 N9   BZ  P   1    95852.292                             145   -0.10 7 5.84 228 
 N9   BE ES   1    95854.350                             145   -0.22 7 5.84 228 
 N19  BZ  P   1    95852.306                             144   -0.11 7 6.03 287 
 N19  BE ES   1    95854.600                             144   -0.03 7 6.03 287 
 N15  BZ EP   1    95852.440                             139   -0.07 7 6.92 258 
 N15  BE ES   1    95854.680                             139   -0.11 7 6.92 258 
 N6   BZ EP   1    95852.600                             135   -0.01 7 7.87 222 
 N6   BE ES   1    95854.830                             135   -0.15 7 7.87 222 
 N18  BZ  P   1    95852.817                             129    0.03 7 9.10 272 
 N18  BE ES   1    95855.220                             129   -0.07 7 9.10 272 
 N11  BZ  P   1    95852.893                             125    0.03 7 10.0 252 
 N11  BE ES   1    95855.370                             125   -0.06 7 10.0 252 
 N17  BZ  P   1    95853.319                             125    0.41 7 10.2 277 
 CAMP BZ EP   1    95853.000                             124    0.09 7 10.3 189 
 CAMP BE ES   1    95855.590                             124    0.08 7 10.3 189 
 N5   BZ EP   1    95852.960                             124    0.03 7 10.5 202 
 N5   BE ES   1    95855.510                             124   -0.05 7 10.5 202 
 N4   BZ EP   1    95853.000                             123    0.04 7 10.6 221 
 N4   BE ES   1    95855.530                             123   -0.08 7 10.6 221 
 N2   BZ  P   1    95853.030                             122    0.05 7 10.8 197 
 N2   BE ES   1    95855.660                             122    0.02 7 10.8 197 
 N3   BZ  P   1    95853.447                             120    0.39 7 11.5 205 
 N1   BZ  P   1    95853.271                             117    0.07 7 12.3 192 
 N1   BE ES   1    95856.090                             117    0.05 7 12.3 192 
 P4   BZ EP   1    95853.500                             115    0.28 7 12.7  71 
 TOLS BZ  P   1    95853.703                              98   -0.56 7 19.4  74 
 JNAK BZ  P   1    95854.313                              96   -0.26 7 21.5 138 
                                                                                
 2021  4 2 1017 58.8 L  28.927  50.922 11.1  SLT 23 0.1                 1.2L BI1
 GAP=115        0.21       0.4     0.5  0.7 -0.1587E-01 -0.1538E+00 -0.1571E-01E
 Action:ARG 21-06-12 18:26 OP:OBSP STATUS:               ID:20210402101758     I
 DUMMY                                                                         6
 STAT SP IPHASW D HRMM SECON CODA AMPLIT PERI AZIMU VELO AIN AR TRES W  DIS CAZ7
 P1   BZ  P   1   1018 1.074                             172   -0.09 7 1.22 279 
 P1   BE ES   1   1018 3.100                             172    0.05 7 1.22 279 
 P2   BZ  P   1   1018 1.195                             164   -0.05 7 2.37  69 
 P2   BE ES   1   1018 3.190                             164   -0.01 7 2.37  69 
 N9   BZ  P   1   1018 1.356                             146   -0.09 7 5.39 229 
 N9   BE ES   1   1018 3.390                             146   -0.16 7 5.39 229 
 P3   BZ  P   1   1018 1.518                             144    0.01 7 5.76  65 
 N19  BZ EP   1   1018 1.470                             143   -0.03 7 5.88 291 
 N19  BE ES   1   1018 3.730                             143    0.06 7 5.88 291 
 N15  BZ EP   1   1018 1.540                             140   -0.03 7 6.57 260 
 N15  BE ES   1   1018 3.730                             140   -0.06 7 6.57 260 
 N6   BZ EP   1   1018 1.670                             135    0.00 7 7.40 223 
 N6   BE ES   1   1018 3.890                             135   -0.07 7 7.40 223 
 N10  BZ  P   1   1018 1.787                             133    0.06 7 7.84 241 
 N10  BN  S   1   1018 4.090                             133    0.03 7 7.84 241 
 N14  BZ  P   1   1018 1.518                             130   -0.24 7 8.47 264 
 N14  BE ES   1   1018 4.190                             130    0.06 7 8.47 264 
 N18  BZ  P   1   1018 1.895                             128    0.03 7 8.84 274 
 N18  BE ES   1   1018 4.310                             128   -0.00 7 8.84 274 
 N20  BZ  P   1   1018 1.949                             126    0.08 7 9.46 297 
 N20  BE ES   1   1018 4.530                             126    0.20 7 9.46 297 
 N11  BZ  P   1   1018 1.949                             125    0.03 7 9.68 254 
 N11  BE ES   1   1018 4.430                             125    0.01 7 9.68 254 
 CAMP BZ  P   1   1018 1.962                             124   -0.00 7 9.87 188 
 CAMP BE ES   1   1018 4.570                             124    0.08 7 9.87 188 
 N17  BZ  P   1   1018 1.962                             123   -0.03 7 10.0 279 
 N5   BE ES   1   1018 4.500                             123   -0.04 7 10.0 201 
 N17  BE ES   1   1018 4.610                             123    0.06 7 10.0 279 
 N5   BZ  P   1   1018 1.989                             123    0.00 7 10.0 201 
 N4   BZ  P   1   1018 1.949                             123   -0.07 7 10.2 221 
 N4   BE ES   1   1018 4.550                             123   -0.04 7 10.2 221 
 N13  BZ  P   1   1018 2.178                             122    0.08 7 10.3 258 
 N13  BE ES   1   1018 4.670                             122   -0.07 7 10.3 258 
 N2   BZ  P   1   1018 2.030                             122   -0.00 7 10.4 196 
 N2   BE ES   1   1018 4.640                             122    0.02 7 10.4 196 
 N3   BZ  P   1   1018 2.137                             119    0.03 7 11.0 205 
 N3   BN  S   1   1018 4.817                             119    0.05 7 11.0 205 
 N1   BZ  P   1   1018 2.299                             116    0.04 7 11.9 191 
 N1   BE ES   1   1018 5.100                             116    0.07 7 11.9 191 
 P4   BZ  P   1   1018 2.501                             111    0.10 7 13.1  70 
 TOLS BZ  P   1   1018 3.592                              93    0.13 7 19.8  73 
 NOKA BZ EP   1   1018 5.000                              91   -0.21 7 30.7  21 
                                                                                
 2021  4 2 1019 28.8 L  28.926  50.924 11.7  SLT 19 0.1                 1.0L BI1
 GAP=125        0.26       0.6     0.6  0.9 -0.3792E-01 -0.2309E+00  0.5252E-01E
 Action:ARG 21-06-12 18:26 OP:OBSP STATUS:               ID:20210402101928     I
 DUMMY                                                                         6
 STAT SP IPHASW D HRMM SECON CODA AMPLIT PERI AZIMU VELO AIN AR TRES W  DIS CAZ7
 P1   BZ EP   1   101931.160                             171   -0.05 7 1.46 285 
 P1   BE ES   1   101933.150                             171   -0.02 7 1.46 285 
 P2   BZ  P   1   101931.270                             166   -0.00 7 2.27  62 
 P2   BN  S   1   101933.289                             166   -0.00 7 2.27  62 
 N9   BZ EP   1   101931.400                             148   -0.07 7 5.42 231 
 N9   BE ES   1   101933.450                             148   -0.19 7 5.42 231 
 P3   BZ  P   1   101931.519                             147    0.00 7 5.66  63 
 P3   BE ES   1   101933.780                             147    0.05 7 5.66  63 
 N19  BZ  P   1   101931.505                             144   -0.04 7 6.13 292 
 N19  BE ES   1   101933.780                             144   -0.01 7 6.13 292 
 N15  BZ  P   1   101931.616                             141    0.01 7 6.74 262 
 N15  BE ES   1   101933.780                             141   -0.11 7 6.74 262 
 N6   BZ  P   1   101931.616                             138   -0.06 7 7.41 225 
 N6   BE ES   1   101933.930                             138   -0.09 7 7.41 225 
 N18  BZ  P   1   101931.934                             131    0.04 7 9.05 275 
 N18  BE ES   1   101934.390                             131   -0.02 7 9.05 275 
 N20  BZ  P   1   101931.796                             128   -0.11 7 9.72 298 
 N20  BN  S   1   101934.588                             128    0.16 7 9.72 298 
 CAMP BZ EP   1   101932.040                             128    0.10 7 9.72 189 
 CAMP BE ES   1   101934.650                             128    0.15 7 9.72 189 
 N11  BZ  P   1   101931.934                             127   -0.01 7 9.82 255 
 N11  BE ES   1   101934.530                             127    0.03 7 9.82 255 
 N5   BZ  P   1   101932.058                             127    0.09 7 9.92 203 
 N5   BE ES   1   101934.590                             127    0.04 7 9.92 203 
 N4   BZ  P   1   101931.851                             126   -0.16 7 10.1 223 
 N4   BN  S   1   101934.630                             126    0.01 7 10.1 223 
 N17  BZ  P   1   101932.100                             126    0.08 7 10.2 280 
 N17  BN  S   1   101934.740                             126    0.10 7 10.2 280 
 N2   BZ  P   1   101931.768                             125   -0.24 7 10.3 197 
 N2   BE ES   1   101934.710                             125    0.09 7 10.3 197 
 N1   BZ  P   1   101932.293                             120    0.07 7 11.7 192 
 N1   BE ES   1   101935.160                             120    0.15 7 11.7 192 
 P4   BZ EP   1   101932.510                             116    0.15 7 13.0  69 
 TOLS BZ  P   1   101933.565                             100    0.17 7 19.7  72 
 KHIA BZ  P   1   101933.869                              95   -0.29 7 24.3 104 
 KHIA BE  S   1   101938.487                              95   -0.02 7 24.3 104 
                                                                                
 2021  4 2 1019 55.0 L  28.930  50.925 11.9  SLT 19 0.2                 1.0L BI1
 GAP=116        0.35       0.8     1.1  1.4  0.5301E-01 -0.5697E+00 -0.1374E+00E
 Action:ARG 21-06-12 18:26 OP:OBSP STATUS:               ID:20210402101955     I
 DUMMY                                                                         6
 STAT SP IPHASW D HRMM SECON CODA AMPLIT PERI AZIMU VELO AIN AR TRES W  DIS CAZ7
 P1   BZ EP   1   101957.520                             171    0.01 7 1.46 267 
 P1   BE ES   1   101959.490                             171   -0.01 7 1.46 267 
 P2   BZ EP   1   101957.620                             168    0.05 7 2.04  73 
 P2   BE ES   1   101959.590                             168   -0.02 7 2.04  73 
 N9   BZ EP   1   101957.760                             147   -0.03 7 5.76 228 
 N9   BE ES   1   101959.820                             147   -0.20 7 5.76 228 
 N19  BZ EP   1   101957.890                             146    0.06 7 6.03 288 
 N19  BE ES   1   1020 0.140                             146    0.05 7 6.03 288 
 N15  BZ EP   1   101957.910                             141   -0.00 7 6.87 258 
 N15  BE ES   1   1020 0.140                             141   -0.09 7 6.87 258 
 N6   BZ  P   1   101958.020                             137    0.01 7 7.78 223 
 N6   BE ES   1   1020 0.280                             137   -0.13 7 7.78 223 
 N10  BZ  P   1   101958.033                             135   -0.03 7 8.19 240 
 N10  BE ES   1   1020 0.410                             135   -0.09 7 8.19 240 
 N14  BZ  P   1   101958.114                             133    0.03 7 8.75 262 
 N14  BE ES   1   1020 0.550                             133   -0.00 7 8.75 262 
 N18  BZ  P   1   101957.790                             131   -0.39 7 9.07 272 
 N18  BE ES   1   1020 0.720                             131   -0.00 7 9.07 272 
 N20  BZ  P   1   101957.912                             129   -0.26 7 9.56 295 
 N20  BN  S   1   1020 1.090                             129    0.39 7 9.56 295 
 N11  BZ EP   1   101958.060                             128   -0.19 710.00 253 
 N11  BE ES   1   1020 0.870                             128    0.03 710.00 253 
 N17  BZ  P   1   101958.453                             127    0.15 7 10.2 277 
 N17  BE ES   1   1020 1.050                             127    0.11 7 10.2 277 
 CAMP BZ  P   1   101958.358                             127    0.07 7 10.2 189 
 CAMP BE ES   1   1020 0.970                             127    0.06 7 10.2 189 
 N5   BZ  P   1   101958.371                             126    0.05 7 10.4 202 
 N5   BE ES   1   1020 0.980                             126    0.02 7 10.4 202 
 N2   BZ  P   1   101958.290                             125   -0.07 7 10.7 197 
 N2   BE ES   1   1020 1.110                             125    0.07 7 10.7 197 
 N1   BZ  P   1   101958.953                             120    0.38 7 12.2 192 
 N1   BE  S   1   1020 1.428                             120   -0.00 7 12.2 192 
 P4   BZ EP   1   101958.900                             118    0.28 7 12.8  71 
 SHIF BZ  P   1   101959.156                             108    0.01 7 16.2 342 
 TOLS BZ  P   1   101959.318                             102   -0.32 7 19.5  74 
                                                                                
