 2021  4 2 0916  4.1 L  28.935  50.922 11.8  SLT 19 0.1                 1.1L BI1
 GAP= 92        0.31       0.8     0.9  1.1 -0.1497E+00 -0.3017E+00 -0.4228E-02E
 Action:ARG 21-06-12 18:26 OP:OBSP STATUS:               ID:20210402091604     I
 DUMMY                                                                         6
 STAT SP IPHASW D HRMM SECON CODA AMPLIT PERI AZIMU VELO AIN AR TRES W  DIS CAZ7
 P1   BZ EP   1    916 6.520                             172   -0.02 7 1.35 238 
 P1   BE ES   1    916 8.510                             172   -0.01 7 1.35 238 
 P2   BZ EP   1    916 6.570                             166   -0.04 7 2.28  91 
 P2   BE ES   1    916 8.650                             166    0.01 7 2.28  91 
 P3   BZ EP   1    916 7.000                             148    0.16 7 5.50  74 
 P3   BE ES   1    916 9.180                             148    0.12 7 5.50  74 
 N19  BZ  P   1    916 6.884                             148    0.06 7 5.55 282 
 N19  BN  S   1    916 9.171                             148    0.13 7 5.55 282 
 N9   BZ EP   1    916 6.830                             145   -0.02 7 5.99 221 
 N9   BE ES   1    916 8.850                             145   -0.23 7 5.99 221 
 N6   BZ  P   1    916 7.114                             135    0.03 7 8.06 218 
 N6   BE ES   1    916 9.360                             135   -0.14 7 8.06 218 
 N10  BZ  P   1    916 7.331                             134    0.22 7 8.27 235 
 N14  BZ EP   1    916 7.000                             133   -0.11 7 8.55 258 
 N14  BE ES   1    916 9.560                             133    0.02 7 8.55 258 
 N20  BZ  P   1    916 6.979                             131   -0.17 7 9.01 292 
 N17  BZ  P   1    916 7.182                             128   -0.11 7 9.83 274 
 N11  BZ  P   1    916 7.453                             128    0.17 7 9.91 249 
 CAMP BZ  P   1    916 7.507                             124    0.10 7 10.8 187 
 CAMP BE ES   1    91610.030                             124   -0.06 7 10.8 187 
 N5   BZ  P   1    916 7.493                             124    0.07 7 10.8 199 
 N5   BE ES   1    91610.000                             124   -0.12 7 10.8 199 
 N2   BZ  P   1    916 7.764                             122    0.29 7 11.3 194 
 N2   BE ES   1    91610.180                             122   -0.02 7 11.3 194 
 N3   BZ  P   1    916 7.642                             121    0.10 7 11.8 203 
 N3   BN  S   1    91610.307                             121   -0.03 7 11.8 203 
 P4   BZ  P   1    916 7.439                             117   -0.24 7 12.9  74 
 SHIF BZ  P   1    916 8.129                             109    0.05 7 15.5 343 
 TOLS BZ  P   1    916 8.549                             101   -0.16 7 19.6  76 
 KHIA BZ  P   1    916 9.306                              96   -0.26 7 24.8 106 
 KHIA BE  S   1    91614.191                              96    0.20 7 24.8 106 
                                                                                
 2021  4 2 0937  7.6 L  28.929  50.923  9.5  SLT 15 0.2                 1.0L BI1
 GAP=142        0.39       1.4     1.3  1.9 -0.2213E+00 -0.3941E+00  0.2684E+00E
 Action:ARG 21-06-12 18:26 OP:OBSP STATUS:               ID:20210402093707     I
 DUMMY                                                                         6
 STAT SP IPHASW D HRMM SECON CODA AMPLIT PERI AZIMU VELO AIN AR TRES W  DIS CAZ7
 P1   BZ  P   1    937 9.606                             171   -0.07 7 1.25 270 
 P2   BZ  P   1    937 9.713                             163   -0.05 7 2.26  73 
 P2   BE ES   1    93711.690                             163    0.20 7 2.26  73 
 N9   BZ EP   1    937 9.790                             142   -0.23 7 5.55 227 
 N9   BE ES   1    93711.880                             142   -0.07 7 5.55 227 
 N19  BZ  P   1    937 9.982                             140   -0.09 7 5.86 289 
 N15  BZ EP   1    93710.000                             136   -0.16 7 6.65 259 
 N15  BE ES   1    93712.170                             136   -0.04 7 6.65 259 
 N6   BZ  P   1    93710.708                             131    0.43 7 7.58 222 
 N6   BE ES   1    93712.350                             131   -0.07 7 7.58 222 
 N10  BZ  P   1    93710.291                             129   -0.05 7 7.97 240 
 N14  BZ  P   1    93710.614                             127    0.24 7 8.54 263 
 N18  BZ  P   1    93710.399                             125   -0.08 7 8.87 273 
 N18  BE ES   1    93712.760                             125   -0.03 7 8.87 273 
 N11  BZ  P   1    93710.883                             122    0.32 7 9.78 253 
 N11  BE ES   1    93712.900                             122   -0.04 7 9.78 253 
 CAMP BZ  P   1    93710.479                             120   -0.14 7 10.1 188 
 CAMP BE ES   1    93713.070                             120    0.02 7 10.1 188 
 N5   BZ  P   1    93710.466                             120   -0.18 7 10.2 201 
 N2   BZ  P   1    93710.977                             119    0.28 7 10.6 196 
 N1   BZ  P   1    93710.856                             114   -0.09 7 12.1 191 
 P4   BZ  P   1    93710.950                             112   -0.10 7 13.0  71 
                                                                                
 2021  4 2 0942 54.3 L  28.922  50.917 10.6  SLT 23 0.1                 1.5L BI1
 GAP= 87        0.28       0.6     0.5  0.8 -0.7082E-01 -0.1719E+00 -0.5097E-01E
 Action:ARG 21-06-12 18:26 OP:OBSP STATUS:               ID:20210402094254     I
 DUMMY                                                                         6
 STAT SP IPHASW D HRMM SECON CODA AMPLIT PERI AZIMU VELO AIN AR TRES W  DIS CAZ7
 P1   BZ EP   1    94256.390                             173   -0.17 7 1.08 317 
 P1   BE ES   1    94258.450                             173    0.09 7 1.08 317 
 P2   BZ  P   1    94256.570                             160   -0.11 7 3.06  62 
 P2   BN  S   1    94258.572                             160   -0.01 7 3.06  62 
 N9   BZ  P   1    94256.694                             151   -0.09 7 4.64 230 
 N9   BE ES   1    94258.700                             151   -0.08 7 4.64 230 
 N19  BZ EP   1    94256.680                             145   -0.22 7 5.69 298 
 N19  BE ES   1    94259.030                             145    0.05 7 5.69 298 
 N15  BZ  P   1    94256.838                             144   -0.09 7 6.02 265 
 N15  BE ES   1    94259.020                             144   -0.02 7 6.02 265 
 P3   BZ  P   1    94256.824                             141   -0.17 7 6.45  62 
 P3   BE ES   1    94259.090                             141   -0.06 7 6.45  62 
 N6   BZ EP   1    94256.950                             141   -0.05 7 6.64 223 
 N6   BE ES   1    94259.230                             141    0.07 7 6.64 223 
 N10  BZ  P   1    94257.011                             138   -0.05 7 7.14 243 
 N10  BE ES   1    94259.340                             138    0.06 7 7.14 243 
 N14  BZ  P   1    94257.083                             135   -0.04 7 7.95 268 
 N14  BE ES   1    94259.450                             135    0.07 7 7.95 268 
 N18  BZ  P   1    94257.169                             132   -0.07 7 8.42 278 
 N18  BE ES   1    94259.600                             132    0.01 7 8.42 278 
 N11  BZ  P   1    94257.204                             130   -0.07 7 9.07 257 
 N11  BE ES   1    94259.580                             130   -0.08 7 9.07 257 
 CAMP BZ EP   1    94257.330                             129    0.02 7 9.23 186 
 N5   BZ EP   1    94257.310                             129   -0.01 7 9.29 200 
 N5   BE ES   1    94259.860                             129    0.11 7 9.29 200 
 N20  BZ  P   1    94257.348                             129    0.06 7 9.33 302 
 N20  BE  S   1    94259.840                             129    0.16 7 9.33 302 
 N4   BZ  P   1    94257.391                             129    0.04 7 9.40 221 
 N4   BE ES   1    94259.910                             129    0.12 7 9.40 221 
 N17  BZ  P   1    94257.313                             128   -0.06 7 9.64 283 
 N17  BE ES   1    94259.870                             128    0.03 7 9.64 283 
 N2   BZ EP   1    94257.410                             127    0.04 7 9.70 194 
 N2   BE ES   1    943 0.020                             127    0.19 7 9.70 194 
 N13  BZ  P   1    94257.659                             127    0.20 7 9.74 260 
 N13  BE ES   1    94259.930                             127   -0.05 7 9.74 260 
 N1   BZ  P   1    94257.587                             122   -0.02 7 11.2 189 
 P4   BZ EP   1    94257.830                             116   -0.12 7 13.8  69 
 P4   BE  S   1    943 1.094                             116    0.21 7 13.8  69 
 TOLS BZ  P   1    94258.932                             105   -0.12 7 20.4  72 
 TOLS BE  S   1    943 3.125                             105    0.25 7 20.4  72 
 KHIA BZ  P   1    94259.826                             102    0.01 7 24.8 103 
 KHIA BE  S   1    943 4.062                             102   -0.20 7 24.8 103 
 ABTL BZ  P   1    943 0.172                              68   -0.15 7 27.8  44 
 ABTL BE  S   1    943 5.502                              68    0.32 7 27.8  44 
                                                                                
 2021  4 2 0943 25.4 L  28.931  50.918 11.1  SLT 15 0.1                 1.3L BI1
 GAP=142        0.25       0.7     0.8  1.0 -0.1190E+00 -0.1485E+00  0.1500E+00E
 Action:ARG 21-06-12 18:26 OP:OBSP STATUS:               ID:20210402094325     I
 DUMMY                                                                         6
 STAT SP IPHASW D HRMM SECON CODA AMPLIT PERI AZIMU VELO AIN AR TRES W  DIS CAZ7
 P1   BZ EP   1    94327.710                             175   -0.04 7 0.80 257 
 P1   BE ES   1    94329.680                             175    0.05 7 0.80 257 
 P2   BZ  P   1    94327.839                             162   -0.02 7 2.68  80 
 P2   BE ES   1    94329.810                             162   -0.00 7 2.68  80 
 N9   BZ  P   1    94327.965                             146   -0.07 7 5.35 222 
 N9   BE ES   1    94330.000                             146   -0.14 7 5.35 222 
 N19  BZ EP   1    94328.000                             146   -0.05 7 5.35 289 
 N19  BE ES   1    94330.290                             146    0.12 7 5.35 289 
 P3   BZ EP   1    94328.130                             142    0.00 7 6.01  70 
 P3   BE ES   1    94330.320                             142    0.01 7 6.01  70 
 N15  BZ  P   1    94328.119                             141   -0.01 7 6.23 256 
 N15  BE ES   1    94330.270                             141   -0.04 7 6.23 256 
 N6   BZ EP   1    94328.210                             135   -0.05 7 7.42 218 
 N6   BE ES   1    94330.460                             135   -0.09 7 7.42 218 
 N14  BZ  P   1    94328.263                             132   -0.05 7 8.10 261 
 N18  BZ EP   1    94328.430                             130    0.03 7 8.39 272 
 N18  BE ES   1    94330.880                             130    0.08 7 8.39 272 
 N11  BZ  P   1    94328.525                             126    0.04 7 9.38 251 
 N11  BE ES   1    94331.020                             126    0.07 7 9.38 251 
 CAMP BZ  P   1    94328.595                             122   -0.01 7 10.2 185 
 CAMP BE ES   1    94331.250                             122    0.08 7 10.2 185 
 N5   BZ  P   1    94328.637                             122    0.02 7 10.2 198 
 N5   BE ES   1    94331.190                             122    0.00 7 10.2 198 
 N2   BZ  P   1    94328.315                             120   -0.35 7 10.6 193 
 N2   BE ES   1    94331.340                             120    0.06 7 10.6 193 
 N1   BZ  P   1    94329.155                             114    0.25 7 12.2 189 
 N1   BE ES   1    94331.730                             114    0.02 7 12.2 189 
 TOLS BZ  P   1    94330.179                              92    0.07 7 20.1  75 
                                                                                
 2021  4 2 0943 57.7 L  28.931  50.925 12.4  SLT 25 0.2                 1.6L BI1
 GAP=111        0.36       0.8     0.8  1.2 -0.8638E-01 -0.4798E+00 -0.2776E-02E
 Action:ARG 21-06-12 18:26 OP:OBSP STATUS:               ID:20210402094357     I
 DUMMY                                                                         6
 STAT SP IPHASW D HRMM SECON CODA AMPLIT PERI AZIMU VELO AIN AR TRES W  DIS CAZ7
 P1   BZ EP   1    944 0.250                             171   -0.03 7 1.47 261 
 P1   BN  S   1    944 2.281                             171   -0.04 7 1.47 261 
 P2   BZ  P   1    944 0.329                             168   -0.00 7 2.01  77 
 P2   BN  S   1    944 2.404                             168   -0.02 7 2.01  77 
 P3   BZ EP   1    944 0.670                             150    0.12 7 5.37  68 
 P3   BE  S   1    944 2.923                             150    0.11 7 5.37  68 
 N9   BZ  P   1    944 0.520                             148   -0.04 7 5.85 227 
 N9   BN  S   1    944 2.581                             148   -0.25 7 5.85 227 
 N19  BZ  P   1    944 0.684                             147    0.10 7 5.98 286 
 N19  BE  S   1    944 2.868                             147   -0.01 7 5.98 286 
 N15  BZ  P   1    944 0.725                             143    0.06 7 6.89 257 
 N15  BN  S   1    944 2.936                             143   -0.10 7 6.89 257 
 N6   BZ EP   1    944 0.770                             138   -0.00 7 7.88 222 
 N6   BN  S   1    944 3.059                             138   -0.16 7 7.88 222 
 N10  BZ  P   1    944 0.752                             137   -0.07 7 8.26 239 
 N10  BN  S   1    944 3.250                             137   -0.06 7 8.26 239 
 N14  BZ  P   1    944 0.520                             135   -0.32 7 8.77 261 
 N14  BN  S   1    944 3.346                             135    0.01 7 8.77 261 
 N18  BZ EP   1    944 1.040                             133    0.11 7 9.06 271 
 N18  BN  S   1    944 3.537                             133    0.04 7 9.06 271 
 N20  BZ  P   1    944 0.875                             132   -0.03 7 9.49 294 
 N20  BN  S   1    944 3.701                             132    0.23 7 9.49 294 
 N11  BZ  P   1    944 1.107                             130    0.11 7 10.0 252 
 N11  BN  S   1    944 3.564                             130   -0.07 7 10.0 252 
 N17  BZ  P   1    944 1.203                             129    0.16 7 10.2 276 
 N17  BN  S   1    944 3.755                             129    0.04 7 10.2 276 
 CAMP BZ  P   1    944 1.107                             129    0.06 7 10.3 189 
 CAMP BE  S   1    944 3.783                             129    0.06 7 10.3 189 
 N5   BZ  P   1    944 1.162                             128    0.09 7 10.5 202 
 N5   BE  S   1    944 3.755                             128   -0.02 7 10.5 202 
 N4   BZ  P   1    944 1.094                             127   -0.01 7 10.6 221 
 N4   BE  S   1    944 3.728                             127   -0.09 7 10.6 221 
 N13  BZ  P   1    944 1.490                             127    0.32 7 10.6 256 
 N13  BE  S   1    944 3.755                             127   -0.18 7 10.6 256 
 N2   BZ  P   1    944 1.217                             127    0.10 7 10.9 197 
 N2   BN  S   1    944 3.783                             127   -0.06 7 10.9 197 
 N3   BZ  P   1    944 1.462                             124    0.27 7 11.5 205 
 N3   BN  S   1    944 3.946                             124   -0.04 7 11.5 205 
 N1   BZ  P   1    944 1.435                             122    0.11 7 12.3 192 
 N1   BN  S   1    944 4.274                             122    0.05 7 12.3 192 
 P4   BZ  P   1    944 1.640                             121    0.30 7 12.7  72 
 KHIA BZ  P   1    944 2.759                              99   -0.39 7 24.4 105 
 KHIA BN  S   1    944 7.918                              99    0.39 7 24.4 105 
 ABTL BZ  P   1    944 3.237                              97   -0.29 7 26.6  45 
 P9   BZ  P   1    944 3.551                              96   -0.36 7 28.6  73 
 AHRM HZ EP   1    944 4.880                              94   -0.19 7 36.8 102 
                                                                                
 2021  4 2 0944 31.0 L  28.928  50.920 10.9  SLT 12 0.0                 1.0L BI1
 GAP=136        0.19       0.7     0.6  0.9 -0.8318E-01  0.9204E-02  0.7769E-01E
 Action:ARG 21-06-12 18:26 OP:OBSP STATUS:               ID:20210402094430     I
 DUMMY                                                                         6
 STAT SP IPHASW D HRMM SECON CODA AMPLIT PERI AZIMU VELO AIN AR TRES W  DIS CAZ7
 P1   BZ  P   1    94433.268                             174    0.00 7 0.95 278 
 P2   BZ  P   1    94433.296                             164   -0.06 7 2.60  72 
 P2   BE ES   1    94435.310                             164    0.02 7 2.60  72 
 N9   BZ  P   1    94433.503                             149   -0.04 7 5.24 226 
 N9   BE ES   1    94435.480                             149   -0.13 7 5.24 226 
 N19  BZ  P   1    94433.544                             147   -0.04 7 5.60 291 
 N19  BE ES   1    94435.750                             147    0.05 7 5.60 291 
 P3   BZ  P   1    94433.669                             145    0.03 7 5.98  67 
 P3   BN  S   1    94435.824                             145    0.03 7 5.98  67 
 N15  BZ  P   1    94433.669                             143    0.01 7 6.32 259 
 N15  BE ES   1    94435.790                             143   -0.04 7 6.32 259 
 N6   BZ  P   1    94433.793                             139    0.03 7 7.28 221 
 N6   BE ES   1    94436.020                             139   -0.00 7 7.28 221 
 N18  BZ  P   1    94433.904                             133   -0.04 7 8.56 274 
 N18  BE ES   1    94436.390                             133    0.05 7 8.56 274 
 N11  BZ  P   1    94434.083                             130    0.07 7 9.44 253 
 N11  BE ES   1    94436.510                             130    0.05 7 9.44 253 
 N17  BZ  P   1    94434.042                             129   -0.03 7 9.73 279 
 CAMP BZ  P   1    94434.056                             128   -0.03 7 9.91 187 
 CAMP BE ES   1    94436.680                             128    0.08 7 9.91 187 
 N5   BZ  P   1    94434.097                             128   -0.00 7 9.99 200 
                                                                                
