 2021  2 1 0357 10.6 L  28.966  50.930 10.7  SLT 18 0.2                 1.6L BI1
 GAP=113        0.43       1.3     1.2  1.5 -0.3287E+00 -0.3346E-01 -0.6431E+00E
 Action:ARG 21-12-18 20:21 OP:OBSP STATUS:               ID:20210201035710     I
 DUMMY                                                                         6
 STAT SP IPHASW D HRMM SECON CODA AMPLIT PERI AZIMU VELO AIN AR TRES W  DIS CAZ7
 P2   BZ  P   1    35713.069                             156    0.06 7 3.79 157 
 P2   BE  S   1    35715.038                             156    0.08 7 3.79 157 
 P1   BZ  P   1    35713.109                             152    0.08 7 4.59 205 
 P1   BE  S   1    35714.971                             152   -0.03 7 4.59 205 
 P3   BZ  P   1    35713.202                             150    0.09 7 4.89 113 
 P3   BE  S   1    35715.291                             150    0.13 7 4.89 113 
 N19  BZ  P   1    35713.282                             141    0.01 7 6.64 250 
 N19  BE  S   1    35715.464                             141    0.02 7 6.64 250 
 N16  BZ  P   1    35713.322                             138   -0.14 7 7.24 234 
 N16  BE  S   1    35715.504                             138   -0.28 7 7.24 234 
 N15  BZ EP   1    35713.550                             130   -0.02 7 9.06 233 
 N15  BE ES   1    35715.910                             130   -0.06 7 9.06 233 
 N20  BZ  P   1    35713.761                             130    0.23 7 9.16 270 
 N20  BE  S   1    35716.169                             130    0.25 7 9.16 270 
 N9   BZ  P   1    35713.721                             130    0.14 7 9.25 211 
 N9   BE  S   1    35715.943                             130   -0.05 7 9.25 211 
 N18  BZ EP   1    35713.770                             126    0.02 7 10.2 249 
 N18  BE  S   1    35716.275                             126   -0.04 7 10.2 249 
 N14  BZ  P   1    35714.373                             125    0.63 7 10.6 240 
 N14  BE  S   1    35716.288                             125   -0.01 7 10.6 240 
 N17  BZ  P   1    35713.881                             124    0.04 7 11.0 255 
 N17  BE  S   1    35716.461                             124   -0.01 7 11.0 255 
 N6   BZ  P   1    35713.535                             123   -0.36 7 11.4 210 
 N6   BE  S   1    35716.036                             123   -0.53 7 11.4 210 
 N7   BZ  P   1    35714.240                             120    0.24 7 12.1 219 
 N7   BE  S   1    35716.661                             120   -0.09 7 12.1 219 
 N11  BZ EP   1    35714.000                             120   -0.00 7 12.2 235 
 N11  BE ES   1    35716.740                             120   -0.02 7 12.2 235 
 N13  BZ  P   1    35714.014                             119   -0.14 7 12.7 239 
 N13  BE  S   1    35716.927                             119   -0.11 7 12.7 239 
 N4   BZ  P   1    35714.399                             115    0.08 7 14.1 212 
 N4   BE  S   1    35717.260                             115   -0.07 7 14.1 212 
 CAMP BZ  P   1    35714.399                             115    0.07 7 14.3 189 
 CAMP BN  S   1    35717.539                             115    0.18 7 14.3 189 
 NOKA BZ  P   1    35715.889                              68   -0.40 7 26.3  23 
                                                                                
 2021  2 2 0131  5.1 L  28.964  50.929 11.5  SLT 19 0.1                 1.4L BI1
 GAP=135        0.30       1.1     0.9  1.2 -0.2828E+00  0.2036E+00 -0.3523E+00E
 Action:ARG 21-12-18 20:21 OP:OBSP STATUS:               ID:20210202013104     I
 DUMMY                                                                         6
 STAT SP IPHASW D HRMM SECON CODA AMPLIT PERI AZIMU VELO AIN AR TRES W  DIS CAZ7
 P2   BZ EP   1    131 7.670                             157    0.01 7 3.61 155 
 P2   BE ES   1    131 9.620                             157   -0.09 7 3.61 155 
 P1   BZ EP   1    131 7.680                             153    0.01 7 4.35 205 
 P1   BE ES   1    131 9.680                             153   -0.04 7 4.35 205 
 P3   BZ  P   1    131 7.879                             150    0.11 7 4.87 111 
 P3   BE  S   1    131 9.982                             150    0.07 7 4.87 111 
 N19  BZ  P   1    131 7.932                             142    0.03 7 6.49 252 
 N19  BE  S   1    13110.182                             142    0.03 7 6.49 252 
 N16  BZ  P   1    131 8.039                             139   -0.04 7 7.04 235 
 N16  BE  S   1    13110.128                             139   -0.35 7 7.04 235 
 N12  BZ EP   1    131 8.120                             130    0.11 7 8.84 226 
 N12  BE ES   1    13110.470                             130    0.12 7 8.84 226 
 N15  BZ EP   1    131 8.190                             130    0.02 7 8.86 234 
 N15  BE ES   1    13110.610                             130   -0.02 7 8.86 234 
 N9   BZ  P   1    131 8.425                             130    0.25 7 9.02 211 
 N9   BN  S   1    13110.501                             130   -0.14 7 9.02 211 
 N20  BZ  P   1    131 8.185                             129    0.03 7 9.09 271 
 N20  BE  S   1    13110.834                             129    0.24 7 9.09 271 
 N18  BZ  P   1    131 8.305                             125   -0.05 7 10.1 250 
 N18  BE  S   1    13110.980                             125    0.02 7 10.1 250 
 N14  BZ  P   1    131 8.052                             124   -0.28 7 10.4 241 
 N14  BE  S   1    13110.980                             124    0.05 7 10.4 241 
 N10  BZ EP   1    131 8.520                             122    0.07 7 10.9 224 
 N10  BE ES   1    13111.090                             122   -0.04 7 10.9 224 
 N17  BZ  P   1    131 8.558                             122    0.13 7 10.9 256 
 N17  BE  S   1    13111.220                             122    0.11 7 10.9 256 
 N6   BZ  P   1    131 8.558                             121    0.09 7 11.1 211 
 N6   BE  S   1    13111.180                             121    0.01 7 11.1 211 
 N7   BZ  P   1    131 8.744                             118    0.18 7 11.9 220 
 N7   BE  S   1    13111.379                             118    0.03 7 11.9 220 
 N11  BZ  P   1    131 8.358                             118   -0.22 7 12.1 236 
 N11  BE ES   1    13111.410                             118    0.04 7 12.1 236 
 N13  BZ  P   1    131 8.691                             116   -0.03 7 12.5 239 
 N13  BE  S   1    13111.539                             116   -0.10 7 12.5 239 
 SHIF BZ  P   1    131 8.465                             115   -0.22 7 12.8 335 
 N4   BZ  P   1    131 8.704                             112   -0.17 7 13.9 212 
                                                                                
 2021  315 2329 13.8 L  28.914  50.967 10.8  SLT 25 0.2                 1.1L BI1
 GAP= 56        0.45       0.8     0.8  1.1 -0.1792E+00 -0.4534E+00  0.4079E-01E
 Action:ARG 21-06-12 18:26 OP:OBSP STATUS:               ID:20210315232913     I
 DUMMY                                                                         6
 STAT SP IPHASW D HRMM SECON CODA AMPLIT PERI AZIMU VELO AIN AR TRES W  DIS CAZ7
 P2   BZ EP   1   232916.000                             160   -0.23 7 3.18 318 
 P2   BE ES   1   232917.970                             160   -0.20 7 3.18 318 
 P3   BZ  P   1   232916.086                             155   -0.22 7 3.99  13 
 P3   BE ES   1   232918.060                             155   -0.25 7 3.99  13 
 P1   BZ  P   1   232916.358                             145   -0.04 7 5.81 287 
 P1   BE ES   1   232918.500                             145    0.02 7 5.81 287 
 N9   BZ EP   1   232916.570                             133   -0.19 7 8.65 256 
 N9   BE ES   1   232919.070                             133   -0.05 7 8.65 256 
 P4   BZ EP   1   232916.990                             128    0.08 7 9.93  54 
 P4   BE ES   1   232919.570                             128    0.17 7 9.93  54 
 N6   BZ EP   1   232916.960                             127   -0.02 7 10.2 247 
 N6   BE ES   1   232919.490                             127   -0.03 7 10.2 247 
 N19  BZ  P   1   232916.972                             126   -0.05 7 10.5 290 
 N19  BE ES   1   232919.650                             126    0.05 7 10.5 290 
 N15  BZ  P   1   232916.987                             125   -0.08 7 10.8 272 
 N15  BE ES   1   232919.660                             125   -0.02 7 10.8 272 
 N2   BZ EP   1   232917.000                             124   -0.11 7 11.2 220 
 N5   BZ EP   1   232917.010                             124   -0.11 7 11.2 226 
 N5   BE ES   1   232919.950                             124    0.17 7 11.2 226 
 N2   BE ES   1   232919.900                             124    0.15 7 11.2 220 
 N10  BZ EP   1   232917.000                             123   -0.17 7 11.4 258 
 N10  BE ES   1   232919.900                             123    0.03 7 11.4 258 
 N1   BZ EP   1   232917.240                             121   -0.03 7 12.1 213 
 N1   BE ES   1   232920.200                             121    0.15 7 12.1 213 
 N3   BZ EP   1   232917.000                             120   -0.28 7 12.4 227 
 N3   BE ES   1   232920.270                             120    0.20 7 12.4 227 
 N4   BZ EP   1   232917.270                             120   -0.07 7 12.6 241 
 N4   BE ES   1   232920.320                             120    0.14 7 12.6 241 
 N14  BE ES   1   232920.240                             119    0.09 7 12.8 273 
 N18  BZ  P   1   232917.430                             118   -0.04 7 13.3 279 
 N18  BE  S   1   232920.561                             118    0.15 7 13.3 279 
 N11  BZ  P   1   232917.473                             117   -0.00 7 13.7 265 
 N11  BE ES   1   232920.540                             117    0.12 7 13.7 265 
 N20  BE  S   1   232920.804                             116    0.33 7 14.0 294 
 TOLS BZ  P   1   232917.930                             112    0.05 7 16.3  64 
 TOLS BE  S   1   232921.690                             112    0.53 7 16.3  64 
 KHIA BZ  P   1   232918.459                             107   -0.04 7 19.9 103 
 KHIA BE ES   1   232922.300                             107    0.02 7 19.9 103 
 P9   BE  S   1   232924.249                              68    0.19 7 25.4  66 
 ABTL BE ES   1   232924.260                              68    0.31 7 25.4  35 
 DLRM BE  S   1   232925.435                              68    0.29 7 29.6 159 
 NOKA BZ  P   1   232919.503                              68   -0.75 7 30.9  12 
 NOKA BE  S   1   232925.707                              68    0.26 7 30.9  12 
 AHRM HZ  P   1   232920.203                              68   -0.25 7 32.5 100 
 AHRM HE ES   1   232925.490                              68   -0.32 7 32.5 100 
                                                                                
 2021  4 2 0835 16.3 L  28.929  50.919 11.3  SLT 16 0.1                 1.3L BI1
 GAP=139        0.27       0.7     0.8  1.1 -0.1860E+00 -0.2476E+00  0.1510E+00E
 Action:ARG 21-06-12 18:26 OP:OBSP STATUS:               ID:20210402083516     I
 DUMMY                                                                         6
 STAT SP IPHASW D HRMM SECON CODA AMPLIT PERI AZIMU VELO AIN AR TRES W  DIS CAZ7
 P1   BZ EP   1    83518.490                             174   -0.11 7 0.88 267 
 P1   BE ES   1    83520.540                             174    0.04 7 0.88 267 
 P2   BZ  P   1    83518.626                             163   -0.07 7 2.60  76 
 P2   BE  S   1    83520.692                             163    0.02 7 2.60  76 
 N9   BZ  P   1    83518.804                             147   -0.07 7 5.33 224 
 N9   BE ES   1    83520.860                             147   -0.14 7 5.33 224 
 N19  BZ  P   1    83518.941                             146    0.03 7 5.49 290 
 N19  BE ES   1    83521.150                             146    0.10 7 5.49 290 
 P3   BZ EP   1    83519.000                             143    0.03 7 5.96  69 
 P3   BE ES   1    83521.170                             143    0.01 7 5.96  69 
 N15  BZ  P   1    83518.996                             142    0.01 7 6.30 257 
 N15  BE  S   1    83521.185                             142   -0.00 7 6.30 257 
 N6   BZ EP   1    83519.040                             136   -0.06 7 7.38 219 
 N6   BE ES   1    83521.330                             136   -0.07 7 7.38 219 
 N10  BZ  P   1    83518.763                             135   -0.38 7 7.69 238 
 N18  BZ  P   1    83519.324                             131    0.07 7 8.50 273 
 N18  BE ES   1    83521.760                             131    0.08 7 8.50 273 
 N11  BZ  P   1    83519.392                             127    0.06 7 9.44 252 
 N11  BE ES   1    83521.870                             127    0.06 7 9.44 252 
 CAMP BZ  P   1    83519.433                             124    0.01 7 10.1 186 
 CAMP BE ES   1    83522.050                             124    0.06 7 10.1 186 
 N5   BZ EP   1    83519.450                             124    0.01 7 10.1 199 
 N5   BE ES   1    83521.990                             124   -0.02 7 10.1 199 
 N2   BZ  P   1    83519.515                             122    0.03 7 10.5 194 
 N2   BE  S   1    83522.170                             122    0.07 7 10.5 194 
 N1   BZ  P   1    83519.926                             116    0.21 7 12.1 189 
 N1   BE ES   1    83522.530                             116    0.01 7 12.1 189 
 P4   BZ  P   1    83520.090                             112    0.23 7 13.3  72 
 TOLS BZ  P   1    83520.733                              94   -0.19 7 20.1  74 
                                                                                
 2021  4 2 0836 57.7 L  28.923  50.923  6.8  SLT  8 0.2                 1.2L BI1
 GAP=208        0.44       1.1     2.0  1.3  0.6805E+00 -0.1085E+01 -0.7116E-01E
 Action:ARG 21-06-12 18:26 OP:OBSP STATUS:               ID:20210402083657     I
 DUMMY                                                                         6
 STAT SP IPHASW D HRMM SECON CODA AMPLIT PERI AZIMU VELO AIN AR TRES W  DIS CAZ7
 N18  BZ EP   1    837 0.100                             115   -0.28 7 8.90 277 
 N18  BE ES   1    837 2.560                             115    0.02 7 8.90 277 
 N11  BZ EP   1    837 0.160                             113   -0.30 7 9.59 256 
 N11  BE ES   1    837 2.700                             113    0.02 7 9.59 256 
 N5   BZ EP   1    837 0.170                             113   -0.32 7 9.63 202 
 N5   BE ES   1    837 2.790                             113    0.06 7 9.63 202 
 N20  BZ  P   1    837 0.728                             112    0.27 7 9.68 299 
 N20  BE ES   1    837 2.800                             112    0.13 7 9.68 299 
 N4   BZ  P   1    837 0.728                             112    0.19 7 9.86 223 
 N4   BE ES   1    837 2.850                             112    0.03 7 9.86 223 
 N13  BZ EP   1    837 1.000                             111    0.32 7 10.3 260 
 N13  BE ES   1    837 2.890                             111   -0.18 7 10.3 260 
 N1   BZ EP   1    837 1.000                             107    0.15 7 11.5 192 
 N1   BE ES   1    837 3.380                             107    0.00 7 11.5 192 
 SHIF BZ  P   1    837 1.667                              59   -0.09 7 16.8 344 
                                                                                
 2021  4 2 0836 57.1 L  28.930  50.916 11.0  SLT 18 0.1                 1.3L BI1
 GAP=141        0.25       0.8     0.8  0.8 -0.2751E+00 -0.1504E+00  0.3633E-01E
 Action:ARG 21-06-12 18:26 OP:OBSP STATUS:               ID:20210402083657     I
 DUMMY                                                                         6
 STAT SP IPHASW D HRMM SECON CODA AMPLIT PERI AZIMU VELO AIN AR TRES W  DIS CAZ7
 P1   BZ EP   1    83659.290                             176   -0.13 7 0.60 257 
 P1   BE ES   1    837 1.360                             176    0.08 7 0.60 257 
 P2   BZ EP   1    83659.480                             162   -0.06 7 2.88  79 
 P2   BE ES   1    837 1.480                             162   -0.01 7 2.88  79 
 N19  BZ  P   1    83659.772                             149    0.06 7 5.18 290 
 N9   BZ EP   1    83659.670                             149   -0.03 7 5.19 221 
 N9   BE ES   1    837 1.680                             149   -0.10 7 5.19 221 
 N15  BZ EP   1    83659.730                             145   -0.06 7 6.03 256 
 N15  BE ES   1    837 2.000                             145    0.06 7 6.03 256 
 P3   BZ EP   1    83659.720                             144   -0.10 7 6.21  70 
 P3   BE ES   1    837 2.010                             144    0.00 7 6.21  70 
 N6   BZ  P   1    83659.971                             139    0.05 7 7.27 217 
 N6   BE ES   1    837 2.160                             139   -0.03 7 7.27 217 
 N10  BZ  P   1    83659.900                             138   -0.06 7 7.48 237 
 N14  BZ  P   1    83659.914                             137   -0.05 7 7.90 261 
 N14  BE ES   1    837 2.390                             137    0.13 7 7.90 261 
 N17  BZ  P   1    837 0.255                             131    0.07 7 9.34 277 
 N13  BZ  P   1    837 0.156                             129   -0.15 7 9.80 255 
 N5   BZ  P   1    837 0.269                             128   -0.01 7 10.1 197 
 CAMP BZ  P   1    837 0.241                             128   -0.04 7 10.1 184 
 CAMP BE  S   1    837 2.910                             128    0.08 7 10.1 184 
 N2   BZ  P   1    837 0.198                             126   -0.14 7 10.6 192 
 N3   BZ  P   1    837 0.695                             125    0.29 7 11.1 201 
 N3   BE ES   1    837 3.090                             125    0.04 7 11.1 201 
 N1   BZ  P   1    837 0.454                             122   -0.12 7 12.1 188 
 P4   BZ  P   1    837 0.908                             118    0.15 7 13.6  73 
 TOLS BZ  P   1    837 1.888                              68    0.05 7 20.3  75 
                                                                                
