 2021  4 2 0901 45.7 L  28.928  50.922 11.0  SLT 18 0.1                 1.2L BI1
 GAP=129        0.21       0.5     0.6  0.8 -0.8585E-02 -0.4606E-01  0.4461E-01E
 Action:ARG 21-06-12 18:26 OP:OBSP STATUS:               ID:20210402090145     I
 DUMMY                                                                         6
 STAT SP IPHASW D HRMM SECON CODA AMPLIT PERI AZIMU VELO AIN AR TRES W  DIS CAZ7
 P1   BZ EP   1    9 147.880                             173   -0.11 7 1.19 278 
 P1   BE ES   1    9 149.900                             173    0.04 7 1.19 278 
 P2   BZ EP   1    9 147.950                             165   -0.12 7 2.39  70 
 P2   BE ES   1    9 150.040                             165    0.03 7 2.39  70 
 N9   BZ EP   1    9 148.320                             148    0.04 7 5.39 228 
 N9   BE ES   1    9 150.220                             148   -0.15 7 5.39 228 
 P3   BZ EP   1    9 148.350                             146    0.01 7 5.77  66 
 P3   BE ES   1    9 150.520                             146    0.03 7 5.77  66 
 N19  BZ  P   1    9 148.260                             146   -0.07 7 5.84 291 
 N19  BE ES   1    9 150.480                             146    0.01 7 5.84 291 
 N15  BZ EP   1    9 148.400                             143   -0.00 7 6.55 260 
 N15  BE ES   1    9 150.520                             143   -0.08 7 6.55 260 
 N6   BZ EP   1    9 148.510                             139    0.01 7 7.41 222 
 N6   BE ES   1    9 150.720                             139   -0.06 7 7.41 222 
 N10  BZ  P   1    9 148.619                             137    0.06 7 7.83 241 
 N18  BZ  P   1    9 148.646                             133   -0.05 7 8.80 274 
 N18  BE ES   1    9 151.090                             133   -0.04 7 8.80 274 
 N20  BZ  P   1    9 148.757                             130    0.05 7 9.41 297 
 N20  BE ES   1    9 151.340                             130    0.20 7 9.41 297 
 N11  BZ EP   1    9 148.760                             130    0.00 7 9.66 254 
 N11  BE ES   1    9 151.250                             130    0.01 7 9.66 254 
 CAMP BZ  P   1    9 148.867                             129    0.06 7 9.91 188 
 CAMP BE ES   1    9 151.380                             129    0.05 7 9.91 188 
 N17  BZ  P   1    9 148.825                             128   -0.00 7 9.97 279 
 N17  BE ES   1    9 151.370                             128    0.01 7 9.97 279 
 N5   BZ  P   1    9 148.867                             128    0.04 7 10.0 201 
 N5   BE ES   1    9 151.370                             128   -0.00 7 10.0 201 
 N2   BZ  P   1    9 148.619                             127   -0.26 7 10.4 196 
 N2   BE ES   1    9 151.500                             127    0.05 7 10.4 196 
 N3   BZ  P   1    9 148.949                             125   -0.01 7 11.0 205 
 N3   BE ES   1    9 151.670                             125    0.07 7 11.0 205 
 N1   BZ  P   1    9 149.129                             122    0.02 7 11.9 191 
 N1   BE ES   1    9 151.970                             122    0.10 7 11.9 191 
 P4   BZ EP   1    9 149.300                             119    0.05 7 13.1  71 
                                                                                
 2021  4 2 0902 14.7 L  28.928  50.920 11.2  SLT 17 0.1                 1.2L BI1
 GAP=136        0.20       0.5     0.6  0.8 -0.4019E-01 -0.3849E-01  0.8557E-01E
 Action:ARG 21-06-12 18:26 OP:OBSP STATUS:               ID:20210402090214     I
 DUMMY                                                                         6
 STAT SP IPHASW D HRMM SECON CODA AMPLIT PERI AZIMU VELO AIN AR TRES W  DIS CAZ7
 P1   BZ EP   1    9 216.960                             173   -0.07 7 1.01 277 
 P1   BE ES   1    9 218.930                             173    0.01 7 1.01 277 
 P2   BZ EP   1    9 217.030                             163   -0.09 7 2.53  72 
 P2   BE ES   1    9 219.090                             163    0.01 7 2.53  72 
 N9   BZ  P   1    9 217.278                             147   -0.02 7 5.29 226 
 N9   BE ES   1    9 219.290                             147   -0.12 7 5.29 226 
 N19  BZ  P   1    9 217.334                             145   -0.01 7 5.66 291 
 N19  BN  S   1    9 219.550                             145    0.05 7 5.66 291 
 P3   BZ EP   1    9 217.350                             143   -0.04 7 5.91  67 
 P3   BE ES   1    9 219.590                             143    0.02 7 5.91  67 
 N15  BZ EP   1    9 217.460                             141    0.04 7 6.39 259 
 N15  BE ES   1    9 219.570                             141   -0.05 7 6.39 259 
 N6   BZ EP   1    9 217.520                             136   -0.00 7 7.33 221 
 N6   BE ES   1    9 219.760                             136   -0.05 7 7.33 221 
 N18  BZ  P   1    9 217.736                             130    0.04 7 8.63 274 
 N18  BE ES   1    9 220.140                             130    0.01 7 8.63 274 
 N11  BZ  P   1    9 217.763                             126   -0.00 7 9.51 253 
 N11  BE ES   1    9 220.330                             126    0.08 7 9.51 253 
 N17  BZ  P   1    9 217.791                             124   -0.04 7 9.79 279 
 N17  BN  S   1    9 220.479                             124    0.12 7 9.79 279 
 CAMP BZ  P   1    9 217.819                             124   -0.01 7 9.92 187 
 CAMP BE ES   1    9 220.490                             124    0.12 7 9.92 187 
 N5   BZ  P   1    9 217.860                             124    0.01 7 10.0 200 
 N5   BE ES   1    9 220.430                             124    0.03 7 10.0 200 
 N13  BZ  P   1    9 217.957                             123    0.02 7 10.1 257 
 N13  BE ES   1    9 220.480                             123   -0.08 7 10.1 257 
 N2   BZ  P   1    9 217.929                             122    0.03 7 10.4 195 
 N2   BE ES   1    9 220.570                             122    0.08 7 10.4 195 
 N3   BZ  P   1    9 217.708                             119   -0.27 7 11.0 204 
 N3   BN  S   1    9 220.631                             119    0.00 7 11.0 204 
 N1   BZ  P   1    9 218.179                             116    0.05 7 11.9 190 
 P4   BZ  P   1    9 218.387                             111    0.10 7 13.3  71 
                                                                                
 2021  4 2 0903 25.8 L  28.928  50.919 11.1  SLT  7 0.1                 0.9L BI1
 GAP=142        0.33       1.5     1.9  2.0 -0.2951E+00 -0.3178E+00  0.8286E+00E
 Action:ARG 21-06-12 18:26 OP:OBSP STATUS:               ID:20210402090325     I
 DUMMY                                                                         6
 STAT SP IPHASW D HRMM SECON CODA AMPLIT PERI AZIMU VELO AIN AR TRES W  DIS CAZ7
 P1   BZ  P   1    9 328.068                             174   -0.01 7 0.85 278 
 P1   BE  S   1    9 329.910                             174   -0.05 7 0.85 278 
 P2   BZ  P   1    9 328.138                             162   -0.04 7 2.68  73 
 P2   BE ES   1    9 330.170                             162    0.03 7 2.68  73 
 N9   BZ  P   1    9 328.377                             147    0.03 7 5.18 225 
 N9   BE ES   1    9 330.310                             147   -0.13 7 5.18 225 
 N19  BZ  P   1    9 328.479                             145    0.09 7 5.51 291 
 N19  BN  S   1    9 330.647                             145    0.13 7 5.51 291 
 N15  BZ  P   1    9 328.152                             141   -0.31 7 6.23 259 
 N15  BE ES   1    9 330.630                             141   -0.01 7 6.23 259 
 N6   BZ  P   1    9 328.869                             136    0.30 7 7.23 220 
 N6   BE ES   1    9 330.820                             136   -0.02 7 7.23 220 
 CAMP BZ  P   1    9 328.790                             123   -0.10 7 9.92 186 
 CAMP BE  S   1    9 331.512                             123    0.09 7 9.92 186 
                                                                                
 2021  4 2 0903 59.7 L  28.928  50.919 11.3  SLT 19 0.1                 1.1L BI1
 GAP=130        0.22       0.5     0.5  0.8  0.4024E-02 -0.1213E+00  0.6326E-01E
 Action:ARG 21-06-12 18:26 OP:OBSP STATUS:               ID:20210402090359     I
 DUMMY                                                                         6
 STAT SP IPHASW D HRMM SECON CODA AMPLIT PERI AZIMU VELO AIN AR TRES W  DIS CAZ7
 P1   BZ EP   1    9 4 1.980                             174   -0.02 7 0.85 276 
 P1   BE ES   1    9 4 3.890                             174   -0.00 7 0.85 276 
 P2   BZ EP   1    9 4 2.000                             163   -0.10 7 2.68  74 
 P2   BE ES   1    9 4 4.020                             163   -0.05 7 2.68  74 
 N9   BZ  P   1    9 4 2.163                             148   -0.10 7 5.20 225 
 N9   BE ES   1    9 4 4.220                             148   -0.15 7 5.20 225 
 N19  BZ  P   1    9 4 2.271                             146   -0.03 7 5.50 291 
 N19  BE ES   1    9 4 4.500                             146    0.06 7 5.50 291 
 P3   BZ  P   1    9 4 2.420                             143    0.05 7 6.05  68 
 P3   BN  S   1    9 4 4.629                             143    0.06 7 6.05  68 
 N15  BZ EP   1    9 4 2.350                             142   -0.02 7 6.23 259 
 N15  BE ES   1    9 4 4.540                             142   -0.03 7 6.23 259 
 N6   BZ  P   1    9 4 2.461                             137   -0.02 7 7.25 220 
 N6   BE ES   1    9 4 4.730                             137   -0.03 7 7.25 220 
 N10  BZ  P   1    9 4 2.474                             135   -0.05 7 7.58 239 
 N10  BE ES   1    9 4 4.770                             135   -0.08 7 7.58 239 
 N14  BZ  P   1    9 4 2.583                             132    0.04 7 8.12 263 
 N14  BE ES   1    9 4 4.950                             132    0.06 7 8.12 263 
 N18  BZ  P   1    9 4 2.718                             131    0.07 7 8.47 274 
 N18  BE ES   1    9 4 5.090                             131    0.02 7 8.47 274 
 N20  BZ  P   1    9 4 2.501                             128   -0.15 7 9.08 298 
 N20  BN  S   1    9 4 5.307                             128    0.23 7 9.08 298 
 N11  BZ  P   1    9 4 2.718                             127    0.01 7 9.36 253 
 N11  BE ES   1    9 4 5.220                             127    0.04 7 9.36 253 
 N17  BZ  P   1    9 4 2.461                             126   -0.31 7 9.63 279 
 N17  BN  S   1    9 4 5.428                             126    0.14 7 9.63 279 
 CAMP BZ  P   1    9 4 2.827                             124    0.03 7 9.94 186 
 CAMP BE ES   1    9 4 5.410                             124    0.06 7 9.94 186 
 N5   BZ  P   1    9 4 2.799                             124   -0.01 7 9.99 199 
 N5   BE ES   1    9 4 5.380                             124    0.01 7 9.99 199 
 N13  BZ  P   1    9 4 2.921                             124    0.04 710.00 256 
 N13  BN  S   1    9 4 5.469                             124   -0.03 710.00 256 
 N2   BZ  P   1    9 4 2.881                             122    0.02 7 10.4 194 
 N2   BE ES   1    9 4 5.520                             122    0.06 7 10.4 194 
 N1   BZ  P   1    9 4 3.111                             117    0.02 7 11.9 189 
 N1   BE ES   1    9 4 5.930                             117    0.06 7 11.9 189 
 KHIA BZ  P   1    9 4 5.225                              92    0.10 7 24.9 104 
 KHIA BN  S   1    9 4 9.548                              92   -0.00 7 24.9 104 
                                                                                
 2021  4 2 0904 53.2 L  28.927  50.922 11.1  SLT 23 0.1                 1.4L BI1
 GAP=115        0.21       0.4     0.5  0.7 -0.4536E-01 -0.9087E-01 -0.1236E-01E
 Action:ARG 21-06-12 18:26 OP:OBSP STATUS:               ID:20210402090453     I
 DUMMY                                                                         6
 STAT SP IPHASW D HRMM SECON CODA AMPLIT PERI AZIMU VELO AIN AR TRES W  DIS CAZ7
 P1   BZ EP   1    9 455.420                             172   -0.10 7 1.18 281 
 P1   BE ES   1    9 457.420                             172    0.02 7 1.18 281 
 P2   BZ EP   1    9 455.480                             164   -0.12 7 2.42  68 
 P2   BE ES   1    9 457.550                             164    0.00 7 2.42  68 
 N9   BZ EP   1    9 455.720                             146   -0.07 7 5.33 228 
 N9   BE ES   1    9 457.740                             146   -0.15 7 5.33 228 
 P3   BZ EP   1    9 456.000                             143    0.13 7 5.81  65 
 P3   BE ES   1    9 458.080                             143    0.05 7 5.81  65 
 N19  BZ EP   1    9 455.800                             143   -0.05 7 5.85 291 
 N19  BE ES   1    9 458.050                             143    0.04 7 5.85 291 
 N15  BZ EP   1    9 455.910                             140   -0.01 7 6.52 260 
 N15  BE ES   1    9 458.070                             140   -0.06 7 6.52 260 
 N6   BZ EP   1    9 456.020                             135    0.01 7 7.35 222 
 N6   BE ES   1    9 458.220                             135   -0.08 7 7.35 222 
 N10  BZ  P   1    9 456.216                             133    0.15 7 7.79 241 
 N14  BZ EP   1    9 456.280                             130    0.17 7 8.42 264 
 N14  BE ES   1    9 458.520                             130    0.05 7 8.42 264 
 N18  BZ EP   1    9 456.280                             128    0.07 7 8.79 274 
 N18  BE ES   1    9 458.650                             128   -0.00 7 8.79 274 
 N20  BZ  P   1    9 456.202                             126   -0.02 7 9.43 297 
 N11  BZ EP   1    9 456.280                             125    0.01 7 9.63 254 
 N11  BE ES   1    9 458.750                             125   -0.01 7 9.63 254 
 CAMP BZ EP   1    9 456.280                             124   -0.03 7 9.84 188 
 CAMP BE ES   1    9 458.900                             124    0.06 7 9.84 188 
 N17  BZ EP   1    9 456.290                             123   -0.05 7 9.96 279 
 N17  BE ES   1    9 458.930                             123    0.04 7 9.96 279 
 N5   BZ EP   1    9 456.280                             123   -0.06 7 9.97 201 
 N5   BE ES   1    9 458.880                             123   -0.00 7 9.97 201 
 N4   BZ  P   1    9 456.409                             123    0.05 7 10.1 221 
 N4   BE ES   1    9 458.920                             123   -0.01 7 10.1 221 
 N2   BZ EP   1    9 456.290                             122   -0.09 7 10.3 196 
 N2   BE ES   1    9 459.010                             122    0.05 7 10.3 196 
 N3   BZ  P   1    9 456.520                             119    0.06 7 11.0 205 
 N1   BZ EP   1    9 456.600                             116   -0.01 7 11.8 191 
 N1   BE ES   1    9 459.420                             116    0.05 7 11.8 191 
 P4   BZ EP   1    9 456.810                             111    0.05 7 13.2  70 
 SHIF BZ  P   1    9 457.197                              99   -0.09 7 16.4 343 
 TOLS BZ  P   1    9 457.640                              92   -0.19 7 19.9  73 
 ABTL BZ  P   1    9 459.202                              91    0.15 7 27.1  45 
                                                                                
 2021  4 2 0914  5.4 L  28.934  50.916 11.4  SLT 15 0.1                 1.1L BI1
 GAP=148        0.29       1.1     1.0  1.2 -0.3163E+00 -0.2300E+00  0.2999E+00E
 Action:ARG 21-06-12 18:26 OP:OBSP STATUS:               ID:20210402091405     I
 DUMMY                                                                         6
 STAT SP IPHASW D HRMM SECON CODA AMPLIT PERI AZIMU VELO AIN AR TRES W  DIS CAZ7
 P1   BZ  P   1    914 7.736                             175   -0.01 7 0.79 228 
 P1   BN  S   1    914 9.785                             175    0.13 7 0.79 228 
 P2   BZ EP   1    914 7.860                             162    0.01 7 2.83  87 
 P2   BE ES   1    914 9.830                             162   -0.02 7 2.83  87 
 N19  BZ  P   1    914 7.985                             149   -0.03 7 5.06 286 
 N19  BN  S   1    91410.269                             149    0.13 7 5.06 286 
 N9   BZ  P   1    914 8.012                             146   -0.02 7 5.49 218 
 N9   BE ES   1    91410.000                             146   -0.18 7 5.49 218 
 P3   BZ EP   1    914 8.090                             143   -0.03 7 6.09  74 
 P3   BE ES   1    91410.310                             143   -0.02 7 6.09  74 
 N15  BZ  P   1    914 7.888                             143   -0.22 7 6.14 252 
 N15  BE ES   1    91410.270                             143   -0.04 7 6.14 252 
 N6   BZ EP   1    914 8.230                             136   -0.03 7 7.58 215 
 N6   BE ES   1    91410.570                             136   -0.02 7 7.58 215 
 N14  BZ  P   1    914 8.289                             134    0.02 7 7.97 258 
 N14  BN  S   1    91410.754                             134    0.14 7 7.97 258 
 N18  BZ  P   1    914 8.525                             133    0.17 7 8.19 269 
 N17  BZ  P   1    914 8.220                             128   -0.25 7 9.29 275 
 CAMP BZ  P   1    914 8.608                             123   -0.01 7 10.5 184 
 N2   BZ  P   1    914 8.511                             121   -0.17 7 11.0 192 
 N3   BZ  P   1    914 9.037                             119    0.30 7 11.4 200 
 N1   BZ  P   1    914 8.995                             115    0.08 7 12.5 188 
 N1   BE  S   1    91411.792                             115    0.02 7 12.5 188 
 TOLS BZ  P   1    91410.131                              96    0.05 7 20.2  76 
                                                                                
