 2021  4 2 1030 47.8 L  28.928  50.926 11.7  SLT 17 0.2                 1.1L BI1
 GAP=129        0.39       1.3     1.5  2.4  0.1781E+00 -0.1929E+01  0.1743E-01E
 Action:ARG 21-06-12 18:26 OP:OBSP STATUS:               ID:20210402103047     I
 DUMMY                                                                         6
 STAT SP IPHASW D HRMM SECON CODA AMPLIT PERI AZIMU VELO AIN AR TRES W  DIS CAZ7
 P1   BZ  P   1   103050.250                             170    0.04 7 1.59 272 
 P2   BZ  P   1   103050.196                             168   -0.07 7 1.97  68 
 P3   BZ  P   1   103050.411                             148   -0.08 7 5.36  65 
 N9   BZ  P   1   103050.491                             146   -0.01 7 5.76 230 
 N19  BZ  P   1   103050.587                             144    0.03 7 6.19 288 
 N19  BE ES   1   103052.770                             144   -0.03 7 6.19 288 
 N15  BZ  P   1   103050.627                             140   -0.00 7 6.97 260 
 N15  BE ES   1   103052.830                             140   -0.10 7 6.97 260 
 N6   BZ  P   1   103050.933                             136    0.21 7 7.77 224 
 N6   BE ES   1   103052.990                             136   -0.10 7 7.77 224 
 N18  BZ  P   1   103051.040                             130    0.13 7 9.21 273 
 N18  BE ES   1   103053.400                             130   -0.05 7 9.21 273 
 N20  BZ  P   1   103050.465                             128   -0.44 7 9.74 295 
 CAMP BZ  P   1   103051.028                             126    0.04 7 10.1 190 
 N11  BZ  P   1   103051.026                             126    0.05 7 10.1 254 
 N11  BE ES   1   103053.510                             126   -0.05 7 10.1 254 
 CAMP BE  S   1   103053.683                             126    0.10 7 10.1 190 
 N5   BZ  P   1   103051.040                             125    0.02 7 10.3 203 
 N5   BE ES   1   103053.590                             125   -0.06 7 10.3 203 
 N17  BZ  P   1   103051.001                             125   -0.04 7 10.3 278 
 N17  BN  S   1   103053.750                             125    0.08 7 10.3 278 
 N13  BZ  P   1   103051.484                             124    0.33 7 10.7 257 
 N1   BZ  P   1   103051.484                             119    0.20 7 12.1 193 
 P4   BZ  P   1   103051.591                             117    0.27 7 12.7  70 
 DLRM BZ  P   1   103054.072                              92   -0.46 7 32.7 153 
                                                                                
 2021  4 2 1159  6.4 L  28.922  50.920 10.9  SLT 27 0.1                 2.0L BI1
 GAP= 59        0.30       0.5     0.6  0.8 -0.4402E-01 -0.2420E+00 -0.2269E-01E
 Action:ARG 21-06-12 18:26 OP:OBSP STATUS:               ID:20210402115906     I
 DUMMY                                                                         6
 STAT SP IPHASW D HRMM SECON CODA AMPLIT PERI AZIMU VELO AIN AR TRES W  DIS CAZ7
 P1   BZ EP   1   1159 8.530                             172   -0.13 7 1.28 310 
 P1   BE ES   1   115910.570                             172    0.06 7 1.28 310 
 P2   BZ EP   1   1159 8.630                             162   -0.14 7 2.85  59 
 P2   BE ES   1   115910.620                             162   -0.08 7 2.85  59 
 N9   BZ  P   1   1159 8.825                             151   -0.07 7 4.81 232 
 N9   BE ES   1   115910.820                             151   -0.11 7 4.81 232 
 N19  BZ  P   1   1159 8.965                             145   -0.05 7 5.92 297 
 N19  BE ES   1   115911.180                             145    0.03 7 5.92 297 
 P3   BZ  P   1   1159 8.937                             144   -0.12 7 6.25  61 
 P3   BE ES   1   115911.110                             144   -0.12 7 6.25  61 
 N15  BZ EP   1   1159 8.990                             143   -0.06 7 6.26 265 
 N15  BE ES   1   115911.180                             143   -0.03 7 6.26 265 
 N6   BZ EP   1   1159 9.160                             141    0.05 7 6.80 225 
 N6   BE ES   1   115911.370                             141    0.06 7 6.80 225 
 N10  BZ  P   1   1159 8.937                             138   -0.24 7 7.35 244 
 N10  BE ES   1   115911.430                             138   -0.01 7 7.35 244 
 N14  BZ  P   1   1159 9.007                             135   -0.23 7 8.20 268 
 N14  BE  S   1   115911.579                             135    0.03 7 8.20 268 
 N18  BZ  P   1   1159 9.260                             133   -0.09 7 8.68 278 
 N18  BE ES   1   115911.700                             133   -0.06 7 8.68 278 
 CAMP BZ  P   1   1159 9.415                             131    0.02 7 9.23 187 
 CAMP BE  S   1   115912.085                             131    0.25 7 9.23 187 
 N11  BZ  P   1   1159 9.374                             130   -0.01 7 9.30 257 
 N11  BE  S   1   115911.930                             130    0.11 7 9.30 257 
 N5   BZ EP   1   1159 9.390                             130   -0.02 7 9.36 201 
 N5   BE ES   1   115911.960                             130    0.09 7 9.36 201 
 N4   BZ  P   1   1159 9.485                             129    0.04 7 9.55 222 
 N4   BE ES   1   115912.000                             129    0.07 7 9.55 222 
 N20  BZ  P   1   1159 9.401                             129    0.00 7 9.56 301 
 N20  BE ES   1   115911.980                             129    0.14 7 9.56 301 
 N2   BZ EP   1   1159 9.370                             129   -0.09 7 9.74 196 
 N17  BZ EP   1   1159 9.470                             128   -0.02 7 9.89 283 
 N17  BE ES   1   115912.050                             128    0.04 7 9.89 283 
 N13  BZ  P   1   1159 9.473                             128   -0.09 7 9.98 261 
 N3   BZ  P   1   1159 9.176                             127   -0.36 7 10.3 205 
 N3   BE ES   1   115912.250                             127    0.16 7 10.3 205 
 N1   BZ  P   1   1159 9.696                             124    0.01 7 11.2 191 
 N1   BE ES   1   115912.520                             124    0.16 7 11.2 191 
 P4   BZ EP   1   1159 9.960                             118   -0.03 7 13.5  68 
 SHIF BZ  P   1   115910.946                             111    0.40 7 16.9 345 
 SHIF BE ES   1   115914.140                             111    0.22 7 16.9 345 
 TOLS BZ  P   1   115911.017                             107   -0.06 7 20.2  72 
 TOLS BE ES   1   115915.130                             107    0.25 7 20.2  72 
 JNAK BZ  P   1   115911.285                              68    0.08 7 21.1 135 
 ABTL BZ  P   1   115912.227                              68   -0.10 7 27.6  44 
 P9   BZ  P   1   115912.634                              68   -0.03 7 29.4  72 
 AHRM HZ  P   1   115913.829                              68    0.08 7 37.1 100 
                                                                                
 2021  4 2 1206 57.3 L  28.930  50.923 11.4  SLT 11 0.1                 1.0L BI1
 GAP=150        0.32       1.3     1.6  2.2  0.2985E+00  0.7743E+00  0.7125E+00E
 Action:ARG 21-06-12 18:26 OP:OBSP STATUS:               ID:20210402120657     I
 DUMMY                                                                         6
 STAT SP IPHASW D HRMM SECON CODA AMPLIT PERI AZIMU VELO AIN AR TRES W  DIS CAZ7
 P1   BZ  P   1   12 659.661                             172   -0.06 7 1.26 263 
 P2   BZ  P   1   12 659.759                             166   -0.03 7 2.23  77 
 P2   BE  S   1   12 7 1.828                             166    0.05 7 2.23  77 
 N19  BZ  P   1   12 659.925                             145   -0.12 7 5.80 287 
 N15  BZ  P   1   12 7 0.036                             140   -0.09 7 6.68 257 
 N10  BZ  P   1   12 7 0.662                             134    0.37 7 8.05 239 
 N14  BZ  P   1   12 7 0.245                             131   -0.06 7 8.56 261 
 N18  BZ  P   1   12 7 0.655                             130    0.25 7 8.86 272 
 N18  BE ES   1   12 7 2.830                             130   -0.05 7 8.86 272 
 N11  BZ  P   1   12 7 0.352                             126   -0.12 7 9.82 252 
 N11  BE ES   1   12 7 2.980                             126   -0.03 7 9.82 252 
 CAMP BZ  P   1   12 7 0.504                             124   -0.04 7 10.2 188 
 CAMP BE ES   1   12 7 3.190                             124    0.05 7 10.2 188 
 N5   BZ  P   1   12 7 0.572                             124    0.00 7 10.4 201 
 N5   BE ES   1   12 7 3.140                             124   -0.04 7 10.4 201 
 N1   BZ  P   1   12 7 0.759                             117   -0.08 7 12.2 191 
                                                                                
 2021  4 2 1209 48.5 L  28.924  50.924 11.2  SLT 19 0.1                 1.1L BI1
 GAP=128        0.24       0.6     0.7  1.0  0.1359E-01  0.2616E-01  0.1254E+00E
 Action:ARG 21-06-12 18:26 OP:OBSP STATUS:               ID:20210402120948     I
 DUMMY                                                                         6
 STAT SP IPHASW D HRMM SECON CODA AMPLIT PERI AZIMU VELO AIN AR TRES W  DIS CAZ7
 P1   BZ  P   1   12 950.777                             170   -0.07 7 1.50 291 
 P1   BE ES   1   12 952.770                             170    0.03 7 1.50 291 
 P2   BZ  P   1   12 950.873                             165   -0.04 7 2.34  59 
 P2   BE ES   1   12 952.890                             165    0.02 7 2.34  59 
 N9   BZ EP   1   12 951.080                             147   -0.02 7 5.33 233 
 N9   BE ES   1   12 953.080                             147   -0.14 7 5.33 233 
 P3   BZ EP   1   12 951.160                             144   -0.01 7 5.73  61 
 P3   BE ES   1   12 953.370                             144    0.03 7 5.73  61 
 N19  BZ  P   1   12 951.147                             142   -0.05 7 6.19 293 
 N19  BE ES   1   12 953.400                             142    0.01 7 6.19 293 
 N15  BZ  P   1   12 951.216                             139   -0.04 7 6.72 263 
 N15  BE ES   1   12 953.400                             139   -0.09 7 6.72 263 
 N6   BZ  P   1   12 951.284                             136   -0.04 7 7.31 226 
 N6   BE ES   1   12 953.560                             136   -0.05 7 7.31 226 
 N10  BZ  P   1   12 951.380                             133   -0.01 7 7.87 244 
 N10  BE ES   1   12 953.690                             133   -0.05 7 7.87 244 
 N14  BZ  P   1   12 951.558                             130    0.11 7 8.64 266 
 N18  BZ  P   1   12 951.545                             128   -0.01 7 9.07 276 
 N18  BE ES   1   12 954.020                             128   -0.01 7 9.07 276 
 CAMP BZ  P   1   12 951.640                             125    0.05 7 9.58 190 
 CAMP BE ES   1   12 954.240                             125    0.15 7 9.58 190 
 N20  BZ  P   1   12 951.709                             125    0.13 7 9.79 298 
 N20  BE  S   1   12 954.230                             125    0.15 7 9.79 298 
 N11  BZ  P   1   12 951.640                             125    0.04 7 9.79 256 
 N11  BE ES   1   12 954.140                             125    0.02 7 9.79 256 
 N5   BZ  P   1   12 951.668                             125    0.05 7 9.79 203 
 N4   BZ  P   1   12 951.695                             123    0.03 7 10.0 223 
 N4   BE ES   1   12 954.210                             123   -0.02 7 10.0 223 
 N2   BZ  P   1   12 951.531                             123   -0.13 7 10.1 198 
 N2   BE ES   1   12 954.340                             123    0.12 7 10.1 198 
 N17  BZ  P   1   12 951.709                             123    0.02 7 10.2 280 
 N17  BE  S   1   12 954.271                             123   -0.01 7 10.2 280 
 N3   BZ  P   1   12 951.353                             120   -0.39 7 10.8 207 
 N1   BZ  P   1   12 951.942                             117    0.06 7 11.6 192 
 N1   BE ES   1   12 954.770                             117    0.15 7 11.6 192 
                                                                                
 2021  4 2 1210 15.0 L  28.922  50.927 11.4  SLT 12 0.1                 0.9L BI1
 GAP=121        0.28       1.3     1.1  1.3 -0.4225E+00 -0.4917E+00  0.4823E+00E
 Action:ARG 21-06-12 18:26 OP:OBSP STATUS:               ID:20210402121015     I
 DUMMY                                                                         6
 STAT SP IPHASW D HRMM SECON CODA AMPLIT PERI AZIMU VELO AIN AR TRES W  DIS CAZ7
 P1   BZ EP   1   121017.460                             168    0.03 7 1.89 296 
 P1   BE ES   1   121019.380                             168    0.01 7 1.89 296 
 P2   BZ  P   1   121017.525                             165    0.04 7 2.28  49 
 P2   BE ES   1   121019.530                             165    0.06 7 2.28  49 
 N9   BZ  P   1   121017.485                             147   -0.19 7 5.40 237 
 N9   BE ES   1   121019.740                             147   -0.08 7 5.40 237 
 P3   BZ  P   1   121017.659                             146   -0.07 7 5.63  57 
 N19  BZ  P   1   121017.779                             141   -0.02 7 6.57 294 
 N19  BE ES   1   121020.070                             141    0.02 7 6.57 294 
 N6   BZ  P   1   121017.672                             137   -0.21 7 7.32 229 
 N6   BE ES   1   121020.200                             137    0.01 7 7.32 229 
 CAMP BZ  P   1   121018.380                             128    0.27 7 9.34 192 
 N18  BZ  P   1   121018.180                             128    0.03 7 9.39 278 
 N18  BE ES   1   121020.660                             128   -0.02 7 9.39 278 
 N5   BZ  P   1   121018.220                             127    0.06 7 9.63 205 
 N11  BZ  P   1   121018.340                             125    0.15 7 10.0 258 
 N11  BE ES   1   121020.790                             125    0.05 7 10.0 258 
 N1   BZ  P   1   121018.287                             120   -0.11 7 11.4 194 
 TOLS BZ  P   1   121019.596                              97   -0.02 7 19.5  71 
                                                                                
 2021  4 2 1211 44.5 L  28.928  50.924 11.0  SLT 15 0.1                 1.0L BI1
 GAP=136        0.28       0.8     1.0  1.2  0.9103E-01 -0.1478E+00  0.9715E-01E
 Action:ARG 21-06-12 18:26 OP:OBSP STATUS:               ID:20210402121144     I
 DUMMY                                                                         6
 STAT SP IPHASW D HRMM SECON CODA AMPLIT PERI AZIMU VELO AIN AR TRES W  DIS CAZ7
 P1   BZ EP   1   121146.760                             171   -0.06 7 1.38 273 
 P1   BE ES   1   121148.750                             171    0.05 7 1.38 273 
 P2   BZ  P   1   121146.837                             166   -0.06 7 2.17  70 
 P2   BE ES   1   121148.870                             166    0.05 7 2.17  70 
 P3   BZ  P   1   121147.200                             147    0.05 7 5.56  66 
 N9   BZ EP   1   121147.080                             147   -0.04 7 5.59 229 
 N9   BE ES   1   121149.070                             147   -0.16 7 5.59 229 
 N19  BZ  P   1   121147.120                             145   -0.05 7 6.00 289 
 N19  BE ES   1   121149.330                             145    0.00 7 6.00 289 
 N15  BZ EP   1   121147.280                             142    0.03 7 6.76 259 
 N15  BE ES   1   121149.380                             142   -0.09 7 6.76 259 
 N6   BZ EP   1   121147.290                             138   -0.06 7 7.60 223 
 N6   BE ES   1   121149.590                             138   -0.05 7 7.60 223 
 N14  BZ  P   1   121147.819                             133    0.37 7 8.65 263 
 N14  BN  S   1   121149.795                             133   -0.02 7 8.65 263 
 N18  BZ  P   1   121147.389                             132   -0.16 7 9.00 273 
 N18  BE ES   1   121150.010                             132    0.01 7 9.00 273 
 N11  BZ EP   1   121147.720                             129    0.11 7 9.87 254 
 N11  BE ES   1   121150.130                             129    0.01 7 9.87 254 
 CAMP BZ  P   1   121147.671                             128    0.02 7 10.0 189 
 CAMP BE ES   1   121150.300                             128    0.12 7 10.0 189 
 N17  BZ  P   1   121147.738                             128    0.06 7 10.1 278 
 N17  BE ES   1   121150.260                             128    0.02 7 10.1 278 
 N5   BZ  P   1   121147.698                             128    0.02 7 10.2 202 
 N5   BE ES   1   121150.210                             128   -0.03 7 10.2 202 
 N2   BZ  P   1   121147.711                             127   -0.01 7 10.5 197 
 N2   BE ES   1   121150.400                             127    0.09 7 10.5 197 
 N1   BZ  P   1   121147.590                             122   -0.36 7 12.0 192 
 N1   BE ES   1   121150.850                             122    0.12 7 12.0 192 
                                                                                
 2021  4 2 1217 59.4 L  28.927  50.928 12.2  SLT 17 0.2                 1.0L BI1
 GAP=133        0.35       0.9     1.0  1.5 -0.1517E+00 -0.4898E+00  0.1473E+00E
 Action:ARG 21-06-12 18:26 OP:OBSP STATUS:               ID:20210402121759     I
 DUMMY                                                                         6
 STAT SP IPHASW D HRMM SECON CODA AMPLIT PERI AZIMU VELO AIN AR TRES W  DIS CAZ7
 P1   BZ  P   1   1218 1.907                             169    0.01 7 1.80 277 
 P2   BZ  P   1   1218 1.962                             169    0.02 7 1.85  62 
 P2   BE ES   1   1218 3.990                             169   -0.01 7 1.85  62 
 P3   BZ EP   1   1218 2.290                             150    0.14 7 5.24  62 
 P3   BE ES   1   1218 4.470                             150    0.08 7 5.24  62 
 N9   BZ EP   1   1218 2.150                             147   -0.02 7 5.83 232 
 N9   BE ES   1   1218 4.200                             147   -0.23 7 5.83 232 
 N19  BZ EP   1   1218 2.280                             144    0.04 7 6.43 289 
 N19  BE ES   1   1218 4.530                             144   -0.02 7 6.43 289 
 N15  BZ  P   1   1218 2.168                             141   -0.14 7 7.14 261 
 N15  BE ES   1   1218 4.530                             141   -0.15 7 7.14 261 
 N6   BZ  P   1   1218 2.402                             138    0.02 7 7.80 226 
 N6   BE ES   1   1218 4.660                             138   -0.14 7 7.80 226 
 N18  BZ EP   1   1218 2.720                             131    0.13 7 9.42 274 
 N18  BE ES   1   1218 5.140                             131   -0.04 7 9.42 274 
 CAMP BZ  P   1   1218 2.760                             129    0.14 7 9.96 191 
 CAMP BE ES   1   1218 5.340                             129    0.09 7 9.96 191 
 N5   BZ  P   1   1218 2.760                             128    0.10 7 10.2 204 
 N5   BE ES   1   1218 5.310                             128   -0.01 7 10.2 204 
 N11  BZ EP   1   1218 2.710                             128    0.07 7 10.2 255 
 N11  BE ES   1   1218 5.250                             128   -0.03 7 10.2 255 
 N2   BZ  P   1   1218 2.788                             127    0.09 7 10.6 199 
 N2   BE ES   1   1218 5.480                             127    0.10 7 10.6 199 
 N17  BZ  P   1   1218 2.884                             127    0.17 7 10.6 278 
 N17  BE ES   1   1218 5.390                             127   -0.02 7 10.6 278 
 N1   BZ  P   1   1218 2.843                             122   -0.06 7 12.0 194 
 N1   BE ES   1   1218 5.860                             122    0.11 7 12.0 194 
 P4   BZ  P   1   1218 3.311                             120    0.37 7 12.6  69 
 TOLS BZ  P   1   1218 3.503                             104   -0.45 7 19.3  73 
 JNAK BZ  P   1   1218 3.861                             101   -0.35 7 21.0 138 
                                                                                
