 2021  4 2 0837 23.3 L  28.929  50.922 11.2  SLT 15 0.1                 1.1L BI1
 GAP=116        0.19       0.5     0.6  0.8 -0.5430E-01 -0.3418E-01  0.2549E-01E
 Action:ARG 21-06-12 18:26 OP:OBSP STATUS:               ID:20210402083723     I
 DUMMY                                                                         6
 STAT SP IPHASW D HRMM SECON CODA AMPLIT PERI AZIMU VELO AIN AR TRES W  DIS CAZ7
 P1   BZ EP   1    83725.650                             172   -0.02 7 1.16 270 
 P1   BE ES   1    83727.610                             172    0.05 7 1.16 270 
 P2   BZ  P   1    83725.761                             165    0.01 7 2.34  74 
 P2   BE ES   1    83727.680                             165   -0.02 7 2.34  74 
 N9   BZ  P   1    83725.896                             145   -0.06 7 5.49 227 
 N9   BE ES   1    83727.920                             145   -0.16 7 5.49 227 
 P3   BZ  P   1    83726.058                             144    0.05 7 5.72  67 
 P3   BE ES   1    83728.250                             144    0.08 7 5.72  67 
 N19  BZ  P   1    83726.031                             144    0.03 7 5.77 289 
 N15  BZ  P   1    83726.098                             140    0.02 7 6.57 258 
 N15  BE ES   1    83728.220                             140   -0.07 7 6.57 258 
 N6   BZ EP   1    83726.190                             135    0.01 7 7.53 221 
 N6   BE ES   1    83728.400                             135   -0.09 7 7.53 221 
 N18  BZ  P   1    83726.408                             129    0.05 7 8.78 273 
 N18  BE ES   1    83728.830                             129    0.03 7 8.78 273 
 N11  BZ  P   1    83726.489                             125    0.06 7 9.70 253 
 N11  BE ES   1    83728.950                             125    0.02 7 9.70 253 
 N17  BZ  P   1    83726.542                             124    0.06 7 9.93 278 
 N17  BE ES   1    83729.050                             124    0.02 7 9.93 278 
 CAMP BZ  P   1    83726.502                             123    0.01 7 10.1 188 
 CAMP BE ES   1    83729.120                             123    0.07 7 10.1 188 
 N5   BZ  P   1    83726.475                             123   -0.04 7 10.2 201 
 N5   BE ES   1    83729.070                             123   -0.02 7 10.2 201 
 N2   BZ  P   1    83726.650                             121    0.09 7 10.6 195 
 N2   BE ES   1    83729.180                             121    0.01 7 10.6 195 
 N1   BZ  P   1    83726.771                             115   -0.02 7 12.1 191 
 N1   BE ES   1    83729.610                             115    0.02 7 12.1 191 
 ABTL BZ EP   1    83729.000                              91   -0.17 7 26.9  45 
                                                                                
 2021  4 2 0837 48.7 L  28.947  50.934 15.7  SLT 12 0.3                 1.0L BI1
 GAP=145        0.59       3.0     3.0  2.7 -0.2885E+01 -0.2082E+01  0.1095E+01E
 Action:ARG 21-06-12 18:26 OP:OBSP STATUS:               ID:20210402083748     I
 DUMMY                                                                         6
 STAT SP IPHASW D HRMM SECON CODA AMPLIT PERI AZIMU VELO AIN AR TRES W  DIS CAZ7
 P2   BZ  P   1    83752.170                             173    0.40 7 1.69 142 
 P2   BE ES   1    83754.150                             173   -0.14 7 1.69 142 
 P1   BZ  P   1    83752.074                             167    0.30 7 3.09 230 
 P1   BE  S   1    83754.048                             167   -0.24 7 3.09 230 
 P3   BZ EP   1    83752.000                             163    0.13 7 4.07  87 
 P3   BE  S   1    83754.734                             163    0.25 7 4.07  87 
 N9   BZ  P   1    83752.362                             149    0.27 7 7.76 222 
 N15  BZ  P   1    83752.458                             147    0.30 7 8.32 247 
 N15  BE ES   1    83754.670                             147   -0.32 7 8.32 247 
 N18  BZ  P   1    83752.183                             141   -0.17 7 10.1 261 
 N18  BE ES   1    83755.260                             141   -0.08 7 10.1 261 
 CAMP BZ  P   1    83752.938                             135    0.39 7 12.2 192 
 CAMP BE ES   1    83755.560                             135   -0.14 7 12.2 192 
 N5   BZ  P   1    83752.883                             134    0.30 7 12.5 203 
 N2   BZ  P   1    83752.293                             133   -0.32 7 12.8 198 
 N3   BZ  P   1    83752.512                             131   -0.18 7 13.5 205 
 JNAK BZ  P   1    83753.541                             115   -0.32 7 22.3 143 
 ABTL BZ  P   1    83753.843                             112   -0.44 7 24.7  46 
                                                                                
 2021  4 2 0838 38.7 L  28.930  50.921 10.9  SLT 13 0.1                 1.0L BI1
 GAP=139        0.21       0.7     0.8  0.9 -0.9472E-01 -0.6485E-02  0.1671E+00E
 Action:ARG 21-06-12 18:26 OP:OBSP STATUS:               ID:20210402083838     I
 DUMMY                                                                         6
 STAT SP IPHASW D HRMM SECON CODA AMPLIT PERI AZIMU VELO AIN AR TRES W  DIS CAZ7
 P1   BZ EP   1    83841.000                             173    0.04 7 1.08 267 
 P1   BE  S   1    83842.914                             173    0.10 7 1.08 267 
 P2   BZ EP   1    83841.000                             165   -0.04 7 2.41  76 
 P2   BE ES   1    83843.010                             165    0.04 7 2.41  76 
 N9   BZ EP   1    83841.150                             148   -0.10 7 5.47 226 
 N9   BN  S   1    83843.270                             148   -0.07 7 5.47 226 
 N19  BZ  P   1    83841.117                             147   -0.17 7 5.67 289 
 N19  BE ES   1    83843.490                             147    0.09 7 5.67 289 
 P3   BZ  P   1    83841.315                             146    0.01 7 5.78  68 
 P3   BE  S   1    83843.397                             146   -0.05 7 5.78  68 
 N15  BZ  P   1    83841.344                             143   -0.02 7 6.49 258 
 N15  BE ES   1    83843.500                             143   -0.05 7 6.49 258 
 N6   BZ  P   1    83841.429                             138   -0.05 7 7.51 221 
 N6   BE ES   1    83843.690                             138   -0.07 7 7.51 221 
 N18  BZ  P   1    83841.711                             133    0.06 7 8.69 273 
 N18  BE  S   1    83844.104                             133    0.04 7 8.69 273 
 N11  BZ  P   1    83841.767                             129    0.04 7 9.63 252 
 CAMP BZ  P   1    83841.811                             128    0.01 7 10.1 187 
 CAMP BE ES   1    83844.390                             128    0.04 7 10.1 187 
 N5   BZ  P   1    83841.839                             127    0.02 7 10.2 200 
 N5   BE ES   1    83844.350                             127   -0.03 7 10.2 200 
 N2   BZ  P   1    83841.951                             126    0.08 7 10.6 195 
 N3   BZ  P   1    83842.036                             124    0.09 7 11.2 204 
                                                                                
 2021  4 2 0839 54.3 L  28.925  50.922 10.9  SLT 11 0.1                 1.0L BI1
 GAP=131        0.24       0.9     0.8  1.1 -0.1482E+00  0.1762E-01  0.1333E+00E
 Action:ARG 21-06-12 18:26 OP:OBSP STATUS:               ID:20210402083954     I
 DUMMY                                                                         6
 STAT SP IPHASW D HRMM SECON CODA AMPLIT PERI AZIMU VELO AIN AR TRES W  DIS CAZ7
 P1   BZ EP   1    83956.520                             172   -0.10 7 1.23 289 
 P1   BE ES   1    83958.530                             172    0.07 7 1.23 289 
 P2   BZ  P   1    83956.712                             164    0.01 7 2.49  64 
 P2   BE ES   1    83958.630                             164    0.01 7 2.49  64 
 N9   BZ  P   1    83956.753                             149   -0.13 7 5.22 230 
 N9   BE ES   1    83958.790                             149   -0.16 7 5.22 230 
 P3   BZ EP   1    83957.000                             145    0.02 7 5.89  63 
 P3   BE ES   1    83959.130                             145    0.01 7 5.89  63 
 N19  BZ  P   1    83956.901                             145   -0.06 7 5.92 293 
 N19  BN  S   1    83959.155                             145    0.06 7 5.92 293 
 N15  BZ  P   1    83956.928                             142   -0.09 7 6.49 262 
 N15  BE ES   1    83959.170                             142   -0.03 7 6.49 262 
 N6   BZ EP   1    83957.140                             139    0.04 7 7.22 223 
 N6   BE ES   1    83959.330                             139   -0.02 7 7.22 223 
 N14  BZ  P   1    83957.482                             134    0.27 7 8.41 265 
 N14  BN  S   1    83959.601                             134    0.05 7 8.41 265 
 N18  BZ  P   1    83957.320                             132   -0.00 7 8.81 276 
 N18  BE ES   1    83959.730                             132   -0.01 7 8.81 276 
 N11  BZ  P   1    83957.347                             129   -0.03 7 9.58 255 
 N11  BE ES   1    83959.860                             129    0.02 7 9.58 255 
 CAMP BZ  P   1    83957.360                             129   -0.04 7 9.66 188 
 CAMP BE ES   1    840 0.020                             129    0.13 7 9.66 188 
                                                                                
 2021  4 2 0841 45.8 L  28.931  50.928 12.2  SLT 15 0.1                 1.2L BI1
 GAP=140        0.28       0.8     1.1  1.2 -0.3803E-01 -0.4106E+00  0.6797E-01E
 Action:ARG 21-06-12 18:26 OP:OBSP STATUS:               ID:20210402084145     I
 DUMMY                                                                         6
 STAT SP IPHASW D HRMM SECON CODA AMPLIT PERI AZIMU VELO AIN AR TRES W  DIS CAZ7
 P2   BZ EP   1    84148.430                             170    0.11 7 1.72  75 
 P2   BE ES   1    84150.440                             170    0.06 7 1.72  75 
 P1   BZ  P   1    84148.354                             170    0.08 7 1.77 263 
 P1   BE  S   1    84150.392                             170    0.08 7 1.77 263 
 N9   BZ EP   1    84148.550                             146   -0.02 7 6.07 229 
 N9   BE ES   1    84150.610                             146   -0.24 7 6.07 229 
 N19  BZ  P   1    84148.691                             145    0.08 7 6.27 285 
 N19  BN  S   1    84150.945                             145    0.04 7 6.27 285 
 N15  BZ EP   1    84148.720                             141    0.03 7 7.19 258 
 N15  BE ES   1    84150.940                             141   -0.13 7 7.19 258 
 N6   BZ EP   1    84148.900                             137    0.11 7 8.08 223 
 N6   BE ES   1    84151.100                             137   -0.14 7 8.08 223 
 N18  BZ EP   1    84149.000                             132    0.04 7 9.36 271 
 N18  BE ES   1    84151.500                             132   -0.05 7 9.36 271 
 N20  BZ  P   1    84148.961                             130    0.02 7 9.78 293 
 N11  BZ  P   1    84149.123                             128    0.09 7 10.3 253 
 N11  BE ES   1    84151.630                             128   -0.05 7 10.3 253 
 CAMP BZ  P   1    84149.191                             128    0.14 7 10.4 191 
 CAMP BE ES   1    84151.770                             128    0.05 7 10.4 191 
 N5   BZ  P   1    84149.191                             127    0.10 7 10.6 203 
 N5   BE ES   1    84151.750                             127   -0.04 7 10.6 203 
 N2   BZ  P   1    84149.245                             126    0.12 7 10.9 198 
 N2   BE ES   1    84151.890                             126    0.04 7 10.9 198 
 N3   BZ  P   1    84149.177                             123   -0.03 7 11.6 206 
 N1   BZ  P   1    84149.110                             121   -0.23 7 12.4 193 
 N1   BE ES   1    84152.300                             121    0.06 7 12.4 193 
 TOLS BZ  P   1    84150.014                             104   -0.30 7 19.2  74 
                                                                                
 2021  4 2 0843 10.9 L  28.927  50.912 10.4  SLT 13 0.2                 1.2L BI1
 GAP=111        0.40       1.1     1.1  1.6 -0.3940E+00 -0.5698E+00  0.3869E+00E
 Action:ARG 21-06-12 18:26 OP:OBSP STATUS:               ID:20210402084310     I
 DUMMY                                                                         6
 STAT SP IPHASW D HRMM SECON CODA AMPLIT PERI AZIMU VELO AIN AR TRES W  DIS CAZ7
 P1   BZ  P   1    84312.908                             178   -0.12 7 0.22 318 
 P1   BE ES   1    84314.890                             178    0.09 7 0.22 318 
 P2   BZ  P   1    84313.059                             158   -0.13 7 3.37  76 
 P2   BE ES   1    84315.030                             158   -0.05 7 3.37  76 
 N9   BZ EP   1    84313.000                             150   -0.28 7 4.67 220 
 N9   BE ES   1    84315.210                             150   -0.03 7 4.67 220 
 N19  BZ  P   1    84313.306                             149   -0.01 7 4.89 295 
 N19  BN  S   1    84315.528                             149    0.22 7 4.89 295 
 N15  BZ  P   1    84313.100                             145   -0.27 7 5.54 258 
 N15  BE ES   1    84315.480                             145    0.07 7 5.54 258 
 P3   BZ EP   1    84313.280                             139   -0.23 7 6.72  69 
 P3   BE ES   1    84315.550                             139   -0.12 7 6.72  69 
 N18  BZ  P   1    84313.567                             134   -0.08 7 7.78 275 
 N18  BE  S   1    84316.118                             134    0.20 7 7.78 275 
 N11  BZ  P   1    84313.416                             130   -0.30 7 8.68 252 
 N11  BE ES   1    84316.240                             130    0.20 7 8.68 252 
 N5   BZ  P   1    84313.868                             126   -0.01 7 9.72 195 
 N5   BE ES   1    84316.350                             126    0.02 7 9.72 195 
 CAMP BZ  P   1    84313.841                             126   -0.05 7 9.81 182 
 CAMP BE ES   1    84316.420                             126    0.07 7 9.81 182 
 N2   BZ  P   1    84313.896                             125   -0.04 7 10.2 190 
 N1   BZ  P   1    84314.513                             120    0.33 7 11.7 186 
 N1   BE  S   1    84316.859                             120   -0.03 7 11.7 186 
 TOLS BZ  P   1    84316.050                             104    0.43 7 20.8  74 
 TOLS BE  S   1    84319.616                             104    0.13 7 20.8  74 
                                                                                
 2021  4 2 0843 35.4 L  28.926  50.917 10.3  SLT 16 0.1                 1.2L BI1
 GAP=116        0.30       0.7     0.8  1.1 -0.1607E+00 -0.2023E+00  0.2201E-02E
 Action:ARG 21-06-12 18:26 OP:OBSP STATUS:               ID:20210402084335     I
 DUMMY                                                                         6
 STAT SP IPHASW D HRMM SECON CODA AMPLIT PERI AZIMU VELO AIN AR TRES W  DIS CAZ7
 P1   BZ  P   1    84337.474                             175   -0.10 7 0.77 299 
 P1   BE ES   1    84339.370                             175    0.03 7 0.77 299 
 P2   BZ  P   1    84337.622                             161   -0.08 7 2.92  69 
 P2   BE ES   1    84339.530                             161   -0.03 7 2.92  69 
 N9   BZ  P   1    84337.757                             149   -0.08 7 4.88 226 
 N9   BE ES   1    84339.740                             149   -0.07 7 4.88 226 
 N19  BZ  P   1    84337.797                             146   -0.11 7 5.46 294 
 N19  BE ES   1    84340.040                             146    0.10 7 5.46 294 
 N15  BZ EP   1    84337.990                             143    0.03 7 6.02 261 
 N15  BE  S   1    84340.123                             143    0.08 7 6.02 261 
 P3   BZ  P   1    84337.891                             141   -0.12 7 6.31  66 
 P3   BE  S   1    84339.962                             141   -0.16 7 6.31  66 
 N6   BZ  P   1    84337.972                             138   -0.09 7 6.93 220 
 N6   BE ES   1    84340.220                             138   -0.00 7 6.93 220 
 N14  BZ  P   1    84338.026                             134   -0.13 7 7.93 265 
 N14  BE ES   1    84340.500                             134    0.11 7 7.93 265 
 N18  BZ  P   1    84338.187                             132   -0.07 7 8.32 276 
 N18  BE ES   1    84340.580                             132    0.00 7 8.32 276 
 N11  BZ  P   1    84338.268                             129   -0.05 7 9.12 254 
 N11  BE ES   1    84340.820                             129    0.13 7 9.12 254 
 N17  BZ  P   1    84338.389                             127   -0.01 7 9.51 280 
 CAMP BZ  P   1    84338.348                             127   -0.06 7 9.64 185 
 CAMP BE ES   1    84341.000                             127    0.16 7 9.64 185 
 N5   BZ  P   1    84338.348                             126   -0.07 7 9.68 199 
 N5   BE ES   1    84340.890                             126    0.03 7 9.68 199 
 N2   BZ  P   1    84338.483                             125    0.02 7 10.1 193 
 N2   BE ES   1    84341.060                             125    0.11 7 10.1 193 
 N1   BZ  P   1    84338.698                             120   -0.01 7 11.6 189 
 N1   BE ES   1    84341.480                             120    0.09 7 11.6 189 
 ABTL BZ  P   1    84341.186                             100   -0.17 7 27.5  45 
 ABTL BE  S   1    84346.712                             100    0.52 7 27.5  45 
                                                                                
