 2021  4 2 0843 58.9 L  28.927  50.922 10.7  SLT 17 0.1                 1.2L BI1
 GAP=127        0.20       0.5     0.6  0.8  0.1483E-01  0.6610E-02  0.5299E-01E
 Action:ARG 21-06-12 18:26 OP:OBSP STATUS:               ID:20210402084358     I
 DUMMY                                                                         6
 STAT SP IPHASW D HRMM SECON CODA AMPLIT PERI AZIMU VELO AIN AR TRES W  DIS CAZ7
 P1   BZ  P   1    844 1.056                             172   -0.09 7 1.15 283 
 P1   BE ES   1    844 2.960                             172   -0.01 7 1.15 283 
 P2   BZ EP   1    844 1.220                             164   -0.01 7 2.47  68 
 P2   BE ES   1    844 3.120                             164   -0.01 7 2.47  68 
 N9   BZ EP   1    844 1.390                             148   -0.04 7 5.28 228 
 N9   BE ES   1    844 3.340                             148   -0.14 7 5.28 228 
 N19  BZ  P   1    844 1.446                             145   -0.05 7 5.82 292 
 N19  BE ES   1    844 3.650                             145    0.05 7 5.82 292 
 P3   BZ EP   1    844 1.490                             145   -0.02 7 5.86  65 
 P3   BE  S   1    844 3.709                             145    0.08 7 5.86  65 
 N15  BZ EP   1    844 1.550                             142   -0.01 7 6.48 261 
 N15  BE ES   1    844 3.640                             142   -0.08 7 6.48 261 
 N6   BZ EP   1    844 1.600                             138   -0.05 7 7.30 222 
 N6   BE ES   1    844 3.860                             138   -0.03 7 7.30 222 
 N10  BZ  P   1    844 1.622                             136   -0.09 7 7.73 241 
 N10  BE ES   1    844 3.880                             136   -0.12 7 7.73 241 
 N18  BZ  P   1    844 1.797                             132   -0.06 7 8.76 275 
 N18  BE ES   1    844 4.270                             132    0.01 7 8.76 275 
 N20  BZ  P   1    844 1.945                             129    0.07 7 9.41 298 
 N20  BE ES   1    844 4.460                             129    0.17 7 9.41 298 
 N11  BZ  P   1    844 2.026                             129    0.11 7 9.58 254 
 N11  BE  S   1    844 4.437                             129    0.07 7 9.58 254 
 CAMP BZ  P   1    844 1.945                             128   -0.02 7 9.80 188 
 CAMP BE ES   1    844 4.570                             128    0.12 7 9.80 188 
 N17  BZ  P   1    844 1.999                             127    0.01 7 9.93 279 
 N17  BE ES   1    844 4.570                             127    0.07 7 9.93 279 
 N5   BZ  P   1    844 1.972                             127   -0.01 7 9.93 201 
 N5   BE ES   1    844 4.470                             127   -0.02 7 9.93 201 
 N13  BZ  P   1    844 1.958                             126   -0.14 7 10.2 258 
 N2   BZ  P   1    844 2.093                             126    0.06 7 10.3 196 
 N2   BE ES   1    844 4.640                             126    0.07 7 10.3 196 
 N1   BZ  P   1    844 2.282                             121    0.02 7 11.8 191 
 N1   BE ES   1    844 5.100                             121    0.10 7 11.8 191 
                                                                                
 2021  4 2 0844 38.5 L  28.930  50.920 11.0  SLT 17 0.1                 1.1L BI1
 GAP=132        0.28       0.7     0.8  1.1 -0.6630E-02  0.2272E-02  0.8658E-01E
 Action:ARG 21-06-12 18:26 OP:OBSP STATUS:               ID:20210402084438     I
 DUMMY                                                                         6
 STAT SP IPHASW D HRMM SECON CODA AMPLIT PERI AZIMU VELO AIN AR TRES W  DIS CAZ7
 P1   BZ EP   1    84440.710                             174   -0.13 7 0.97 267 
 P1   BE ES   1    84442.770                             174    0.07 7 0.97 267 
 P2   BZ EP   1    84440.880                             164   -0.05 7 2.52  76 
 P2   BE ES   1    84442.870                             164    0.01 7 2.52  76 
 N9   BZ EP   1    84441.050                             148   -0.08 7 5.39 225 
 N9   BE ES   1    84443.090                             148   -0.13 7 5.39 225 
 N19  BZ  P   1    84441.153                             147   -0.01 7 5.57 289 
 N19  BE ES   1    84443.380                             147    0.11 7 5.57 289 
 P3   BZ  P   1    84441.056                             146   -0.15 7 5.88  68 
 P3   BE ES   1    84443.440                             146    0.08 7 5.88  68 
 N15  BZ EP   1    84441.210                             143   -0.03 7 6.39 257 
 N15  BE ES   1    84443.400                             143   -0.02 7 6.39 257 
 N6   BZ EP   1    84441.300                             138   -0.06 7 7.44 220 
 N6   BE ES   1    84443.570                             138   -0.06 7 7.44 220 
 N10  BZ  P   1    84441.795                             137    0.39 7 7.76 239 
 N10  BE ES   1    84443.630                             137   -0.08 7 7.76 239 
 N14  BZ  P   1    84441.393                             135   -0.03 7 8.27 262 
 N18  BZ  P   1    84441.600                             134    0.08 7 8.58 273 
 N18  BE ES   1    84443.960                             134    0.03 7 8.58 273 
 N20  BZ  P   1    84441.644                             131    0.13 7 9.13 296 
 N11  BZ  P   1    84441.309                             130   -0.28 7 9.53 252 
 N11  BE  S   1    84444.030                             130   -0.03 7 9.53 252 
 N17  BZ  P   1    84441.530                             129   -0.12 7 9.73 278 
 N17  BE ES   1    84444.240                             129    0.08 7 9.73 278 
 CAMP BZ  P   1    84441.670                             128   -0.02 7 10.1 187 
 CAMP BE ES   1    84444.290                             128    0.06 7 10.1 187 
 N5   BZ  P   1    84441.726                             128    0.02 7 10.2 200 
 N5   BE ES   1    84444.210                             128   -0.05 7 10.2 200 
 N2   BZ EP   1    84441.710                             126   -0.04 7 10.6 194 
 N2   BE ES   1    84444.370                             126    0.02 7 10.6 194 
 N1   BZ  P   1    84442.200                             122    0.21 7 12.1 190 
 N1   BE ES   1    84444.820                             122    0.05 7 12.1 190 
                                                                                
 2021  4 2 0849 24.0 L  28.931  50.923 11.6  SLT 13 0.1                 1.1L BI1
 GAP=142        0.26       0.8     0.9  1.2 -0.1862E+00 -0.1100E+00  0.2274E+00E
 Action:ARG 21-06-12 18:26 OP:OBSP STATUS:               ID:20210402084924     I
 DUMMY                                                                         6
 STAT SP IPHASW D HRMM SECON CODA AMPLIT PERI AZIMU VELO AIN AR TRES W  DIS CAZ7
 P1   BZ EP   1    84926.280                             172   -0.17 7 1.31 261 
 P1   BE ES   1    84928.350                             172   -0.04 7 1.31 261 
 P2   BZ  P   1    84926.537                             166    0.02 7 2.17  78 
 P2   BE ES   1    84928.500                             166   -0.01 7 2.17  78 
 P3   BZ  P   1    84926.816                             147    0.06 7 5.52  69 
 P3   BE ES   1    84929.030                             147    0.09 7 5.52  69 
 N9   BZ  P   1    84926.754                             146    0.01 7 5.73 226 
 N19  BZ  P   1    84926.600                             145   -0.16 7 5.83 287 
 N19  BN  S   1    84929.018                             145    0.05 7 5.83 287 
 N15  BZ EP   1    84926.900                             141    0.05 7 6.74 257 
 N15  BE ES   1    84929.050                             141   -0.07 7 6.74 257 
 N6   BZ  P   1    84926.984                             136    0.02 7 7.77 221 
 N6   BE ES   1    84929.250                             136   -0.08 7 7.77 221 
 N18  BZ  P   1    84927.179                             130    0.06 7 8.90 272 
 N18  BE  S   1    84929.675                             130    0.06 7 8.90 272 
 N11  BZ  P   1    84927.347                             126    0.15 7 9.88 252 
 N11  BE ES   1    84929.770                             126    0.02 7 9.88 252 
 CAMP BZ  P   1    84927.347                             125    0.08 7 10.3 188 
 CAMP BE ES   1    84929.960                             125    0.08 7 10.3 188 
 N5   BZ  P   1    84927.403                             124    0.11 7 10.4 201 
 N5   BE ES   1    84929.880                             124   -0.04 7 10.4 201 
 N2   BZ  P   1    84927.012                             123   -0.32 7 10.8 196 
 N2   BE ES   1    84930.070                             123    0.07 7 10.8 196 
 P4   BZ EP   1    84927.570                             115   -0.03 7 12.9  72 
                                                                                
 2021  4 2 0849 31.7 L  28.925  50.921 11.0  SLT 10 0.0                 1.2L BI1
 GAP=131        0.22       1.6     0.9  1.2 -0.3393E+00 -0.2560E+00  0.6603E+00E
 Action:ARG 21-06-12 18:26 OP:OBSP STATUS:               ID:20210402084931     I
 DUMMY                                                                         6
 STAT SP IPHASW D HRMM SECON CODA AMPLIT PERI AZIMU VELO AIN AR TRES W  DIS CAZ7
 P1   BZ EP   1    84934.000                             173   -0.05 7 1.11 291 
 P1   BE ES   1    84935.940                             173    0.02 7 1.11 291 
 P2   BZ  P   1    84934.100                             164   -0.04 7 2.60  66 
 P2   BE  S   1    84936.093                             164    0.01 7 2.60  66 
 N19  BZ  P   1    84934.329                             146   -0.06 7 5.79 293 
 N19  BN  S   1    84936.604                             146    0.08 7 5.79 293 
 P3   BZ  P   1    84934.356                             145   -0.07 7 6.00  64 
 N15  BZ EP   1    84934.450                             143    0.01 7 6.37 262 
 N15  BE ES   1    84936.570                             143   -0.06 7 6.37 262 
 N6   BZ  P   1    84934.558                             140    0.03 7 7.14 223 
 N18  BZ  P   1    84934.760                             133    0.02 7 8.68 276 
 N18  BE  S   1    84937.197                             133    0.04 7 8.68 276 
 N11  BZ  P   1    84934.773                             130   -0.02 7 9.46 255 
 CAMP BZ  P   1    84934.854                             130    0.02 7 9.66 187 
 P4   BZ  P   1    84935.406                             119    0.07 7 13.3  70 
                                                                                
 2021  4 2 0849 52.4 L  28.928  50.925 10.7  SLT 16 0.1                 1.1L BI1
 GAP=135        0.30       1.0     1.0  1.5 -0.1906E+00 -0.6955E+00  0.1487E+00E
 Action:ARG 21-06-12 18:26 OP:OBSP STATUS:               ID:20210402084952     I
 DUMMY                                                                         6
 STAT SP IPHASW D HRMM SECON CODA AMPLIT PERI AZIMU VELO AIN AR TRES W  DIS CAZ7
 P1   BZ EP   1    84954.600                             170   -0.04 7 1.47 276 
 P1   BE ES   1    84956.570                             170    0.10 7 1.47 276 
 P2   BZ  P   1    84954.754                             166    0.05 7 2.11  67 
 P3   BZ  P   1    84955.010                             147    0.04 7 5.51  64 
 N9   BZ EP   1    84954.880                             146   -0.07 7 5.61 230 
 N9   BE ES   1    84956.870                             146   -0.15 7 5.61 230 
 N19  BZ EP   1    84955.000                             144   -0.01 7 6.11 290 
 N19  BE ES   1    84957.220                             144    0.08 7 6.11 290 
 N15  BZ  P   1    84955.010                             140   -0.08 7 6.83 260 
 N6   BZ  P   1    84955.131                             136   -0.05 7 7.61 224 
 N18  BZ  P   1    84955.347                             130   -0.04 7 9.09 274 
 N18  BE ES   1    84957.810                             130   -0.01 7 9.09 274 
 N11  BZ  P   1    84955.388                             127   -0.07 7 9.94 254 
 CAMP BZ  P   1    84955.482                             127    0.01 7 9.96 190 
 N5   BZ EP   1    84955.390                             126   -0.12 7 10.1 203 
 N17  BZ  P   1    84955.536                             126    0.01 7 10.2 278 
 N17  BE ES   1    84958.090                             126    0.02 7 10.2 278 
 N4   BZ EP   1    84956.000                             126    0.45 7 10.4 222 
 N4   BE ES   1    84958.030                             126   -0.07 7 10.4 222 
 N2   BZ  P   1    84955.550                             125   -0.00 7 10.5 197 
 N2   BE ES   1    84958.170                             125    0.06 7 10.5 197 
 P4   BZ  P   1    84955.671                             118   -0.20 7 12.8  70 
 TOLS BZ  P   1    84957.074                             107    0.11 7 19.6  73 
                                                                                
 2021  4 2 0853 39.5 L  28.928  50.917 11.3  SLT 11 0.1                 1.0L BI1
 GAP=140        0.23       1.0     1.3  1.5 -0.2716E+00 -0.9517E+00  0.4982E+00E
 Action:ARG 21-06-12 18:26 OP:OBSP STATUS:               ID:20210402085339     I
 DUMMY                                                                         6
 STAT SP IPHASW D HRMM SECON CODA AMPLIT PERI AZIMU VELO AIN AR TRES W  DIS CAZ7
 P1   BZ EP   1    85341.810                             175   -0.05 7 0.70 279 
 P1   BE ES   1    85343.760                             175    0.00 7 0.70 279 
 P2   BZ  P   1    85341.914                             162   -0.06 7 2.82  74 
 N9   BZ  P   1    85342.055                             148   -0.06 7 5.08 224 
 N19  BZ EP   1    85342.110                             147   -0.05 7 5.37 292 
 N19  BE ES   1    85344.390                             147    0.10 7 5.37 292 
 N15  BZ  P   1    85342.161                             143   -0.06 7 6.09 258 
 N15  BE  S   1    85344.402                             143   -0.01 7 6.09 258 
 N6   BZ  P   1    85342.284                             137   -0.05 7 7.14 219 
 N18  BZ  P   1    85342.567                             131    0.07 7 8.32 274 
 CAMP BZ  P   1    85342.637                             124   -0.03 7 9.91 185 
 N5   BZ  P   1    85342.690                             124    0.02 7 9.93 198 
 N2   BZ  P   1    85342.796                             122    0.07 7 10.4 193 
 N2   BN  S   1    85345.354                             122    0.04 7 10.4 193 
 P4   BZ  P   1    85343.237                             111    0.08 7 13.6  71 
                                                                                
 2021  4 2 0854 29.2 L  28.926  50.917 10.7  SLT 23 0.1                 1.4L BI1
 GAP=125        0.25       0.5     0.5  0.9 -0.5225E-01 -0.1752E+00  0.3467E-01E
 Action:ARG 21-06-12 18:26 OP:OBSP STATUS:               ID:20210402085428     I
 DUMMY                                                                         6
 STAT SP IPHASW D HRMM SECON CODA AMPLIT PERI AZIMU VELO AIN AR TRES W  DIS CAZ7
 P1   BZ EP   1    85431.270                             175   -0.13 7 0.74 301 
 P2   BZ EP   1    85431.360                             161   -0.16 7 2.97  69 
 P2   BE ES   1    85433.360                             161   -0.07 7 2.97  69 
 N9   BZ EP   1    85431.550                             150   -0.10 7 4.85 226 
 N9   BE ES   1    85433.570                             150   -0.09 7 4.85 226 
 N19  BZ  P   1    85431.651                             147   -0.06 7 5.42 295 
 N19  BE ES   1    85433.880                             147    0.10 7 5.42 295 
 N15  BZ EP   1    85431.670                             144   -0.10 7 5.98 261 
 N15  BE ES   1    85433.890                             144    0.01 7 5.98 261 
 P3   BZ EP   1    85431.700                             142   -0.12 7 6.35  66 
 P3   BE ES   1    85433.890                             142   -0.09 7 6.35  66 
 N6   BZ  P   1    85431.800                             140   -0.07 7 6.90 220 
 N6   BE ES   1    85434.040                             140   -0.02 7 6.90 220 
 N10  BZ  P   1    85431.746                             138   -0.17 7 7.26 240 
 N14  BZ  P   1    85432.018                             135    0.07 7 7.89 265 
 N14  BE ES   1    85434.310                             135    0.10 7 7.89 265 
 N18  BZ EP   1    85432.030                             133   -0.03 7 8.28 276 
 N18  BE ES   1    85434.450                             133    0.05 7 8.28 276 
 N20  BZ  P   1    85432.154                             130    0.07 7 9.04 300 
 N20  BE ES   1    85434.660                             130    0.21 7 9.04 300 
 N11  BZ EP   1    85432.080                             130   -0.03 7 9.08 254 
 N11  BE ES   1    85434.590                             130    0.09 7 9.08 254 
 N17  BZ  P   1    85432.113                             129   -0.08 7 9.47 280 
 N17  BE ES   1    85434.760                             129    0.11 7 9.47 280 
 CAMP BZ  P   1    85432.168                             128   -0.03 7 9.63 185 
 CAMP BE ES   1    85434.770                             128    0.10 7 9.63 185 
 N5   BZ EP   1    85432.120                             128   -0.09 7 9.66 199 
 N5   BE ES   1    85434.690                             128    0.01 7 9.66 199 
 N4   BZ  P   1    85432.249                             128    0.03 7 9.66 219 
 N4   BE ES   1    85434.690                             128   -0.01 7 9.66 219 
 N13  BE ES   1    85434.760                             128   -0.07 7 9.73 258 
 N2   BZ EP   1    85432.180                             127   -0.08 7 10.1 193 
 N2   BE ES   1    85434.860                             127    0.09 7 10.1 193 
 N3   BZ  P   1    85432.277                             125   -0.05 7 10.6 202 
 N3   BE ES   1    85434.960                             125    0.06 7 10.6 202 
 N1   BZ  P   1    85432.440                             122   -0.06 7 11.6 188 
 N1   BE ES   1    85435.260                             122    0.06 7 11.6 188 
 P4   BZ EP   1    85432.710                             116   -0.07 7 13.7  70 
 P4   BE ES   1    85435.840                             116    0.13 7 13.7  70 
 TOLS BZ  P   1    85433.786                             106   -0.09 7 20.4  73 
 TOLS BE  S   1    85437.922                             106    0.23 7 20.4  73 
 JNAK BZ  P   1    85434.385                             104    0.32 7 21.6 135 
                                                                                
