 2021  4 2 0855 23.8 L  28.927  50.914 10.6  SLT 19 0.2                 1.1L BI1
 GAP= 82        0.38       0.9     0.9  1.2 -0.2358E+00 -0.5458E+00  0.6516E-01E
 Action:ARG 21-06-12 18:26 OP:OBSP STATUS:               ID:20210402085523     I
 DUMMY                                                                         6
 STAT SP IPHASW D HRMM SECON CODA AMPLIT PERI AZIMU VELO AIN AR TRES W  DIS CAZ7
 P1   BZ  P   1    85525.935                             177   -0.08 7 0.41 295 
 P2   BZ EP   1    85526.000                             160   -0.15 7 3.15  75 
 P2   BE ES   1    85528.030                             160   -0.03 7 3.15  75 
 N9   BZ EP   1    85526.270                             150    0.00 7 4.81 222 
 N9   BE ES   1    85528.200                             150   -0.07 7 4.81 222 
 N19  BZ  P   1    85526.126                             148   -0.18 7 5.09 294 
 N19  BE ES   1    85528.480                             148    0.14 7 5.09 294 
 N15  BZ  P   1    85526.358                             145   -0.01 7 5.76 258 
 N15  BE ES   1    85528.490                             145    0.04 7 5.76 258 
 P3   BZ EP   1    85526.280                             141   -0.19 7 6.52  68 
 P3   BE ES   1    85528.550                             141   -0.08 7 6.52  68 
 N6   BZ  P   1    85526.427                             139   -0.06 7 6.89 217 
 N6   BE ES   1    85528.700                             139    0.03 7 6.89 217 
 N10  BZ  P   1    85526.522                             138   -0.01 7 7.14 238 
 N10  BE ES   1    85528.780                             138    0.04 7 7.14 238 
 N18  BZ  P   1    85526.645                             134   -0.00 7 8.00 274 
 N18  BE ES   1    85529.100                             134    0.14 7 8.00 274 
 N11  BZ  P   1    85526.372                             131   -0.34 7 8.89 252 
 N11  BE ES   1    85529.240                             131    0.16 7 8.89 252 
 N13  BE ES   1    85529.420                             128    0.03 7 9.52 256 
 N5   BZ  P   1    85526.809                             127   -0.04 7 9.77 197 
 N5   BE ES   1    85529.360                             127    0.03 7 9.77 197 
 CAMP BZ  P   1    85526.809                             127   -0.05 7 9.82 183 
 CAMP BE ES   1    85529.390                             127    0.06 7 9.82 183 
 N2   BZ  P   1    85526.891                             126   -0.02 7 10.2 191 
 N2   BE ES   1    85529.490                             126    0.06 7 10.2 191 
 N1   BE ES   1    85529.890                             121    0.02 7 11.8 187 
 P4   BZ EP   1    85527.310                             115   -0.13 7 13.9  72 
 P4   BE ES   1    85530.530                             115    0.15 7 13.9  72 
 SHIF BZ  P   1    85527.902                             111    0.08 7 16.2 346 
 TOLS BZ  P   1    85528.339                             105   -0.20 7 20.6  74 
 TOLS BE  S   1    85532.697                             105    0.31 7 20.6  74 
 KHIA BZ  P   1    85530.019                              68    0.66 7 25.3 104 
 KHIA BE  S   1    85533.557                              68   -0.31 7 25.3 104 
                                                                                
 2021  4 2 0856 27.7 L  28.923  50.918 10.9  SLT 21 0.1                 1.0L BI1
 GAP=114        0.28       0.6     0.7  0.8 -0.3846E-01 -0.3129E+00 -0.5553E-02E
 Action:ARG 21-06-12 18:26 OP:OBSP STATUS:               ID:20210402085627     I
 DUMMY                                                                         6
 STAT SP IPHASW D HRMM SECON CODA AMPLIT PERI AZIMU VELO AIN AR TRES W  DIS CAZ7
 P1   BZ  P   1    85629.832                             173   -0.11 7 1.06 309 
 P1   BE  S   1    85631.853                             173    0.06 7 1.06 309 
 P2   BZ  P   1    85629.900                             162   -0.15 7 2.91  63 
 P2   BE  S   1    85632.002                             162    0.01 7 2.91  63 
 N9   BZ  P   1    85630.103                             151   -0.07 7 4.79 230 
 N9   BE ES   1    85632.090                             151   -0.13 7 4.79 230 
 N19  BZ  P   1    85630.212                             146   -0.06 7 5.71 297 
 N19  BN  S   1    85632.490                             146    0.09 7 5.71 297 
 N15  BZ EP   1    85630.200                             144   -0.11 7 6.13 264 
 N15  BE ES   1    85632.440                             144   -0.03 7 6.13 264 
 P3   BZ EP   1    85630.270                             143   -0.08 7 6.31  63 
 P3   BE ES   1    85632.440                             143   -0.09 7 6.31  63 
 N6   BZ EP   1    85630.280                             141   -0.11 7 6.80 223 
 N6   BE ES   1    85632.600                             141   -0.00 7 6.80 223 
 N10  BE ES   1    85632.680                             139   -0.03 7 7.28 243 
 N14  BE ES   1    85632.910                             136    0.11 7 8.05 267 
 N18  BZ  P   1    85630.578                             134   -0.03 7 8.50 278 
 N18  BE ES   1    85633.030                             134    0.02 7 8.50 278 
 N11  BZ  P   1    85630.700                             131    0.05 7 9.19 256 
 N11  BE ES   1    85633.120                             131    0.04 7 9.19 256 
 N20  BE ES   1    85633.270                             130    0.20 7 9.34 301 
 CAMP BZ  P   1    85630.700                             130    0.01 7 9.37 186 
 CAMP BE ES   1    85633.310                             130    0.16 7 9.37 186 
 N5   BZ  P   1    85630.686                             130   -0.02 7 9.45 200 
 N5   BE ES   1    85633.250                             130    0.07 7 9.45 200 
 N17  BZ  P   1    85630.700                             129   -0.05 7 9.71 282 
 N17  BE ES   1    85633.310                             129    0.06 7 9.71 282 
 N2   BZ  P   1    85630.754                             129    0.00 7 9.85 195 
 N2   BE ES   1    85633.410                             129    0.15 7 9.85 195 
 N13  BZ EP   1    85631.000                             129    0.17 7 9.86 260 
 N13  BE ES   1    85633.290                             129   -0.11 7 9.86 260 
 N1   BZ  P   1    85630.659                             124   -0.32 7 11.3 190 
 N1   BE ES   1    85633.780                             124    0.11 7 11.3 190 
 P4   BZ  P   1    85631.242                             118   -0.04 7 13.6  69 
 TOLS BZ  P   1    85632.233                              68   -0.13 7 20.3  72 
 TOLS BE  S   1    85636.573                              68    0.39 7 20.3  72 
 KHIA BE  S   1    85637.508                              68   -0.02 7 24.8 103 
                                                                                
 2021  4 2 0858  1.6 L  28.924  50.924 11.6  SLT  9 0.1                 0.9L BI1
 GAP=131        0.31       2.1     1.5  1.9 -0.3685E+00  0.5870E-01  0.1638E+01E
 Action:ARG 21-06-12 18:26 OP:OBSP STATUS:               ID:20210402085801     I
 DUMMY                                                                         6
 STAT SP IPHASW D HRMM SECON CODA AMPLIT PERI AZIMU VELO AIN AR TRES W  DIS CAZ7
 P1   BZ EP   1    858 4.000                             171   -0.05 7 1.50 292 
 P1   BE ES   1    858 5.970                             171   -0.03 7 1.50 292 
 P2   BZ  P   1    858 4.108                             165   -0.01 7 2.36  59 
 P2   BE ES   1    858 6.130                             165    0.00 7 2.36  59 
 N15  BZ  P   1    858 4.624                             141    0.18 7 6.70 263 
 N15  BE ES   1    858 6.690                             141   -0.03 7 6.70 263 
 N6   BZ EP   1    858 4.560                             138    0.05 7 7.28 226 
 N6   BE ES   1    858 6.870                             138    0.04 7 7.28 226 
 N18  BZ  P   1    858 4.891                             130    0.15 7 9.05 276 
 N18  BN  S   1    858 7.177                             130   -0.07 7 9.05 276 
 CAMP BZ  P   1    858 4.809                             128    0.04 7 9.55 190 
 N5   BZ  P   1    858 4.918                             127    0.12 7 9.75 203 
 N11  BZ  P   1    858 4.624                             127   -0.16 7 9.77 256 
 N11  BE ES   1    858 7.400                             127    0.08 7 9.77 256 
 N4   BZ  P   1    858 4.516                             126   -0.32 7 10.0 223 
                                                                                
 2021  4 2 0900 30.3 L  28.926  50.917 11.1  SLT 26 0.1                 1.5L BI1
 GAP= 60        0.26       0.5     0.5  0.8 -0.4279E-01 -0.1973E+00 -0.4810E-02E
 Action:ARG 21-06-12 18:26 OP:OBSP STATUS:               ID:20210402090030     I
 DUMMY                                                                         6
 STAT SP IPHASW D HRMM SECON CODA AMPLIT PERI AZIMU VELO AIN AR TRES W  DIS CAZ7
 P1   BZ EP   1    9 032.480                             175   -0.09 7 0.72 298 
 P1   BE ES   1    9 034.430                             175   -0.01 7 0.72 298 
 P2   BZ EP   1    9 032.570                             161   -0.11 7 2.95  70 
 P2   BE ES   1    9 034.570                             161   -0.08 7 2.95  70 
 N9   BZ EP   1    9 032.730                             149   -0.08 7 4.88 225 
 N9   BE ES   1    9 034.740                             149   -0.14 7 4.88 225 
 N19  BZ  P   1    9 032.838                             146   -0.03 7 5.40 294 
 N19  BE ES   1    9 035.030                             146    0.04 7 5.40 294 
 N15  BZ  P   1    9 032.923                             143    0.00 7 5.99 260 
 N15  BE ES   1    9 035.060                             143   -0.02 7 5.99 260 
 P3   BZ  P   1    9 032.937                             141   -0.04 7 6.33  66 
 P3   BN  S   1    9 035.149                             141   -0.03 7 6.33  66 
 N6   BZ EP   1    9 033.000                             138   -0.02 7 6.93 220 
 N6   BE ES   1    9 035.250                             138   -0.02 7 6.93 220 
 N10  BZ  P   1    9 032.881                             136   -0.19 7 7.28 240 
 N10  BN  S   1    9 035.289                             136   -0.06 7 7.28 240 
 N18  BZ  P   1    9 033.189                             131   -0.01 7 8.28 275 
 N18  BE ES   1    9 035.640                             131    0.05 7 8.28 275 
 N20  BZ  P   1    9 033.301                             127    0.08 7 9.02 299 
 N20  BE ES   1    9 035.830                             127    0.20 7 9.02 299 
 N11  BZ  P   1    9 033.273                             127    0.02 7 9.10 254 
 N11  BE ES   1    9 035.790                             127    0.10 7 9.10 254 
 N17  BZ  P   1    9 033.273                             125   -0.06 7 9.46 280 
 N17  BE ES   1    9 035.910                             125    0.09 7 9.46 280 
 CAMP BZ EP   1    9 033.330                             124   -0.02 7 9.68 185 
 CAMP BE ES   1    9 035.990                             124    0.13 7 9.68 185 
 N5   BZ EP   1    9 033.340                             124   -0.01 7 9.70 199 
 N5   BE ES   1    9 035.900                             124    0.03 7 9.70 199 
 N4   BZ EP   1    9 033.000                             124   -0.36 7 9.70 219 
 N4   BE ES   1    9 035.930                             124    0.05 7 9.70 219 
 N13  BZ  P   1    9 033.245                             124   -0.19 7 9.74 258 
 N13  BE ES   1    9 035.950                             124   -0.06 7 9.74 258 
 N2   BZ  P   1    9 033.441                             123    0.04 7 10.1 193 
 N2   BE ES   1    9 036.050                             123    0.09 7 10.1 193 
 N3   BZ  P   1    9 033.525                             120    0.05 7 10.7 202 
 N3   BE ES   1    9 036.220                             120    0.14 7 10.7 202 
 N1   BZ  P   1    9 033.679                             116    0.04 7 11.6 188 
 N1   BE ES   1    9 036.490                             116    0.11 7 11.6 188 
 P4   BZ EP   1    9 033.960                             109    0.06 7 13.7  71 
 P4   BE ES   1    9 037.060                             109    0.21 7 13.7  71 
 SHIF BZ  P   1    9 034.491                              99    0.15 7 16.4 345 
 TOLS BZ  P   1    9 034.967                              92   -0.00 7 20.4  73 
 KHIA BZ EP   1    9 036.000                              91    0.26 7 25.0 104 
 KHIA BN  S   1    9 040.065                              91   -0.12 7 25.0 104 
 ABTL BZ  P   1    9 036.214                              91    0.04 7 27.5  45 
 P9   BZ  P   1    9 036.382                              90   -0.17 7 29.5  73 
 KOLO BZ  P   1    9 038.021                              90   -0.06 7 39.2 126 
                                                                                
 2021  4 2 0901 11.8 L  28.926  50.925 11.1  SLT 22 0.2                 1.3L BI1
 GAP=117        0.36       0.8     0.8  1.2 -0.1167E+00 -0.2387E+00 -0.1098E+00E
 Action:ARG 21-06-12 18:26 OP:OBSP STATUS:               ID:20210402090111     I
 DUMMY                                                                         6
 STAT SP IPHASW D HRMM SECON CODA AMPLIT PERI AZIMU VELO AIN AR TRES W  DIS CAZ7
 P1   BZ  P   1    9 114.026                             170   -0.10 7 1.51 283 
 P1   BN  S   1    9 115.967                             170   -0.05 7 1.51 283 
 P2   BZ  P   1    9 114.189                             166   -0.00 7 2.18  63 
 P2   BN  S   1    9 116.171                             166    0.04 7 2.18  63 
 N9   BZ  P   1    9 114.311                             145   -0.10 7 5.50 231 
 N9   BN  S   1    9 116.347                             145   -0.18 7 5.50 231 
 P3   BZ  P   1    9 114.461                             145    0.02 7 5.58  63 
 P3   BN  S   1    9 116.714                             145    0.12 7 5.58  63 
 N19  BZ  P   1    9 114.501                             142    0.02 7 6.17 291 
 N19  BN  S   1    9 116.659                             142   -0.01 7 6.17 291 
 N15  BZ  P   1    9 114.528                             138   -0.02 7 6.81 262 
 N15  BN  S   1    9 116.673                             138   -0.11 7 6.81 262 
 N6   BZ  P   1    9 114.596                             135   -0.03 7 7.49 225 
 N6   BN  S   1    9 116.890                             135   -0.03 7 7.49 225 
 N10  BZ  P   1    9 114.651                             132   -0.04 7 8.01 243 
 N10  BN  S   1    9 116.972                             132   -0.08 7 8.01 243 
 N14  BZ  P   1    9 115.071                             129    0.33 7 8.72 265 
 N14  BN  S   1    9 117.067                             129   -0.07 7 8.72 265 
 N18  BZ  P   1    9 114.786                             127   -0.06 7 9.11 275 
 N18  BN  S   1    9 117.270                             127   -0.06 7 9.11 275 
 N20  BZ  P   1    9 115.166                             124    0.30 7 9.75 297 
 N20  BN  S   1    9 117.515                             124    0.17 7 9.75 297 
 CAMP BZ  P   1    9 114.718                             124   -0.19 7 9.78 190 
 CAMP BN  S   1    9 117.528                             124    0.10 7 9.78 190 
 N11  BZ  P   1    9 114.963                             124    0.06 7 9.90 255 
 N11  BE  S   1    9 117.406                             124   -0.02 7 9.90 255 
 N5   BZ  P   1    9 114.569                             123   -0.37 7 9.99 203 
 N5   BN  S   1    9 117.406                             123   -0.08 7 9.99 203 
 N4   BZ  P   1    9 115.071                             122    0.09 7 10.2 223 
 N17  BZ  P   1    9 114.909                             122   -0.07 7 10.3 279 
 N17  BN  S   1    9 117.555                             122   -0.01 7 10.3 279 
 N2   BZ  P   1    9 115.316                             122    0.34 7 10.3 198 
 N2   BE  S   1    9 117.691                             122    0.13 7 10.3 198 
 N13  BZ  P   1    9 115.465                             121    0.38 7 10.5 259 
 N13  BE  S   1    9 117.650                             121   -0.10 7 10.5 259 
 P4   BZ  P   1    9 115.506                             112    0.18 7 12.9  69 
 SHIF BZ  P   1    9 115.791                              98   -0.13 7 16.6 343 
 TOLS BZ  P   1    9 116.415                              92    0.03 7 19.6  73 
 ABTL BZ  P   1    9 117.216                              91   -0.41 7 26.9  44 
                                                                                
 2021  4 2 0901 11.7 L  28.934  50.917 11.4  SLT 19 0.1                 1.3L BI1
 GAP= 97        0.33       1.0     1.0  1.2 -0.1919E+00 -0.9582E-01  0.7444E-01E
 Action:ARG 21-06-12 18:26 OP:OBSP STATUS:               ID:20210402090111     I
 DUMMY                                                                         6
 STAT SP IPHASW D HRMM SECON CODA AMPLIT PERI AZIMU VELO AIN AR TRES W  DIS CAZ7
 P1   BZ EP   1    9 114.030                             174   -0.07 7 0.87 232 
 P1   BE ES   1    9 116.040                             174    0.03 7 0.87 232 
 P2   BZ  P   1    9 114.197                             163   -0.01 7 2.73  87 
 P2   BE ES   1    9 116.160                             163   -0.04 7 2.73  87 
 N19  BZ  P   1    9 114.408                             148    0.03 7 5.16 285 
 N19  BE ES   1    9 116.640                             148    0.13 7 5.16 285 
 N9   BZ  P   1    9 114.352                             146   -0.04 7 5.56 219 
 N9   BE ES   1    9 116.370                             146   -0.17 7 5.56 219 
 P3   BZ  P   1    9 114.464                             144    0.00 7 5.99  74 
 P3   BE ES   1    9 116.690                             144    0.02 7 5.99  74 
 N15  BZ EP   1    9 114.450                             142   -0.02 7 6.24 253 
 N15  BE ES   1    9 116.670                             142   -0.01 7 6.24 253 
 N6   BZ  P   1    9 114.619                             135   -0.00 7 7.65 216 
 N6   BE ES   1    9 116.870                             135   -0.09 7 7.65 216 
 N10  BZ  P   1    9 114.703                             135    0.06 7 7.79 234 
 N14  BZ  P   1    9 114.240                             133   -0.40 7 8.07 258 
 N18  BZ  P   1    9 114.745                             132    0.02 7 8.29 269 
 N18  BE ES   1    9 117.250                             132    0.11 7 8.29 269 
 N20  BZ  P   1    9 115.012                             131    0.32 7 8.67 294 
 N11  BZ  P   1    9 114.900                             127    0.08 7 9.42 249 
 N11  BE ES   1    9 117.380                             127    0.07 7 9.42 249 
 CAMP BZ  P   1    9 114.970                             123   -0.01 7 10.5 185 
 CAMP BE ES   1    9 117.560                             123   -0.04 7 10.5 185 
 N5   BZ  P   1    9 114.956                             123   -0.03 7 10.5 197 
 N2   BZ  P   1    9 114.984                             121   -0.05 7 11.0 192 
 N3   BZ  P   1    9 115.363                             119    0.26 7 11.5 201 
 N1   BZ  P   1    9 115.279                             115    0.01 7 12.5 188 
 P4   BZ  P   1    9 115.559                             112    0.20 7 13.4  74 
 SHIF BZ  P   1    9 115.349                             106   -0.36 7 15.5 344 
                                                                                
