 2021  3 4 0031 38.0 L  28.833  50.856 11.1  SLT  9 0.1                 0.5L BI1
 GAP=250        0.23       1.0     1.4  1.1  0.6526E+00  0.3860E+00 -0.1509E+00E
 Action:ARG 21-06-12 18:26 OP:OBSP STATUS:               ID:20210304003137     I
 DUMMY                                                                         6
 STAT SP IPHASW D HRMM SECON CODA AMPLIT PERI AZIMU VELO AIN AR TRES W  DIS CAZ7
 N3   BZ EP   1    03139.630                             159   -0.05 7 1.92  75 
 N3   BE ES   1    03141.100                             159    0.04 7 1.92  75 
 N4   BZ EP   1    03139.730                             150   -0.04 7 2.83 356 
 N4   BE ES   1    03141.330                             150    0.11 7 2.83 356 
 N5   BZ EP   1    03139.720                             147   -0.06 7 3.06  68 
 N5   BE ES   1    03141.220                             147   -0.03 7 3.06  68 
 N2   BZ EP   1    03140.010                             142    0.18 7 3.64  82 
 N2   BE ES   1    03141.290                             142   -0.05 7 3.64  82 
 N1   BZ EP   1    03140.000                             135    0.07 7 4.36 106 
 N1   BE ES   1    03141.520                             135   -0.00 7 4.36 106 
 CAMP BZ EP   1    03139.990                             128   -0.03 7 5.12  82 
 CAMP BE ES   1    03141.650                             128   -0.02 7 5.12  82 
 N6   BZ EP   1    03140.010                             127   -0.03 7 5.24  16 
 N6   BE ES   1    03141.750                             127    0.03 7 5.24  16 
 N9   BZ  P   1    03140.272                             108   -0.08 7 7.34  19 
 N9   BE ES   1    03142.330                             108    0.06 7 7.34  19 
 N15  BZ  P   1    03140.626                              94   -0.08 7 9.36 360 
                                                                                
 2021  3 4 0102 30.3 L  28.827  50.861  8.1  SLT 11 0.1                 0.8L BI1
 GAP=241        0.22       0.9     1.5  1.1  0.8603E+00  0.6489E+00  0.5731E-02E
 Action:ARG 21-06-12 18:26 OP:OBSP STATUS:               ID:20210304010230     I
 DUMMY                                                                         6
 STAT SP IPHASW D HRMM SECON CODA AMPLIT PERI AZIMU VELO AIN AR TRES W  DIS CAZ7
 N3   BZ EP   1    1 232.260                             164    0.05 7 1.78  50 
 N3   BE ES   1    1 233.730                             164    0.01 7 1.78  50 
 N5   BZ EP   1    1 232.280                             154   -0.02 7 2.96  52 
 N5   BE ES   1    1 233.830                             154   -0.05 7 2.96  52 
 N2   BZ EP   1    1 232.280                             150   -0.04 7 3.32  70 
 N2   BE ES   1    1 233.920                             150    0.01 7 3.32  70 
 N4   BZ EP   1    1 232.290                             149   -0.06 7 3.53 349 
 N4   BE ES   1    1 233.910                             149   -0.07 7 3.53 349 
 N1   BZ EP   1    1 232.280                             147   -0.10 7 3.75  98 
 N1   BE ES   1    1 234.140                             147    0.12 7 3.75  98 
 CAMP BZ EP   1    1 232.510                             139    0.04 7 4.79  73 
 CAMP BE ES   1    1 234.250                             139    0.06 7 4.79  73 
 N6   BZ EP   1    1 232.580                             132   -0.02 7 5.77  10 
 N6   BE ES   1    1 234.320                             132   -0.10 7 5.77  10 
 N10  BZ  P   1    1 232.891                             122    0.06 7 7.40 353 
 N10  BE ES   1    1 234.840                             122   -0.00 7 7.40 353 
 N9   BZ EP   1    1 232.810                             120   -0.06 7 7.82  14 
 N9   BE ES   1    1 234.920                             120    0.00 7 7.82  14 
 N11  BE  S   1    1 235.437                             113    0.18 7 9.08 339 
 N15  BE ES   1    1 235.550                             109   -0.02 7 10.0 357 
                                                                                
 2021  3 4 0219 57.4 L  28.833  50.861  6.8  SLT  9 0.1                 0.6L BI1
 GAP=238        0.28       1.0     1.7  1.2  0.1053E+01  0.6755E+00  0.1007E+00E
 Action:ARG 21-06-12 18:26 OP:OBSP STATUS:               ID:20210304021957     I
 DUMMY                                                                         6
 STAT SP IPHASW D HRMM SECON CODA AMPLIT PERI AZIMU VELO AIN AR TRES W  DIS CAZ7
 N3   BZ EP   1    21959.000                             166   -0.06 7 1.45  73 
 N3   BE ES   1    220 0.390                             166    0.02 7 1.45  73 
 N5   BZ  P   1    21959.035                             155   -0.12 7 2.60  65 
 N5   BE ES   1    220 0.500                             155   -0.04 7 2.60  65 
 N4   BZ  P   1    21959.035                             153   -0.15 7 2.83 346 
 N4   BE ES   1    220 0.610                             153    0.02 7 2.83 346 
 N2   BZ EP   1    21959.160                             150   -0.04 7 3.17  82 
 N2   BE ES   1    220 0.650                             150    0.03 7 3.17  82 
 N1   BZ  P   1    21959.598                             144    0.30 7 3.93 108 
 N1   BE  S   1    220 0.808                             144    0.00 7 3.93 108 
 CAMP BZ EP   1    21959.250                             138   -0.13 7 4.65  82 
 CAMP BE ES   1    220 0.950                             138    0.00 7 4.65  82 
 N6   BZ  P   1    21959.570                             136    0.13 7 5.07  11 
 N6   BE ES   1    220 1.060                             136   -0.00 7 5.07  11 
 N10  BZ  P   1    21959.804                             126    0.10 7 6.69 353 
 N10  BE  S   1    220 1.577                             126    0.05 7 6.69 353 
 N9   BZ  P   1    21959.635                             123   -0.12 7 7.13  16 
 N9   BE ES   1    220 1.630                             123    0.01 7 7.13  16 
                                                                                
 2021  3 4 1749 54.2 L  28.828  50.853  8.4  SLT  8 0.1                 0.8L BI1
 GAP=264        0.25       1.2     1.9  1.4  0.1097E+01  0.1108E+01  0.2721E+00E
 Action:ARG 21-06-12 18:26 OP:OBSP STATUS:               ID:20210304174953     I
 DUMMY                                                                         6
 STAT SP IPHASW D HRMM SECON CODA AMPLIT PERI AZIMU VELO AIN AR TRES W  DIS CAZ7
 N3   BZ  P   1   174956.231                             159    0.04 7 2.39  67 
 N3   BE ES   1   174957.750                             159   -0.03 7 2.39  67 
 N4   BZ  P   1   174956.381                             152    0.10 7 3.28   3 
 N4   BE ES   1   174957.950                             152    0.02 7 3.28   3 
 N5   BZ EP   1   174956.280                             150   -0.02 7 3.56  63 
 N5   BE ES   1   174957.850                             150   -0.11 7 3.56  63 
 N2   BZ EP   1   174956.280                             146   -0.05 7 4.06  76 
 N2   BE ES   1   174957.970                             146   -0.05 7 4.06  76 
 N1   BZ EP   1   174956.500                             142    0.10 7 4.59  99 
 N1   BE ES   1   174958.210                             142    0.06 7 4.59  99 
 CAMP BZ  P   1   174956.558                             136    0.06 7 5.54  78 
 CAMP BE ES   1   174958.330                             136    0.01 7 5.54  78 
 N6   BZ  P   1   174956.367                             134   -0.17 7 5.78  18 
 N6   BE ES   1   174958.430                             134    0.04 7 5.78  18 
 N9   BZ  P   1   174956.706                             122   -0.10 7 7.88  21 
 N9   BE  S   1   174958.998                             122    0.11 7 7.88  21 
                                                                                
 2021  3 4 2355 32.8 L  28.833  50.879  9.7  SLT 12 0.2                 0.9L BI1
 GAP=196        0.37       1.6     2.3  1.4  0.2195E+01 -0.3487E+00 -0.5820E+00E
 Action:ARG 21-06-12 18:26 OP:OBSP STATUS:               ID:20210304235532     I
 DUMMY                                                                         6
 STAT SP IPHASW D HRMM SECON CODA AMPLIT PERI AZIMU VELO AIN AR TRES W  DIS CAZ7
 N3   BZ  P   1   235534.851                             175   -0.02 7 0.62 318 
 N3   BE  S   1   235536.453                             175   -0.13 7 0.62 318 
 N5   BZ EP   1   235534.900                             171    0.00 7 1.26  26 
 N5   BE ES   1   235536.490                             171   -0.14 7 1.26  26 
 N2   BZ EP   1   235535.000                             170    0.11 7 1.42  71 
 N2   BE  S   1   235536.637                             170    0.02 7 1.42  71 
 N1   BZ EP   1   235535.100                             164    0.15 7 2.27 122 
 N1   BE ES   1   235536.750                             164    0.04 7 2.27 122 
 CAMP BZ EP   1   235535.130                             159    0.16 7 2.89  76 
 CAMP BE ES   1   235536.930                             159    0.18 7 2.89  76 
 N4   BZ EP   1   235534.930                             154   -0.11 7 3.72 319 
 N4   BE ES   1   235536.560                             154   -0.32 7 3.72 319 
 N6   BZ  P   1   235535.104                             145   -0.05 7 5.07 351 
 N6   BE ES   1   235537.020                             145   -0.07 7 5.07 351 
 N9   BZ  P   1   235535.487                             135    0.15 7 6.89   1 
 N9   BE ES   1   235537.590                             135    0.17 7 6.89   1 
 N10  BZ  P   1   235535.252                             134   -0.15 7 7.18 338 
 N10  BE  S   1   235537.502                             134   -0.03 7 7.18 338 
 N11  BZ  P   1   235535.816                             125    0.16 7 9.30 327 
 N11  BE ES   1   235538.000                             125    0.01 7 9.30 327 
 N15  BZ  P   1   235535.914                             124    0.20 7 9.60 346 
 N15  BE  S   1   235538.220                             124    0.11 7 9.60 346 
 P5   BZ EP   1   235538.000                              99   -0.46 7 25.9  51 
                                                                                
 2021  3 4 2355 41.9 L  28.831  50.864  7.9  SLT  9 0.1                 0.6L BI1
 GAP=230        0.24       1.0     1.6  1.2  0.1057E+01  0.8885E+00  0.1335E-01E
 Action:ARG 21-06-12 18:26 OP:OBSP STATUS:               ID:20210304235541     I
 DUMMY                                                                         6
 STAT SP IPHASW D HRMM SECON CODA AMPLIT PERI AZIMU VELO AIN AR TRES W  DIS CAZ7
 N5   BZ EP   1   235543.670                             157   -0.08 7 2.49  57 
 N5   BE ES   1   235545.260                             157   -0.02 7 2.49  57 
 N2   BZ EP   1   235543.700                             153   -0.08 7 2.95  77 
 N2   BE ES   1   235545.370                             153    0.04 7 2.95  77 
 N4   BZ EP   1   235543.770                             151   -0.04 7 3.14 343 
 N4   BE ES   1   235545.300                             151   -0.08 7 3.14 343 
 N1   BZ EP   1   235543.810                             147   -0.04 7 3.60 106 
 N1   BE ES   1   235545.510                             147    0.05 7 3.60 106 
 CAMP BZ  P   1   235543.959                             141    0.04 7 4.43  78 
 CAMP BE ES   1   235545.710                             141    0.12 7 4.43  78 
 N6   BZ  P   1   235544.013                             134   -0.02 7 5.26   8 
 N6   BE  S   1   235545.864                             134    0.08 7 5.26   8 
 N9   BZ  P   1   235544.191                             121   -0.10 7 7.30  14 
 N9   BE  S   1   235546.139                             121   -0.12 7 7.30  14 
 N11  BZ  P   1   235544.630                             113    0.12 7 8.74 336 
 N11  BE  S   1   235546.742                             113    0.09 7 8.74 336 
 N15  BZ  P   1   235544.767                             109    0.10 7 9.56 356 
 N15  BE  S   1   235546.893                             109   -0.04 7 9.56 356 
                                                                                
 2021  3 9 1904 42.5 L  28.832  50.858  7.9  SLT  7 0.0                 0.9L BI1
 GAP=248        0.22       1.5     1.8  1.3  0.1613E+01  0.9417E+00  0.6472E+00E
 Action:ARG 21-06-12 18:26 OP:OBSP STATUS:               ID:20210309190442     I
 DUMMY                                                                         6
 STAT SP IPHASW D HRMM SECON CODA AMPLIT PERI AZIMU VELO AIN AR TRES W  DIS CAZ7
 N3   BZ EP   1   19 444.280                             163   -0.04 7 1.79  72 
 N3   BE ES   1   19 445.820                             163    0.01 7 1.79  72 
 N4   BZ EP   1   19 444.430                             153    0.01 7 2.91 353 
 N4   BE ES   1   19 446.000                             153    0.02 7 2.91 353 
 N5   BZ EP   1   19 444.440                             153    0.03 7 2.94  65 
 N5   BE ES   1   19 445.910                             153   -0.06 7 2.94  65 
 N2   BZ EP   1   19 444.410                             148   -0.04 7 3.50  81 
 N2   BE ES   1   19 446.050                             148    0.01 7 3.50  81 
 N1   BZ EP   1   19 444.530                             143   -0.01 7 4.19 105 
 N1   BE ES   1   19 446.230                             143    0.03 7 4.19 105 
 CAMP BZ EP   1   19 444.580                             136   -0.03 7 4.98  81 
 CAMP BE ES   1   19 446.370                             136    0.04 7 4.98  81 
 N6   BZ EP   1   19 444.730                             134    0.07 7 5.27  14 
 N6   BE ES   1   19 446.370                             134   -0.04 7 5.27  14 
                                                                                
 2021  310 0038  1.9 L  28.826  50.851  7.7  SLT  6 0.1                 0.6L BI1
 GAP=270        0.27       1.8     2.2  2.0  0.2398E+01  0.1828E+01  0.1342E+01E
 Action:ARG 21-06-12 18:26 OP:OBSP STATUS:               ID:20210310003801     I
 DUMMY                                                                         6
 STAT SP IPHASW D HRMM SECON CODA AMPLIT PERI AZIMU VELO AIN AR TRES W  DIS CAZ7
 N3   BZ EP   1    038 3.570                             154   -0.19 7 2.69  62 
 N3   BE ES   1    038 5.330                             154    0.07 7 2.69  62 
 N4   BZ  P   1    038 3.801                             146   -0.06 7 3.60   5 
 N4   BE ES   1    038 5.500                             146    0.06 7 3.60   5 
 N5   BZ  P   1    038 3.911                             144    0.03 7 3.87  60 
 N5   BE ES   1    038 5.420                             144   -0.06 7 3.87  60 
 N1   BZ  P   1    038 4.048                             137    0.07 7 4.74  95 
 N1   BE ES   1    038 5.700                             137    0.03 7 4.74  95 
 CAMP BZ  P   1    038 4.066                             129   -0.03 7 5.79  75 
 CAMP BN  S   1    038 5.882                             129   -0.00 7 5.79  75 
 N6   BZ EP   1    038 4.310                             127    0.15 7 6.13  19 
 N6   BE ES   1    038 5.920                             127   -0.07 7 6.13  19 
                                                                                
 2021  310 1817 19.8 L  28.833  50.856  8.0  SLT  8 0.0                 1.0L BI1
 GAP=250        0.20       0.9     1.5  1.0  0.7578E+00  0.4247E+00 -0.1325E+00E
 Action:ARG 21-06-12 18:26 OP:OBSP STATUS:               ID:20210310181719     I
 DUMMY                                                                         6
 STAT SP IPHASW D HRMM SECON CODA AMPLIT PERI AZIMU VELO AIN AR TRES W  DIS CAZ7
 N3   BZ EP   1   181721.550                             162   -0.06 7 1.92  76 
 N3   BE ES   1   181723.110                             162   -0.01 7 1.92  76 
 N4   BZ EP   1   181721.720                             155    0.03 7 2.79 356 
 N4   BE ES   1   181723.270                             155    0.01 7 2.79 356 
 N5   BZ EP   1   181721.680                             153   -0.02 7 3.05  68 
 N5   BE ES   1   181723.250                             153   -0.03 7 3.05  68 
 N2   BZ EP   1   181721.730                             147   -0.01 7 3.65  83 
 N2   BE ES   1   181723.380                             147    0.02 7 3.65  83 
 N1   BZ EP   1   181721.800                             142   -0.03 7 4.37 106 
 N1   BE ES   1   181723.530                             142    0.01 7 4.37 106 
 CAMP BZ EP   1   181721.940                             136    0.03 7 5.13  82 
 CAMP BE ES   1   181723.670                             136    0.02 7 5.13  82 
 N6   BZ EP   1   181722.000                             136    0.07 7 5.22  16 
 N6   BE ES   1   181723.680                             136   -0.01 7 5.22  16 
 N19  BZ  P   1   181723.076                             102    0.01 7 12.6   4 
 N19  BE  S   1   181725.707                             102   -0.04 7 12.6   4 
                                                                                
 2021  311 1119 29.5 L  28.825  50.857  7.5  SLT 13 0.1                 1.4L BI1
 GAP=247        0.26       0.9     1.3  1.1  0.4889E+00  0.4387E+00 -0.2448E+00E
 Action:ARG 21-06-12 18:26 OP:OBSP STATUS:               ID:20210311111929     I
 DUMMY                                                                         6
 STAT SP IPHASW D HRMM SECON CODA AMPLIT PERI AZIMU VELO AIN AR TRES W  DIS CAZ7
 N3   BZ EP   1   111931.320                             158    0.03 7 2.23  54 
 N3   BE ES   1   111932.830                             158    0.09 7 2.23  54 
 N5   BZ EP   1   111931.390                             147   -0.01 7 3.41  55 
 N4   BZ EP   1   111931.400                             145   -0.03 7 3.64 356 
 N4   BE ES   1   111933.020                             145    0.03 7 3.64 356 
 N2   BZ EP   1   111931.400                             143   -0.03 7 3.79  70 
 N2   BE ES   1   111933.020                             143    0.03 7 3.79  70 
 N1   BZ EP   1   111931.390                             140   -0.10 7 4.16  95 
 N1   BE ES   1   111933.210                             140    0.11 7 4.16  95 
 CAMP BZ EP   1   111931.590                             131   -0.02 7 5.25  73 
 CAMP BE ES   1   111933.370                             131    0.06 7 5.25  73 
 N6   BZ  P   1   111931.490                             125   -0.23 7 6.02  14 
 N6   BE ES   1   111933.330                             125   -0.19 7 6.02  14 
 N10  BZ  P   1   111931.905                             115   -0.05 7 7.52 357 
 N10  BE  S   1   111933.915                             115   -0.03 7 7.52 357 
 N9   BZ  P   1   111932.002                             111   -0.02 7 8.09  17 
 N9   BE  S   1   111933.998                             111   -0.07 7 8.09  17 
 N11  BZ  P   1   111932.224                             106    0.04 7 9.09 342 
 N11  BE  S   1   111934.497                             106    0.15 7 9.09 342 
 N15  BZ  P   1   111932.349                             101   -0.04 7 10.2 360 
 N15  BE ES   1   111934.650                             101   -0.07 7 10.2 360 
 N18  BZ EP   1   111933.000                              97    0.24 7 12.2 349 
 P1   BZ  P   1   111932.737                              96   -0.03 7 12.6  24 
 P1   BE ES   1   111935.560                              96    0.15 7 12.6  24 
                                                                                
