 2021  311 1938 54.0 L  28.831  50.858  7.7  SLT  7 0.1                 0.5L BI1
 GAP=249        0.24       1.6     2.2  1.7  0.1818E+01  0.2082E+01  0.7271E+00E
 Action:ARG 21-06-12 18:26 OP:OBSP STATUS:               ID:20210311193853     I
 DUMMY                                                                         6
 STAT SP IPHASW D HRMM SECON CODA AMPLIT PERI AZIMU VELO AIN AR TRES W  DIS CAZ7
 N3   BZ  P   1   193855.761                             162   -0.01 7 1.80  68 
 N3   BE ES   1   193857.240                             162    0.02 7 1.80  68 
 N5   BZ  P   1   193855.748                             152   -0.11 7 2.96  63 
 N5   BE ES   1   193857.340                             152   -0.04 7 2.96  63 
 N4   BZ  P   1   193855.844                             151   -0.03 7 3.02 353 
 N2   BZ  P   1   193855.870                             147   -0.03 7 3.49  79 
 N2   BE ES   1   193857.470                             147    0.02 7 3.49  79 
 N1   BZ  P   1   193856.009                             141    0.03 7 4.14 104 
 N1   BE  S   1   193857.684                             141    0.08 7 4.14 104 
 CAMP BZ  P   1   193856.034                             134   -0.03 7 4.97  80 
 CAMP BE ES   1   193857.730                             134   -0.03 7 4.97  80 
 N6   BZ  P   1   193856.265                             132    0.14 7 5.36  14 
 N6   BE ES   1   193857.850                             132   -0.01 7 5.36  14 
                                                                                
 2021  312 0321 13.1 L  28.829  50.858  7.8  SLT  6 0.0                 0.8L BI1
 GAP=262        0.26       1.6     1.9  2.1  0.1211E+01  0.1349E+01  0.7124E+00E
 Action:ARG 21-06-12 18:26 OP:OBSP STATUS:               ID:20210312032112     I
 DUMMY                                                                         6
 STAT SP IPHASW D HRMM SECON CODA AMPLIT PERI AZIMU VELO AIN AR TRES W  DIS CAZ7
 N5   BZ  P   1    32114.974                             151   -0.01 7 3.08  60 
 N4   BZ  P   1    32115.014                             150    0.01 7 3.20 354 
 N4   BE ES   1    32116.570                             150   -0.00 7 3.20 354 
 CAMP BZ EP   1    32115.100                             135   -0.08 7 5.04  78 
 CAMP BE ES   1    32116.940                             135    0.04 7 5.04  78 
 N6   BZ  P   1    32115.341                             132    0.09 7 5.56  14 
 N6   BE ES   1    32116.980                             132   -0.05 7 5.56  14 
 N9   BE  S   1    32117.548                             118    0.01 7 7.64  17 
 N11  BZ  P   1    32115.682                             113   -0.01 7 8.70 340 
                                                                                
 2021  313 2007 49.1 L  28.829  50.853  7.4  SLT  9 0.1                 0.9L BI1
 GAP=262        0.22       0.9     1.7  1.5  0.5750E+00  0.1406E+01 -0.1594E+00E
 Action:ARG 21-06-12 18:26 OP:OBSP STATUS:               ID:20210313200748     I
 DUMMY                                                                         6
 STAT SP IPHASW D HRMM SECON CODA AMPLIT PERI AZIMU VELO AIN AR TRES W  DIS CAZ7
 N3   BZ  P   1   20 750.909                             156   -0.01 7 2.35  68 
 N3   BN  S   1   20 752.416                             156    0.05 7 2.35  68 
 N4   BZ  P   1   20 750.989                             148   -0.02 7 3.22   2 
 N5   BZ EP   1   20 750.990                             145   -0.04 7 3.51  64 
 N5   BN  S   1   20 752.592                             145    0.02 7 3.51  64 
 N2   BZ EP   1   20 751.030                             141   -0.05 7 4.03  77 
 N2   BE  S   1   20 752.674                             141    0.02 7 4.03  77 
 N1   BZ EP   1   20 751.130                             136   -0.03 7 4.58 100 
 N1   BE ES   1   20 752.850                             136    0.05 7 4.58 100 
 CAMP BZ EP   1   20 751.190                             128   -0.07 7 5.51  78 
 CAMP BE ES   1   20 753.030                             128    0.04 7 5.51  78 
 N6   BZ  P   1   20 751.287                             127   -0.01 7 5.72  18 
 N6   BE ES   1   20 752.980                             127   -0.08 7 5.72  18 
 N9   BE  S   1   20 753.567                             112   -0.04 7 7.82  21 
 N15  BZ  P   1   20 752.101                             101    0.16 7 9.76   2 
 N15  BE  S   1   20 754.239                             101    0.02 7 9.76   2 
                                                                                
 2021  315 2130 10.0 L  28.826  50.850  7.9  SLT 18 0.1                 1.7L BI1
 GAP=216        0.32       0.8     1.2  0.9  0.4846E+00 -0.7938E-01 -0.2305E-01E
 Action:ARG 21-06-12 18:26 OP:OBSP STATUS:               ID:20210315213009     I
 DUMMY                                                                         6
 STAT SP IPHASW D HRMM SECON CODA AMPLIT PERI AZIMU VELO AIN AR TRES W  DIS CAZ7
 N3   BZ EP   1   213011.910                             155    0.06 7 2.72  64 
 N3   BE ES   1   213013.370                             155   -0.01 7 2.72  64 
 N4   BZ EP   1   213012.010                             148    0.07 7 3.52   7 
 N4   BE ES   1   213013.550                             148    0.01 7 3.52   7 
 N5   BZ EP   1   213011.970                             145    0.00 7 3.89  62 
 N5   BE ES   1   213013.480                             145   -0.11 7 3.89  62 
 N2   BZ EP   1   213012.010                             141    0.00 7 4.37  74 
 N2   BE ES   1   213013.600                             141   -0.07 7 4.37  74 
 N1   BZ EP   1   213012.130                             137    0.05 7 4.82  96 
 N1   BE ES   1   213013.780                             137   -0.01 7 4.82  96 
 N6   BZ EP   1   213012.260                             128    0.03 7 6.08  20 
 N6   BE ES   1   213013.980                             128   -0.09 7 6.08  20 
 N10  BZ EP   1   213012.540                             120    0.11 7 7.38   2 
 N10  BE ES   1   213014.450                             120    0.03 7 7.38   2 
 N9   BZ EP   1   213012.560                             116    0.03 7 8.19  22 
 N9   BE ES   1   213014.530                             116   -0.07 7 8.19  22 
 N11  BZ EP   1   213012.780                             113    0.17 7 8.78 345 
 N11  BE ES   1   213014.890                             113    0.13 7 8.78 345 
 N15  BZ  P   1   213012.907                             107    0.06 7 10.0   3 
 N15  BE ES   1   213015.180                             107    0.00 7 10.0   3 
 N18  BZ EP   1   213013.000                             101   -0.19 7 11.9 352 
 P1   BZ EP   1   213013.310                             100    0.05 7 12.8  27 
 P1   BE ES   1   213016.100                             100    0.17 7 12.8  27 
 N19  BZ EP   1   213013.000                              99   -0.40 7 13.3   7 
 P3   BZ  P   1   213014.267                              95   -0.02 7 18.3  42 
 P4   BZ  P   1   213015.293                              93   -0.08 7 24.9  51 
 P4   BE  S   1   213020.093                              93    0.34 7 24.9  51 
 DLRM BZ  P   1   213016.056                              92    0.02 7 28.5 129 
 DLRM BE  S   1   213021.119                              92    0.16 7 28.5 129 
 P5   BZ  P   1   213015.793                              92   -0.30 7 28.6  54 
 KHIA BE  S   1   213021.660                              92   -0.15 7 31.3  80 
                                                                                
 2021  315 2259 47.8 L  28.825  50.856  7.4  SLT 16 0.1                 1.1L BI1
 GAP=247        0.31       1.0     1.1  1.0  0.5330E+00 -0.1732E+00 -0.3882E+00E
 Action:ARG 21-06-12 18:26 OP:OBSP STATUS:               ID:20210315225947     I
 DUMMY                                                                         6
 STAT SP IPHASW D HRMM SECON CODA AMPLIT PERI AZIMU VELO AIN AR TRES W  DIS CAZ7
 N3   BZ EP   1   225949.550                             157   -0.02 7 2.26  55 
 N3   BE ES   1   225951.100                             157    0.08 7 2.26  55 
 N5   BZ EP   1   225949.670                             146   -0.02 7 3.44  55 
 N5   BE ES   1   225951.180                             146   -0.04 7 3.44  55 
 N4   BZ EP   1   225949.720                             144    0.01 7 3.62 357 
 N4   BE ES   1   225951.280                             144    0.01 7 3.62 357 
 N2   BZ EP   1   225949.700                             142   -0.02 7 3.83  70 
 N1   BZ EP   1   225949.800                             139    0.02 7 4.22  95 
 N1   BE ES   1   225951.510                             139    0.12 7 4.22  95 
 N6   BZ EP   1   225949.990                             125   -0.01 7 6.01  14 
 N6   BE ES   1   225951.670                             125   -0.13 7 6.01  14 
 N10  BZ  P   1   225950.206                             114   -0.03 7 7.50 357 
 N10  BE ES   1   225952.150                             114   -0.07 7 7.50 357 
 N9   BZ EP   1   225950.280                             110   -0.03 7 8.09  18 
 N9   BE ES   1   225952.250                             110   -0.10 7 8.09  18 
 N11  BZ  P   1   225950.519                             105    0.06 7 9.05 342 
 N11  BE ES   1   225952.630                             105    0.01 7 9.05 342 
 N15  BZ  P   1   225950.604                             100   -0.07 7 10.1   0 
 N15  BE ES   1   225952.890                             100   -0.11 7 10.1   0 
 N18  BZ  P   1   225951.400                              96    0.36 7 12.1 349 
 P1   BZ EP   1   225951.000                              95   -0.05 7 12.6  25 
 P1   BE ES   1   225953.790                              95    0.10 7 12.6  25 
 N19  BZ  P   1   225951.230                              95   -0.00 7 13.4   4 
 N19  BE  S   1   225954.046                              95    0.03 7 13.4   4 
 P2   BZ  P   1   225951.400                              94   -0.09 7 14.9  36 
 P4   BZ  P   1   225952.922                              92   -0.21 7 24.5  50 
 P4   BE  S   1   225957.886                              92    0.44 7 24.5  50 
 KHIA BE  S   1   225959.222                              91   -0.23 7 30.7  80 
                                                                                
 2021  316 0006 34.8 L  28.827  50.855  8.1  SLT 13 0.1                 0.8L BI1
 GAP=245        0.25       1.0     1.6  1.0  0.8991E+00  0.5603E+00 -0.3385E-01E
 Action:ARG 21-06-12 18:26 OP:OBSP STATUS:               ID:20210316000634     I
 DUMMY                                                                         6
 STAT SP IPHASW D HRMM SECON CODA AMPLIT PERI AZIMU VELO AIN AR TRES W  DIS CAZ7
 N3   BZ EP   1    0 636.740                             159    0.02 7 2.26  60 
 N3   BE ES   1    0 638.230                             159   -0.02 7 2.26  60 
 N5   BZ EP   1    0 636.770                             150   -0.05 7 3.44  59 
 N5   BE ES   1    0 638.350                             150   -0.08 7 3.44  59 
 N4   BZ EP   1    0 636.850                             149    0.02 7 3.45 359 
 N4   BE ES   1    0 638.440                             149   -0.01 7 3.45 359 
 N2   BZ EP   1    0 636.910                             146    0.06 7 3.88  73 
 N2   BE ES   1    0 638.470                             146   -0.02 7 3.88  73 
 N1   BZ EP   1    0 636.970                             142    0.05 7 4.34  97 
 N1   BE ES   1    0 638.670                             142    0.06 7 4.34  97 
 N6   BZ  P   1    0 637.098                             132    0.00 7 5.88  16 
 N6   BE ES   1    0 638.830                             132   -0.10 7 5.88  16 
 N10  BZ  P   1    0 637.359                             123    0.05 7 7.33 358 
 N10  BE ES   1    0 639.330                             123    0.02 7 7.33 358 
 N9   BZ  P   1    0 637.414                             119    0.04 7 7.97  19 
 N9   BE ES   1    0 639.440                             119    0.00 7 7.97  19 
 N11  BZ  P   1    0 637.482                             115   -0.03 7 8.86 342 
 N11  BE  S   1    0 639.843                             115    0.17 7 8.86 342 
 N15  BZ  P   1    0 637.757                             110    0.05 7 9.99   1 
 N15  BE ES   1    0 640.070                             110    0.03 7 9.99   1 
 N18  BZ  P   1    0 637.729                             104   -0.34 7 12.0 349 
 P1   BZ  P   1    0 638.196                             102    0.11 7 12.5  25 
 P2   BZ  P   1    0 638.498                              99   -0.03 7 14.8  36 
                                                                                
 2021  5 4 2043 27.6 L  28.836  50.851  6.2  SLT 14 0.1                 1.2L BI1
 GAP=234        0.26       0.7     1.0  0.9  0.4060E+00  0.2523E+00 -0.6725E-01E
 Action:ARG 21-12-18 20:21 OP:OBSP STATUS:               ID:20210504204327     I
 DUMMY                                                                         6
 STAT SP IPHASW D HRMM SECON CODA AMPLIT PERI AZIMU VELO AIN AR TRES W  DIS CAZ7
 N3   BZ EP   1   204329.090                             154   -0.06 7 2.37  89 
 N3   BE ES   1   204330.510                             154    0.09 7 2.37  89 
 N4   BZ EP   1   204329.090                             154   -0.08 7 2.41   8 
 N4   BE ES   1   204330.470                             154    0.01 7 2.41   8 
 N5   BZ EP   1   204329.200                             145   -0.07 7 3.42  78 
 N5   BE ES   1   204330.680                             145    0.04 7 3.42  78 
 N2   BZ EP   1   204329.280                             138   -0.07 7 4.12  89 
 N2   BE ES   1   204330.820                             138    0.04 7 4.12  89 
 N1   BZ EP   1   204329.450                             132   -0.04 7 4.97 109 
 N1   BE ES   1   204331.130                             132    0.09 7 4.97 109 
 N6   BZ EP   1   204329.380                             132   -0.11 7 5.01  23 
 N6   BE ES   1   204330.980                             132   -0.05 7 5.01  23 
 N7   BZ EP   1   204329.370                             131   -0.11 7 5.05   0 
 N7   BE ES   1   204331.030                             131   -0.00 7 5.05   0 
 CAMP BZ EP   1   204329.500                             127   -0.07 7 5.59  87 
 CAMP BE ES   1   204331.290                             127    0.10 7 5.59  87 
 N10  BZ  P   1   204329.703                             123    0.01 7 6.27   1 
 N10  BN  S   1   204331.383                             123   -0.03 7 6.27   1 
 N9   BZ EP   1   204329.630                             118   -0.19 7 7.13  24 
 N9   BE ES   1   204331.550                             118   -0.10 7 7.13  24 
 N11  BZ  P   1   204330.072                             115    0.15 7 7.73 343 
 N11  BN  S   1   204331.936                             115    0.11 7 7.73 343 
 N15  BZ EP   1   204330.060                             110   -0.11 7 8.94   3 
 N15  BE ES   1   204332.260                             110   -0.02 7 8.94   3 
 N18  BZ  P   1   204330.912                             104    0.34 7 10.8 350 
 N18  BN  S   1   204332.960                             104   -0.04 7 10.8 350 
 P1   BZ  P   1   204330.768                             102    0.09 7 11.8  29 
 P1   BE  S   1   204333.267                             102    0.07 7 11.8  29 
                                                                                
