 2021  3 2 1426 26.5 L  28.829  50.861  6.8  SLT 10 0.2                 1.3L BI1
 GAP=245        0.43       1.5     2.6  1.8  0.2438E+01  0.1924E+01  0.1203E+00E
 Action:ARG 21-06-12 18:26 OP:OBSP STATUS:               ID:20210302142625     I
 DUMMY                                                                         6
 STAT SP IPHASW D HRMM SECON CODA AMPLIT PERI AZIMU VELO AIN AR TRES W  DIS CAZ7
 N3   BZ EP   1   142628.000                             164   -0.13 7 1.59  56 
 N3   BE ES   1   142629.510                             164    0.06 7 1.59  56 
 N5   BZ EP   1   142628.050                             153   -0.18 7 2.78  56 
 N5   BE ES   1   142629.620                             153   -0.01 7 2.78  56 
 N2   BZ EP   1   142628.160                             150   -0.10 7 3.20  74 
 N2   BE ES   1   142629.750                             150    0.06 7 3.20  74 
 N4   BZ EP   1   142628.140                             149   -0.15 7 3.31 347 
 N4   BE ES   1   142629.720                             149   -0.02 7 3.31 347 
 N1   BZ EP   1   142628.250                             145   -0.09 7 3.74 102 
 N1   BE ES   1   142629.940                             145    0.11 7 3.74 102 
 CAMP BZ EP   1   142628.320                             138   -0.12 7 4.68  76 
 CAMP BE ES   1   142630.090                             138    0.08 7 4.68  76 
 N6   BZ  P   1   142628.853                             133    0.28 7 5.52  10 
 N6   BE  S   1   142630.241                             133   -0.01 7 5.52  10 
 N10  BZ  P   1   142629.503                             123    0.66 7 7.16 353 
 N10  BE  S   1   142630.655                             123   -0.08 7 7.16 353 
 N9   BZ EP   1   142629.000                             121    0.11 7 7.57  15 
 N9   BE ES   1   142630.730                             121   -0.09 7 7.57  15 
 N15  BZ  P   1   142629.051                             112   -0.25 7 9.78 357 
 N15  BE  S   1   142631.456                             112   -0.11 7 9.78 357 
                                                                                
 2021  3 2 1549 35.8 L  28.829  50.864  6.5  SLT  9 0.2                 1.0L BI1
 GAP=240        0.37       1.5     2.8  1.6  0.2218E+01  0.1023E+01 -0.2674E+00E
 Action:ARG 21-06-12 18:26 OP:OBSP STATUS:               ID:20210302154935     I
 DUMMY                                                                         6
 STAT SP IPHASW D HRMM SECON CODA AMPLIT PERI AZIMU VELO AIN AR TRES W  DIS CAZ7
 N3   BZ  P   1   154937.277                             166   -0.07 7 1.39  51 
 N3   BE ES   1   154938.700                             166    0.08 7 1.39  51 
 N5   BZ EP   1   154937.320                             154   -0.12 7 2.57  53 
 N5   BE ES   1   154938.830                             154    0.04 7 2.57  53 
 N2   BZ EP   1   154937.390                             150   -0.08 7 2.97  73 
 N2   BE ES   1   154938.980                             150    0.13 7 2.97  73 
 N4   BZ  P   1   154937.400                             147   -0.13 7 3.34 343 
 N4   BE ES   1   154938.940                             147   -0.01 7 3.34 343 
 N1   BZ  P   1   154937.483                             146   -0.06 7 3.52 103 
 CAMP BZ  P   1   154937.621                             138   -0.03 7 4.44  76 
 N6   BZ  P   1   154937.912                             131    0.11 7 5.46   7 
 N9   BZ EP   1   154938.010                             119   -0.11 7 7.49  13 
 N9   BE ES   1   154939.970                             119   -0.05 7 7.49  13 
 N15  BZ  P   1   154939.034                             110    0.48 7 9.77 355 
 N15  BE ES   1   154940.620                             110   -0.18 7 9.77 355 
                                                                                
 2021  3 2 1559  9.4 L  28.823  50.853  7.9  SLT  8 0.1                 1.2L BI1
 GAP=252        0.24       1.2     1.6  1.4  0.1158E+01  0.1062E+01  0.1556E+00E
 Action:ARG 21-06-12 18:26 OP:OBSP STATUS:               ID:20210302155909     I
 DUMMY                                                                         6
 STAT SP IPHASW D HRMM SECON CODA AMPLIT PERI AZIMU VELO AIN AR TRES W  DIS CAZ7
 N3   BZ EP   1   155911.280                             156   -0.00 7 2.62  55 
 N3   BE ES   1   155912.830                             156    0.02 7 2.62  55 
 N5   BZ  P   1   155911.458                             146    0.06 7 3.80  55 
 N5   BE ES   1   155912.930                             146   -0.09 7 3.80  55 
 N4   BZ EP   1   155911.450                             146    0.04 7 3.83   1 
 N4   BE ES   1   155913.020                             146   -0.02 7 3.83   1 
 N2   BZ EP   1   155911.340                             143   -0.09 7 4.18  69 
 N2   BE ES   1   155913.020                             143   -0.05 7 4.18  69 
 N1   BZ EP   1   155911.550                             140    0.07 7 4.49  92 
 N1   BE ES   1   155913.240                             140    0.07 7 4.49  92 
 CAMP BZ EP   1   155911.610                             132    0.01 7 5.64  72 
 CAMP BE ES   1   155913.380                             132   -0.01 7 5.64  72 
 N9   BZ  P   1   155912.092                             115    0.10 7 8.39  19 
 N9   BE  S   1   155914.088                             115   -0.01 7 8.39  19 
 N11  BZ  P   1   155911.931                             111   -0.18 7 9.17 344 
 N11  BE ES   1   155914.410                             111    0.10 7 9.17 344 
                                                                                
 2021  3 2 2214 24.2 L  28.827  50.860  8.1  SLT  8 0.1                 0.9L BI1
 GAP=241        0.23       1.5     1.9  1.4  0.2086E+01  0.1456E+01  0.6384E+00E
 Action:ARG 21-06-12 18:26 OP:OBSP STATUS:               ID:20210302221424     I
 DUMMY                                                                         6
 STAT SP IPHASW D HRMM SECON CODA AMPLIT PERI AZIMU VELO AIN AR TRES W  DIS CAZ7
 N3   BZ EP   1   221426.040                             163   -0.05 7 1.82  52 
 N3   BE ES   1   221427.600                             163    0.01 7 1.82  52 
 N5   BZ EP   1   221426.190                             153    0.01 7 3.00  53 
 N5   BE ES   1   221427.680                             153   -0.07 7 3.00  53 
 N2   BZ EP   1   221426.180                             150   -0.02 7 3.38  70 
 N2   BE ES   1   221427.810                             150    0.01 7 3.38  70 
 N4   BZ EP   1   221426.230                             149    0.00 7 3.52 350 
 N4   BE ES   1   221427.800                             149   -0.05 7 3.52 350 
 N1   BZ EP   1   221426.280                             146    0.02 7 3.81  98 
 N1   BE ES   1   221428.010                             146    0.11 7 3.81  98 
 CAMP BZ EP   1   221426.290                             138   -0.06 7 4.84  74 
 CAMP BE ES   1   221428.130                             138    0.06 7 4.84  74 
 N6   BZ EP   1   221426.440                             132   -0.03 7 5.77  10 
 N6   BE ES   1   221428.210                             132   -0.08 7 5.77  10 
 N11  BZ  P   1   221426.903                             113   -0.03 7 9.05 339 
 N11  BE  S   1   221429.283                             113    0.16 7 9.05 339 
                                                                                
 2021  3 2 2316 52.4 L  28.827  50.859  6.9  SLT  8 0.1                 0.7L BI1
 GAP=255        0.32       1.5     2.2  1.7  0.2106E+01  0.1854E+01  0.5218E+00E
 Action:ARG 21-06-12 18:26 OP:OBSP STATUS:               ID:20210302231652     I
 DUMMY                                                                         6
 STAT SP IPHASW D HRMM SECON CODA AMPLIT PERI AZIMU VELO AIN AR TRES W  DIS CAZ7
 N5   BZ EP   1   231654.070                             151   -0.10 7 3.14  54 
 N5   BE ES   1   231655.620                             151   -0.00 7 3.14  54 
 N4   BZ EP   1   231654.060                             148   -0.16 7 3.52 352 
 N4   BE ES   1   231655.690                             148   -0.02 7 3.52 352 
 N2   BZ EP   1   231654.110                             148   -0.09 7 3.53  71 
 N2   BE ES   1   231655.720                             148    0.04 7 3.53  71 
 N1   BZ EP   1   231654.230                             145   -0.04 7 3.95  97 
 N1   BE ES   1   231655.930                             145    0.13 7 3.95  97 
 CAMP BZ EP   1   231654.290                             137   -0.10 7 4.99  74 
 CAMP BE ES   1   231656.050                             137    0.04 7 4.99  74 
 N6   BZ  P   1   231654.645                             132    0.13 7 5.83  12 
 N10  BZ  P   1   231655.141                             123    0.36 7 7.40 355 
 N10  BN  S   1   231656.682                             123   -0.04 7 7.40 355 
 N9   BZ  P   1   231654.776                             121   -0.06 7 7.89  16 
 N9   BE ES   1   231656.740                             121   -0.09 7 7.89  16 
                                                                                
 2021  3 2 2346  1.6 L  28.829  50.863  5.8  SLT  9 0.2                 0.7L BI1
 GAP=268        0.45       1.6     2.4  1.8  0.1960E+01  0.1353E+01 -0.5057E+00E
 Action:ARG 21-06-12 18:26 OP:OBSP STATUS:               ID:20210302234600     I
 DUMMY                                                                         6
 STAT SP IPHASW D HRMM SECON CODA AMPLIT PERI AZIMU VELO AIN AR TRES W  DIS CAZ7
 N3   BZ EP   1   2346 2.760                             163   -0.23 7 1.44  53 
 N3   BE ES   1   2346 4.300                             163    0.14 7 1.44  53 
 N5   BZ  P   1   2346 2.917                             150   -0.18 7 2.62  54 
 N5   BE ES   1   2346 4.420                             150    0.07 7 2.62  54 
 N2   BZ  P   1   2346 3.054                             146   -0.08 7 3.04  74 
 N2   BE ES   1   2346 4.530                             146    0.11 7 3.04  74 
 N4   BZ  P   1   2346 2.945                             143   -0.24 7 3.31 344 
 N4   BE ES   1   2346 4.520                             143    0.02 7 3.31 344 
 CAMP BZ  P   1   2346 3.122                             132   -0.21 7 4.51  76 
 CAMP BE ES   1   2346 4.810                             132    0.03 7 4.51  76 
 N6   BZ  P   1   2346 3.586                             125    0.09 7 5.46   8 
 N6   BE  S   1   2346 5.113                             125    0.05 7 5.46   8 
 N10  BZ  P   1   2346 4.246                             114    0.45 7 7.15 351 
 N10  BE  S   1   2346 5.568                             114   -0.05 7 7.15 351 
 N9   BZ  P   1   2346 4.255                             112    0.41 7 7.50  13 
 N9   BE ES   1   2346 5.530                             112   -0.16 7 7.50  13 
 N15  BZ  P   1   2346 4.357                             103    0.07 7 9.75 356 
 N15  BE  S   1   2346 6.214                             103   -0.29 7 9.75 356 
                                                                                
 2021  3 3 0026  6.6 L  28.827  50.859  8.4  SLT 11 0.1                 0.8L BI1
 GAP=243        0.25       1.0     1.7  1.2  0.1088E+01  0.1004E+01  0.1435E+00E
 Action:ARG 21-06-12 18:26 OP:OBSP STATUS:               ID:20210303002606     I
 DUMMY                                                                         6
 STAT SP IPHASW D HRMM SECON CODA AMPLIT PERI AZIMU VELO AIN AR TRES W  DIS CAZ7
 N3   BZ EP   1    026 8.510                             163   -0.02 7 1.98  54 
 N3   BE  S   1    02610.131                             163    0.04 7 1.98  54 
 N5   BZ EP   1    026 8.550                             153   -0.07 7 3.16  55 
 N5   BE  S   1    02610.145                             153   -0.11 7 3.16  55 
 N4   BZ EP   1    026 8.640                             150   -0.02 7 3.51 353 
 N4   BE ES   1    02610.210                             150   -0.11 7 3.51 353 
 N2   BZ EP   1    026 8.660                             150    0.02 7 3.56  71 
 N2   BE  S   1    02610.256                             150   -0.04 7 3.56  71 
 N1   BZ EP   1    026 8.690                             147   -0.01 7 3.98  97 
 N1   BE ES   1    02610.540                             147    0.14 7 3.98  97 
 CAMP BZ EP   1    026 8.840                             139    0.05 7 5.02  74 
 CAMP BE ES   1    02610.610                             139    0.04 7 5.02  74 
 N6   BZ  P   1    026 8.917                             134    0.02 7 5.82  12 
 N6   BE ES   1    02610.680                             134   -0.08 7 5.82  12 
 N10  BZ  P   1    026 9.234                             125    0.12 7 7.39 355 
 N10  BE ES   1    02611.170                             125    0.02 7 7.39 355 
 N9   BZ  P   1    026 9.193                             122    0.02 7 7.89  16 
 N9   BE ES   1    02611.260                             122    0.02 7 7.89  16 
 N11  BZ  P   1    026 9.345                             117    0.02 7 9.01 340 
 N11  BE  S   1    02611.719                             117    0.18 7 9.01 340 
 N15  BZ  P   1    026 9.248                             113   -0.26 7 10.0 359 
 N15  BE ES   1    02611.880                             113    0.02 7 10.0 359 
                                                                                
 2021  3 3 1049  2.0 L  28.825  50.862  8.8  SLT 10 0.2                 1.2L BI1
 GAP=243        0.40       1.8     2.9  2.1  0.3486E+01  0.2817E+01  0.3669E+00E
 Action:ARG 21-06-12 18:26 OP:OBSP STATUS:               ID:20210303104901     I
 DUMMY                                                                         6
 STAT SP IPHASW D HRMM SECON CODA AMPLIT PERI AZIMU VELO AIN AR TRES W  DIS CAZ7
 N3   BZ EP   1   1049 4.000                             165   -0.01 7 1.80  43 
 N3   BE ES   1   1049 5.560                             165   -0.05 7 1.80  43 
 N5   BZ  P   1   1049 4.173                             156    0.09 7 2.97  48 
 N5   BE ES   1   1049 5.670                             156   -0.09 7 2.97  48 
 N2   BZ EP   1   1049 4.020                             154   -0.08 7 3.27  66 
 N2   BE ES   1   1049 5.780                             154    0.00 7 3.27  66 
 N1   BZ EP   1   1049 4.230                             151    0.08 7 3.59  96 
 N1   BE ES   1   1049 5.950                             151    0.09 7 3.59  96 
 N4   BZ  P   1   1049 4.160                             150    0.01 7 3.73 347 
 N4   BE ES   1   1049 5.760                             150   -0.12 7 3.73 347 
 CAMP BZ  P   1   1049 4.354                             143    0.12 7 4.71  71 
 CAMP BE ES   1   1049 6.110                             143    0.09 7 4.71  71 
 N10  BZ  P   1   1049 4.092                             126   -0.51 7 7.59 352 
 N10  BE  S   1   1049 6.723                             126    0.03 7 7.59 352 
 N9   BZ  P   1   1049 4.340                             125   -0.30 7 7.95  13 
 N9   BE ES   1   1049 6.770                             125    0.02 7 7.95  13 
 N11  BZ  P   1   1049 5.212                             119    0.39 7 9.29 338 
 N11  BE  S   1   1049 7.254                             119    0.16 7 9.29 338 
 N15  BE  S   1   1049 7.464                             115    0.08 7 10.2 357 
                                                                                
 2021  3 3 1125 14.8 L  28.835  50.849  6.6  SLT  8 0.2                 1.0L BI1
 GAP=265        0.38       1.5     2.4  1.9  0.1763E+01  0.1543E+01  0.4385E+00E
 Action:ARG 21-06-12 18:26 OP:OBSP STATUS:               ID:20210303112514     I
 DUMMY                                                                         6
 STAT SP IPHASW D HRMM SECON CODA AMPLIT PERI AZIMU VELO AIN AR TRES W  DIS CAZ7
 N3   BZ  P   1   112516.383                             155   -0.09 7 2.56  86 
 N3   BE ES   1   112517.870                             155    0.04 7 2.56  86 
 N4   BZ EP   1   112516.460                             155   -0.03 7 2.57  11 
 N4   BE ES   1   112518.020                             155    0.15 7 2.57  11 
 N5   BZ  P   1   112516.452                             145   -0.14 7 3.63  76 
 N5   BE ES   1   112517.950                             145   -0.10 7 3.63  76 
 N2   BZ  P   1   112516.839                             140    0.17 7 4.31  87 
 N2   BE  S   1   112518.125                             140   -0.06 7 4.31  87 
 N1   BZ  P   1   112516.964                             134    0.17 7 5.11 107 
 N1   BE ES   1   112518.280                             134   -0.13 7 5.11 107 
 N6   BZ  P   1   112516.466                             134   -0.34 7 5.21  24 
 N6   BE ES   1   112518.470                             134    0.04 7 5.21  24 
 CAMP BZ  P   1   112517.245                             130    0.36 7 5.78  86 
 CAMP BE  S   1   112518.514                             130   -0.06 7 5.78  86 
 N9   BZ EP   1   112517.000                             121   -0.13 7 7.33  25 
 N9   BE  S   1   112519.148                             121    0.13 7 7.33  25 
                                                                                
 2021  3 3 2106 19.6 L  28.834  50.858  6.4  SLT  6 0.2                 0.4L BI1
 GAP=244        0.38       2.3     2.8  2.4  0.4639E+01  0.3049E+01  0.2372E+01E
 Action:ARG 21-06-12 18:26 OP:OBSP STATUS:               ID:20210303210619     I
 DUMMY                                                                         6
 STAT SP IPHASW D HRMM SECON CODA AMPLIT PERI AZIMU VELO AIN AR TRES W  DIS CAZ7
 N4   BZ EP   1   21 621.000                             152   -0.24 7 2.73 352 
 N4   BE ES   1   21 622.630                             152    0.05 7 2.73 352 
 N5   BZ EP   1   21 621.120                             151   -0.13 7 2.83  68 
 N5   BE ES   1   21 622.600                             151    0.01 7 2.83  68 
 N2   BZ  P   1   21 621.332                             145    0.03 7 3.44  84 
 N2   BE  S   1   21 622.731                             145    0.04 7 3.44  84 
 N1   BZ  P   1   21 621.621                             139    0.21 7 4.20 108 
 N1   BE  S   1   21 622.937                             139    0.04 7 4.20 108 
 CAMP BZ  P   1   21 621.264                             133   -0.24 7 4.92  83 
 CAMP BE ES   1   21 622.990                             133   -0.06 7 4.92  83 
 N6   BZ  P   1   21 621.862                             132    0.33 7 5.08  14 
 N6   BE ES   1   21 623.060                             132   -0.05 7 5.08  14 
                                                                                
