 2021  3 1 0020 41.8 L  28.827  50.855  7.3  SLT  6 0.1                 0.5L BI1
 GAP=261        0.25       2.8     2.1  2.0  0.3925E+01  0.2236E+01  0.3431E+01E
 Action:ARG 21-06-12 18:26 OP:OBSP STATUS:               ID:20210301002041     I
 DUMMY                                                                         6
 STAT SP IPHASW D HRMM SECON CODA AMPLIT PERI AZIMU VELO AIN AR TRES W  DIS CAZ7
 N3   BZ EP   1    02043.400                             156   -0.17 7 2.26  61 
 N3   BE ES   1    02045.050                             156    0.06 7 2.26  61 
 N5   BZ EP   1    02043.700                             145    0.01 7 3.43  59 
 N5   BE ES   1    02045.140                             145   -0.06 7 3.43  59 
 N4   BZ  P   1    02043.696                             145    0.00 7 3.43 359 
 N4   BE ES   1    02045.250                             145    0.04 7 3.43 359 
 N2   BZ EP   1    02043.750                             141    0.03 7 3.89  74 
 N2   BE ES   1    02045.270                             141    0.00 7 3.89  74 
 N1   BZ EP   1    02043.850                             137    0.05 7 4.35  97 
 N1   BE ES   1    02045.410                             137    0.01 7 4.35  97 
 CAMP BZ  P   1    02043.961                             128    0.05 7 5.36  76 
 CAMP BE ES   1    02045.580                             128   -0.03 7 5.36  76 
                                                                                
 2021  3 1 0440 41.3 L  28.825  50.856  7.4  SLT  6 0.0                 0.9L BI1
 GAP=262        0.23       2.6     2.0  1.9  0.3454E+01  0.2109E+01  0.3073E+01E
 Action:ARG 21-06-12 18:26 OP:OBSP STATUS:               ID:20210301044041     I
 DUMMY                                                                         6
 STAT SP IPHASW D HRMM SECON CODA AMPLIT PERI AZIMU VELO AIN AR TRES W  DIS CAZ7
 N3   BZ EP   1    44043.000                             157   -0.06 7 2.28  54 
 N3   BE ES   1    44044.520                             157    0.01 7 2.28  54 
 N5   BZ  P   1    44043.176                             146    0.00 7 3.46  54 
 N5   BE ES   1    44044.650                             146   -0.06 7 3.46  54 
 N4   BZ EP   1    44043.230                             144    0.03 7 3.68 357 
 N4   BE ES   1    44044.780                             144    0.02 7 3.68 357 
 N2   BZ  P   1    44043.219                             142    0.01 7 3.84  69 
 N2   BE  S   1    44044.795                             142    0.03 7 3.84  69 
 N1   BZ  P   1    44043.298                             139    0.04 7 4.19  94 
 N1   BE ES   1    44044.870                             139    0.00 7 4.19  94 
 CAMP BZ  P   1    44043.352                             130   -0.03 7 5.30  73 
 CAMP BE  S   1    44045.106                             130    0.02 7 5.30  73 
                                                                                
 2021  3 1 2129 38.9 L  28.827  50.846  7.7  SLT  9 0.2                 1.0L BI1
 GAP=251        0.39       2.1     2.9  3.0  0.1672E+01  0.5169E+01 -0.8414E+00E
 Action:ARG 21-06-12 18:26 OP:OBSP STATUS:               ID:20210301212938     I
 DUMMY                                                                         6
 STAT SP IPHASW D HRMM SECON CODA AMPLIT PERI AZIMU VELO AIN AR TRES W  DIS CAZ7
 N3   BZ EP   1   212940.840                             151    0.04 7 3.00  69 
 N3   BE ES   1   212942.360                             151    0.04 7 3.00  69 
 N4   BZ EP   1   212941.000                             147    0.13 7 3.47  13 
 N5   BZ  P   1   212940.940                             141    0.01 7 4.15  65 
 N5   BE ES   1   212942.460                             141   -0.09 7 4.15  65 
 N2   BZ  P   1   212941.008                             137    0.03 7 4.68  77 
 N2   BE ES   1   212942.550                             137   -0.09 7 4.68  77 
 N1   BZ EP   1   212941.070                             133    0.01 7 5.18  97 
 N1   BE ES   1   212942.770                             133   -0.01 7 5.18  97 
 N6   BZ  P   1   212941.547                             126    0.37 7 6.10  23 
 CAMP BZ EP   1   212941.120                             126   -0.06 7 6.16  78 
 CAMP BE ES   1   212942.910                             126   -0.09 7 6.16  78 
 N9   BZ EP   1   212941.640                             113    0.16 7 8.22  24 
 N9   BE ES   1   212943.570                             113    0.02 7 8.22  24 
 N11  BZ  P   1   212941.064                             111   -0.47 7 8.59 347 
                                                                                
 2021  3 1 2352  9.5 L  28.825  50.855  7.4  SLT 12 0.1                 0.9L BI1
 GAP=249        0.22       0.8     1.3  1.0  0.5785E+00  0.5248E+00 -0.5036E-01E
 Action:ARG 21-06-12 18:26 OP:OBSP STATUS:               ID:20210301235209     I
 DUMMY                                                                         6
 STAT SP IPHASW D HRMM SECON CODA AMPLIT PERI AZIMU VELO AIN AR TRES W  DIS CAZ7
 N3   BZ EP   1   235211.290                             156   -0.03 7 2.39  56 
 N3   BE ES   1   235212.840                             156    0.06 7 2.39  56 
 N5   BZ EP   1   235211.440                             145    0.00 7 3.58  56 
 N5   BE ES   1   235212.910                             145   -0.07 7 3.58  56 
 N4   BZ EP   1   235211.460                             144    0.00 7 3.68 359 
 N4   BE ES   1   235213.020                             144    0.00 7 3.68 359 
 N2   BZ EP   1   235211.460                             141   -0.01 7 3.97  70 
 N2   BE ES   1   235213.030                             141   -0.01 7 3.97  70 
 N1   BZ EP   1   235211.530                             138    0.00 7 4.33  94 
 N1   BE ES   1   235213.220                             138    0.07 7 4.33  94 
 CAMP BZ  P   1   235211.679                             129    0.03 7 5.43  73 
 CAMP BE ES   1   235213.390                             129    0.02 7 5.43  73 
 N6   BZ EP   1   235211.720                             124   -0.04 7 6.11  15 
 N6   BE ES   1   235213.460                             124   -0.10 7 6.11  15 
 N10  BZ EP   1   235212.000                             114    0.01 7 7.56 358 
 N10  BE ES   1   235213.990                             114    0.01 7 7.56 358 
 N9   BZ  P   1   235212.040                             110   -0.02 7 8.19  18 
 N9   BE  S   1   235214.100                             110   -0.02 7 8.19  18 
 N11  BZ EP   1   235212.000                             105   -0.20 7 9.08 343 
 N11  BE ES   1   235214.480                             105    0.11 7 9.08 343 
 N15  BZ  P   1   235212.607                             100    0.19 7 10.2   1 
 N15  BE  S   1   235214.791                             100    0.03 7 10.2   1 
 P1   BZ  P   1   235212.773                              95   -0.04 7 12.7  25 
                                                                                
 2021  3 2 0133 46.2 L  28.823  50.858  6.4  SLT  8 0.2                 0.5L BI1
 GAP=264        0.39       1.6     2.4  1.9  0.1852E+01  0.1840E+01  0.3853E+00E
 Action:ARG 21-06-12 18:26 OP:OBSP STATUS:               ID:20210302013345     I
 DUMMY                                                                         6
 STAT SP IPHASW D HRMM SECON CODA AMPLIT PERI AZIMU VELO AIN AR TRES W  DIS CAZ7
 N3   BZ  P   1    13347.728                             156   -0.06 7 2.31  46 
 N3   BE  S   1    13349.219                             156    0.14 7 2.31  46 
 N5   BZ  P   1    13347.796                             145   -0.12 7 3.48  49 
 N5   BN  S   1    13349.341                             145    0.02 7 3.48  49 
 N2   BZ EP   1    13347.720                             143   -0.22 7 3.78  65 
 N2   BE ES   1    13349.420                             143    0.05 7 3.78  65 
 N4   BZ  P   1    13347.857                             141   -0.12 7 3.95 354 
 N4   BE  S   1    13349.437                             141    0.00 7 3.95 354 
 N1   BZ  P   1    13347.959                             141   -0.03 7 4.01  91 
 N1   BE ES   1    13349.590                             141    0.14 7 4.01  91 
 CAMP BZ  P   1    13348.055                             132   -0.09 7 5.22  70 
 CAMP BE ES   1    13349.670                             132   -0.06 7 5.22  70 
 N6   BZ  P   1    13348.388                             125    0.07 7 6.28  12 
 N6   BE  S   1    13349.968                             125   -0.08 7 6.28  12 
 N9   BZ  P   1    13349.195                             114    0.53 7 8.34  16 
 N9   BE  S   1    13350.521                             114   -0.16 7 8.34  16 
                                                                                
 2021  3 2 0134 58.3 L  28.828  50.864  8.1  SLT 16 0.1                 1.4L BI1
 GAP=234        0.32       1.3     2.0  1.2  0.1452E+01  0.9763E+00 -0.1729E+00E
 Action:ARG 21-06-12 18:26 OP:OBSP STATUS:               ID:20210302013458     I
 DUMMY                                                                         6
 STAT SP IPHASW D HRMM SECON CODA AMPLIT PERI AZIMU VELO AIN AR TRES W  DIS CAZ7
 N3   BZ EP   1    135 0.120                             167   -0.01 7 1.40  48 
 N3   BE ES   1    135 1.610                             167   -0.02 7 1.40  48 
 N5   BZ EP   1    135 0.200                             157   -0.01 7 2.58  51 
 N5   BE ES   1    135 1.690                             157   -0.08 7 2.58  51 
 N2   BZ EP   1    135 0.230                             154    0.00 7 2.95  71 
 N2   BE ES   1    135 1.790                             154   -0.01 7 2.95  71 
 N4   BZ EP   1    135 0.260                             150   -0.02 7 3.42 343 
 N4   BE ES   1    135 1.840                             150   -0.06 7 3.42 343 
 N1   BZ EP   1    135 0.310                             149    0.02 7 3.46 102 
 N1   BE ES   1    135 1.970                             149    0.06 7 3.46 102 
 CAMP BZ EP   1    135 0.380                             142    0.01 7 4.42  75 
 CAMP BE ES   1    135 2.130                             142    0.08 7 4.42  75 
 N6   BZ EP   1    135 0.530                             134    0.02 7 5.53   7 
 N6   BE ES   1    135 2.300                             134   -0.00 7 5.53   7 
 N10  BZ  P   1    135 0.731                             123   -0.02 7 7.25 350 
 N9   BZ EP   1    135 0.760                             121   -0.01 7 7.55  12 
 N9   BE ES   1    135 2.800                             121    0.02 7 7.55  12 
 N11  BZ EP   1    135 1.010                             114    0.02 7 9.03 336 
 N11  BE ES   1    135 3.250                             114    0.07 7 9.03 336 
 N15  BZ EP   1    135 1.010                             110   -0.13 7 9.84 355 
 N15  BE ES   1    135 3.510                             110    0.05 7 9.84 355 
 P1   BZ  P   1    135 1.577                             104    0.12 7 12.0  22 
 N18  BZ  P   1    135 1.992                             104    0.46 7 12.0 345 
 N19  BZ  P   1    135 1.203                             102   -0.47 7 13.0   1 
 N17  BZ  P   1    135 1.715                             101    0.01 7 13.2 341 
 N20  BZ  P   1    135 1.951                              98   -0.10 7 15.5 350 
                                                                                
 2021  3 2 1310 33.5 L  28.829  50.854  7.7  SLT  8 0.1                 1.0L BI1
 GAP=261        0.25       1.2     1.8  1.4  0.9389E+00  0.7993E+00  0.7884E-01E
 Action:ARG 21-06-12 18:26 OP:OBSP STATUS:               ID:20210302131033     I
 DUMMY                                                                         6
 STAT SP IPHASW D HRMM SECON CODA AMPLIT PERI AZIMU VELO AIN AR TRES W  DIS CAZ7
 N3   BZ  P   1   131035.066                             158   -0.22 7 2.26  66 
 N3   BE  S   1   131036.875                             158    0.12 7 2.26  66 
 N4   BZ  P   1   131035.448                             149    0.07 7 3.23   0 
 N4   BE ES   1   131036.930                             149   -0.00 7 3.23   0 
 N5   BZ EP   1   131035.300                             148   -0.09 7 3.42  63 
 N5   BE ES   1   131036.870                             148   -0.08 7 3.42  63 
 N2   BZ  P   1   131035.516                             143    0.09 7 3.93  77 
 N2   BE ES   1   131037.000                             143   -0.03 7 3.93  77 
 N1   BZ EP   1   131035.540                             139    0.03 7 4.47 100 
 N1   BE ES   1   131037.230                             139    0.06 7 4.47 100 
 CAMP BZ EP   1   131035.600                             131   -0.01 7 5.40  78 
 CAMP BE ES   1   131037.340                             131   -0.01 7 5.40  78 
 N6   BZ  P   1   131035.774                             130    0.12 7 5.70  17 
 N6   BE ES   1   131037.380                             130   -0.05 7 5.70  17 
 N9   BZ  P   1   131035.915                             116   -0.03 7 7.80  20 
 N9   BE  S   1   131037.999                             116    0.04 7 7.80  20 
                                                                                
 2021  3 2 1323 39.9 L  28.829  50.861  6.3  SLT 10 0.2                 1.2L BI1
 GAP=237        0.36       1.3     1.9  1.5  0.1404E+01  0.1206E+01 -0.1555E-01E
 Action:ARG 21-06-12 18:26 OP:OBSP STATUS:               ID:20210302132339     I
 DUMMY                                                                         6
 STAT SP IPHASW D HRMM SECON CODA AMPLIT PERI AZIMU VELO AIN AR TRES W  DIS CAZ7
 N3   BZ  P   1   132341.387                             162   -0.10 7 1.67  56 
 N3   BE ES   1   132342.870                             162    0.13 7 1.67  56 
 N5   BZ EP   1   132341.470                             151   -0.13 7 2.85  56 
 N5   BE ES   1   132342.960                             151    0.02 7 2.85  56 
 N2   BZ EP   1   132341.440                             146   -0.20 7 3.28  73 
 N2   BE ES   1   132343.070                             146    0.06 7 3.28  73 
 N4   BZ EP   1   132341.520                             146   -0.14 7 3.33 348 
 N4   BE ES   1   132343.080                             146    0.03 7 3.33 348 
 N1   BZ  P   1   132341.730                             142    0.02 7 3.80 101 
 N1   BE ES   1   132343.270                             142    0.12 7 3.80 101 
 CAMP BZ EP   1   132341.640                             134   -0.19 7 4.75  76 
 CAMP BE ES   1   132343.410                             134    0.06 7 4.75  76 
 N6   BZ  P   1   132341.936                             129   -0.02 7 5.56  10 
 N6   BE ES   1   132343.520                             129   -0.07 7 5.56  10 
 N9   BZ  P   1   132342.403                             117    0.11 7 7.62  15 
 N9   BE ES   1   132344.100                             117   -0.10 7 7.62  15 
 N11  BZ  P   1   132342.525                             111    0.01 7 8.88 338 
 N11  BE  S   1   132344.588                             111   -0.02 7 8.88 338 
 N15  BZ  P   1   132343.240                             108    0.52 7 9.81 357 
 N15  BE  S   1   132344.846                             108   -0.12 7 9.81 357 
                                                                                
 2021  3 2 1327 15.6 L  28.825  50.857  7.3  SLT 10 0.1                 0.9L BI1
 GAP=247        0.31       1.3     1.9  1.6  0.1322E+01  0.1376E+01 -0.5934E-01E
 Action:ARG 21-06-12 18:26 OP:OBSP STATUS:               ID:20210302132715     I
 DUMMY                                                                         6
 STAT SP IPHASW D HRMM SECON CODA AMPLIT PERI AZIMU VELO AIN AR TRES W  DIS CAZ7
 N3   BZ  P   1   132717.341                             157   -0.01 7 2.21  53 
 N3   BE  S   1   132718.918                             157    0.15 7 2.21  53 
 N5   BZ EP   1   132717.380                             145   -0.08 7 3.39  54 
 N5   BE ES   1   132718.900                             145   -0.07 7 3.39  54 
 N4   BZ  P   1   132717.451                             143   -0.05 7 3.68 355 
 N4   BE  S   1   132719.096                             143    0.06 7 3.68 355 
 N2   BZ  P   1   132717.424                             142   -0.07 7 3.76  69 
 N2   BE ES   1   132718.990                             142   -0.04 7 3.76  69 
 N1   BZ EP   1   132717.530                             139   -0.02 7 4.11  95 
 N1   BE ES   1   132719.190                             139    0.06 7 4.11  95 
 CAMP BZ  P   1   132717.574                             129   -0.10 7 5.21  73 
 CAMP BE ES   1   132719.360                             129    0.01 7 5.21  73 
 N6   BZ  P   1   132718.036                             123    0.24 7 6.04  13 
 N6   BE ES   1   132719.470                             123   -0.11 7 6.04  13 
 N10  BZ  P   1   132717.753                             111   -0.29 7 7.56 356 
 N10  BN  S   1   132720.002                             111   -0.02 7 7.56 356 
 N9   BZ  P   1   132718.466                             107    0.36 7 8.11  17 
 N9   BE  S   1   132720.125                             107   -0.02 7 8.11  17 
 N11  BZ  P   1   132718.301                             101    0.03 7 9.13 341 
 N11  BE  S   1   132720.440                             101   -0.00 7 9.13 341 
                                                                                
 2021  3 2 1346  4.2 L  28.826  50.852  7.3  SLT  7 0.1                 1.1L BI1
 GAP=268        0.29       1.8     2.1  2.0  0.2203E+01  0.1744E+01  0.1199E+01E
 Action:ARG 21-06-12 18:26 OP:OBSP STATUS:               ID:20210302134603     I
 DUMMY                                                                         6
 STAT SP IPHASW D HRMM SECON CODA AMPLIT PERI AZIMU VELO AIN AR TRES W  DIS CAZ7
 N3   BZ  P   1   1346 5.994                             154    0.01 7 2.55  61 
 N3   BE ES   1   1346 7.490                             154    0.06 7 2.55  61 
 N4   BZ  P   1   1346 5.844                             144   -0.26 7 3.57   3 
 N4   BE  S   1   1346 7.717                             144    0.08 7 3.57   3 
 N5   BZ EP   1   1346 6.090                             142   -0.02 7 3.72  59 
 N5   BE ES   1   1346 7.600                             142   -0.05 7 3.72  59 
 N2   BZ EP   1   1346 6.190                             138    0.04 7 4.17  73 
 N2   BE ES   1   1346 7.700                             138   -0.02 7 4.17  73 
 N1   BZ  P   1   1346 6.243                             135    0.03 7 4.58  95 
 N1   BE ES   1   1346 7.870                             135    0.03 7 4.58  95 
 CAMP BZ EP   1   1346 6.280                             126   -0.06 7 5.64  75 
 CAMP BE ES   1   1346 8.060                             126   -0.01 7 5.64  75 
 N6   BZ  P   1   1346 6.672                             122    0.26 7 6.07  18 
 N6   BE ES   1   1346 8.120                             122   -0.08 7 6.07  18 
                                                                                
