 2021  2 1 0357 10.6 L  28.966  50.930 10.7  SLT 18 0.2                 1.6L BI1
 GAP=113        0.43       1.3     1.2  1.5 -0.3287E+00 -0.3346E-01 -0.6431E+00E
 Action:ARG 21-12-18 20:21 OP:OBSP STATUS:               ID:20210201035710     I
 DUMMY                                                                         6
 STAT SP IPHASW D HRMM SECON CODA AMPLIT PERI AZIMU VELO AIN AR TRES W  DIS CAZ7
 P2   BZ  P   1    35713.069                             156    0.06 7 3.79 157 
 P2   BE  S   1    35715.038                             156    0.08 7 3.79 157 
 P1   BZ  P   1    35713.109                             152    0.08 7 4.59 205 
 P1   BE  S   1    35714.971                             152   -0.03 7 4.59 205 
 P3   BZ  P   1    35713.202                             150    0.09 7 4.89 113 
 P3   BE  S   1    35715.291                             150    0.13 7 4.89 113 
 N19  BZ  P   1    35713.282                             141    0.01 7 6.64 250 
 N19  BE  S   1    35715.464                             141    0.02 7 6.64 250 
 N16  BZ  P   1    35713.322                             138   -0.14 7 7.24 234 
 N16  BE  S   1    35715.504                             138   -0.28 7 7.24 234 
 N15  BZ EP   1    35713.550                             130   -0.02 7 9.06 233 
 N15  BE ES   1    35715.910                             130   -0.06 7 9.06 233 
 N20  BZ  P   1    35713.761                             130    0.23 7 9.16 270 
 N20  BE  S   1    35716.169                             130    0.25 7 9.16 270 
 N9   BZ  P   1    35713.721                             130    0.14 7 9.25 211 
 N9   BE  S   1    35715.943                             130   -0.05 7 9.25 211 
 N18  BZ EP   1    35713.770                             126    0.02 7 10.2 249 
 N18  BE  S   1    35716.275                             126   -0.04 7 10.2 249 
 N14  BZ  P   1    35714.373                             125    0.63 7 10.6 240 
 N14  BE  S   1    35716.288                             125   -0.01 7 10.6 240 
 N17  BZ  P   1    35713.881                             124    0.04 7 11.0 255 
 N17  BE  S   1    35716.461                             124   -0.01 7 11.0 255 
 N6   BZ  P   1    35713.535                             123   -0.36 7 11.4 210 
 N6   BE  S   1    35716.036                             123   -0.53 7 11.4 210 
 N7   BZ  P   1    35714.240                             120    0.24 7 12.1 219 
 N7   BE  S   1    35716.661                             120   -0.09 7 12.1 219 
 N11  BZ EP   1    35714.000                             120   -0.00 7 12.2 235 
 N11  BE ES   1    35716.740                             120   -0.02 7 12.2 235 
 N13  BZ  P   1    35714.014                             119   -0.14 7 12.7 239 
 N13  BE  S   1    35716.927                             119   -0.11 7 12.7 239 
 N4   BZ  P   1    35714.399                             115    0.08 7 14.1 212 
 N4   BE  S   1    35717.260                             115   -0.07 7 14.1 212 
 CAMP BZ  P   1    35714.399                             115    0.07 7 14.3 189 
 CAMP BN  S   1    35717.539                             115    0.18 7 14.3 189 
 NOKA BZ  P   1    35715.889                              68   -0.40 7 26.3  23 
                                                                                
 2021  2 1 0623  1.5 L  29.044  51.367  6.5  SLT  7 0.2                 2.1L BI1
 GAP=289        0.38       1.5     2.2  1.6  0.2630E+00  0.2646E+00  0.5035E+00E
 Action:ARG 21-12-18 20:21 OP:OBSP STATUS:               ID:20210201062301     I
 DUMMY                                                                         6
 STAT SP IPHASW D HRMM SECON CODA AMPLIT PERI AZIMU VELO AIN AR TRES W  DIS CAZ7
 ABAD BZ EP   1    623 4.780                             105    0.10 7 11.4 262 
 ABAD BE ES   1    623 7.110                             105   -0.13 7 11.4 262 
 P9   BZ EP   1    623 5.620                              59    0.04 7 16.2 255 
 P9   BE ES   1    623 8.940                              59    0.07 7 16.2 255 
 TOLS BZ  P   1    623 7.154                              59    0.10 7 25.4 254 
 TOLS BE ES   1    62311.810                              59    0.27 7 25.4 254 
 KHIA BZ EP   1    623 7.460                              59    0.06 7 27.2 226 
 KHIA BE ES   1    62312.200                              59    0.04 7 27.2 226 
 P4   BZ  P   1    623 8.310                              59    0.09 7 32.1 255 
 P4   BE  S   1    62313.791                              59    0.14 7 32.1 255 
 NOKA BZ  P   1    623 8.854                              59   -0.05 7 36.0 296 
 NOKA BE  S   1    62314.662                              59   -0.23 7 36.0 296 
 JNAK BZ  P   1    623 9.534                              59   -0.11 7 40.4 225 
 JNAK BE  S   1    62315.845                              59   -0.39 7 40.4 225 
                                                                                
 2021  2 2 0030 58.3 L  28.906  51.348  3.7  SLT  9 0.2                 1.7L BI1
 GAP=234        0.36       1.1     2.6  2.6  0.1839E+01  0.5211E+01  0.1522E+01E
 Action:ARG 21-12-18 20:21 OP:OBSP STATUS:               ID:20210202003058     I
 DUMMY                                                                         6
 STAT SP IPHASW D HRMM SECON CODA AMPLIT PERI AZIMU VELO AIN AR TRES W  DIS CAZ7
 P9   BZ EP   1    031 2.860                              53   -0.06 7 17.6 308 
 P9   BE ES   1    031 6.340                              53   -0.29 7 17.6 308 
 KHIA BZ EP   1    031 3.010                              53    0.09 7 18.1 258 
 KHIA BE ES   1    031 6.590                              53   -0.05 7 18.1 258 
 KOLO BZ  P   1    031 4.243                              43    0.25 7 23.4 206 
 KOLO BE  S   1    031 8.648                              43    0.07 7 23.4 206 
 TOLS BZ EP   1    031 4.070                              43    0.06 7 23.9 290 
 TOLS BE ES   1    031 8.680                              43    0.08 7 23.9 290 
 P5   BZ  P   1    031 4.656                              43    0.10 7 26.6 288 
 P5   BE  S   1    031 9.722                              43    0.12 7 26.6 288 
 P4   BZ  P   1    031 5.042                              43   -0.00 7 29.9 283 
 P4   BE  S   1    03110.713                              43    0.23 7 29.9 283 
 ABTL BZ EP   1    031 5.240                              43   -0.09 7 31.2 314 
 DLRM BZ  P   1    031 6.281                              43   -0.14 7 37.6 225 
 DLRM BE  S   1    03112.695                              43   -0.29 7 37.6 225 
 ABAS BZ  P   1    031 7.217                              43   -0.09 7 41.8 188 
                                                                                
 2021  2 2 0131  5.1 L  28.964  50.929 11.5  SLT 19 0.1                 1.4L BI1
 GAP=135        0.30       1.1     0.9  1.2 -0.2828E+00  0.2036E+00 -0.3523E+00E
 Action:ARG 21-12-18 20:21 OP:OBSP STATUS:               ID:20210202013104     I
 DUMMY                                                                         6
 STAT SP IPHASW D HRMM SECON CODA AMPLIT PERI AZIMU VELO AIN AR TRES W  DIS CAZ7
 P2   BZ EP   1    131 7.670                             157    0.01 7 3.61 155 
 P2   BE ES   1    131 9.620                             157   -0.09 7 3.61 155 
 P1   BZ EP   1    131 7.680                             153    0.01 7 4.35 205 
 P1   BE ES   1    131 9.680                             153   -0.04 7 4.35 205 
 P3   BZ  P   1    131 7.879                             150    0.11 7 4.87 111 
 P3   BE  S   1    131 9.982                             150    0.07 7 4.87 111 
 N19  BZ  P   1    131 7.932                             142    0.03 7 6.49 252 
 N19  BE  S   1    13110.182                             142    0.03 7 6.49 252 
 N16  BZ  P   1    131 8.039                             139   -0.04 7 7.04 235 
 N16  BE  S   1    13110.128                             139   -0.35 7 7.04 235 
 N12  BZ EP   1    131 8.120                             130    0.11 7 8.84 226 
 N12  BE ES   1    13110.470                             130    0.12 7 8.84 226 
 N15  BZ EP   1    131 8.190                             130    0.02 7 8.86 234 
 N15  BE ES   1    13110.610                             130   -0.02 7 8.86 234 
 N9   BZ  P   1    131 8.425                             130    0.25 7 9.02 211 
 N9   BN  S   1    13110.501                             130   -0.14 7 9.02 211 
 N20  BZ  P   1    131 8.185                             129    0.03 7 9.09 271 
 N20  BE  S   1    13110.834                             129    0.24 7 9.09 271 
 N18  BZ  P   1    131 8.305                             125   -0.05 7 10.1 250 
 N18  BE  S   1    13110.980                             125    0.02 7 10.1 250 
 N14  BZ  P   1    131 8.052                             124   -0.28 7 10.4 241 
 N14  BE  S   1    13110.980                             124    0.05 7 10.4 241 
 N10  BZ EP   1    131 8.520                             122    0.07 7 10.9 224 
 N10  BE ES   1    13111.090                             122   -0.04 7 10.9 224 
 N17  BZ  P   1    131 8.558                             122    0.13 7 10.9 256 
 N17  BE  S   1    13111.220                             122    0.11 7 10.9 256 
 N6   BZ  P   1    131 8.558                             121    0.09 7 11.1 211 
 N6   BE  S   1    13111.180                             121    0.01 7 11.1 211 
 N7   BZ  P   1    131 8.744                             118    0.18 7 11.9 220 
 N7   BE  S   1    13111.379                             118    0.03 7 11.9 220 
 N11  BZ  P   1    131 8.358                             118   -0.22 7 12.1 236 
 N11  BE ES   1    13111.410                             118    0.04 7 12.1 236 
 N13  BZ  P   1    131 8.691                             116   -0.03 7 12.5 239 
 N13  BE  S   1    13111.539                             116   -0.10 7 12.5 239 
 SHIF BZ  P   1    131 8.465                             115   -0.22 7 12.8 335 
 N4   BZ  P   1    131 8.704                             112   -0.17 7 13.9 212 
                                                                                
 2021  2 3 0810 55.0 L  28.828  51.320 10.0  SLT  7 0.1                 2.4L BI1
 GAP=262        0.29       0.9     2.0  1.7 -0.5023E+00 -0.2145E+00 -0.3954E+00E
 Action:ARG 21-12-18 20:21 OP:OBSP STATUS:               ID:20210203081054     I
 DUMMY                                                                         6
 STAT SP IPHASW D HRMM SECON CODA AMPLIT PERI AZIMU VELO AIN AR TRES W  DIS CAZ7
 P9   BZ EP   1    811 0.110                             101   -0.01 7 22.6 330 
 P9   BE ES   1    811 4.150                             101   -0.16 7 22.6 330 
 JNAK BZ EP   1    811 0.340                             100    0.00 7 24.6 259 
 JNAK BE ES   1    811 4.540                             100   -0.16 7 24.6 259 
 TOLS BZ EP   1    811 0.690                              99    0.10 7 26.0 310 
 TOLS BE ES   1    811 5.370                              99    0.22 7 26.0 310 
 DLRM BZ EP   1    811 1.390                              98    0.09 7 29.8 233 
 DLRM BE ES   1    811 6.420                              98   -0.02 7 29.8 233 
 P4   BZ EP   1    811 1.380                              68   -0.01 7 30.6 300 
 P4   BE ES   1    811 6.650                              68    0.05 7 30.6 300 
 ABTL BZ EP   1    811 2.270                              68   -0.07 7 36.2 327 
 ABTL BE ES   1    811 8.280                              68   -0.04 7 36.2 327 
 N7   BZ  P   1    811 3.943                              68    0.02 7 46.2 278 
                                                                                
 2021  2 4 0106  0.9 L  29.052  51.309  9.2  SLT  6 0.1                 1.1L BI1
 GAP=257        0.34       2.1     2.2  2.5  0.2060E+01 -0.1658E+01 -0.1010E+01E
 Action:ARG 21-12-18 20:21 OP:OBSP STATUS:               ID:20210204010600     I
 DUMMY                                                                         6
 STAT SP IPHASW D HRMM SECON CODA AMPLIT PERI AZIMU VELO AIN AR TRES W  DIS CAZ7
 ABAD BZ EP   1    1 6 3.460                             137    0.07 7 6.19 246 
 ABAD BE ES   1    1 6 5.420                             137   -0.00 7 6.19 246 
 P9   BZ EP   1    1 6 4.070                             114   -0.05 7 11.3 243 
 P9   BE ES   1    1 6 6.730                             114   -0.02 7 11.3 243 
 ABTL BZ EP   1    1 6 5.380                             100   -0.05 7 19.4 286 
 ABTL BE ES   1    1 6 9.160                             100    0.05 7 19.4 286 
 TOLS BZ  P   1    1 6 5.422                             100   -0.11 7 20.4 247 
 TOLS BE  S   1    1 6 9.247                             100   -0.05 7 20.4 247 
 AHRM HZ  P   1    1 6 5.395                              99   -0.17 7 20.9 184 
 KHIA BZ  P   1    1 6 6.553                              98    0.33 7 24.2 215 
                                                                                
 2021  2 5 0351  7.2 L  28.628  51.128  5.9  SLT  6 0.2                 1.3L BI1
 GAP=185        0.48       1.6     1.7  2.0  0.6396E+00 -0.1483E+01  0.5144E+00E
 Action:ARG 21-12-18 20:21 OP:OBSP STATUS:               ID:20210205035107     I
 DUMMY                                                                         6
 STAT SP IPHASW D HRMM SECON CODA AMPLIT PERI AZIMU VELO AIN AR TRES W  DIS CAZ7
 DLRM BZ EP   1    351 9.240                             118   -0.05 7 6.45 309 
 DLRM BE ES   1    35111.040                             118    0.03 7 6.45 309 
 KOLO BZ EP   1    35110.880                              96   -0.07 7 14.8  48 
 KOLO BE ES   1    35114.090                              96    0.08 7 14.8  48 
 ABAS BZ  P   1    35112.341                              59    0.48 7 19.1 124 
 ABAS BE  S   1    35115.430                              59   -0.23 7 19.1 124 
 KHIA BZ EP   1    35112.990                              59   -0.16 7 27.4   8 
 KHIA BE ES   1    35118.210                              59    0.22 7 27.4   8 
 AHRM HZ  P   1    35113.380                              59   -0.28 7 30.8  32 
 N12  BZ  P   1    35115.266                              59   -0.01 7 40.4 320 
                                                                                
 2021  2 6 1713 43.8 L  28.751  51.314 14.7  SLT  4 0.1                 1.4L BI1
 GAP=194        0.29       1.3     2.1  2.5 -0.6598E-01 -0.1018E+01  0.4875E+00E
 Action:ARG 21-12-18 20:21 OP:OBSP STATUS:               ID:20210206171342     I
 DUMMY                                                                         6
 STAT SP IPHASW D HRMM SECON CODA AMPLIT PERI AZIMU VELO AIN AR TRES W  DIS CAZ7
 KOLO BZ EP   1   171347.230                             145    0.04 7 8.08 242 
 KOLO BE ES   1   171349.880                             145   -0.05 7 8.08 242 
 AHRM HZ EP   1   171347.600                             130    0.03 7 12.7 351 
 ABAS BZ EP   1   171349.440                             109   -0.01 7 24.4 186 
 ABAS BE ES   1   171354.050                             109    0.03 7 24.4 186 
 DLRM BZ EP   1   171349.320                             108   -0.11 7 25.1 248 
 DLRM BE ES   1   171354.040                             108    0.07 7 25.1 248 
                                                                                
 2021  2 8 0202 32.5 L  28.966  51.127 11.6  SLT 18 0.2                 1.5L BI1
 GAP= 86        0.37       1.0     0.7  1.2 -0.2319E+00  0.3050E+00  0.1448E+00E
 Action:ARG 21-12-18 20:21 OP:OBSP STATUS:               ID:20210208020232     I
 DUMMY                                                                         6
 STAT SP IPHASW D HRMM SECON CODA AMPLIT PERI AZIMU VELO AIN AR TRES W  DIS CAZ7
 TOLS BZ EP   1    2 234.790                             169   -0.10 7 1.78 325 
 TOLS BE ES   1    2 236.850                             169   -0.00 7 1.78 325 
 P5   BZ EP   1    2 234.930                             154   -0.15 7 4.20 290 
 P5   BE ES   1    2 237.010                             154   -0.19 7 4.20 290 
 P4   BZ EP   1    2 235.240                             136   -0.09 7 7.64 271 
 P4   BE ES   1    2 237.620                             136   -0.03 7 7.64 271 
 P9   BZ EP   1    2 235.660                             131    0.08 7 8.81  60 
 P9   BE  S   1    2 238.281                             131    0.18 7 8.81  60 
 KHIA BZ EP   1    2 235.770                             122   -0.00 7 10.9 160 
 KHIA BE ES   1    2 238.590                             122    0.14 7 10.9 160 
 ABAD BZ  P   1    2 236.314                             112    0.03 7 13.9  60 
 ABAD BE ES   1    2 239.420                             112    0.04 7 13.9  60 
 P3   BZ  P   1    2 236.219                             109   -0.14 7 14.9 263 
 P3   BE  S   1    2 239.714                             109    0.19 7 14.9 263 
 ABTL BZ EP   1    2 236.430                             109    0.04 7 15.0 356 
 ABTL BE ES   1    2 239.700                             109    0.12 7 15.0 356 
 P2   BZ  P   1    2 236.683                             101   -0.16 7 18.1 259 
 P2   BN  S   1    2 240.547                             101    0.15 7 18.1 259 
 AHRM HZ EP   1    2 237.050                              98    0.01 7 19.9 125 
 NOKA BZ  P   1    2 238.294                              93    0.21 7 26.0 340 
 N12  BZ EP   1    2 237.880                              93   -0.15 7 26.4 256 
 N12  BE ES   1    2 242.870                              93    0.32 7 26.4 256 
 N6   BZ  P   1    2 238.076                              93   -0.17 7 26.8 249 
 N6   BN  S   1    2 243.046                              93    0.11 7 26.8 249 
 N15  BZ  P   1    2 238.103                              93   -0.17 7 27.0 259 
 N15  BN  S   1    2 243.142                              93    0.16 7 27.0 259 
 N18  BZ EP   1    2 238.360                              93   -0.27 7 29.0 263 
 N18  BE ES   1    2 243.360                              93   -0.26 7 29.0 263 
 N4   BZ  P   1    2 238.526                              93   -0.11 7 29.2 246 
 N4   BN  S   1    2 244.043                              93    0.40 7 29.2 246 
 N17  BZ  P   1    2 238.636                              92   -0.12 7 30.0 265 
 N17  BE  S   1    2 243.920                              92    0.05 7 30.0 265 
 N11  BZ EP   1    2 238.510                              92   -0.24 7 30.1 257 
 N11  BE  S   1    2 243.975                              92    0.13 7 30.1 257 
                                                                                
