 2021  2 8 0229 58.2 L  28.959  51.124 11.1  SLT 11 0.2                 1.3L BI1
 GAP= 99        0.44       1.3     1.3  1.8 -0.3546E+00  0.3977E+00 -0.2757E+00E
 Action:ARG 21-12-18 20:21 OP:OBSP STATUS:               ID:20210208022958     I
 DUMMY                                                                         6
 STAT SP IPHASW D HRMM SECON CODA AMPLIT PERI AZIMU VELO AIN AR TRES W  DIS CAZ7
 TOLS BZ EP   1    230 0.500                             165   -0.11 7 2.33 342 
 TOLS BE ES   1    230 2.540                             165    0.01 7 2.33 342 
 P5   BZ  P   1    230 0.607                             152   -0.18 7 4.26 301 
 P4   BZ  P   1    230 0.968                             135   -0.05 7 7.40 277 
 P4   BE ES   1    230 3.400                             135    0.13 7 7.40 277 
 P9   BZ EP   1    230 1.380                             126   -0.00 7 9.44  57 
 P9   BE ES   1    230 3.920                             126   -0.02 7 9.44  57 
 KHIA BZ  P   1    230 1.263                             122   -0.16 7 10.4 157 
 KHIA BE  S   1    230 4.330                             122    0.32 7 10.4 157 
 ABAD BZ  P   1    230 2.053                             106   -0.07 7 14.6  58 
 ABAD BN  S   1    230 5.200                             106   -0.08 7 14.6  58 
 ABTL BZ EP   1    230 2.180                             101   -0.08 7 15.7 357 
 ABTL BE ES   1    230 5.470                             101   -0.05 7 15.7 357 
 P2   BZ  P   1    230 2.455                              95   -0.08 7 17.7 261 
 N12  BZ  P   1    230 3.580                              91   -0.15 7 26.0 258 
 N6   BZ  P   1    230 3.848                              91   -0.08 7 26.3 250 
 NOKA BZ  P   1    230 4.597                              91    0.64 7 26.6 341 
                                                                                
 2021  2 8 0301 32.5 L  28.967  51.130 13.2  SLT 22 0.2                 1.7L BI1
 GAP= 79        0.38       1.0     0.9  2.0 -0.2919E+00  0.9262E+00  0.9737E-01E
 Action:ARG 21-12-18 20:21 OP:OBSP STATUS:               ID:20210208030132     I
 DUMMY                                                                         6
 STAT SP IPHASW D HRMM SECON CODA AMPLIT PERI AZIMU VELO AIN AR TRES W  DIS CAZ7
 TOLS BZ EP   1    3 135.020                             170   -0.19 7 1.85 316 
 P5   BZ EP   1    3 135.120                             157   -0.28 7 4.42 288 
 P4   BZ EP   1    3 135.460                             141   -0.15 7 7.92 270 
 P9   BZ EP   1    3 135.840                             139    0.05 7 8.50  60 
 P9   BE ES   1    3 138.450                             139    0.01 7 8.50  60 
 KHIA BZ EP   1    3 136.080                             130    0.09 7 11.0 161 
 KHIA BE ES   1    3 138.820                             130    0.02 7 11.0 161 
 ABAD BZ EP   1    3 136.480                             122    0.06 7 13.6  60 
 ABAD BE ES   1    3 139.640                             122    0.06 7 13.6  60 
 ABTL BZ EP   1    3 136.630                             119    0.08 7 14.9 355 
 ABTL BE ES   1    3 139.950                             119    0.14 7 14.9 355 
 P3   BZ  P   1    3 136.540                             118   -0.03 7 15.2 262 
 P3   BE  S   1    3 139.866                             118    0.01 7 15.2 262 
 P2   BZ EP   1    3 136.960                             111   -0.07 7 18.4 259 
 P2   BE ES   1    3 140.780                             111    0.11 7 18.4 259 
 AHRM HZ EP   1    3 137.220                             109    0.08 7 19.7 125 
 N9   BZ  P   1    3 138.648                             102    0.52 7 25.6 252 
 N19  BZ  P   1    3 138.059                             102   -0.13 7 25.9 265 
 N19  BE  S   1    3 142.863                             102    0.08 7 25.9 265 
 NOKA BZ  P   1    3 138.319                             101    0.14 7 26.0 339 
 N12  BZ EP   1    3 138.040                             101   -0.14 7 26.7 256 
 N12  BE ES   1    3 143.050                             101    0.29 7 26.7 256 
 N15  BZ  P   1    3 138.100                             100   -0.32 7 27.3 258 
 N15  BE  S   1    3 143.000                             100   -0.19 7 27.3 258 
 N5   BZ  P   1    3 138.333                             100   -0.13 7 27.6 240 
 N5   BE  S   1    3 143.438                             100    0.17 7 27.6 240 
 N20  BZ  P   1    3 138.648                             100    0.06 7 28.7 270 
 N20  BE  S   1    3 143.451                             100   -0.06 7 28.7 270 
 N7   BZ  P   1    3 138.648                              99   -0.00 7 28.8 251 
 N7   BE  S   1    3 143.711                              99    0.10 7 28.8 251 
 N18  BZ  P   1    3 138.648                              99   -0.11 7 29.3 263 
 N18  BE  S   1    3 143.766                              99   -0.05 7 29.3 263 
 N4   BZ  P   1    3 138.593                              99   -0.18 7 29.5 246 
 N4   BE ES   1    3 144.180                              99    0.34 7 29.5 246 
 N17  BZ  P   1    3 138.908                              99    0.01 7 30.3 265 
 N11  BZ  P   1    3 138.552                              99   -0.34 7 30.4 257 
 N11  BE  S   1    3 143.985                              99   -0.06 7 30.4 257 
                                                                                
 2021  2 8 0348  0.8 L  28.971  51.134 15.5  SLT 19 0.2                 1.8L BI1
 GAP= 67        0.48       1.3     1.1  2.5 -0.1932E+00  0.1140E+01  0.9352E+00E
 Action:ARG 21-12-18 20:21 OP:OBSP STATUS:               ID:20210208034800     I
 DUMMY                                                                         6
 STAT SP IPHASW D HRMM SECON CODA AMPLIT PERI AZIMU VELO AIN AR TRES W  DIS CAZ7
 TOLS BZ EP   1    348 3.580                             172   -0.25 7 1.88 297 
 P5   BZ  P   1    348 3.695                             160   -0.31 7 4.68 280 
 P9   BZ EP   1    348 4.390                             147    0.10 7 7.93  62 
 P9   BE ES   1    348 7.060                             147   -0.07 7 7.93  62 
 P4   BZ EP   1    348 4.030                             146   -0.18 7 8.32 267 
 KHIA BZ EP   1    348 4.550                             136    0.01 7 11.3 164 
 KHIA BE ES   1    348 7.380                             136   -0.21 7 11.3 164 
 ABAD BZ EP   1    348 5.040                             132    0.22 7 13.0  61 
 ABAD BE ES   1    348 8.260                             132    0.16 7 13.0  61 
 ABTL BZ EP   1    348 5.200                             128    0.25 7 14.5 353 
 ABTL BE ES   1    348 8.530                             128    0.21 7 14.5 353 
 P3   BZ  P   1    348 5.099                             125    0.01 7 15.6 261 
 P3   BE  S   1    348 8.416                             125   -0.16 7 15.6 261 
 P2   BZ  P   1    348 5.622                             119    0.11 7 18.9 258 
 P2   BE  S   1    348 9.325                             119   -0.02 7 18.9 258 
 AHRM HZ EP   1    348 5.670                             118    0.13 7 19.7 127 
 N9   BZ  P   1    348 6.104                             109   -0.46 7 26.1 251 
 N9   BE  S   1    34811.389                             109    0.13 7 26.1 251 
 CAMP BZ  P   1    348 6.475                             109   -0.16 7 26.5 236 
 CAMP BE  S   1    34811.788                             109    0.41 7 26.5 236 
 N12  BZ  P   1    348 6.792                             108    0.19 7 27.2 255 
 N12  BE  S   1    34811.664                             108    0.35 7 27.2 255 
 N20  BZ  P   1    348 6.448                             106   -0.54 7 29.1 269 
 N20  BE  S   1    34812.009                             106   -0.02 7 29.1 269 
 N18  BZ  P   1    348 6.682                             106   -0.49 7 29.8 262 
 N18  BE  S   1    34812.311                             106   -0.04 7 29.8 262 
 N4   BZ  P   1    348 7.177                             106   -0.02 7 30.1 245 
 N4   BE  S   1    34812.724                             106    0.33 7 30.1 245 
 N11  BZ  P   1    348 7.342                             105    0.04 7 30.9 256 
 N11  BE  S   1    34812.669                             105    0.09 7 30.9 256 
 N13  BZ  P   1    348 7.508                             105    0.02 7 31.5 257 
 N13  BE  S   1    34812.917                             105   -0.01 7 31.5 257 
 DLRM BZ  P   1    348 7.976                             103    0.10 7 34.4 189 
 DLRM BE ES   1    34813.690                             103    0.06 7 34.4 189 
                                                                                
 2021  2 8 0411 34.3 L  28.964  51.128 11.9  SLT 11 0.2                 1.6L BI1
 GAP=101        0.39       1.2     1.0  1.6 -0.3724E+00  0.3338E+00  0.1430E+00E
 Action:ARG 21-12-18 20:21 OP:OBSP STATUS:               ID:20210208041134     I
 DUMMY                                                                         6
 STAT SP IPHASW D HRMM SECON CODA AMPLIT PERI AZIMU VELO AIN AR TRES W  DIS CAZ7
 TOLS BZ EP   1    41136.660                             168   -0.13 7 1.99 328 
 TOLS BE ES   1    41138.760                             168   -0.04 7 1.99 328 
 P5   BZ EP   1    41136.840                             154   -0.14 7 4.32 293 
 P5   BE ES   1    41138.990                             154   -0.16 7 4.32 293 
 P4   BZ  P   1    41137.059                             137   -0.15 7 7.69 273 
 P4   BE  S   1    41139.566                             137   -0.00 7 7.69 273 
 P9   BZ  P   1    41137.528                             132    0.06 7 8.89  59 
 P9   BE  S   1    41140.129                             132    0.10 7 8.89  59 
 KHIA BZ  P   1    41137.528                             125   -0.08 7 10.7 160 
 KHIA BE  S   1    41140.517                             125    0.22 7 10.7 160 
 ABAD BZ  P   1    41138.158                             114    0.00 7 14.0  59 
 ABAD BN  S   1    41141.416                             114    0.14 7 14.0  59 
 P3   BZ  P   1    41137.971                             112   -0.25 7 14.9 264 
 P3   BN  S   1    41141.657                             112    0.25 7 14.9 264 
 ABTL BZ EP   1    41138.270                             111   -0.02 7 15.2 356 
 ABTL BE ES   1    41141.660                             111    0.14 7 15.2 356 
 P2   BZ  P   1    41138.493                             104   -0.20 7 18.1 260 
 P2   BE  S   1    41142.515                             104    0.26 7 18.1 260 
 N12  BZ  P   1    41139.887                              95    0.01 7 26.4 257 
 N12  BE  S   1    41144.713                              95    0.32 7 26.4 257 
 N4   BZ  P   1    41140.156                              94   -0.32 7 29.2 246 
                                                                                
 2021  2 8 0520 33.0 L  28.966  51.122 11.4  SLT  7 0.1                 1.5L BI1
 GAP=114        0.26       0.8     1.0  1.4 -0.4738E-02 -0.5778E+00 -0.1853E+00E
 Action:ARG 21-12-18 20:21 OP:OBSP STATUS:               ID:20210208052032     I
 DUMMY                                                                         6
 STAT SP IPHASW D HRMM SECON CODA AMPLIT PERI AZIMU VELO AIN AR TRES W  DIS CAZ7
 TOLS BZ EP   1    52035.250                             170   -0.10 7 1.53 343 
 TOLS BE ES   1    52037.300                             170    0.00 7 1.53 343 
 P5   BZ EP   1    52035.400                             157   -0.12 7 3.68 293 
 P5   BE ES   1    52037.490                             157   -0.11 7 3.68 293 
 P4   BZ  P   1    52035.745                             138    0.00 7 7.08 271 
 P4   BE  S   1    52038.121                             138    0.12 7 7.08 271 
 P9   BZ  P   1    52036.114                             128   -0.01 7 9.30  62 
 P9   BE  S   1    52038.781                             128    0.10 7 9.30  62 
 KHIA BZ  P   1    52036.299                             121    0.02 7 11.2 157 
 KHIA BE  S   1    52039.071                             121    0.09 7 11.2 157 
 ABAD BZ  P   1    52036.774                             110   -0.07 7 14.4  61 
 ABAD BN  S   1    52039.929                             110   -0.06 7 14.4  61 
 ABTL BZ  P   1    52036.880                             108    0.00 7 15.0 358 
 ABTL BE  S   1    52040.180                             108    0.13 7 15.0 358 
                                                                                
 2021  2 8 1610 59.4 L  28.985  51.011 12.7  SLT 25 0.2                 1.8L BI1
 GAP= 82        0.41       0.9     0.8  1.5 -0.3825E+00  0.3802E+00 -0.3041E+00E
 Action:ARG 21-12-18 20:21 OP:OBSP STATUS:               ID:20210208161059     I
 DUMMY                                                                         6
 STAT SP IPHASW D HRMM SECON CODA AMPLIT PERI AZIMU VELO AIN AR TRES W  DIS CAZ7
 P4   BZ  P   1 D 1611 2.000                             157   -0.12 7 4.20 119 
 P4   BE ES   1   1611 4.230                             157   -0.09 7 4.20 119 
 P3   BZ  P   1 C 1611 2.090                             151   -0.16 7 5.30 221 
 P3   BE ES   1   1611 4.400                             151   -0.15 7 5.30 221 
 P5   BZ  P   1 D 1611 2.380                             142   -0.08 7 7.41  95 
 P5   BE  S   1   1611 5.060                             142    0.13 7 7.41  95 
 P2   BZ  P   1 C 1611 2.400                             137   -0.14 7 8.54 229 
 P2   BE ES   1   1611 5.080                             137    0.01 7 8.54 229 
 TOLS BZ  P   1 D 1611 2.780                             130    0.06 7 10.3  94 
 TOLS BE ES   1   1611 5.650                             130    0.25 7 10.3  94 
 P1   BZ  P   1 C 1611 2.900                             125    0.02 7 11.7 238 
 P1   BE ES   1   1611 5.890                             125    0.20 7 11.7 238 
 N19  BZ  P   1   1611 3.554                             116    0.19 7 14.8 253 
 N19  BE  S   1   1611 6.661                             116    0.10 7 14.8 253 
 N9   BZ  P   1 C 1611 3.472                             113   -0.08 7 16.2 232 
 N9   BE ES   1   1611 6.860                             113   -0.03 7 16.2 232 
 SHIF BZ  P   1 C 1611 3.267                             113   -0.29 7 16.3 305 
 SHIF BE  S   1   1611 6.976                             113    0.06 7 16.3 305 
 ABTL BZ  P   1 D 1611 3.580                             113   -0.05 7 16.4  39 
 ABTL BE ES   1   1611 7.060                             113    0.02 7 16.4  39 
 N12  BZ  P   1 C 1611 3.420                             112   -0.06 7 16.7 240 
 N12  BE ES   1   1611 6.930                             112    0.15 7 16.7 240 
 N15  BZ  P   1 C 1611 3.510                             111   -0.16 7 16.9 243 
 N15  BE ES   1   1611 7.060                             111   -0.06 7 16.9 243 
 N20  BZ  P   1 C 1611 3.609                             111   -0.06 7 17.2 263 
 N20  BE ES   1   1611 7.120                             111   -0.00 7 17.2 263 
 N6   BZ  P   1 D 1611 3.680                             109   -0.18 7 18.1 229 
 N6   BE ES   1   1611 7.470                             109    0.02 7 18.1 229 
 N18  BZ  P   1 C 1611 3.770                             108   -0.15 7 18.4 252 
 N18  BE ES   1   1611 7.550                             108   -0.03 7 18.4 252 
 N14  BZ EP   1   1611 3.860                             108   -0.04 7 18.6 247 
 N14  BE ES   1   1611 7.200                             108   -0.33 7 18.6 247 
 CAMP BZ  P   1 C 1611 3.940                             107   -0.06 7 19.1 212 
 CAMP BE ES   1   1611 7.840                             107    0.13 7 19.1 212 
 P9   BZ  P   1 D 1611 4.080                             107   -0.00 7 19.1  83 
 N17  BZ  P   1   1611 4.854                             107    0.83 7 19.2 255 
 N17  BE  S   1   1611 7.866                             107    0.11 7 19.2 255 
 KHIA BZ  P   1 C 1611 4.050                             107   -0.02 7 19.5 130 
 N5   BZ  P   1 C 1611 4.060                             106   -0.08 7 20.0 218 
 N5   BE ES   1   1611 8.000                             106    0.03 7 20.0 218 
 N11  BZ  P   1 C 1611 3.920                             106   -0.22 7 20.1 243 
 N11  BE ES   1   1611 8.050                             106    0.07 7 20.1 243 
 N13  BZ  P   1   1611 4.882                             105    0.57 7 20.7 245 
 N13  BE  S   1   1611 8.181                             105   -0.10 7 20.7 245 
 N4   BZ EP   1   1611 4.040                             105   -0.24 7 20.8 227 
 N4   BE ES   1   1611 8.250                             105    0.03 7 20.8 227 
 NOKA BZ EP   1   1611 4.460                             103   -0.02 7 22.3   6 
 NOKA BE ES   1   1611 8.600                             103    0.02 7 22.3   6 
                                                                                
 2021  2 8 1611 36.3 L  28.995  51.004 14.5  SLT  7 0.1                 1.7L BI1
 GAP=212        0.25       2.2     0.7  1.9 -0.3804E+00 -0.9180E-02 -0.1122E+01E
 Action:ARG 21-12-18 20:21 OP:OBSP STATUS:               ID:20210208161136     I
 DUMMY                                                                         6
 STAT SP IPHASW D HRMM SECON CODA AMPLIT PERI AZIMU VELO AIN AR TRES W  DIS CAZ7
 P2   BZ EP   1   161139.640                             142   -0.04 7 8.81 220 
 P2   BE ES   1   161142.260                             142   -0.16 7 8.81 220 
 TOLS BZ EP   1   161139.990                             134    0.07 7 11.2  99 
 TOLS BE ES   1   161142.870                             134    0.02 7 11.2  99 
 P1   BZ EP   1   161139.950                             132   -0.01 7 11.7 231 
 P1   BE ES   1   161143.050                             132    0.12 7 11.7 231 
 N12  BZ EP   1   161140.520                             120    0.02 7 16.6 235 
 N12  BE ES   1   161144.000                             120    0.10 7 16.6 235 
 N15  BZ EP   1   161140.660                             120   -0.02 7 16.8 239 
 N15  BE ES   1   161144.220                             120    0.00 7 16.8 239 
 N18  BZ EP   1   161140.760                             117   -0.13 7 18.1 248 
 N18  BE ES   1   161144.620                             117    0.02 7 18.1 248 
 KHIA BZ EP   1   161141.300                             113    0.04 7 20.9 131 
 KHIA BE ES   1   161145.230                             113   -0.04 7 20.9 131 
                                                                                
