 2021  222 2112 24.0 L  28.920  51.106 11.0  SLT 34 0.2                 2.6L BI1
 GAP= 82        0.33       0.7     0.7  0.7  0.4742E-01  0.2818E+00  0.1502E+00E
 Action:ARG 21-12-18 20:21 OP:OBSP STATUS:               ID:20210222211223     I
 DUMMY                                                                         6
 STAT SP IPHASW D HRMM SECON CODA AMPLIT PERI AZIMU VELO AIN AR TRES W  DIS CAZ7
 TOLS BZ EP   1   211226.660                             142    0.00 7 6.66   9 
 TOLS BE ES   1   211228.940                             142    0.10 7 6.66   9 
 P5   BZ EP   1   211226.610                             141   -0.13 7 6.82 344 
 P5   BE ES   1   211228.900                             141   -0.09 7 6.82 344 
 P4   BZ EP   1   211226.690                             138   -0.07 7 7.63 313 
 P4   BE ES   1   211228.930                             138   -0.10 7 7.63 313 
 KHIA BZ EP   1   211226.880                             137    0.06 7 7.82 131 
 KHIA BE ES   1   211229.130                             137    0.01 7 7.82 131 
 P3   BZ EP   1   211227.560                             119   -0.00 7 13.1 284 
 P3   BE ES   1   211230.620                             119    0.14 7 13.1 284 
 P9   BZ EP   1   211227.860                             118    0.16 7 13.6  46 
 JNAK BZ EP   1   211227.790                             115   -0.02 7 15.0 192 
 JNAK BE ES   1   211230.890                             115   -0.03 7 15.0 192 
 P2   BZ EP   1   211228.000                             113    0.04 7 15.8 276 
 P2   BE ES   1   211231.420                             113    0.22 7 15.8 276 
 ABAD BZ EP   1   211228.570                             109    0.06 7 18.6  49 
 P1   BZ EP   1   211228.480                              68    0.01 7 19.1 273 
 P1   BE ES   1   211232.390                              68    0.28 7 19.1 273 
 ABTL BZ EP   1   211228.810                              68    0.11 7 20.1   3 
 CAMP BZ EP   1   211228.780                              68   -0.07 7 21.3 245 
 CAMP BE ES   1   211233.060                              68    0.25 7 21.3 245 
 N9   BZ EP   1   211228.900                              68   -0.08 7 22.1 263 
 N9   BE ES   1   211233.050                              68    0.01 7 22.1 263 
 N2   BZ EP   1   211229.020                              68   -0.06 7 22.7 246 
 N2   BE ES   1   211233.440                              68    0.22 7 22.7 246 
 N1   BZ EP   1   211229.070                              68   -0.06 7 22.9 242 
 N1   BE ES   1   211233.870                              68    0.56 7 22.9 242 
 N16  BZ EP   1   211229.070                              68   -0.20 7 23.0 272 
 N16  BE ES   1   211233.440                              68   -0.12 7 23.0 272 
 N5   BZ EP   1   211229.060                              68   -0.10 7 23.2 249 
 N5   BE ES   1   211232.820                              68   -0.55 7 23.2 249 
 N6   BZ EP   1   211229.090                              68   -0.11 7 23.4 259 
 N6   BE ES   1   211233.510                              68    0.07 7 23.4 259 
 N19  BZ EP   1   211229.160                              68   -0.07 7 23.6 277 
 N19  BE ES   1   211233.670                              68    0.18 7 23.6 277 
 N3   BZ EP   1   211229.260                              68   -0.08 7 24.3 248 
 N15  BZ EP   1   211229.280                              68   -0.08 7 24.4 269 
 N15  BE ES   1   211233.750                              68    0.03 7 24.4 269 
 N10  BZ EP   1   211229.360                              68   -0.10 7 24.9 263 
 N10  BE ES   1   211233.950                              68    0.04 7 24.9 263 
 N7   BZ EP   1   211229.370                              68   -0.12 7 25.2 261 
 N7   BE ES   1   211233.870                              68   -0.09 7 25.2 261 
 N4   BZ EP   1   211229.400                              68   -0.15 7 25.5 255 
 N4   BE ES   1   211234.090                              68    0.02 7 25.5 255 
 KOLO BZ EP   1   211229.740                              68    0.07 7 26.0 150 
 N14  BZ EP   1   211229.560                              68   -0.08 7 26.3 270 
 N14  BE ES   1   211234.270                              68    0.03 7 26.3 270 
 N18  BZ EP   1   211229.680                              68   -0.09 7 26.7 273 
 N18  BE ES   1   211234.430                              68   -0.04 7 26.7 273 
 N20  BZ EP   1   211229.660                              68   -0.05 7 26.8 281 
 N20  BE ES   1   211234.490                              68    0.13 7 26.8 281 
 N11  BZ EP   1   211229.700                              68   -0.10 7 27.3 266 
 N11  BE ES   1   211234.510                              68   -0.02 7 27.3 266 
 N17  BZ EP   1   211229.860                              68   -0.07 7 27.9 275 
 N17  BE ES   1   211234.860                              68    0.10 7 27.9 275 
 N13  BZ EP   1   211229.810                              68   -0.20 7 28.0 267 
 N13  BE ES   1   211234.790                              68   -0.12 7 28.0 267 
 SHIF BZ EP   1   211229.870                              68   -0.06 7 28.0 306 
 NOKA BZ  P   1   211230.504                              68    0.22 7 30.3 347 
 ABAS BZ EP   1   211233.280                              68    0.20 7 46.6 157 
                                                                                
 2021  222 2132 22.1 L  28.919  51.106 10.3  SLT 10 0.1                 1.3L BI1
 GAP= 82        0.25       0.6     0.6  1.3 -0.4560E-01  0.1603E+00  0.1698E+00E
 Action:ARG 21-12-18 20:21 OP:OBSP STATUS:               ID:20210222213222     I
 DUMMY                                                                         6
 STAT SP IPHASW D HRMM SECON CODA AMPLIT PERI AZIMU VELO AIN AR TRES W  DIS CAZ7
 TOLS BZ EP   1   213224.730                             139   -0.02 7 6.76   9 
 TOLS BE ES   1   213226.980                             139    0.12 7 6.76   9 
 P5   BZ  P   1   213224.865                             138    0.03 7 6.91 345 
 P5   BE  S   1   213226.939                             138   -0.08 7 6.91 345 
 P4   BZ EP   1   213224.760                             134   -0.10 7 7.68 314 
 P4   BE ES   1   213227.000                             134   -0.05 7 7.68 314 
 KHIA BZ EP   1   213224.910                             134    0.01 7 7.78 131 
 KHIA BE ES   1   213227.140                             134    0.01 7 7.78 131 
 P9   BZ EP   1   213225.960                             114    0.12 7 13.7  46 
 P9   BE ES   1   213228.740                             114   -0.10 7 13.7  46 
 JNAK BZ EP   1   213225.860                             112   -0.06 7 14.9 192 
 JNAK BE ES   1   213229.010                             112    0.03 7 14.9 192 
 ABAD BZ  P   1   213226.724                             106    0.07 7 18.7  49 
 P1   BZ  P   1   213226.535                             105   -0.07 7 19.1 273 
 P1   BE  S   1   213230.387                             105    0.17 7 19.1 273 
 ABTL BZ  P   1   213226.885                             104    0.03 7 20.2   3 
 N6   BZ  P   1   213227.181                             102   -0.18 7 23.3 259 
 N6   BE  S   1   213231.653                             102    0.06 7 23.3 259 
                                                                                
 2021  222 2218 38.9 L  28.917  51.109 10.8  SLT 31 0.2                 1.8L BI1
 GAP= 83        0.41       0.8     0.8  0.8 -0.1238E-01  0.4016E+00  0.1728E+00E
 Action:ARG 21-12-18 20:21 OP:OBSP STATUS:               ID:20210222221839     I
 DUMMY                                                                         6
 STAT SP IPHASW D HRMM SECON CODA AMPLIT PERI AZIMU VELO AIN AR TRES W  DIS CAZ7
 TOLS BZ EP   1   221841.530                             140   -0.04 7 6.92   6 
 TOLS BE ES   1   221843.800                             140    0.04 7 6.92   6 
 P5   BZ EP   1   221841.530                             139   -0.14 7 7.21 343 
 P5   BE ES   1   221843.760                             139   -0.18 7 7.21 343 
 KHIA BZ EP   1   221841.710                             138    0.06 7 7.39 131 
 KHIA BE ES   1   221843.960                             138    0.06 7 7.39 131 
 P4   BZ EP   1   221841.580                             135   -0.12 7 8.06 314 
 P4   BE ES   1   221843.830                             135   -0.16 7 8.06 314 
 P3   BZ EP   1   221842.520                             117    0.01 7 13.4 285 
 P3   BE ES   1   221845.480                             117    0.02 7 13.4 285 
 P9   BZ EP   1   221842.750                             117    0.15 7 13.6  44 
 P9   BE ES   1   221845.900                             117    0.28 7 13.6  44 
 JNAK BZ EP   1   221842.670                             114    0.01 7 14.8 194 
 JNAK BE ES   1   221845.720                             114   -0.02 7 14.8 194 
 P2   BZ  P   1   221842.842                             112   -0.07 7 16.1 277 
 P2   BE  S   1   221846.421                             112    0.24 7 16.1 277 
 ABAD BZ EP   1   221843.460                             108    0.06 7 18.6  48 
 P1   BZ EP   1   221843.360                             107   -0.06 7 19.4 274 
 P1   BE ES   1   221847.260                             107    0.16 7 19.4 274 
 ABTL BZ EP   1   221843.700                             106    0.05 7 20.4   2 
 CAMP BZ EP   1   221843.680                             105   -0.11 7 21.4 246 
 CAMP BE ES   1   221848.010                             105    0.24 7 21.4 246 
 N9   BZ EP   1   221843.800                              68   -0.14 7 22.4 264 
 N9   BE ES   1   221847.950                              68   -0.09 7 22.4 264 
 N2   BZ EP   1   221843.890                              68   -0.13 7 22.8 247 
 N2   BE ES   1   221848.470                              68    0.28 7 22.8 247 
 N1   BZ EP   1   221843.930                              68   -0.13 7 23.0 243 
 N1   BE ES   1   221848.620                              68    0.35 7 23.0 243 
 N5   BZ EP   1   221843.960                              68   -0.14 7 23.3 250 
 N5   BE ES   1   221848.550                              68    0.21 7 23.3 250 
 N6   BZ EP   1   221843.940                              68   -0.21 7 23.6 260 
 N6   BE ES   1   221848.450                              68    0.02 7 23.6 260 
 N19  BZ  P   1   221844.072                              68   -0.13 7 23.9 278 
 N19  BE  S   1   221848.606                              68    0.09 7 23.9 278 
 N3   BZ  P   1   221844.099                              68   -0.18 7 24.5 249 
 N3   BE  S   1   221849.043                              68    0.39 7 24.5 249 
 N15  BZ EP   1   221844.130                              68   -0.19 7 24.7 270 
 N15  BE ES   1   221848.620                              68   -0.11 7 24.7 270 
 N10  BZ EP   1   221844.260                              68   -0.16 7 25.2 264 
 N10  BE ES   1   221848.880                              68   -0.03 7 25.2 264 
 N7   BZ EP   1   221844.430                              68   -0.01 7 25.4 261 
 N7   BE ES   1   221848.830                              68   -0.12 7 25.4 261 
 KOLO BZ EP   1   221844.610                              68    0.09 7 25.6 150 
 N4   BZ  P   1   221844.290                              68   -0.21 7 25.7 255 
 N4   BE  S   1   221849.207                              68    0.16 7 25.7 255 
 N14  BZ  P   1   221844.454                              68   -0.15 7 26.6 271 
 N14  BE  S   1   221849.289                              68    0.04 7 26.6 271 
 N18  BZ EP   1   221844.540                              68   -0.19 7 27.1 274 
 N18  BE ES   1   221849.360                              68   -0.12 7 27.1 274 
 N20  BZ EP   1   221844.620                              68   -0.06 7 27.2 282 
 N20  BE ES   1   221849.390                              68    0.01 7 27.2 282 
 N11  BZ EP   1   221844.590                              68   -0.17 7 27.5 267 
 N11  BE ES   1   221849.490                              68   -0.05 7 27.5 267 
 N17  BZ EP   1   221844.690                              68   -0.21 7 28.2 275 
 N17  BE ES   1   221849.790                              68    0.01 7 28.2 275 
 N13  BZ  P   1   221844.727                              68   -0.25 7 28.3 268 
 N13  BE  S   1   221849.890                              68   -0.03 7 28.3 268 
 SHIF BZ  P   1   221845.792                              68    0.88 7 28.4 306 
 SHIF BE ES   1   221849.990                              68    0.18 7 28.4 306 
                                                                                
 2021  222 2232 36.9 L  28.917  51.109 10.5  SLT 15 0.2                 1.5L BI1
 GAP= 83        0.35       0.8     0.9  1.4 -0.1191E+00  0.4277E+00  0.2723E+00E
 Action:ARG 21-12-18 20:21 OP:OBSP STATUS:               ID:20210222223237     I
 DUMMY                                                                         6
 STAT SP IPHASW D HRMM SECON CODA AMPLIT PERI AZIMU VELO AIN AR TRES W  DIS CAZ7
 TOLS BZ EP   1   223239.490                             139   -0.03 7 6.92   6 
 TOLS BE ES   1   223241.760                             139    0.08 7 6.92   6 
 P5   BZ  P   1   223239.620                             138   -0.00 7 7.22 343 
 P5   BE  S   1   223241.776                             138   -0.08 7 7.22 343 
 KHIA BZ EP   1   223239.640                             137    0.04 7 7.37 131 
 KHIA BE ES   1   223241.920                             137    0.10 7 7.37 131 
 P4   BZ EP   1   223239.540                             134   -0.11 7 8.08 313 
 P4   BE ES   1   223241.810                             134   -0.11 7 8.08 313 
 P9   BZ EP   1   223240.700                             116    0.14 7 13.6  44 
 P9   BE ES   1   223243.280                             116   -0.28 7 13.6  44 
 JNAK BZ EP   1   223240.580                             113   -0.05 7 14.8 194 
 JNAK BE ES   1   223243.790                             113    0.10 7 14.8 194 
 ABAD BZ EP   1   223241.420                             107    0.05 7 18.6  48 
 P1   BZ  P   1   223241.372                             106   -0.02 7 19.5 274 
 P1   BE  S   1   223245.362                             106    0.30 7 19.5 274 
 ABTL BZ  P   1   223242.019                             105    0.40 7 20.4   2 
 CAMP BZ  P   1   223241.696                             104   -0.07 7 21.4 246 
 N2   BZ  P   1   223241.938                             103   -0.06 7 22.9 247 
 N1   BZ  P   1   223241.857                             103   -0.19 7 23.0 243 
 N5   BZ  P   1   223241.911                             103   -0.18 7 23.3 250 
 N6   BZ  P   1   223241.992                             102   -0.15 7 23.6 260 
 N6   BE  S   1   223246.548                             102    0.13 7 23.6 260 
 N18  BZ  P   1   223242.720                              68   -0.02 7 27.1 274 
                                                                                
 2021  223 0107 12.5 L  28.922  51.086 11.7  SLT  6 0.1                 1.2L BI1
 GAP=139        0.27       1.1     2.1  2.5 -0.1407E+01 -0.3758E+01  0.1639E+01E
 Action:ARG 21-12-18 20:21 OP:OBSP STATUS:               ID:20210223010712     I
 DUMMY                                                                         6
 STAT SP IPHASW D HRMM SECON CODA AMPLIT PERI AZIMU VELO AIN AR TRES W  DIS CAZ7
 P4   BZ EP   1    1 715.190                             144    0.01 7 6.10 324 
 P4   BE ES   1    1 717.450                             144    0.06 7 6.10 324 
 TOLS BZ EP   1    1 715.240                             140   -0.03 7 6.96  26 
 TOLS BE ES   1    1 717.490                             140   -0.06 7 6.96  26 
 KHIA BZ EP   1    1 715.530                             129   -0.07 7 9.55 125 
 P9   BZ  P   1    1 716.454                             111    0.02 7 14.9  52 
 JNAK BZ EP   1    1 716.320                             110   -0.02 7 15.1 185 
 JNAK BE ES   1    1 719.540                             110    0.06 7 15.1 185 
 ABAD BZ EP   1    1 717.110                              99   -0.11 7 20.0  54 
 ABAD BE ES   1    1 721.220                              99    0.14 7 20.0  54 
                                                                                
 2021  223 0654 53.2 L  28.869  50.841  7.1  SLT 13 0.2                 1.5L BI1
 GAP=203        0.40       1.1     2.2  1.6  0.1710E+01  0.9272E+00  0.2238E+00E
 Action:ARG 21-12-18 20:21 OP:OBSP STATUS:               ID:20210223065452     I
 DUMMY                                                                         6
 STAT SP IPHASW D HRMM SECON CODA AMPLIT PERI AZIMU VELO AIN AR TRES W  DIS CAZ7
 N7   BE ES   1    65456.240                             161   -0.09 7 1.73  33 
 N4   BE ES   1    65456.380                             161    0.03 7 1.73 134 
 N7   BZ EP   1    65454.930                             161   -0.02 7 1.73  33 
 N4   BZ EP   1    65454.960                             161   -0.00 7 1.73 134 
 N10  BZ EP   1    65455.040                             149   -0.01 7 2.87  21 
 N10  BE ES   1    65456.460                             149   -0.05 7 2.87  21 
 N6   BZ EP   1    65455.040                             147   -0.02 7 3.07  71 
 N6   BE ES   1    65456.500                             147   -0.03 7 3.07  71 
 N11  BZ  P   1    65455.283                             138    0.15 7 4.03 340 
 N11  BE  S   1    65456.592                             138   -0.08 7 4.03 340 
 N3   BZ  P   1    65454.759                             131   -0.48 7 4.83 137 
 N3   BE  S   1    65457.142                             131    0.28 7 4.83 137 
 N9   BZ EP   1    65455.220                             131   -0.03 7 4.84  53 
 N9   BE  S   1    65456.828                             131   -0.04 7 4.84  53 
 N5   BZ  P   1    65455.388                             128    0.09 7 5.14 124 
 N5   BE  S   1    65457.168                             128    0.21 7 5.14 124 
 N15  BZ  P   1    65455.519                             125    0.17 7 5.52  15 
 N15  BE  S   1    65456.933                             125   -0.13 7 5.52  15 
 N14  BZ  P   1    65455.335                             124    0.00 7 5.58 355 
 N14  BE  S   1    65457.037                             124    0.02 7 5.58 355 
 N2   BZ  P   1    65454.943                             119   -0.50 7 6.16 125 
 N2   BE  S   1    65457.404                             119    0.19 7 6.16 125 
 N18  BZ  P   1    65455.859                             110    0.23 7 7.16 353 
 N18  BE  S   1    65457.561                             110   -0.00 7 7.16 353 
 N17  BZ  P   1    65455.911                             100    0.12 7 8.23 346 
                                                                                
