 2021  228 1442 27.9 L  28.826  50.856  7.8  SLT 10 0.1                 1.4L BI1
 GAP=247        0.20       0.9     1.3  1.1  0.6857E+00  0.7013E+00  0.1120E+00E
 Action:ARG 21-12-18 20:21 OP:OBSP STATUS:               ID:20210228144227     I
 DUMMY                                                                         6
 STAT SP IPHASW D HRMM SECON CODA AMPLIT PERI AZIMU VELO AIN AR TRES W  DIS CAZ7
 N3   BZ  P   1   144229.746                             158   -0.02 7 2.29  56 
 N3   BE  S   1   144231.284                             158    0.03 7 2.29  56 
 N5   BZ EP   1   144229.860                             148   -0.01 7 3.47  56 
 N5   BE ES   1   144231.380                             148   -0.07 7 3.47  56 
 N4   BZ EP   1   144229.910                             147    0.02 7 3.60 358 
 N4   BE ES   1   144231.470                             147   -0.02 7 3.60 358 
 N2   BZ EP   1   144229.890                             144   -0.01 7 3.88  71 
 N2   BE ES   1   144231.500                             144   -0.01 7 3.88  71 
 N1   BZ EP   1   144230.020                             141    0.06 7 4.26  95 
 N1   BE ES   1   144231.650                             141    0.04 7 4.26  95 
 CAMP BZ  P   1   144230.088                             133    0.01 7 5.34  74 
 CAMP BE  S   1   144231.849                             133    0.03 7 5.34  74 
 N6   BZ EP   1   144230.060                             128   -0.11 7 6.01  15 
 N6   BE ES   1   144231.950                             128   -0.04 7 6.01  15 
 N10  BZ  P   1   144230.338                             119   -0.06 7 7.49 357 
 N10  BE  S   1   144232.428                             119    0.03 7 7.49 357 
 N9   BZ  P   1   144230.535                             115    0.07 7 8.09  18 
 N9   BE  S   1   144232.507                             115   -0.02 7 8.09  18 
 N11  BZ  P   1   144230.548                             110   -0.06 7 9.03 342 
 N11  BE  S   1   144232.901                             110    0.12 7 9.03 342 
                                                                                
 2021  228 1536 41.5 L  28.828  50.856  8.5  SLT  9 0.1                 1.1L BI1
 GAP=257        0.28       1.3     2.1  1.5  0.1601E+01  0.1405E+01  0.3463E+00E
 Action:ARG 21-12-18 20:21 OP:OBSP STATUS:               ID:20210228153641     I
 DUMMY                                                                         6
 STAT SP IPHASW D HRMM SECON CODA AMPLIT PERI AZIMU VELO AIN AR TRES W  DIS CAZ7
 N3   BZ  P   1   153643.476                             162    0.05 7 2.07  62 
 N3   BE ES   1   153644.990                             162   -0.01 7 2.07  62 
 N5   BZ EP   1   153643.550                             153    0.03 7 3.25  60 
 N5   BE ES   1   153645.050                             153   -0.12 7 3.25  60 
 N4   BZ EP   1   153643.590                             152    0.06 7 3.30 356 
 N4   BE ES   1   153645.160                             152   -0.03 7 3.30 356 
 N2   BZ EP   1   153643.570                             149    0.02 7 3.72  75 
 N2   BE ES   1   153645.150                             149   -0.07 7 3.72  75 
 N1   BZ EP   1   153643.740                             146    0.13 7 4.24  99 
 N1   BE ES   1   153645.380                             146    0.03 7 4.24  99 
 CAMP BZ  P   1   153643.791                             139    0.09 7 5.19  77 
 CAMP BE  S   1   153645.498                             139   -0.01 7 5.19  77 
 N6   BZ  P   1   153643.476                             136   -0.29 7 5.70  15 
 N6   BE  S   1   153645.708                             136    0.08 7 5.70  15 
 N10  BZ  P   1   153643.975                             127    0.00 7 7.18 357 
 N10  BE  S   1   153646.101                             127    0.11 7 7.18 357 
 N9   BZ  P   1   153643.870                             124   -0.16 7 7.78  18 
 N9   BE  S   1   153646.193                             124    0.09 7 7.78  18 
                                                                                
 2021  228 1550 48.7 L  28.819  50.855  7.3  SLT  8 0.2                 1.1L BI1
 GAP=273        0.38       1.9     2.8  2.4  0.2764E+01  0.3681E+01  0.2857E+00E
 Action:ARG 21-12-18 20:21 OP:OBSP STATUS:               ID:20210228155048     I
 DUMMY                                                                         6
 STAT SP IPHASW D HRMM SECON CODA AMPLIT PERI AZIMU VELO AIN AR TRES W  DIS CAZ7
 N3   BZ EP   1   155050.520                             151    0.04 7 2.81  45 
 N5   BZ EP   1   155050.590                             140   -0.02 7 3.98  48 
 N5   BE ES   1   155052.110                             140   -0.06 7 3.98  48 
 N2   BZ  P   1   155050.095                             138   -0.53 7 4.24  62 
 N2   BE  S   1   155052.302                             138    0.09 7 4.24  62 
 N4   BZ EP   1   155050.700                             137    0.05 7 4.31 359 
 N4   BE ES   1   155052.270                             137    0.01 7 4.31 359 
 N1   BZ EP   1   155050.770                             137    0.11 7 4.35  86 
 N1   BE ES   1   155052.470                             137    0.20 7 4.35  86 
 CAMP BZ  P   1   155050.817                             126    0.00 7 5.66  67 
 CAMP BE ES   1   155052.530                             126   -0.02 7 5.66  67 
 N6   BZ  P   1   155050.949                             118   -0.03 7 6.72  14 
 N6   BE  S   1   155052.801                             118   -0.05 7 6.72  14 
 N15  BZ  P   1   155051.895                              96    0.23 7 10.8   1 
 N15  BE  S   1   155054.076                              96   -0.02 7 10.8   1 
                                                                                
 2021  228 1642 55.2 L  28.820  50.850  8.2  SLT 10 0.2                 1.6L BI1
 GAP=258        0.36       1.7     2.6  2.2  0.2630E+01  0.3292E+01  0.9552E+00E
 Action:ARG 21-12-18 20:21 OP:OBSP STATUS:               ID:20210228164255     I
 DUMMY                                                                         6
 STAT SP IPHASW D HRMM SECON CODA AMPLIT PERI AZIMU VELO AIN AR TRES W  DIS CAZ7
 N3   BZ EP   1   164257.250                             153    0.09 7 3.07  53 
 N3   BE ES   1   164258.750                             153   -0.01 7 3.07  53 
 N4   BZ EP   1   164257.380                             144    0.10 7 4.18   6 
 N4   BE ES   1   164258.960                             144   -0.02 7 4.18   6 
 N5   BZ EP   1   164257.340                             144    0.06 7 4.25  54 
 N5   BE ES   1   164258.840                             144   -0.14 7 4.25  54 
 N2   BZ EP   1   164257.390                             141    0.08 7 4.60  66 
 N2   BE ES   1   164258.940                             141   -0.09 7 4.60  66 
 N1   BZ EP   1   164257.450                             140    0.10 7 4.80  88 
 N1   BE ES   1   164259.120                             140    0.02 7 4.80  88 
 CAMP BZ EP   1   164257.540                             131    0.05 7 6.04  70 
 CAMP BE ES   1   164259.290                             131   -0.06 7 6.04  70 
 N6   BZ  P   1   164257.743                             127    0.16 7 6.71  18 
 N6   BE  S   1   164259.478                             127   -0.05 7 6.71  18 
 N10  BZ  P   1   164257.375                             120   -0.41 7 8.05   2 
 N10  BE  S   1   1643 0.004                             120    0.12 7 8.05   2 
 N9   BZ  P   1   164258.032                             116    0.15 7 8.81  20 
 N9   BE  S   1   1643 0.056                             116   -0.00 7 8.81  20 
 N11  BZ  P   1   164257.585                             114   -0.38 7 9.42 346 
 N11  BE  S   1   1643 0.450                             114    0.23 7 9.42 346 
                                                                                
 2021  228 1654 51.7 L  28.825  50.860  8.0  SLT 12 0.1                 1.7L BI1
 GAP=256        0.22       1.0     1.4  0.8  0.7475E+00  0.1743E-01 -0.6623E-01E
 Action:ARG 21-12-18 20:21 OP:OBSP STATUS:               ID:20210228165451     I
 DUMMY                                                                         6
 STAT SP IPHASW D HRMM SECON CODA AMPLIT PERI AZIMU VELO AIN AR TRES W  DIS CAZ7
 N3   BZ EP   1   165453.560                             162   -0.02 7 1.98  49 
 N3   BE ES   1   165455.080                             162   -0.00 7 1.98  49 
 N5   BZ EP   1   165453.650                             152   -0.02 7 3.16  52 
 N5   BE ES   1   165455.170                             152   -0.08 7 3.16  52 
 N2   BZ EP   1   165453.680                             149   -0.01 7 3.50  68 
 N2   BE ES   1   165455.270                             149   -0.02 7 3.50  68 
 N4   BZ EP   1   165453.720                             147   -0.01 7 3.67 351 
 N4   BE ES   1   165455.300                             147   -0.05 7 3.67 351 
 N1   BZ EP   1   165453.790                             146    0.04 7 3.86  95 
 N1   BE ES   1   165455.460                             146    0.07 7 3.86  95 
 CAMP BZ EP   1   165453.860                             137    0.01 7 4.95  72 
 CAMP BE ES   1   165455.600                             137    0.03 7 4.95  72 
 N6   BZ  P   1   165454.202                             130    0.22 7 5.94  11 
 N6   BE  S   1   165455.805                             130   -0.01 7 5.94  11 
 N10  BZ  P   1   165454.097                             121   -0.12 7 7.54 354 
 N10  BE  S   1   165456.226                             121   -0.01 7 7.54 354 
 N9   BZ  P   1   165454.359                             118    0.09 7 8.00  15 
 N9   BE  S   1   165456.357                             118    0.03 7 8.00  15 
 P2   BZ  P   1   165455.332                              98   -0.06 7 14.7  34 
 P3   BZ  P   1   165455.989                              96    0.04 7 17.8  40 
 KHIA BZ  P   1   165457.987                              93   -0.12 7 30.3  80 
                                                                                
 2021  228 1714 27.7 L  29.264  51.349  7.3  SLT 13 0.2                 2.7L BI1
 GAP=306        0.39       1.6     1.9  2.3  0.3672E+00  0.3122E+00  0.9968E-01E
 Action:ARG 21-12-18 20:21 OP:OBSP STATUS:               ID:20210228171426     I
 DUMMY                                                                         6
 STAT SP IPHASW D HRMM SECON CODA AMPLIT PERI AZIMU VELO AIN AR TRES W  DIS CAZ7
 ABAD BZ EP   1   171433.710                              91    0.03 7 27.8 200 
 ABAD BE ES   1   171438.600                              91    0.05 7 27.8 200 
 ABTL BZ EP   1   171433.860                              91    0.03 7 28.9 231 
 ABTL BE ES   1   171438.680                              91   -0.14 7 28.9 231 
 NOKA BZ EP   1   171434.220                              91   -0.06 7 31.8 254 
 NOKA BE ES   1   171439.480                              91   -0.15 7 31.8 254 
 P9   BZ EP   1   171434.530                              91    0.12 7 31.9 206 
 P9   BE ES   1   171439.940                              91    0.07 7 31.9 206 
 TOLS BZ  P   1   171435.561                              91    0.06 7 38.9 216 
 TOLS BE  S   1   171441.869                              91    0.02 7 38.9 216 
 KHIA BZ  P   1   171436.923                              68    0.00 7 46.9 202 
 KHIA BE ES   1   171444.250                              68   -0.17 7 46.9 202 
 SHIF BZ  P   1   171437.427                              68   -0.15 7 51.0 245 
 SHIF BE  S   1   171445.630                              68    0.02 7 51.0 245 
 P2   BZ  P   1   171437.990                              68   -0.02 7 53.7 227 
 N19  BZ  P   1   171438.671                              68   -0.17 7 58.8 233 
 JNAK BZ  P   1   171438.908                              68    0.02 7 59.3 207 
 N18  BZ  P   1   171439.204                              68   -0.23 7 62.3 234 
 N18  BE  S   1   171449.243                              68    0.27 7 62.3 234 
 N6   BZ EP   1   171439.970                              68    0.41 7 63.2 228 
 N6   BE ES   1   171449.550                              68    0.35 7 63.2 228 
 DLRM BZ EP   1   171441.000                              68    0.09 7 71.5 202 
 DLRM BE ES   1   171451.180                              68   -0.45 7 71.5 202 
                                                                                
 2021  228 1919 18.6 L  28.823  50.856  8.2  SLT 29 0.1                 2.2L BI1
 GAP=210        0.32       0.7     0.9  0.8  0.3821E+00 -0.5617E-01 -0.3388E-01E
 Action:ARG 21-12-18 20:21 OP:OBSP STATUS:               ID:20210228191918     I
 DUMMY                                                                         6
 STAT SP IPHASW D HRMM SECON CODA AMPLIT PERI AZIMU VELO AIN AR TRES W  DIS CAZ7
 N3   BZ EP   1   191920.520                             158    0.05 7 2.40  50 
 N3   BE ES   1   191922.020                             158    0.01 7 2.40  50 
 N5   BZ EP   1   191920.590                             149    0.02 7 3.58  52 
 N5   BE ES   1   191922.120                             149   -0.08 7 3.58  52 
 N4   BZ EP   1   191920.650                             147    0.05 7 3.87 357 
 N4   BE ES   1   191922.240                             147   -0.02 7 3.87 357 
 N2   BZ EP   1   191920.620                             146    0.03 7 3.92  67 
 N2   BE ES   1   191922.210                             146   -0.03 7 3.92  67 
 N1   BZ EP   1   191920.740                             144    0.10 7 4.19  92 
 N1   BE ES   1   191922.390                             144    0.06 7 4.19  92 
 CAMP BZ EP   1   191920.790                             135    0.03 7 5.36  71 
 CAMP BE ES   1   191922.540                             135    0.00 7 5.36  71 
 N6   BZ EP   1   191920.890                             130    0.01 7 6.25  13 
 N6   BE ES   1   191922.660                             130   -0.10 7 6.25  13 
 N10  BZ EP   1   191921.030                             121   -0.07 7 7.75 357 
 N10  BE ES   1   191923.140                             121   -0.02 7 7.75 357 
 N9   BZ EP   1   191921.170                             118    0.01 7 8.32  17 
 N9   BE ES   1   191923.210                             118   -0.07 7 8.32  17 
 N11  BZ EP   1   191921.380                             113    0.07 7 9.29 342 
 N11  BE ES   1   191923.690                             113    0.15 7 9.29 342 
 N13  BZ EP   1   191921.600                             111    0.09 7 9.97 339 
 N13  BE ES   1   191923.870                             111   -0.03 7 9.97 339 
 N15  BZ EP   1   191921.540                             109    0.03 7 10.4 360 
 N15  BE ES   1   191923.880                             109   -0.02 7 10.4 360 
 N14  BZ  P   1   191921.666                             108    0.12 7 10.8 350 
 N14  BE ES   1   191923.870                             108   -0.10 7 10.8 350 
 N16  BZ EP   1   191921.740                             105   -0.11 7 11.7   7 
 N16  BE ES   1   191924.320                             105   -0.20 7 11.7   7 
 N18  BZ EP   1   191921.880                             103    0.01 7 12.4 349 
 N18  BE ES   1   191924.190                             103   -0.36 7 12.4 349 
 P1   BZ EP   1   191921.980                             102    0.11 7 12.8  24 
 P1   BE ES   1   191924.760                             102    0.20 7 12.8  24 
 N17  BZ  P   1   191922.154                             101    0.12 7 13.5 345 
 N19  BZ EP   1   191922.060                             101    0.01 7 13.6   4 
 N19  BE ES   1   191925.050                             101    0.16 7 13.6   4 
 P2   BZ EP   1   191921.740                              99   -0.56 7 15.1  35 
 P2   BE ES   1   191925.570                              99    0.23 7 15.1  35 
 N20  BZ  P   1   191922.154                              98   -0.25 7 15.9 353 
 N20  BE  S   1   191925.684                              98    0.16 7 15.9 353 
 P3   BZ EP   1   191922.890                              96    0.03 7 18.2  40 
 P3   BE ES   1   191926.690                              96    0.35 7 18.2  40 
 JNAK BZ EP   1   191923.490                              95    0.12 7 21.5 101 
 JNAK BE ES   1   191927.160                              95   -0.12 7 21.5 101 
 P4   BZ  P   1   191923.954                              94    0.03 7 24.7  50 
 DLRM BZ EP   1   191924.640                              93    0.13 7 27.8 129 
 KHIA BZ EP   1   191924.970                              93   -0.04 7 30.7  80 
 KHIA BE ES   1   191929.970                              93   -0.26 7 30.7  80 
 TOLS BZ  P   1   191925.084                              93    0.10 7 30.7  56 
 KOLO BZ EP   1   191926.510                              92   -0.05 7 39.4 107 
 P9   BZ  P   1   191926.604                              92   -0.03 7 39.6  59 
 ABTL BZ EP   1   191926.540                              92   -0.09 7 39.9  39 
                                                                                
