 2021  217 2345 28.9 L  28.971  51.016 14.3  SLT 23 0.2                 1.6L BI1
 GAP= 96        0.35       1.4     0.9  1.4 -0.8364E+00  0.1364E+00 -0.3694E+00E
 Action:ARG 21-12-18 20:21 OP:OBSP STATUS:               ID:20210217234528     I
 DUMMY                                                                         6
 STAT SP IPHASW D HRMM SECON CODA AMPLIT PERI AZIMU VELO AIN AR TRES W  DIS CAZ7
 P4   BZ EP   1   234531.650                             165   -0.15 7 3.23  97 
 P3   BZ EP   1   234531.810                             158   -0.11 7 4.58 239 
 P3   BE ES   1   234534.110                             158   -0.27 7 4.58 239 
 P5   BZ EP   1   234532.110                             148   -0.01 7 6.97  82 
 P5   BE ES   1   234534.660                             148   -0.07 7 6.97  82 
 P2   BZ EP   1   234532.140                             144   -0.03 7 7.98 240 
 P2   BE ES   1   234534.790                             144   -0.02 7 7.98 240 
 TOLS BZ EP   1   234532.520                             138    0.18 7 9.87  85 
 TOLS BE ES   1   234535.390                             138    0.27 7 9.87  85 
 P1   BZ  P   1   234532.149                             133   -0.33 7 11.3 246 
 P1   BE  S   1   234535.656                             133    0.27 7 11.3 246 
 N19  BZ  P   1   234532.972                             123   -0.01 7 14.9 260 
 N19  BE  S   1   234536.317                             123    0.02 7 14.9 260 
 N16  BZ  P   1   234533.093                             123   -0.03 7 15.0 252 
 N16  BE  S   1   234536.344                             123   -0.21 7 15.0 252 
 N9   BZ EP   1   234533.170                             121    0.10 7 15.6 238 
 N9   BE ES   1   234536.620                             121    0.17 7 15.6 238 
 N12  BZ EP   1   234533.090                             120    0.06 7 16.3 245 
 N12  BE ES   1   234536.600                             120    0.22 7 16.3 245 
 N15  BZ EP   1   234533.260                             119    0.03 7 16.7 249 
 N15  BE ES   1   234536.790                             119    0.04 7 16.7 249 
 N6   BZ EP   1   234532.880                             118   -0.47 7 17.5 234 
 N6   BE ES   1   234537.110                             118    0.16 7 17.5 234 
 ABTL BZ EP   1   234533.340                             118   -0.03 7 17.5  34 
 ABTL BE ES   1   234536.830                             118   -0.17 7 17.5  34 
 N20  BZ  P   1   234533.309                             117   -0.00 7 17.6 268 
 N10  BZ EP   1   234533.470                             116    0.02 7 18.2 242 
 N10  BE ES   1   234537.260                             116    0.12 7 18.2 242 
 KHIA BZ EP   1   234533.410                             116   -0.03 7 18.2 126 
 N18  BZ EP   1   234533.470                             116   -0.04 7 18.4 257 
 N18  BE ES   1   234537.310                             116    0.07 7 18.4 257 
 N14  BZ EP   1   234533.390                             116   -0.07 7 18.5 252 
 N14  BE ES   1   234537.150                             116   -0.00 7 18.5 252 
 P9   BZ  P   1   234533.795                             115    0.16 7 18.9  78 
 N2   BZ  P   1   234533.376                             115   -0.19 7 19.0 219 
 N17  BZ EP   1   234533.550                             114   -0.06 7 19.3 260 
 N17  BE ES   1   234537.540                             114    0.10 7 19.3 260 
 ABAD BZ  P   1   234534.442                             108    0.08 7 23.8  74 
 NOKA BZ  P   1   234534.509                             108    0.23 7 23.9   4 
                                                                                
 2021  217 2348 45.1 L  28.981  51.016 13.0  SLT 14 0.2                 1.5L BI1
 GAP=141        0.41       2.3     1.3  1.9 -0.2276E+01  0.9127E+00 -0.1654E+01E
 Action:ARG 21-12-18 20:21 OP:OBSP STATUS:               ID:20210217234845     I
 DUMMY                                                                         6
 STAT SP IPHASW D HRMM SECON CODA AMPLIT PERI AZIMU VELO AIN AR TRES W  DIS CAZ7
 P4   BZ  P   1   234847.422                             161   -0.36 7 3.60 116 
 P4   BE  S   1   234849.976                             161   -0.02 7 3.60 116 
 P3   BZ  P   1   234847.771                             153   -0.17 7 5.25 227 
 P3   BE  S   1   234850.245                             153   -0.03 7 5.25 227 
 P2   BZ EP   1   234848.180                             138   -0.05 7 8.57 234 
 P2   BE ES   1   234850.820                             138    0.03 7 8.57 234 
 TOLS BZ EP   1   234848.470                             133    0.12 7 9.88  91 
 TOLS BE ES   1   234851.380                             133    0.36 7 9.88  91 
 P1   BZ  P   1   234848.605                             126    0.03 7 11.8 241 
 P1   BE  S   1   234851.589                             126    0.17 7 11.8 241 
 N19  BZ EP   1   234848.950                             117   -0.12 7 15.1 255 
 N19  BE ES   1   234852.260                             117   -0.06 7 15.1 255 
 N16  BZ  P   1   234849.626                             117    0.39 7 15.4 248 
 N16  BE  S   1   234852.396                             117   -0.22 7 15.4 248 
 ABTL BZ EP   1   234849.330                             114    0.02 7 16.6  37 
 ABTL BE ES   1   234852.820                             114    0.07 7 16.6  37 
 N12  BZ  P   1   234849.008                             113   -0.16 7 16.8 242 
 N12  BE  S   1   234852.638                             113    0.14 7 16.8 242 
 N15  BZ EP   1   234849.060                             113   -0.30 7 17.1 246 
 N15  BE ES   1   234852.770                             113   -0.08 7 17.1 246 
 N6   BZ  P   1   234849.411                             111   -0.11 7 18.1 231 
 N6   BE  S   1   234853.310                             111    0.17 7 18.1 231 
 N18  BZ  P   1   234849.895                             110    0.27 7 18.7 253 
 N18  BE  S   1   234853.364                             110    0.04 7 18.7 253 
 P9   BZ EP   1   234849.870                             110    0.18 7 18.7  82 
 P9   BE ES   1   234853.100                             110   -0.35 7 18.7  82 
 N14  BZ  P   1   234849.707                             110    0.11 7 18.8 249 
 N14  BE  S   1   234853.202                             110   -0.06 7 18.8 249 
                                                                                
 2021  218 0213  0.1 L  28.642  51.110 10.8  SLT  9 0.3                 1.6L BI1
 GAP=183        0.68       2.4     2.6  2.3  0.2824E+01 -0.8814E+00 -0.1759E+01E
 Action:ARG 21-12-18 20:21 OP:OBSP STATUS:               ID:20210218021300     I
 DUMMY                                                                         6
 STAT SP IPHASW D HRMM SECON CODA AMPLIT PERI AZIMU VELO AIN AR TRES W  DIS CAZ7
 DLRM BZ EP   1    213 2.610                             155    0.08 7 4.11 308 
 DLRM BE ES   1    213 4.260                             155   -0.28 7 4.11 308 
 KOLO BZ  P   1    213 3.929                             114   -0.07 7 15.2  57 
 KOLO BE ES   1    213 6.690                             114   -0.51 7 15.2  57 
 JNAK BZ EP   1    213 4.660                             112    0.55 7 16.4 347 
 JNAK BE ES   1    213 7.860                             112    0.47 7 16.4 347 
 ABAS BZ EP   1    213 5.330                             105    0.21 7 21.4 125 
 ABAS BE ES   1    213 9.370                             105    0.15 7 21.4 125 
 KHIA BZ  P   1    213 5.483                              68   -0.25 7 26.1  12 
 KHIA BE  S   1    21310.422                              68    0.09 7 26.1  12 
 AHRM HZ  P   1    213 6.657                              68    0.30 7 30.5  36 
 P4   BZ  P   1    213 7.348                              68   -0.03 7 36.5 351 
 N14  BZ EP   1    213 7.950                              68   -0.11 7 40.7 319 
 N19  BZ  P   1    213 7.590                              68   -0.59 7 41.2 325 
                                                                                
 2021  218 1400  5.6 L  29.245  51.375  8.2  SLT  8 0.1                 2.4L BI1
 GAP=292        0.34       1.7     1.9  2.4  0.1804E+00 -0.1098E+01  0.1201E+01E
 Action:ARG 21-12-18 20:21 OP:OBSP STATUS:               ID:20210218140004     I
 DUMMY                                                                         6
 STAT SP IPHASW D HRMM SECON CODA AMPLIT PERI AZIMU VELO AIN AR TRES W  DIS CAZ7
 ABAD BZ EP   1   14 011.350                              94   -0.06 7 26.8 207 
 ABAD BE ES   1   14 015.950                              94   -0.19 7 26.8 207 
 ABTL BZ EP   1   14 011.900                              93    0.03 7 29.7 238 
 ABTL BE ES   1   14 017.040                              93    0.07 7 29.7 238 
 P9   BZ EP   1   14 012.250                              93    0.06 7 31.2 212 
 P9   BE ES   1   14 017.700                              93    0.14 7 31.2 212 
 NOKA BZ EP   1   14 012.470                              93   -0.04 7 33.8 259 
 NOKA BE ES   1   14 018.150                              93    0.00 7 33.8 259 
 AHRM HZ  P   1   14 014.397                              68    0.36 7 42.9 190 
 P4   BZ  P   1   14 014.307                              68    0.01 7 44.2 226 
 P4   BE  S   1   14 021.423                              68    0.05 7 44.2 226 
 KHIA BZ EP   1   14 014.360                              68   -0.25 7 45.9 206 
 KHIA BE ES   1   14 021.920                              68   -0.02 7 45.9 206 
 JNAK BZ  P   1   14 016.463                              68   -0.15 7 58.6 210 
 JNAK BE  S   1   14 025.555                              68   -0.02 7 58.6 210 
                                                                                
 2021  218 1834 28.8 L  29.244  51.380  8.1  SLT  8 0.2                 2.5L BI1
 GAP=306        0.37       1.7     2.2  2.6  0.1070E+00 -0.1339E+01  0.1237E+01E
 Action:ARG 21-12-18 20:21 OP:OBSP STATUS:               ID:20210218183428     I
 DUMMY                                                                         6
 STAT SP IPHASW D HRMM SECON CODA AMPLIT PERI AZIMU VELO AIN AR TRES W  DIS CAZ7
 ABAD BZ  P   1   183434.482                              93   -0.21 7 26.9 208 
 ABAD BE  S   1   183439.194                              93   -0.25 7 26.9 208 
 ABTL BZ EP   1   183435.140                              93   -0.05 7 30.1 238 
 ABTL BE ES   1   183440.340                              93   -0.01 7 30.1 238 
 P9   BZ EP   1   183435.580                              93    0.10 7 31.4 213 
 P9   BE  S   1   183440.964                              93    0.09 7 31.4 213 
 NOKA BZ EP   1   183435.850                              92   -0.00 7 34.3 259 
 NOKA BE ES   1   183441.460                              92   -0.09 7 34.3 259 
 TOLS BZ EP   1   183436.770                              92    0.10 7 39.0 221 
 TOLS BE ES   1   183443.310                              92    0.27 7 39.0 221 
 P4   BZ EP   1   183437.700                              68    0.09 7 44.5 226 
 P4   BE ES   1   183444.670                              68   -0.06 7 44.5 226 
 KHIA BZ EP   1   183438.170                              68    0.28 7 46.1 207 
 KHIA BE ES   1   183445.180                              68   -0.07 7 46.1 207 
 DLRM BZ EP   1   183441.580                              68   -0.29 7 70.6 205 
 DLRM BE ES   1   183452.490                              68    0.05 7 70.6 205 
                                                                                
 2021  218 2251 43.6 L  29.244  51.375  8.8  SLT  7 0.1                 2.1L BI1
 GAP=307        0.30       1.5     1.9  2.2  0.1802E+00 -0.8397E+00  0.5774E+00E
 Action:ARG 21-12-18 20:21 OP:OBSP STATUS:               ID:20210218225142     I
 DUMMY                                                                         6
 STAT SP IPHASW D HRMM SECON CODA AMPLIT PERI AZIMU VELO AIN AR TRES W  DIS CAZ7
 ABAD BZ EP   1   225149.390                              95   -0.07 7 26.7 207 
 ABAD BE ES   1   225153.960                              95   -0.23 7 26.7 207 
 ABTL BZ EP   1   225149.880                              95   -0.04 7 29.7 238 
 ABTL BE ES   1   225154.990                              95   -0.04 7 29.7 238 
 P9   BZ  P   1   225150.367                              94    0.13 7 31.2 212 
 P9   BE  S   1   225155.756                              94    0.15 7 31.2 212 
 NOKA BZ EP   1   225150.510                              94   -0.06 7 33.8 259 
 NOKA BE ES   1   225156.180                              94   -0.02 7 33.8 259 
 TOLS BZ EP   1   225151.390                              93   -0.03 7 38.7 221 
 TOLS BE ES   1   225157.930                              93    0.19 7 38.7 221 
 P5   BZ  P   1   225151.807                              68    0.00 7 40.6 224 
 P5   BE  S   1   225158.495                              68    0.06 7 40.6 224 
 KHIA BZ  P   1   225152.732                              68    0.12 7 45.9 206 
 KHIA BE  S   1   225159.758                              68   -0.15 7 45.9 206 
                                                                                
 2021  219 0233 45.0 L  29.250  51.381  9.2  SLT  9 0.2                 2.4L BI1
 GAP=308        0.41       2.0     2.5  2.3 -0.1072E+00 -0.6937E+00  0.1061E+01E
 Action:ARG 21-12-18 20:21 OP:OBSP STATUS:               ID:20210219023344     I
 DUMMY                                                                         6
 STAT SP IPHASW D HRMM SECON CODA AMPLIT PERI AZIMU VELO AIN AR TRES W  DIS CAZ7
 ABAD BZ EP   1    23351.110                              97    0.08 7 27.6 207 
 ABAD BE ES   1    23355.610                              97   -0.27 7 27.6 207 
 ABTL BZ EP   1    23351.570                              96    0.09 7 30.5 237 
 ABTL BE ES   1    23356.660                              96   -0.05 7 30.5 237 
 P9   BZ EP   1    23351.960                              95    0.15 7 32.0 212 
 P9   BE ES   1    23357.380                              95    0.08 7 32.0 212 
 NOKA BZ EP   1    23352.230                              95    0.12 7 34.4 258 
 NOKA BE ES   1    23357.860                              95    0.02 7 34.4 258 
 TOLS BZ EP   1    23353.150                              68    0.21 7 39.5 221 
 TOLS BE ES   1    23359.620                              68    0.27 7 39.5 221 
 P5   BZ EP   1    23353.160                              68   -0.17 7 41.5 224 
 P5   BE ES   1    234                                    68   -0.05 7 41.5 224 
 P4   BZ EP   1    23353.770                              68   -0.06 7 45.0 226 
 P4   BE ES   1    234 0.920                              68   -0.03 7 45.0 226 
 KHIA BZ EP   1    23354.200                              68    0.07 7 46.7 207 
 KHIA BE ES   1    234 1.570                              68    0.06 7 46.7 207 
 P3   BZ  P   1    23354.415                              68   -0.53 7 51.6 230 
                                                                                
 2021  220 0724 56.9 L  29.252  51.369  8.4  SLT  6 0.1                 2.5L BI1
 GAP=307        0.27       1.4     1.9  2.3  0.3462E+00 -0.1275E+01  0.9102E+00E
 Action:ARG 21-12-18 20:21 OP:OBSP STATUS:               ID:20210220072456     I
 DUMMY                                                                         6
 STAT SP IPHASW D HRMM SECON CODA AMPLIT PERI AZIMU VELO AIN AR TRES W  DIS CAZ7
 ABAD BZ EP   1    725 2.910                              94    0.10 7 27.2 205 
 ABAD BE ES   1    725 7.430                              94   -0.19 7 27.2 205 
 ABTL BZ EP   1    725 3.150                              94   -0.03 7 29.6 236 
 ABTL BE ES   1    725 8.390                              94    0.11 7 29.6 236 
 P9   BZ  P   1    725 3.640                              93    0.06 7 31.6 210 
 P9   BE ES   1    725 9.070                              93    0.07 7 31.6 210 
 NOKA BZ  P   1    725 3.754                              93   -0.01 7 33.3 257 
 NOKA BE  S   1    725 9.277                              93   -0.06 7 33.3 257 
 KHIA BZ EP   1    725 6.040                              68    0.04 7 46.4 205 
 KHIA BE ES   1    72513.410                              68    0.03 7 46.4 205 
 JNAK BZ EP   1    725 7.860                              68   -0.13 7 59.0 209 
 JNAK BE ES   1    72517.000                              68    0.01 7 59.0 209 
                                                                                
 2021  221 0100  6.0 L  28.985  51.339  5.8  SLT  4 0.1                 1.2L BI1
 GAP=257        0.31       1.4     2.5  2.2  0.2200E+01 -0.1101E+01 -0.1502E+01E
 Action:ARG 21-12-18 20:21 OP:OBSP STATUS:               ID:20210221010005     I
 DUMMY                                                                         6
 STAT SP IPHASW D HRMM SECON CODA AMPLIT PERI AZIMU VELO AIN AR TRES W  DIS CAZ7
 ABAD BZ EP   1    1 0 8.720                             102   -0.08 7 9.85 299 
 P9   BZ EP   1    1 0 9.480                              97    0.01 7 13.1 280 
 P9   BE ES   1    1 012.340                              97    0.05 7 13.1 280 
 AHRM HZ EP   1    1 0 9.630                              96    0.14 7 14.1 198 
 AHRM HE ES   1    1 012.240                              96   -0.10 7 14.1 198 
 ABTL BZ  P   1    1 011.578                              59   -0.02 7 25.1 301 
 ABTL BE  S   1    1 016.157                              59    0.00 7 25.1 301 
                                                                                
