 2021  2 8 1614 49.3 L  28.995  51.006 14.1  SLT 26 0.2                 1.8L BI1
 GAP=143        0.39       1.3     0.8  1.4 -0.4762E+00  0.2202E+00 -0.2974E+00E
 Action:ARG 21-12-18 20:21 OP:OBSP STATUS:               ID:20210208161448     I
 DUMMY                                                                         6
 STAT SP IPHASW D HRMM SECON CODA AMPLIT PERI AZIMU VELO AIN AR TRES W  DIS CAZ7
 P4   BZ EP   1   161452.210                             155   -0.06 7 5.20 127 
 P4   BE ES   1   161454.440                             155   -0.25 7 5.20 127 
 P3   BZ EP   1   161452.270                             152   -0.10 7 5.88 210 
 P3   BE ES   1   161454.600                             152   -0.27 7 5.88 210 
 P5   BZ  P   1   161452.556                             143   -0.02 7 8.07 103 
 P5   BN  S   1   161455.198                             143   -0.05 7 8.07 103 
 P2   BZ EP   1   161452.600                             140   -0.02 7 8.92 222 
 P2   BE ES   1   161455.270                             140   -0.05 7 8.92 222 
 TOLS BZ EP   1   161453.000                             133    0.18 7 10.9  99 
 TOLS BE ES   1   161455.840                             133    0.15 7 10.9  99 
 P1   BZ EP   1   161453.070                             130    0.15 7 11.9 232 
 P1   BE ES   1   161456.050                             130    0.19 7 11.9 232 
 N19  BZ EP   1   161452.890                             123   -0.44 7 14.7 248 
 N19  BE ES   1   161456.750                             123    0.14 7 14.7 248 
 N16  BZ  P   1   161453.364                             122   -0.16 7 15.2 241 
 N16  BE  S   1   161456.841                             122   -0.11 7 15.2 241 
 ABTL BZ EP   1   161453.810                             120    0.28 7 16.0  43 
 N9   BZ  P   1   161453.556                             119   -0.01 7 16.5 228 
 N9   BE  S   1   161457.060                             119    0.03 7 16.5 228 
 N12  BZ EP   1   161453.580                             118    0.11 7 16.8 236 
 N12  BE ES   1   161457.030                             118    0.17 7 16.8 236 
 N20  BZ  P   1   161453.679                             118    0.09 7 16.9 259 
 N20  BE  S   1   161457.320                             118    0.24 7 16.9 259 
 N15  BZ EP   1   161453.730                             118    0.08 7 17.0 240 
 N15  BE ES   1   161457.210                             118    0.03 7 17.0 240 
 N18  BZ EP   1   161453.880                             115    0.01 7 18.3 248 
 N18  BE ES   1   161457.680                             115    0.10 7 18.3 248 
 N6   BZ  P   1   161453.912                             115    0.05 7 18.5 226 
 N6   BE ES   1   161457.630                             115    0.05 7 18.5 226 
 N14  BZ  P   1   161453.501                             115   -0.35 7 18.6 243 
 N14  BE  S   1   161457.415                             115   -0.14 7 18.6 243 
 N10  BZ  P   1   161453.528                             114   -0.39 7 18.8 233 
 N10  BE  S   1   161457.621                             114   -0.05 7 18.8 233 
 N17  BZ  P   1   161453.706                             114   -0.24 7 19.0 252 
 N17  BE  S   1   161458.168                             114    0.45 7 19.0 252 
 P9   BZ  P   1   161454.336                             113    0.24 7 19.5  87 
 N7   BZ EP   1   161454.030                             113    0.00 7 19.6 230 
 N7   BE ES   1   161457.860                             113   -0.01 7 19.6 230 
 CAMP BZ EP   1   161454.130                             113    0.08 7 19.7 209 
 CAMP BE ES   1   161458.010                             113    0.11 7 19.7 209 
 N11  BZ  P   1   161453.679                             112   -0.42 7 20.2 240 
 N11  BE ES   1   161458.040                             112    0.04 7 20.2 240 
 N5   BZ EP   1   161454.200                             111    0.03 7 20.6 215 
 N5   BE ES   1   161458.180                             111    0.05 7 20.6 215 
 KHIA BZ EP   1   161454.210                             111    0.03 7 20.6 131 
 KHIA BE ES   1   161458.180                             111    0.04 7 20.6 131 
 N2   BZ  P   1   161454.048                             111   -0.13 7 20.7 212 
 N2   BE  S   1   161458.250                             111    0.10 7 20.7 212 
 N4   BZ  P   1   161454.172                             110   -0.11 7 21.2 224 
 N4   BE  S   1   161458.469                             110    0.15 7 21.2 224 
                                                                                
 2021  2 8 1615  8.0 L  28.986  51.011 13.2  SLT  5 0.1                 1.4L BI1
 GAP=160        0.30       2.2     1.7  2.7 -0.3122E+01  0.2866E+01 -0.3714E+01E
 Action:ARG 21-12-18 20:21 OP:OBSP STATUS:               ID:20210208161507     I
 DUMMY                                                                         6
 STAT SP IPHASW D HRMM SECON CODA AMPLIT PERI AZIMU VELO AIN AR TRES W  DIS CAZ7
 P4   BZ EP   1   161510.710                             157   -0.04 7 4.29 120 
 P4   BE ES   1   161512.840                             157   -0.17 7 4.29 120 
 TOLS BZ EP   1   161511.320                             132   -0.01 7 10.4  94 
 TOLS BE ES   1   161514.200                             132    0.15 7 10.4  94 
 P1   BZ EP   1   161511.500                             127    0.03 7 11.7 237 
 P1   BE ES   1   161514.460                             127    0.14 7 11.7 237 
 ABTL BZ EP   1   161512.180                             115   -0.02 7 16.4  39 
 ABTL BE ES   1   161515.650                             115    0.02 7 16.4  39 
 N12  BZ EP   1   161511.940                             114   -0.12 7 16.7 239 
 N12  BE ES   1   161515.370                             114   -0.01 7 16.7 239 
                                                                                
 2021  2 8 1619 40.9 L  28.987  51.011 12.0  SLT  9 0.1                 1.6L BI1
 GAP=147        0.35       1.8     1.1  2.1 -0.1245E+01  0.6931E+00 -0.1177E+01E
 Action:ARG 21-12-18 20:21 OP:OBSP STATUS:               ID:20210208161941     I
 DUMMY                                                                         6
 STAT SP IPHASW D HRMM SECON CODA AMPLIT PERI AZIMU VELO AIN AR TRES W  DIS CAZ7
 P4   BZ EP   1   161943.390                             155   -0.14 7 4.32 121 
 P4   BE ES   1   161945.600                             155   -0.05 7 4.32 121 
 P5   BZ  P   1   161943.720                             139   -0.16 7 7.45  97 
 TOLS BZ EP   1   161944.140                             127   -0.01 7 10.4  95 
 TOLS BE ES   1   161947.020                             127    0.24 7 10.4  95 
 P1   BZ EP   1   161944.280                             122   -0.05 7 11.8 237 
 P1   BE ES   1   161947.240                             122    0.14 7 11.8 237 
 N19  BZ  P   1   161944.766                             112   -0.05 7 14.9 252 
 N19  BN  S   1   161947.903                             112   -0.08 7 14.9 252 
 ABTL BZ EP   1   161945.000                             109   -0.06 7 16.3  39 
 ABTL BE ES   1   161948.490                             109    0.07 7 16.3  39 
 N15  BZ  P   1   161945.516                             107    0.38 7 17.0 243 
 N15  BN  S   1   161948.439                             107   -0.13 7 17.0 243 
 P9   BZ  P   1   161945.490                             103   -0.06 7 19.1  84 
 KHIA BZ  P   1   161945.516                             102   -0.04 7 19.7 130 
                                                                                
 2021  212 1618 55.4 L  28.704  51.175  6.6  SLT  6 0.2                 1.2L BI1
 GAP= 96        0.54       2.0     1.6  2.3 -0.1114E+01  0.1533E+01 -0.2948E+01E
 Action:ARG 21-12-18 20:21 OP:OBSP STATUS:               ID:20210212161855     I
 DUMMY                                                                         6
 STAT SP IPHASW D HRMM SECON CODA AMPLIT PERI AZIMU VELO AIN AR TRES W  DIS CAZ7
 KOLO BZ EP   1   161857.430                             125   -0.24 7 6.63  78 
 KOLO BE ES   1   161859.620                             125    0.11 7 6.63  78 
 DLRM BZ EP   1   161858.110                             109   -0.23 7 10.5 246 
 DLRM BE ES   1   1619 0.830                             109    0.12 7 10.5 246 
 JNAK BZ EP   1   161858.910                              59    0.05 7 13.5 313 
 JNAK BE ES   1   1619 1.580                              59   -0.08 7 13.5 313 
 KHIA BZ  P   1   1619 0.427                              59    0.62 7 18.7 357 
 KHIA BE  S   1   1619 3.070                              59   -0.29 7 18.7 357 
 AHRM HZ  P   1   1619 0.107                              59   -0.05 7 21.2  33 
 ABAS BZ  P   1   1619 0.534                              59   -0.01 7 22.1 149 
                                                                                
 2021  216 0017 52.7 L  29.003  51.256 10.7  SLT 22 0.1                 1.9L BI1
 GAP=176        0.25       0.6     0.8  0.6  0.6191E-01  0.2075E+00  0.9202E-01E
 Action:ARG 21-12-18 20:21 OP:OBSP STATUS:               ID:20210216001752     I
 DUMMY                                                                         6
 STAT SP IPHASW D HRMM SECON CODA AMPLIT PERI AZIMU VELO AIN AR TRES W  DIS CAZ7
 ABAD BZ EP   1    01755.220                             162    0.08 7 2.91 350 
 ABAD BE ES   1    01756.920                             162   -0.20 7 2.91 350 
 P9   BZ EP   1    01755.250                             150   -0.03 7 4.91 272 
 P9   BE ES   1    01757.180                             150   -0.21 7 4.91 272 
 TOLS BZ EP   1    01756.420                             116    0.09 7 13.8 259 
 TOLS BE ES   1    01759.440                             116    0.16 7 13.8 259 
 AHRM HZ EP   1    01756.600                             112    0.01 7 15.9 166 
 KHIA BZ EP   1    01757.020                             110    0.18 7 16.9 211 
 KHIA BE ES   1    018 0.300                             110    0.09 7 16.9 211 
 ABTL BZ EP   1    01757.030                             110    0.08 7 17.4 309 
 ABTL BE ES   1    018 0.500                             110    0.09 7 17.4 309 
 P4   BZ EP   1    01757.460                             106    0.03 7 20.6 259 
 P4   BE ES   1    018 1.350                             106    0.08 7 20.6 259 
 P3   BZ  P   1    01758.701                              68    0.02 7 28.0 258 
 P3   BE  S   1    018 3.648                              68    0.10 7 28.0 258 
 NOKA BZ EP   1    01758.940                              68    0.03 7 29.6 313 
 NOKA BE ES   1    018 4.030                              68    0.08 7 29.6 313 
 JNAK BZ EP   1    01758.900                              68   -0.03 7 29.9 217 
 JNAK BE ES   1    018 3.960                              68   -0.04 7 29.9 217 
 P2   BZ  P   1    01759.173                              68   -0.02 7 31.3 256 
 P2   BN  S   1    018 4.565                              68    0.10 7 31.3 256 
 KOLO BZ EP   1    01759.450                              68    0.13 7 31.7 183 
 SHIF BZ EP   1    018 0.400                              68    0.14 7 37.9 281 
 SHIF BE ES   1    018 6.430                              68    0.03 7 37.9 281 
 CAMP BZ  P   1    018 0.257                              68   -0.11 7 38.5 242 
 N2   BZ  P   1    018 0.591                              68    0.00 7 39.9 243 
 N1   BZ  P   1    018 0.563                              68   -0.09 7 40.2 240 
 N1   BN  S   1    018 7.178                              68    0.07 7 40.2 240 
 N5   BZ  P   1    018 0.535                              68   -0.12 7 40.3 244 
 N5   BN  S   1    018 7.206                              68    0.09 7 40.3 244 
 N10  BZ  P   1    018 0.785                              68   -0.03 7 41.3 253 
 N10  BN  S   1    018 7.234                              68   -0.18 7 41.3 253 
 N3   BZ  P   1    018 0.841                              68    0.01 7 41.5 244 
 N3   BN  S   1    018 7.428                              68   -0.01 7 41.5 244 
 N14  BZ  P   1    018 0.952                              68    0.05 7 42.0 257 
 N14  BN  S   1    018 7.456                              68   -0.11 7 42.0 257 
 N17  BZ  P   1    018 1.035                              68   -0.06 7 43.0 261 
 N17  BE  S   1    018 7.762                              68   -0.14 7 43.0 261 
 N13  BZ  P   1    018 1.091                              68   -0.22 7 43.9 256 
 N13  BN  S   1    018 8.151                              68   -0.15 7 43.9 256 
                                                                                
 2021  216 0107 51.0 L  29.004  51.259 10.6  SLT 13 0.1                 1.4L BI1
 GAP=184        0.28       0.9     1.0  0.9  0.1444E+00  0.1668E-01  0.4420E+00E
 Action:ARG 21-12-18 20:21 OP:OBSP STATUS:               ID:20210216010751     I
 DUMMY                                                                         6
 STAT SP IPHASW D HRMM SECON CODA AMPLIT PERI AZIMU VELO AIN AR TRES W  DIS CAZ7
 ABAD BZ EP   1    1 753.590                             161    0.14 7 2.92 344 
 ABAD BE ES   1    1 755.310                             161   -0.11 7 2.92 344 
 P9   BZ EP   1    1 753.540                             148   -0.08 7 5.21 272 
 P9   BE ES   1    1 755.520                             148   -0.22 7 5.21 272 
 TOLS BZ EP   1    1 754.790                             115    0.09 7 14.1 259 
 TOLS BE ES   1    1 757.800                             115    0.11 7 14.1 259 
 AHRM HZ EP   1    1 754.940                             112    0.02 7 15.9 167 
 P5   BZ  P   1    1 755.234                             110    0.00 7 17.0 261 
 P5   BE  S   1    1 758.641                             110   -0.01 7 17.0 261 
 KHIA BZ  P   1    1 755.399                             110    0.20 7 17.1 212 
 KHIA BE  S   1    1 758.669                             110    0.07 7 17.1 212 
 ABTL BZ EP   1    1 755.360                             109    0.05 7 17.6 308 
 ABTL BE ES   1    1 758.830                             109    0.04 7 17.6 308 
 P4   BZ  P   1    1 755.783                             105   -0.02 7 20.9 259 
 P4   BE ES   1    1 759.720                             105    0.04 7 20.9 259 
 JNAK BZ EP   1    1 757.180                              68   -0.13 7 30.1 217 
 JNAK BE ES   1    1 8 2.270                              68   -0.14 7 30.1 217 
 KOLO BZ  P   1    1 757.515                              68   -0.15 7 31.8 183 
 N18  BZ  P   1    1 759.356                              68   -0.00 7 42.4 259 
 N4   BZ  P   1    1 759.301                              68   -0.08 7 42.7 248 
 ABAS BZ  P   1    1 8 1.252                              68    0.17 7 52.4 177 
                                                                                
 2021  216 1025 25.3 L  28.980  51.350  5.8  SLT  7 0.1                 2.0L BI1
 GAP=291        0.34       1.4     2.1  1.7  0.6910E+00  0.2706E+00  0.1313E+01E
 Action:ARG 21-12-18 20:21 OP:OBSP STATUS:               ID:20210216102524     I
 DUMMY                                                                         6
 STAT SP IPHASW D HRMM SECON CODA AMPLIT PERI AZIMU VELO AIN AR TRES W  DIS CAZ7
 ABAD BZ  P   1   102528.433                              99    0.03 7 11.0 299 
 ABAD BN  S   1   102530.802                              99   -0.08 7 11.0 299 
 P9   BZ  P   1   102529.150                              96    0.10 7 14.3 281 
 P9   BN  S   1   102532.097                              96    0.03 7 14.3 281 
 KHIA BZ EP   1   102530.510                              59    0.21 7 21.5 237 
 KHIA BE ES   1   102534.460                              59    0.14 7 21.5 237 
 ABTL BZ EP   1   102531.290                              59    0.12 7 26.3 301 
 ABTL BE ES   1   102535.940                              59    0.04 7 26.3 301 
 P4   BZ  P   1   102531.436                              59   -0.20 7 29.3 267 
 P4   BN  S   1   102536.779                              59    0.04 7 29.3 267 
 JNAK BZ EP   1   102532.500                              59   -0.01 7 34.4 232 
 JNAK BE ES   1   102538.200                              59   -0.13 7 34.4 232 
 P3   BZ  P   1   102532.675                              59   -0.27 7 36.6 265 
                                                                                
 2021  216 2045 31.4 L  28.697  51.203 10.7  SLT  9 0.3                 1.2L BI1
 GAP= 99        0.68       2.7     2.5  2.8 -0.4005E+00  0.1318E+01 -0.2160E+01E
 Action:ARG 21-12-18 20:21 OP:OBSP STATUS:               ID:20210216204531     I
 DUMMY                                                                         6
 STAT SP IPHASW D HRMM SECON CODA AMPLIT PERI AZIMU VELO AIN AR TRES W  DIS CAZ7
 KOLO BZ EP   1   204533.800                             153   -0.10 7 4.29  60 
 KOLO BE ES   1   204535.440                             153   -0.48 7 4.29  60 
 DLRM BZ EP   1   204534.950                             118    0.03 7 12.8 254 
 DLRM BE ES   1   204537.630                             118   -0.15 7 12.8 254 
 JNAK BZ EP   1   204535.690                             112    0.30 7 16.1 308 
 JNAK BE ES   1   204538.860                             112    0.24 7 16.1 308 
 KHIA BZ EP   1   204536.530                             106    0.50 7 19.8 349 
 ABAS BZ EP   1   204536.590                             106    0.34 7 20.2 155 
 AHRM HZ EP   1   204536.410                             106    0.34 7 20.5  26 
 TOLS BZ  P   1   204537.756                              68   -0.29 7 32.3 345 
 P5   BZ  P   1   204537.973                              68   -0.29 7 33.2 340 
 N6   BZ  P   1   204538.568                              68   -0.45 7 38.1 302 
                                                                                
 2021  217 2219 20.6 L  29.270  51.335  7.5  SLT  9 0.1                 2.6L BI1
 GAP=296        0.32       1.5     2.0  2.7  0.4183E+00 -0.2383E+01  0.4678E+00E
 Action:ARG 21-12-18 20:21 OP:OBSP STATUS:               ID:20210217221919     I
 DUMMY                                                                         6
 STAT SP IPHASW D HRMM SECON CODA AMPLIT PERI AZIMU VELO AIN AR TRES W  DIS CAZ7
 ABAD BZ EP   1   221926.520                              91   -0.09 7 27.9 197 
 ABAD BE ES   1   221931.390                              91   -0.10 7 27.9 197 
 ABTL BZ EP   1   221926.580                              91   -0.04 7 28.2 229 
 ABTL BE ES   1   221931.400                              91   -0.11 7 28.2 229 
 NOKA BZ EP   1   221926.920                              91   -0.06 7 30.7 252 
 NOKA BE ES   1   221932.170                              91   -0.00 7 30.7 252 
 P9   BZ EP   1   221927.310                              91    0.00 7 31.9 203 
 P9   BE ES   1   221932.640                              91   -0.12 7 31.9 203 
 TOLS BZ EP   1   221928.720                              91    0.37 7 38.5 213 
 TOLS BE ES   1   221934.890                              91    0.23 7 38.5 213 
 KHIA BZ EP   1   221929.780                              68   -0.04 7 46.9 201 
 KHIA BE ES   1   221937.280                              68   -0.03 7 46.9 201 
 JNAK BZ  P   1   221931.678                              68   -0.09 7 59.2 206 
 N18  BZ  P   1   221932.241                              68    0.03 7 61.5 233 
 KOLO BZ  P   1   221932.241                              68   -0.05 7 61.9 188 
 KOLO BE  S   1   221941.893                              68    0.11 7 61.9 188 
                                                                                
