 2022  612 1620 36.2 L  36.956  51.956  0.0       5 0.0 2.5l                   1
 Action:ARG 22-06-12 20:49 OP:OBSP STATUS:               ID:20220612162036     I
 STAT SP IPHASW D HRMM SECON CODA AMPLIT PERI AZIMU VELO AIN AR TRES W  DIS CAZ7
 OIXZ    EP   4   162052.154                                           98.8     
 OIXZ    ES   0   162054.277                                           98.8     
 VGNX    EP   2   162059.887                                            132     
 VGNX    ES   2   162058.542                                            132     
 TYAW    EP   4   162052.107                                           72.2     
 TYAW    ES   3   162049.214                                           72.2     
 PAMN    EP   4   162047.188                                           65.6     
 PAMN    ES   3   162049.988                                           65.6     
 MZGD    EP   1   162054.790                                           99.9     
 MZGD    ES   2   162055.007                                           99.9     
                                                                                

 2022  612 1621 36.2 L  36.948  51.948  0.0       6 0.0 3.0l                   1
 Action:ARG 22-06-12 20:49 OP:OBSP STATUS:               ID:20220612162136     I
 STAT SP IPHASW D HRMM SECON CODA AMPLIT PERI AZIMU VELO AIN AR TRES W  DIS CAZ7
 ESZY    EP   4   162153.198                                            115     
 ESZY    ES   0   162156.598                                            115     
 YOPU    EP   1   162156.526                                            115     
 YOPU    ES   2   162156.252                                            115     
 TYAW    EP   4   162151.327                                           71.0     
 TYAW    ES   4   162148.820                                           71.0     
 CIDP    EP   0   162158.345                                            127     
 CIDP    ES   4   162156.391                                            127     
 OIXZ    EP   0   162154.620                                          100.0     
 OIXZ    ES   4   162152.717                                          100.0     
 PAMN    EP   4   162147.127                                           64.4     
 PAMN    ES   4   162151.073                                           64.4     
                                                                                

 2022  612 1622 36.2 L  36.057  51.057  0.0      10 0.0 5.0l                   1
 Action:ARG 22-06-12 20:49 OP:OBSP STATUS:               ID:20220612162236     I
 STAT SP IPHASW D HRMM SECON CODA AMPLIT PERI AZIMU VELO AIN AR TRES W  DIS CAZ7
 YOPU    EP   2   162316.558                                            242     
 YOPU    ES   3   162316.202                                            242     
 OIXZ    EP   3   162315.562                                            227     
 OIXZ    ES   2   162314.268                                            227     
 HSDK    EP   0   162317.463                                            246     
 HSDK    ES   4   162316.393                                            246     
 TYAW    EP   4   162246.422                                           56.1     
 TYAW    ES   1   162248.230                                           56.1     
 PAMN    EP   4   162250.863                                           62.7     
 PAMN    ES   2   162248.484                                           62.7     
 CIDP    EP   4   162319.909                                            254     
 CIDP    ES   4   162317.106                                            254     
 MZGD    EP   4   162241.010                                           28.4     
 MZGD    ES   4   162241.142                                           28.4     
 AURM    EP   3   162237.043                                           5.33     
 AURM    ES   0   162237.994                                           5.33     
 VGNX    EP   2   162238.274                                           4.03     
 VGNX    ES   4   162235.903                                           4.03     
 ESZY    EP   4   162237.804                                           11.1     
 ESZY    ES   1   162238.452                                           11.1     
                                                                                

 2022  612 1623 36.2 L  36.085  51.085  0.0       9 0.0 4.5l                   1
 Action:ARG 22-06-12 20:49 OP:OBSP STATUS:               ID:20220612162336     I
 STAT SP IPHASW D HRMM SECON CODA AMPLIT PERI AZIMU VELO AIN AR TRES W  DIS CAZ7
 PAMN    EP   2   162348.889                                           58.6     
 PAMN    ES   1   162347.987                                           58.6     
 MZGD    EP   0   162341.507                                           24.3     
 MZGD    ES   1   162341.170                                           24.3     
 HSDK    EP   1   162416.468                                            242     
 HSDK    ES   2   162416.270                                            242     
 VGNX    EP   1   162338.744                                           8.08     
 VGNX    ES   4   162340.465                                           8.08     
 YOPU    EP   3   162417.361                                            238     
 YOPU    ES   3   162417.159                                            238     
 OIXZ    EP   1   162414.524                                            223     
 OIXZ    ES   2   162413.474                                            223     
 ESZY    EP   2   162338.787                                           7.07     
 ESZY    ES   4   162340.278                                           7.07     
 CIDP    EP   4   162416.738                                            250     
 CIDP    ES   2   162418.884                                            250     
 AURM    EP   3   162338.533                                           1.28     
 AURM    ES   0   162337.792                                           1.28     
                                                                                

 2022  612 1624 36.2 L  36.835  51.835  0.0       5 0.0 2.5l                   1
 Action:ARG 22-06-12 20:49 OP:OBSP STATUS:               ID:20220612162436     I
 STAT SP IPHASW D HRMM SECON CODA AMPLIT PERI AZIMU VELO AIN AR TRES W  DIS CAZ7
 MZGD    EP   4   162453.600                                           82.8     
 MZGD    ES   1   162452.260                                           82.8     
 ESZY    EP   3   162455.414                                            100     
 ESZY    ES   0   162454.754                                            100     
 CIDP    EP   0   1625 1.307                                            143     
 CIDP    ES   2   1625 0.541                                            143     
 AURM    EP   2   162456.123                                            105     
 AURM    ES   4   162456.906                                            105     
 OIXZ    EP   0   162456.776                                            115     
 OIXZ    ES   0   162457.195                                            115     
                                                                                

 2022  612 1625 36.2 L  36.736  51.736  0.0       6 0.0 3.0l                   1
 Action:ARG 22-06-12 20:49 OP:OBSP STATUS:               ID:20220612162536     I
 STAT SP IPHASW D HRMM SECON CODA AMPLIT PERI AZIMU VELO AIN AR TRES W  DIS CAZ7
 YOPU    EP   1   1626 1.282                                            146     
 YOPU    ES   4   1626 2.671                                            146     
 ESZY    EP   1   162552.145                                           85.8     
 ESZY    ES   4   162553.782                                           85.8     
 AURM    EP   0   162553.294                                           91.6     
 AURM    ES   0   162553.348                                           91.6     
 VGNX    EP   0   162554.828                                            100     
 VGNX    ES   4   162555.926                                            100     
 PAMN    EP   1   162543.332                                           34.3     
 PAMN    ES   1   162543.349                                           34.3     
 HSDK    EP   1   1626 2.488                                            149     
 HSDK    ES   0   1626 1.946                                            149     
                                                                                

 2022  612 1626 36.2 L  36.670  51.670  0.0       8 0.0 4.0l                   1
 Action:ARG 22-06-12 20:49 OP:OBSP STATUS:               ID:20220612162636     I
 STAT SP IPHASW D HRMM SECON CODA AMPLIT PERI AZIMU VELO AIN AR TRES W  DIS CAZ7
 CIDP    EP   2   1627 4.229                                            167     
 CIDP    ES   0   1627 4.732                                            167     
 ESZY    EP   2   162651.861                                           76.4     
 ESZY    ES   0   162650.918                                           76.4     
 HSDK    EP   3   1627 2.738                                            158     
 HSDK    ES   2   1627 2.913                                            158     
 OIXZ    EP   4   1627 1.973                                            139     
 OIXZ    ES   0   1627 0.847                                            139     
 VGNX    EP   0   162653.838                                           91.5     
 VGNX    ES   1   162653.885                                           91.5     
 PAMN    EP   2   162642.641                                           24.8     
 PAMN    ES   0   162642.185                                           24.8     
 MZGD    EP   4   162649.377                                           59.2     
 MZGD    ES   3   162649.012                                           59.2     
 TYAW    EP   4   162640.324                                           31.4     
 TYAW    ES   0   162643.036                                           31.4     
                                                                                

 2022  612 1627 36.2 L  36.308  51.308  0.0       3 0.0 1.5l                   1
 Action:ARG 22-06-12 20:49 OP:OBSP STATUS:               ID:20220612162736     I
 STAT SP IPHASW D HRMM SECON CODA AMPLIT PERI AZIMU VELO AIN AR TRES W  DIS CAZ7
 MZGD    EP   1   162739.130                                           7.59     
 MZGD    ES   0   162738.946                                           7.59     
 VGNX    EP   0   162744.908                                           40.0     
 VGNX    ES   4   162746.421                                           40.0     
 HSDK    EP   2   162811.147                                            210     
 HSDK    ES   2   162811.156                                            210     
                                                                                

 2022  612 1628 36.2 L  36.606  51.606  0.0       9 0.0 4.5l                   1
 Action:ARG 22-06-12 20:49 OP:OBSP STATUS:               ID:20220612162836     I
 STAT SP IPHASW D HRMM SECON CODA AMPLIT PERI AZIMU VELO AIN AR TRES W  DIS CAZ7
 PAMN    EP   1   162840.093                                           15.7     
 PAMN    ES   0   162840.488                                           15.7     
 AURM    EP   0   162850.800                                           73.1     
 AURM    ES   0   162850.759                                           73.1     
 ESZY    EP   0   162849.667                                           67.3     
 ESZY    ES   1   162849.194                                           67.3     
 CIDP    EP   4   1629 7.703                                            176     
 CIDP    ES   0   1629 6.460                                            176     
 HSDK    EP   4   1629 3.820                                            168     
 HSDK    ES   1   1629 5.361                                            168     
 MZGD    EP   4   162845.390                                           50.1     
 MZGD    ES   4   162847.538                                           50.1     
 VGNX    EP   0   162852.246                                           82.5     
 VGNX    ES   2   162851.516                                           82.5     
 TYAW    EP   1   162841.922                                           22.3     
 TYAW    ES   3   162840.570                                           22.3     
 YOPU    EP   4   1629 5.815                                            164     
 YOPU    ES   0   1629 4.668                                            164     
                                                                                

 2022  612 1629 36.2 L  36.607  51.607  0.0       9 0.0 4.5l                   1
 Action:ARG 22-06-12 20:49 OP:OBSP STATUS:               ID:20220612162936     I
 STAT SP IPHASW D HRMM SECON CODA AMPLIT PERI AZIMU VELO AIN AR TRES W  DIS CAZ7
 AURM    EP   2   162950.025                                           73.2     
 AURM    ES   2   162950.131                                           73.2     
 YOPU    EP   3   1630 5.431                                            164     
 YOPU    ES   0   1630 4.372                                            164     
 CIDP    EP   4   1630 7.724                                            176     
 CIDP    ES   0   1630 6.396                                            176     
 TYAW    EP   2   162942.267                                           22.4     
 TYAW    ES   2   162942.086                                           22.4     
 MZGD    EP   3   162947.326                                           50.2     
 MZGD    ES   4   162945.262                                           50.2     
 VGNX    EP   4   162953.312                                           82.6     
 VGNX    ES   0   162952.329                                           82.6     
 ESZY    EP   3   162948.710                                           67.4     
 ESZY    ES   2   162950.300                                           67.4     
 PAMN    EP   1   162940.884                                           15.9     
 PAMN    ES   4   162941.826                                           15.9     
 OIXZ    EP   2   1630 2.865                                            148     
 OIXZ    ES   1   1630 2.499                                            148     
                                                                                

