 2021  2 1  357 10.6 L  28.969  50.947 14.0   BI 18 0.2                 1.6L BI1
 Action:ARG 21-12-18 20:21 OP:OBSP STATUS:               ID:20210201035710     I
 DUMMY                                                                         6
 STAT SP IPHASW D HRMM SECON CODA AMPLIT PERI AZIMU VELO AIN AR TRES W  DIS CAZ7
 P2   BZ  P   1    35713.069                             163   -0.11   3.80 182 
 P2   BE  S   1    35715.038                             163   -0.01   3.80 182 
 P1   BZ  P   1    35713.109                             155   -0.18   5.70 219 
 P1   BE  S   1    35714.971                             155   -0.27   5.70 219 
 P3   BZ  P   1    35713.202                             164    0.03   3.60 128 
 P3   BE  S   1    35715.291                             164    0.26   3.60 128 
 N19  BZ  P   1    35713.282                             146   -0.21   8.30 252 
 N19  BE  S   1    35715.464                             146   -0.12   8.30 252 
 N16  BZ  P   1    35713.322                             144   -0.22   8.80 239 
 N16  BE  S   1    35715.504                             144   -0.16   8.80 239 
 N9   BZ  P   1    35713.721                             139    0.02   10.4 218 
 N9   BE  S   1    35715.943                             139           10.4 218 
 N20  BZ  P   1    35713.761                             137    0.02   10.8 268 
 N20  BE  S   1    35716.169                             137    0.15   10.8 268 
 N18  BE  S   1    35716.275                             134    0.06   11.9 250 
 N14  BZ  P   1    35714.373                             134    0.47   12.1 243 
 N14  BE  S   1    35716.288                             134    0.01   12.1 243 
 N17  BZ  P   1    35713.881                             132   -0.07   12.7 256 
 N17  BE  S   1    35716.461                             132    0.08   12.7 256 
 N6   BE  S   1    35716.036                             133   -0.31   12.5 216 
 N6   BZ  P   1    35713.535                             133   -0.41   12.5 216 
 N7   BZ  P   1    35714.240                             130    0.19   13.4 224 
 N7   BE  S   1    35716.661                             130    0.12   13.4 224 
 N13  BZ  P   1    35714.014                             128   -0.13   14.2 241 
 N13  BE  S   1    35716.927                             128    0.23   14.2 241 
 CAMP BZ  P   1    35714.399                             127    0.19   14.8 195 
 CAMP BN  S   1    35717.539                             127    0.71   14.8 195 
 N4   BZ  P   1    35714.399                             126    0.13   15.3 216 
 N4   BE  S   1    35717.260                             126    0.33   15.3 216 
 NOKA BZ  P   1    35715.889                              90    0.16   25.5  19 
 N11  BE ES   1    35716.740                             129    0.12   13.8 238 
 N15  BZ EP   1    35713.550                             138   -0.17   10.6 236 
 N15  BE ES   1    35715.910                             138   -0.08   10.6 236 
 N11  BZ EP   1    35714.000                             129   -0.09   13.8 238 
 N18  BZ EP   1    35713.770                             134   -0.09   11.9 250 
                                                                                
 2021  2 1  623  1.3 L  29.051  51.448 10.0   BI  7 0.2                 2.1L BI1
 Action:ARG 21-12-18 20:21 OP:OBSP STATUS:               ID:20210201062301     I
 DUMMY                                                                         6
 STAT SP IPHASW D HRMM SECON CODA AMPLIT PERI AZIMU VELO AIN AR TRES W  DIS CAZ7
 TOLS BZ  P   1    623 7.154                             101   -0.03   33.2 256 
 P4   BZ  P   1    623 8.310                              98           40.0 257 
 P4   BE  S   1    62313.791                              98    0.17   40.0 257 
 JNAK BE  S   1    62315.845                              97    0.23   46.8 231 
 JNAK BZ  P   1    623 9.534                              97    0.07   46.8 231 
 NOKA BZ  P   1    623 8.854                              98    0.03   43.0 290 
 NOKA BE  S   1    62314.662                              98    0.16   43.0 290 
 P9   BZ EP   1    623 5.620                             107   -0.06   24.1 258 
 KHIA BE ES   1    62312.200                             101    0.35   33.8 234 
 ABAD BE ES   1    623 7.110                             112   -0.65   19.4 263 
 TOLS BE ES   1    62311.810                             101    0.14   33.2 256 
 ABAD BZ EP   1    623 4.780                             112   -0.14   19.4 263 
 KHIA BZ EP   1    623 7.460                             101    0.18   33.8 234 
 P9   BE ES   1    623 8.940                             107   -0.13   24.1 258 
                                                                                
