 2021  221 1122 56.6 L  29.228  51.388  8.7  SLT 33 0.3                 3.9L BI1
 GAP=285        0.57       1.9     1.9  2.3 -0.5695E+00  0.1196E+01  0.8880E+00E
 Action:ARG 21-12-18 20:21 OP:OBSP STATUS:               ID:20210221112255     I
 DUMMY                                                                         6
 STAT SP IPHASW D HRMM SECON CODA AMPLIT PERI AZIMU VELO AIN AR TRES W  DIS CAZ7
 ABAD BZ EP   1   1123 2.300                              95    0.07 7 25.7 211 
 ABAD BE ES   1   1123 6.820                              95   -0.00 7 25.7 211 
 ABTL BZ EP   1   1123 2.740                              94   -0.15 7 29.9 242 
 ABTL BE ES   1   1123 7.810                              94   -0.21 7 29.9 242 
 P9   BZ EP   1   1123 3.130                              94    0.10 7 30.4 216 
 P9   BE ES   1   1123 8.460                              94    0.17 7 30.4 216 
 NOKA BZ EP   1   1123 3.310                              94   -0.36 7 34.7 262 
 NOKA BE ES   1   1123 9.330                              94   -0.11 7 34.7 262 
 TOLS BZ EP   1   1123 4.370                              93    0.10 7 38.1 224 
 TOLS BE ES   1   112310.760                              93    0.24 7 38.1 224 
 P5   BZ  P   1   1123 4.692                              68    0.01 7 40.2 227 
 P5   BE ES   1   112311.250                              68   -0.03 7 40.2 227 
 P4   BZ EP   1   1123 5.200                              68   -0.00 7 43.9 229 
 P4   BE ES   1   112312.030                              68   -0.18 7 43.9 229 
 KHIA BZ EP   1   1123 5.570                              68    0.18 7 44.9 209 
 KHIA BE ES   1   112312.730                              68    0.18 7 44.9 209 
 P3   BZ  P   1   1123 6.435                              68    0.09 7 50.6 232 
 P3   BE  S   1   112314.103                              68   -0.17 7 50.6 232 
 SHIF BZ EP   1   1123 6.660                              68   -0.04 7 53.0 251 
 SHIF BE ES   1   112315.350                              68    0.44 7 53.0 251 
 P2   BZ EP   1   1123 6.820                              68   -0.04 7 54.0 233 
 P2   BE ES   1   112315.190                              68   -0.02 7 54.0 233 
 JNAK BZ EP   1   1123 7.450                              68    0.03 7 57.7 212 
 JNAK BE  S   1   112316.253                              68    0.03 7 57.7 212 
 KOLO BZ  P   1   1123 7.916                              68    0.29 7 58.4 194 
 N19  BZ  P   1   1123 8.149                              68    0.37 7 59.6 239 
 N19  BE ES   1   112317.390                              68    0.51 7 59.6 239 
 N16  BZ  P   1   1123 8.032                              68    0.01 7 60.4 237 
 N16  BE  S   1   112317.938                              68    0.62 7 60.4 237 
 N9   BZ EP   1   1123 7.960                              68   -0.13 7 61.6 233 
 N9   BE ES   1   112316.580                              68   -0.85 7 61.6 233 
 N15  BZ EP   1   1123 8.000                              68   -0.19 7 62.2 236 
 N15  BE ES   1   112316.990                              68   -0.63 7 62.2 236 
 N18  BZ EP   1   1123 8.210                              68   -0.17 7 63.2 239 
 N18  BE  S   1   112318.664                              68    0.70 7 63.2 239 
 N6   BZ EP   1   1123 8.290                              68   -0.12 7 63.5 233 
 CAMP BZ EP   1   1123 8.340                              68   -0.07 7 63.6 227 
 CAMP BE ES   1   112318.050                              68    0.04 7 63.6 227 
 N17  BZ  P   1   1123 8.323                              68   -0.11 7 63.7 240 
 N17  BE  S   1   112318.693                              68    0.63 7 63.7 240 
 N14  BZ EP   1   1123 8.490                              68    0.08 7 63.7 238 
 N14  BE ES   1   112317.990                              68   -0.02 7 63.7 238 
 N10  BZ  P   1   1123 8.497                              68   -0.00 7 64.0 235 
 N10  BE  S   1   112317.938                              68   -0.24 7 64.0 235 
 N2   BZ  P   1   1123 8.788                              68    0.18 7 64.8 228 
 N2   BE  S   1   112318.315                              68   -0.05 7 64.8 228 
 N7   BZ  P   1   1123 8.526                              68   -0.08 7 64.8 234 
 N7   BE  S   1   112318.257                              68   -0.12 7 64.8 234 
 N5   BZ  P   1   1123 8.671                              68    0.04 7 64.9 229 
 N5   BE  S   1   112318.199                              68   -0.22 7 64.9 229 
 N11  BZ  P   1   1123 8.642                              68   -0.05 7 65.4 237 
 N11  BE  S   1   112318.315                              68   -0.21 7 65.4 237 
 N1   BZ  P   1   1123 8.991                              68    0.26 7 65.5 227 
 N1   BE  S   1   112318.635                              68    0.03 7 65.5 227 
 N13  BZ  P   1   1123 8.817                              68   -0.03 7 65.8 237 
 N13  BE  S   1   112318.606                              68   -0.20 7 65.8 237 
 N3   BZ  P   1   1123 9.020                              68    0.21 7 66.1 229 
 N3   BE  S   1   112318.635                              68   -0.11 7 66.1 229 
 N4   BZ  P   1   1123 9.223                              68    0.38 7 66.2 232 
 N4   BE  S   1   112318.461                              68   -0.34 7 66.2 232 
 DLRM BZ EP   1   1123 9.440                              68    0.09 7 69.3 206 
 DLRM BE ES   1   112319.620                              68   -0.10 7 69.3 206 
 ABAS BZ  P   1   1123 9.950                              68   -0.89 7 77.7 187 
                                                                                
 2021  221 1124  8.2 L  29.243  51.367  7.7  SLT  8 0.1                 2.7L BI1
 GAP=306        0.28       1.3     1.7  2.3 -0.3370E-01 -0.1310E+01  0.8771E+00E
 Action:ARG 21-12-18 20:21 OP:OBSP STATUS:               ID:20210221112407     I
 DUMMY                                                                         6
 STAT SP IPHASW D HRMM SECON CODA AMPLIT PERI AZIMU VELO AIN AR TRES W  DIS CAZ7
 ABAD BZ  P   1   112413.798                              92   -0.15 7 26.3 205 
 ABAD BE ES   1   112418.420                              92   -0.19 7 26.3 205 
 ABTL BZ EP   1   112414.310                              92   -0.06 7 29.0 237 
 ABTL BE ES   1   112419.400                              92    0.03 7 29.0 237 
 P9   BZ EP   1   112414.790                              92    0.06 7 30.7 211 
 P9   BE ES   1   112420.100                              92    0.09 7 30.7 211 
 NOKA BZ  P   1   112415.008                              92   -0.00 7 33.0 259 
 NOKA BE  S   1   112420.456                              92   -0.07 7 33.0 259 
 TOLS BZ  P   1   112415.944                              91    0.05 7 38.1 220 
 TOLS BE  S   1   112422.300                              91    0.17 7 38.1 220 
 P5   BZ  P   1   112416.439                              91    0.14 7 40.0 223 
 P5   BE  S   1   112422.795                              91   -0.06 7 40.0 223 
 KHIA BZ  P   1   112417.292                              68    0.09 7 45.4 206 
 KHIA BE  S   1   112424.556                              68    0.07 7 45.4 206 
 JNAK BZ  P   1   112419.108                              68   -0.09 7 58.1 210 
 JNAK BE  S   1   112428.023                              68   -0.09 7 58.1 210 
                                                                                
 2021  222 0015 45.0 L  28.944  50.795  8.1  SLT 13 0.1                 1.1L BI1
 GAP=268        0.28       0.9     1.5  1.2  0.2411E+00  0.2967E+00  0.2286E+00E
 Action:ARG 21-12-18 20:21 OP:OBSP STATUS:               ID:20210222001544     I
 DUMMY                                                                         6
 STAT SP IPHASW D HRMM SECON CODA AMPLIT PERI AZIMU VELO AIN AR TRES W  DIS CAZ7
 N17  BZ EP   1    01546.870                             157   -0.04 7 2.53  97 
 N17  BE ES   1    01548.400                             157   -0.07 7 2.53  97 
 N18  BZ EP   1    01546.950                             147   -0.09 7 3.77 109 
 N18  BE ES   1    01548.560                             147   -0.13 7 3.77 109 
 N20  BZ  P   1    01547.183                             140    0.12 7 4.67  58 
 N20  BE  S   1    01548.831                             140    0.10 7 4.67  58 
 N13  BZ  P   1    01547.118                             140   -0.06 7 4.69 150 
 N13  BE  S   1    01548.857                             140   -0.09 7 4.69 150 
 N14  BZ  P   1    01547.355                             139    0.26 7 4.83 125 
 N14  BE  S   1    01548.857                             139    0.06 7 4.83 125 
 N11  BZ EP   1    01547.240                             134    0.06 7 5.48 146 
 N11  BE ES   1    01549.030                             134    0.08 7 5.48 146 
 N15  BZ EP   1    01547.310                             126   -0.04 7 6.62 117 
 N15  BE ES   1    01549.250                             126   -0.01 7 6.62 117 
 N19  BZ EP   1    01547.380                             125   -0.01 7 6.90  88 
 N19  BE ES   1    01549.420                             125    0.08 7 6.90  88 
 N16  BZ  P   1    01547.500                             121   -0.10 7 7.49 104 
 N16  BE  S   1    01549.530                             121   -0.19 7 7.49 104 
 N10  BZ  P   1    01547.711                             119    0.16 7 7.89 136 
 N10  BE  S   1    01549.609                             119   -0.01 7 7.89 136 
 N7   BZ  P   1    01547.658                             115   -0.01 7 8.74 142 
 N7   BE  S   1    01549.912                             115    0.08 7 8.74 142 
 N9   BZ  P   1    01547.908                             110    0.06 7 9.96 123 
 N9   BE  S   1    01550.228                             110    0.06 7 9.96 123 
 N6   BZ  P   1    01547.605                             108   -0.33 7 10.4 135 
 N6   BE  S   1    01550.386                             108    0.06 7 10.4 135 
                                                                                
 2021  222 2112  5.5 L  28.922  51.107 10.9  SLT 34 0.1                 2.6L BI1
 GAP= 83        0.32       0.6     0.6  0.7  0.8641E-01  0.2148E+00  0.1858E+00E
 Action:ARG 21-12-18 20:21 OP:OBSP STATUS:               ID:20210222211206     I
 DUMMY                                                                         6
 STAT SP IPHASW D HRMM SECON CODA AMPLIT PERI AZIMU VELO AIN AR TRES W  DIS CAZ7
 TOLS BZ  P   1 D 2112 8.140                             143   -0.01 7 6.40   9 
 TOLS BE  S   1   211210.499                             143    0.20 7 6.40   9 
 P5   BZ  P   1 C 2112 8.090                             142   -0.15 7 6.60 343 
 P5   BE ES   1   211210.390                             142   -0.07 7 6.60 343 
 P4   BZ  P   1 C 2112 8.160                             138   -0.10 7 7.51 312 
 P4   BE ES   1   211210.380                             138   -0.13 7 7.51 312 
 KHIA BZ  P   1 D 2112 8.330                             136   -0.02 7 7.94 133 
 KHIA BE  S   1   211210.584                             136   -0.08 7 7.94 133 
 P3   BZ  P   1 D 2112 9.050                             119   -0.03 7 13.1 283 
 P3   BE ES   1   211212.120                             119    0.13 7 13.1 283 
 P9   BZ  P   1 D 2112 9.390                             118    0.20 7 13.3  46 
 JNAK BZ  P   1 D 2112 9.280                             114   -0.09 7 15.3 192 
 JNAK BE  S   1   211212.496                             114   -0.02 7 15.3 192 
 P2   BZ  P   1 D 2112 9.500                             113    0.01 7 15.8 275 
 P2   BE ES   1   211212.900                             113    0.17 7 15.8 275 
 ABAD BZ  P   1 D 211210.160                             109    0.17 7 18.4  50 
 P1   BZ  P   1 D 211210.000                             108    0.01 7 19.2 272 
 P1   BE ES   1   211213.860                             108    0.22 7 19.2 272 
 ABTL BZ  P   1 D 211210.340                             107    0.16 7 19.9   3 
 CAMP BZ  P   1 D 211210.290                              68   -0.11 7 21.4 245 
 CAMP BE ES   1   211214.590                              68    0.21 7 21.4 245 
 N9   BZ  P   1 D 211210.390                              68   -0.13 7 22.2 262 
 N9   BE  S   1   211214.662                              68    0.07 7 22.2 262 
 N2   BZ  P   1 D 211210.520                              68   -0.11 7 22.9 246 
 N2   BE  S   1   211214.887                              68    0.09 7 22.9 246 
 N1   BZ  P   1 D 211210.550                              68   -0.13 7 23.1 241 
 N1   BE ES   1   211215.370                              68    0.48 7 23.1 241 
 N16  BZ  P   1 D 211210.660                              68   -0.14 7 23.1 272 
 N16  BE ES   1   211214.920                              68   -0.18 7 23.1 272 
 N5   BZ  P   1 D 211210.640                              68   -0.07 7 23.3 248 
 N5   BE  S   1   211215.084                              68    0.15 7 23.3 248 
 N6   BZ  P   1 D 211210.630                              68   -0.11 7 23.5 258 
 N6   BE ES   1   211215.020                              68    0.03 7 23.5 258 
 N19  BZ  P   1 D 211210.640                              68   -0.12 7 23.6 277 
 N19  BE ES   1   211215.150                              68    0.12 7 23.6 277 
 N15  BZ  P   1 D 211210.760                              68   -0.13 7 24.4 269 
 N15  BE ES   1   211215.270                              68    0.00 7 24.4 269 
 N3   BZ  P   1 D 211210.760                              68   -0.12 7 24.5 247 
 N3   BE ES   1   211215.500                              68    0.25 7 24.5 247 
 N10  BZ EP   1   211210.800                              68   -0.20 7 25.0 263 
 N10  BE ES   1   211215.490                              68    0.03 7 25.0 263 
 N7   BZ  P   1 D 211210.860                              68   -0.17 7 25.3 260 
 N7   BE ES   1   211215.420                              68   -0.09 7 25.3 260 
 N4   BZ  P   1 D 211210.860                              68   -0.23 7 25.6 254 
 N4   BE ES   1   211215.700                              68    0.07 7 25.6 254 
 KOLO BZ  P   1 C 211211.230                              68    0.01 7 26.2 150 
 KOLO BE ES   1   211215.860                              68   -0.01 7 26.2 150 
 N14  BZ  P   1 D 211211.070                              68   -0.11 7 26.4 269 
 N14  BE ES   1   211215.830                              68    0.05 7 26.4 269 
 N18  BZ  P   1 D 211211.170                              68   -0.13 7 26.8 273 
 N20  BZ  P   1 D 211211.150                              68   -0.08 7 26.8 281 
 N18  BE ES   1   211215.950                              68   -0.06 7 26.8 273 
 N20  BE ES   1   211216.000                              68    0.12 7 26.8 281 
 N11  BZ  P   1 D 211211.200                              68   -0.14 7 27.3 266 
 N11  BE ES   1   211216.090                              68    0.01 7 27.3 266 
 N17  BZ  P   1 D 211211.320                              68   -0.14 7 27.9 274 
 N17  BE ES   1   211216.370                              68    0.08 7 27.9 274 
 SHIF BZ EP   1   211211.430                              68   -0.01 7 27.9 306 
 N13  BZ  P   1 D 211211.380                              68   -0.17 7 28.1 267 
 N13  BE ES   1   211216.310                              68   -0.15 7 28.1 267 
 NOKA BZ  P   1 D 211212.060                              68    0.29 7 30.1 346 
 ABAS BZ EP   1   211215.010                              68    0.37 7 46.8 157 
                                                                                
