 2021  223 2101 36.3 L  29.252  51.374  8.7  SLT  8 0.2                 2.2L BI1
 GAP=308        0.41       1.9     2.5  2.6  0.6332E-01 -0.1416E+01  0.1231E+01E
 Action:ARG 21-12-18 20:21 OP:OBSP STATUS:               ID:20210223210135     I
 DUMMY                                                                         6
 STAT SP IPHASW D HRMM SECON CODA AMPLIT PERI AZIMU VELO AIN AR TRES W  DIS CAZ7
 ABAD BZ EP   1   21 142.380                              95    0.11 7 27.5 206 
 ABAD BE ES   1   21 146.870                              95   -0.24 7 27.5 206 
 ABTL BZ EP   1   21 142.800                              94    0.13 7 30.1 236 
 ABTL BE ES   1   21 147.890                              94    0.05 7 30.1 236 
 P9   BZ EP   1   21 143.180                              94    0.14 7 31.9 211 
 P9   BE ES   1   21 148.560                              94    0.05 7 31.9 211 
 NOKA BZ  P   1   21 142.811                              94   -0.45 7 33.9 258 
 NOKA BE  S   1   21 148.988                              94    0.07 7 33.9 258 
 TOLS BZ  P   1   21 144.035                              93   -0.17 7 39.3 220 
 TOLS BE  S   1   21 150.824                              93    0.20 7 39.3 220 
 P4   BZ  P   1   21 145.176                              68    0.09 7 44.7 225 
 P4   BE  S   1   21 152.299                              68    0.09 7 44.7 225 
 KHIA BZ  P   1   21 145.593                              68    0.17 7 46.7 206 
 KHIA BE  S   1   21 152.577                              68   -0.24 7 46.7 206 
 JNAK BZ  P   1   21 147.513                              68    0.09 7 59.3 210 
 JNAK BE  S   1   21 156.361                              68   -0.09 7 59.3 210 
                                                                                
 2021  224 0658  1.9 L  29.039  51.460  1.3  SLT 14 0.3                 2.8L BI1
 GAP=275        0.68       3.0     2.9  2.2  0.1863E+01 -0.1168E+01  0.2563E+01E
 Action:ARG 21-12-18 20:21 OP:OBSP STATUS:               ID:20210224065801     I
 DUMMY                                                                         6
 STAT SP IPHASW D HRMM SECON CODA AMPLIT PERI AZIMU VELO AIN AR TRES W  DIS CAZ7
 ABAD BZ EP   1    658 7.200                              94    0.12 7 20.3 267 
 ABAD BE ES   1    65811.320                              94    0.01 7 20.3 267 
 P9   BZ  P   1    658 8.092                              93   -0.17 7 25.0 261 
 ABTL BZ  P   1    658 9.455                              43   -0.34 7 34.0 282 
 ABTL BE ES   1    65816.100                              43   -0.12 7 34.0 282 
 KHIA BE ES   1    65816.080                              43   -0.08 7 34.0 237 
 TOLS BZ  P   1    658 9.682                              43   -0.05 7 34.0 259 
 KHIA BZ EP   1    658 9.540                              43   -0.22 7 34.0 237 
 P5   BZ  P   1    65810.761                              43    0.46 7 36.9 260 
 P4   BZ  P   1    65811.499                              43    0.59 7 40.8 259 
 KOLO BZ EP   1    65810.890                              43   -0.23 7 41.6 211 
 KOLO BE ES   1    65818.950                              43    0.33 7 41.6 211 
 JNAK BZ EP   1    65811.730                              43   -0.23 7 46.9 234 
 JNAK BE ES   1    65819.980                              43   -0.17 7 46.9 234 
 ABAS BZ  P   1    65814.055                              40   -0.08 7 58.6 196 
 N2   BZ  P   1    65813.487                              40   -0.66 7 59.6 248 
 N5   BZ  P   1    65813.999                              40   -0.23 7 60.1 249 
 N15  BZ  P   1    65814.794                              40    0.52 7 60.3 257 
 N3   BZ  P   1    65814.964                              40    0.56 7 61.2 249 
                                                                                
 2021  224 1947  1.3 L  29.053  51.217 13.3  SLT 10 0.2                 1.6L BI1
 GAP=191        0.52       1.9     2.2  2.5  0.3824E+00  0.2094E+01  0.1260E+01E
 Action:ARG 21-12-18 20:21 OP:OBSP STATUS:               ID:20210224194701     I
 DUMMY                                                                         6
 STAT SP IPHASW D HRMM SECON CODA AMPLIT PERI AZIMU VELO AIN AR TRES W  DIS CAZ7
 ABAD BZ EP   1   1947 4.570                             158    0.36 7 4.28 129 
 ABAD BE ES   1   1947 6.620                             158    0.03 7 4.28 129 
 P9   BZ EP   1   1947 4.430                             152    0.13 7 5.46 191 
 P9   BE ES   1   1947 6.520                             152   -0.22 7 5.46 191 
 ABTL BZ EP   1   1947 4.960                             130    0.15 7 11.1 299 
 ABTL BE ES   1   1947 7.430                             130   -0.24 7 11.1 299 
 TOLS BZ  P   1   1947 5.082                             125    0.11 7 12.7 230 
 TOLS BE  S   1   1947 7.817                             125   -0.14 7 12.7 230 
 P5   BZ  P   1   1947 5.473                             119    0.11 7 15.1 237 
 P5   BE  S   1   1947 8.544                             119   -0.12 7 15.1 237 
 P4   BZ  P   1   1947 5.985                             111    0.13 7 18.9 240 
 P4   BE  S   1   1947 9.703                             111    0.15 7 18.9 240 
 KHIA BZ  P   1   1947 5.527                             108   -0.60 7 20.6 194 
 KHIA BE ES   1   194710.370                             108    0.31 7 20.6 194 
 P3   BZ  P   1   1947 7.130                             102    0.11 7 26.2 244 
 P3   BE  S   1   194711.858                             102    0.19 7 26.2 244 
 P2   BZ  P   1   1947 7.426                             100   -0.11 7 29.5 244 
 JNAK BZ  P   1   1947 7.561                              98   -0.44 7 32.7 205 
 JNAK BE  S   1   194713.514                              98    0.08 7 32.7 205 
                                                                                
 2021  224 2121 39.6 L  29.211  51.398  8.4  SLT 20 0.2                 2.5L BI1
 GAP=302        0.43       1.8     1.9  2.0 -0.6606E+00  0.4588E+00 -0.1302E+00E
 Action:ARG 21-12-18 20:21 OP:OBSP STATUS:               ID:20210224212138     I
 DUMMY                                                                         6
 STAT SP IPHASW D HRMM SECON CODA AMPLIT PERI AZIMU VELO AIN AR TRES W  DIS CAZ7
 ABAD BZ EP   1   212145.100                              95    0.03 7 24.7 215 
 ABAD BE ES   1   212149.120                              95   -0.40 7 24.7 215 
 P9   BZ EP   1   212146.000                              94    0.10 7 29.5 219 
 P9   BE ES   1   212151.010                              94   -0.02 7 29.5 219 
 ABTL BZ EP   1   212145.870                              94   -0.05 7 29.9 246 
 ABTL BE ES   1   212150.760                              94   -0.31 7 29.9 246 
 TOLS BZ EP   1   212147.260                              93    0.07 7 37.5 227 
 TOLS BE ES   1   212153.560                              93    0.21 7 37.5 227 
 P5   BZ EP   1   212147.560                              93   -0.07 7 39.7 230 
 P5   BE ES   1   212154.380                              93    0.22 7 39.7 230 
 AHRM HZ  P   1   212148.034                              93    0.52 7 39.7 195 
 P4   BZ  P   1   212148.180                              68    0.01 7 43.4 232 
 P4   BE ES   1   212155.320                              68    0.18 7 43.4 232 
 KHIA BZ EP   1   212148.370                              68    0.12 7 43.7 211 
 KHIA BE ES   1   212155.330                              68    0.05 7 43.7 211 
 P3   BZ  P   1   212149.224                              68   -0.11 7 50.3 235 
 P3   BE  S   1   212157.245                              68    0.01 7 50.3 235 
 SHIF BZ  P   1   212149.775                              68   -0.02 7 53.4 253 
 SHIF BE ES   1   212158.210                              68    0.14 7 53.4 253 
 JNAK BZ EP   1   212150.250                              68   -0.05 7 56.7 214 
 JNAK BE ES   1   212159.080                              68    0.10 7 56.7 214 
 KOLO BZ  P   1   212149.964                              68   -0.45 7 56.8 196 
 N18  BZ  P   1   212151.327                              68   -0.09 7 63.1 241 
 N18  BE ES   1   2122 0.790                              68   -0.21 7 63.1 241 
 N2   BZ  P   1   212151.530                              68   -0.04 7 64.3 230 
 N5   BZ  P   1   212151.602                              68   -0.00 7 64.5 231 
 N1   BZ  P   1   212151.777                              68    0.09 7 65.0 229 
 N11  BZ  P   1   212151.370                              68   -0.34 7 65.2 239 
 N13  BZ  P   1   212152.270                              68    0.40 7 65.7 239 
 N4   BZ EP   1   212151.950                              68    0.12 7 65.9 234 
 N4   BE ES   1   2122 1.900                              68    0.14 7 65.9 234 
 DLRM BZ EP   1   212151.960                              68   -0.24 7 68.1 207 
 DLRM BE ES   1   2122 2.240                              68   -0.18 7 68.1 207 
                                                                                
 2021  225 0035 45.4 L  28.625  51.185  6.2  SLT  8 0.3                 1.7L BI1
 GAP=158        0.58       2.1     1.7  2.5 -0.2543E+00  0.1375E+00 -0.1675E+01E
 Action:ARG 21-12-18 20:21 OP:OBSP STATUS:               ID:20210225003545     I
 DUMMY                                                                         6
 STAT SP IPHASW D HRMM SECON CODA AMPLIT PERI AZIMU VELO AIN AR TRES W  DIS CAZ7
 DLRM BZ EP   1    03548.280                             103   -0.17 7 11.4 293 
 DLRM BE ES   1    03550.760                             103   -0.19 7 11.4 293 
 KOLO BZ EP   1    03548.550                             102    0.04 7 11.6  28 
 KOLO BE ES   1    03551.300                             102    0.23 7 11.6  28 
 ABAS BZ EP   1    03549.230                              98    0.02 7 14.6 135 
 JNAK BZ EP   1    03550.000                              59   -0.16 7 21.0 329 
 JNAK BE ES   1    03554.120                              59    0.07 7 21.0 329 
 AHRM HZ EP   1    03551.040                              59   -0.39 7 28.6  22 
 AHRM HE ES   1    03556.150                              59   -0.20 7 28.6  22 
 N9   BZ  P   1    03553.873                              59    0.01 7 42.1 315 
 P9   BZ  P   1    03553.982                              59    0.02 7 42.2   3 
 N10  BZ  P   1    03554.936                              59    0.72 7 44.0 313 
                                                                                
 2021  226 0628 35.7 L  28.829  50.857  7.8  SLT  8 0.0                 1.4L BI1
 GAP=254        0.21       1.0     1.5  1.1  0.6623E+00  0.5250E+00  0.4107E-01E
 Action:ARG 21-12-18 20:21 OP:OBSP STATUS:               ID:20210226062835     I
 DUMMY                                                                         6
 STAT SP IPHASW D HRMM SECON CODA AMPLIT PERI AZIMU VELO AIN AR TRES W  DIS CAZ7
 N3   BZ  P   1    62837.530                             161    0.00 7 1.97  62 
 N3   BN  S   1    62839.014                             161    0.01 7 1.97  62 
 N5   BZ EP   1    62837.620                             151   -0.01 7 3.15  60 
 N5   BE ES   1    62839.120                             151   -0.06 7 3.15  60 
 N4   BZ EP   1    62837.660                             150    0.02 7 3.26 355 
 N4   BE ES   1    62839.200                             150   -0.01 7 3.26 355 
 N2   BZ  P   1    62837.674                             146    0.01 7 3.62  75 
 N2   BN  S   1    62839.238                             146   -0.00 7 3.62  75 
 N1   BZ  P   1    62837.793                             142    0.06 7 4.16 100 
 N1   BN  S   1    62839.421                             142    0.05 7 4.16 100 
 CAMP BZ EP   1    62837.810                             135   -0.02 7 5.10  77 
 CAMP BE ES   1    62839.500                             135   -0.04 7 5.10  77 
 N6   BZ  P   1    62837.898                             131   -0.01 7 5.63  14 
 N6   BN  S   1    62839.684                             131    0.00 7 5.63  14 
 N9   BZ  P   1    62838.095                             117   -0.09 7 7.71  18 
 N9   BE  S   1    62840.288                             117    0.09 7 7.71  18 
                                                                                
 2021  226 1902 56.0 L  29.066  51.363  9.0  SLT 20 0.2                 2.5L BI1
 GAP=280        0.36       1.2     1.6  1.6  0.1670E+00 -0.1087E+00  0.8884E+00E
 Action:ARG 21-12-18 20:21 OP:OBSP STATUS:               ID:20210226190255     I
 DUMMY                                                                         6
 STAT SP IPHASW D HRMM SECON CODA AMPLIT PERI AZIMU VELO AIN AR TRES W  DIS CAZ7
 ABAD BZ  P   1   19 259.025                             112   -0.24 7 11.7 250 
 P9   BZ  P   1   19 3 0.019                             102   -0.09 7 16.7 246 
 ABTL BZ EP   1   19 3 1.350                              97   -0.00 7 24.3 279 
 ABTL BE ES   1   19 3 5.530                              97   -0.18 7 24.3 279 
 TOLS BZ EP   1   19 3 1.760                              96    0.20 7 25.9 248 
 TOLS BE ES   1   19 3 6.200                              96    0.11 7 25.9 248 
 P5   BZ  P   1   19 3 2.181                              95    0.08 7 28.6 250 
 P5   BE  S   1   19 3 7.123                              95    0.05 7 28.6 250 
 KHIA BZ EP   1   19 3 2.380                              95    0.29 7 28.7 222 
 KHIA BE ES   1   19 3 7.070                              95    0.03 7 28.7 222 
 P4   BZ  P   1   19 3 2.282                              95   -0.43 7 32.5 250 
 NOKA BZ EP   1   19 3 3.280                              94    0.18 7 34.7 293 
 NOKA BE ES   1   19 3 8.950                              94    0.08 7 34.7 293 
 P3   BZ  P   1   19 3 4.068                              68    0.05 7 39.9 251 
 JNAK BZ EP   1   19 3 4.400                              68    0.12 7 41.9 223 
 JNAK BE ES   1   19 310.780                              68   -0.22 7 41.9 223 
 P2   BZ  P   1   19 3 4.515                              68   -0.02 7 43.3 251 
 N6   BZ  P   1   19 3 5.971                              68   -0.03 7 52.3 247 
 N2   BZ  P   1   19 3 5.985                              68   -0.02 7 52.4 241 
 DLRM BZ EP   1   19 3 6.190                              68    0.16 7 52.5 212 
 DLRM BE ES   1   19 313.950                              68   -0.23 7 52.5 212 
 N1   BZ  P   1   19 3 6.143                              68    0.07 7 52.7 239 
 N1   BE  S   1   19 314.574                              68    0.32 7 52.7 239 
 N5   BZ  P   1   19 3 6.057                              68   -0.01 7 52.8 242 
 N5   BE  S   1   19 314.314                              68    0.06 7 52.8 242 
 N18  BZ  P   1   19 3 6.115                              68   -0.16 7 53.8 254 
 N18  BE  S   1   19 314.487                              68   -0.12 7 53.8 254 
 N3   BZ  P   1   19 3 6.259                              68    0.01 7 53.9 242 
 N3   BE  S   1   19 314.660                              68    0.09 7 53.9 242 
 N4   BZ  P   1   19 3 6.360                              68   -0.04 7 54.7 245 
 N11  BZ  P   1   19 3 6.331                              68   -0.13 7 55.3 251 
                                                                                
 2021  227 0550 40.9 L  29.059  51.348  5.7  SLT  9 0.1                 2.1L BI1
 GAP=286        0.36       1.3     2.9  2.2  0.1183E+01  0.3836E+01  0.6936E+00E
 Action:ARG 21-12-18 20:21 OP:OBSP STATUS:               ID:20210227055040     I
 DUMMY                                                                         6
 STAT SP IPHASW D HRMM SECON CODA AMPLIT PERI AZIMU VELO AIN AR TRES W  DIS CAZ7
 ABAD BZ  P   1    55043.732                             100    0.01 7 10.0 250 
 P9   BZ  P   1    55044.748                              94    0.00 7 15.1 247 
 ABTL BZ EP   1    55046.160                              59    0.03 7 23.0 282 
 ABTL BE ES   1    55050.220                              59   -0.17 7 23.0 282 
 TOLS BZ  P   1    55046.431                              59    0.14 7 24.2 248 
 TOLS BE ES   1    55050.850                              59    0.17 7 24.2 248 
 P5   BZ  P   1    55046.445                              59   -0.39 7 26.9 251 
 KHIA BZ EP   1    55047.000                              59    0.16 7 27.2 221 
 KHIA BE ES   1    55051.800                              59    0.12 7 27.2 221 
 P4   BZ  P   1    55047.516                              59    0.07 7 30.9 251 
 P4   BE  S   1    55052.788                              59    0.01 7 30.9 251 
 NOKA BZ EP   1    55047.970                              59    0.04 7 33.6 295 
 NOKA BE ES   1    55053.730                              59    0.08 7 33.6 295 
 JNAK BZ EP   1    55049.010                              59   -0.08 7 40.4 222 
 JNAK BE ES   1    55055.540                              59   -0.21 7 40.4 222 
                                                                                
 2021  228 0149  7.5 L  28.827  50.861  7.6  SLT 10 0.1                 1.3L BI1
 GAP=240        0.21       0.9     1.3  1.0  0.6203E+00  0.5592E+00 -0.8053E-01E
 Action:ARG 21-12-18 20:21 OP:OBSP STATUS:               ID:20210228014907     I
 DUMMY                                                                         6
 STAT SP IPHASW D HRMM SECON CODA AMPLIT PERI AZIMU VELO AIN AR TRES W  DIS CAZ7
 N3   BZ EP   1    149 9.270                             163   -0.03 7 1.75  51 
 N3   BE ES   1    14910.780                             163    0.04 7 1.75  51 
 N5   BZ EP   1    149 9.380                             152   -0.02 7 2.93  53 
 N5   BE ES   1    14910.880                             152   -0.03 7 2.93  53 
 N2   BZ EP   1    149 9.390                             148   -0.03 7 3.30  70 
 N2   BE ES   1    14910.980                             148    0.03 7 3.30  70 
 N4   BZ EP   1    149 9.370                             146   -0.09 7 3.51 349 
 N4   BE ES   1    14910.990                             146   -0.03 7 3.51 349 
 N1   BZ EP   1    149 9.480                             144   -0.00 7 3.74  98 
 N1   BE ES   1    14911.160                             144    0.10 7 3.74  98 
 CAMP BZ EP   1    149 9.540                             136   -0.04 7 4.76  74 
 CAMP BE ES   1    14911.280                             136    0.04 7 4.76  74 
 N6   BZ EP   1    149 9.640                             128   -0.07 7 5.74  10 
 N6   BE ES   1    14911.420                             128   -0.07 7 5.74  10 
 N9   BZ  P   1    149 9.952                             114   -0.05 7 7.78  14 
 N9   BE  S   1    14912.070                             114    0.06 7 7.78  14 
 N11  BZ  P   1    14910.373                             107    0.17 7 9.06 338 
 N11  BE  S   1    14912.451                             107    0.08 7 9.06 338 
 N15  BZ  P   1    14910.386                             103    0.01 7 9.99 357 
 N15  BE  S   1    14912.648                             103   -0.04 7 9.99 357 
                                                                                
