 2021  2 2 0628 35.6 L  28.834  50.856  8.0  SLT  8 0.1                        1
 GAP=249        0.26       0.9     1.4  1.0  0.5717E+00  0.3922E+00  0.4140E-01E
 STAT SP IPHASW D HRMN SECON CODA AMPLIT PERI AZIMU VELO AIN AR TRES W  DIS CAZ7
 N3       P   0 ? 0628 37.48                             162   -0.0410 1.92  814
 N3       S   0   0628 39.10                             162    0.0510 1.92  814
 N4       P   0 ? 0628 37.58                             156    0.0210 2.63 3574
 N4       S   0   0628 39.21                             156    0.0810 2.63 3574
 N5       P   0 ? 0628 37.61                             152    0.0210 3.03  724
 N5       S   0   0628 39.14                             152   -0.0510 3.03  724
 N2       P   0 ? 0628 37.66                             147    0.0210 3.66  854
 N2       S   0   0628 39.27                             147   -0.0110 3.66  854
 N1       P   0 ? 0628 37.69                             140   -0.0410 4.45 1084
 N1       S   0   0628 39.42                             140   -0.0310 4.45 1084
 N6       P   0 ? 0628 37.81                             136    0.0010 5.07  174
 N6       S   0   0628 39.40                             136   -0.1810 5.07  174
 CAMP     P   0 ? 0628 37.77                             135   -0.0410 5.14  844
 CAMP     S   0   0628 39.68                             135    0.1010 5.14  844
 N9       P   0 ? 0628 38.13                             121    0.0410 7.16  204
 N9       S   0   0628 40.16                             121    0.0710 7.16  204
                                                                                
 2021  2 2 0149  7.5 L  28.834  50.865  7.6  SLT 10 0.1                        1
 GAP=222        0.24       0.7     1.0  0.8  0.4079E+00  0.2578E+00 -0.1041E+00E
 STAT SP IPHASW D HRMN SECON CODA AMPLIT PERI AZIMU VELO AIN AR TRES W  DIS CAZ7
 N3       P   0 ? 0149  9.25                             169   -0.0510 1.03  734
 N3       S   0   0149 10.78                             169    0.0310 1.03  734
 N5       P   0 ? 0149  9.41                             158    0.0510 2.19  644
 N5       S   0   0149 10.91                             158    0.0510 2.19  644
 N2       P   0 ? 0149  9.35                             152   -0.0410 2.76  844
 N2       S   0   0149 10.92                             152    0.0010 2.76  844
 N4       P   0 ? 0149  9.36                             152   -0.0510 2.83 3384
 N4       S   0   0149 10.87                             152   -0.0710 2.83 3384
 N1       P   0 ? 0149  9.40                             145   -0.0810 3.60 1124
 N1       S   0   0149 11.10                             145    0.0310 3.60 1124
 CAMP     P   0 ? 0149  9.63                             139    0.0910 4.24  834
 CAMP     S   0   0149 11.13                             139   -0.0610 4.24  834
 N6       P   0 ? 0149  9.60                             134   -0.0310 4.88   74
 N6       S   0   0149 11.40                             134    0.0610 4.88   74
 N9       P   0 ? 0149  9.97                             118    0.0610 6.91  134
 N9       S   0   0149 11.85                             118   -0.0010 6.91  134
 N11      P   0 ? 0149 10.19                             108    0.0310 8.46 3344
 N11      S   0   0149 12.39                             108    0.0910 8.46 3344
 N15      P   0 ? 0149 10.32                             105    0.0310 9.21 3554
 N15      S   0   0149 12.39                             105   -0.1410 9.21 3554
                                                                                
 2021  2 2 1442 27.9 L  28.831  50.859  7.7  SLT 10 0.1                        1
 GAP=234        0.27       0.8     1.2  1.0  0.6351E+00  0.5083E+00  0.2941E-01E
 STAT SP IPHASW D HRMN SECON CODA AMPLIT PERI AZIMU VELO AIN AR TRES W  DIS CAZ7
 N3       P   0 ? 1442 29.68                             163   -0.0610 1.68  684
 N3       S   0   1442 31.17                             163   -0.0610 1.68  684
 N5       P   0 ? 1442 29.84                             152    0.0210 2.85  634
 N5       S   0   1442 31.49                             152    0.1210 2.85  634
 N4       P   0 ? 1442 29.89                             151    0.0610 3.01 3504
 N4       S   0   1442 31.47                             151    0.0810 3.01 3504
 N2       P   0 ? 1442 29.95                             148    0.1010 3.37  794
 N2       S   0   1442 31.46                             148    0.0210 3.37  794
 N1       P   0 ? 1442 29.86                             142   -0.0710 4.03 1054
 N1       S   0   1442 31.45                             142   -0.1210 4.03 1054
 CAMP     P   0 ? 1442 29.99                             135   -0.0310 4.85  804
 CAMP     S   0   1442 31.79                             135    0.0510 4.85  804
 N6       P   0 ? 1442 30.08                             132   -0.0010 5.31  134
 N6       S   0   1442 31.80                             132   -0.0610 5.31  134
 N10      P   0 ? 1442 30.29                             121   -0.0110 6.88 3544
 N10      S   0   1442 32.06                             121   -0.1910 6.88 3544
 N9       P   0 ? 1442 30.43                             117    0.0510 7.39  174
 N9       S   0   1442 32.43                             117    0.0410 7.39  174
 N11      P   0 ? 1442 30.56                             111   -0.0010 8.55 3394
 N11      S   0   1442 32.78                             111    0.0510 8.55 3394
                                                                                
 2021  2 2 1536 41.5 L  28.831  50.867  8.6  SLT  9 0.1                        1
 GAP=228        0.24       0.8     1.4  0.9  0.6996E+00  0.3933E+00  0.3496E-01E
 STAT SP IPHASW D HRMN SECON CODA AMPLIT PERI AZIMU VELO AIN AR TRES W  DIS CAZ7
 N3       P   0 ? 1536 43.42                             171   -0.0310 1.00  504
 N3       S   0   1536 45.13                             171    0.0910 1.00  504
 N5       P   0 ? 1536 43.48                             161   -0.0210 2.18  534
 N5       S   0   1536 45.18                             161    0.0410 2.18  534
 N2       P   0 ? 1536 43.50                             158   -0.0210 2.61  764
 N2       S   0   1536 45.17                             158    0.0010 2.61  764
 N4       P   0 ? 1536 43.62                             153    0.0510 3.23 3374
 N4       S   0   1536 45.22                             153   -0.0410 3.23 3374
 N1       P   0 ? 1536 43.58                             153    0.0010 3.28 1084
 N1       S   0   1536 45.30                             153    0.0310 3.28 1084
 CAMP     P   0 ? 1536 43.70                             146    0.0610 4.08  784
 CAMP     S   0   1536 45.26                             146   -0.1310 4.08  784
 N6       P   0 ? 1536 43.79                             139    0.0210 5.19   44
 N6       S   0   1536 45.53                             139   -0.0910 5.19   44
 N10      P   0 ? 1536 43.93                             128   -0.0710 7.00 3484
 N10      S   0   1536 46.01                             128   -0.0210 7.00 3484
 N9       P   0 ? 1536 44.05                             126    0.0310 7.19  114
 N9       S   0   1536 46.20                             126    0.1210 7.19  114
                                                                                
 2021  2 2 1550 48.6 L  28.822  50.853  7.7  SLT  8 0.1                        1
 GAP=272        0.27       1.0     1.6  1.3  0.8995E+00  0.1125E+01  0.1837E+00E
 STAT SP IPHASW D HRMN SECON CODA AMPLIT PERI AZIMU VELO AIN AR TRES W  DIS CAZ7
 N3       P   0 ? 1550 50.52                             153    0.0510 2.75  534
 N5       P   0 ? 1550 50.58                             143   -0.0110 3.93  544
 N5       S   0   1550 52.22                             143   -0.0010 3.93  544
 N4       P   0 ? 1550 50.62                             142    0.0310 4.00   24
 N4       S   0   1550 52.21                             142   -0.0210 4.00   24
 N2       P   0 ? 1550 50.57                             140   -0.0510 4.28  674
 N2       S   0   1550 52.29                             140    0.0110 4.28  674
 N1       P   0 ? 1550 50.60                             138   -0.0510 4.53  904
 N1       S   0   1550 52.24                             138   -0.1010 4.53  904
 CAMP     P   0 ? 1550 50.80                             128    0.0010 5.73  714
 CAMP     S   0   1550 52.70                             128    0.0910 5.73  714
 N6       P   0 ? 1550 50.98                             123    0.0710 6.47  164
 N6       S   0   1550 52.92                             123    0.1010 6.47  164
 N15      P   0 ? 1550 51.63                             102    0.0610 10.5   24
 N15      S   0   1550 53.83                             102   -0.1710 10.5   24
                                                                                
 2021  2 2 1642 55.2 L  28.825  50.852  8.2  SLT 10 0.1                        1
 GAP=250        0.27       0.9     1.3  1.1  0.7508E+00  0.8034E+00  0.2005E+00E
 STAT SP IPHASW D HRMN SECON CODA AMPLIT PERI AZIMU VELO AIN AR TRES W  DIS CAZ7
 N3       P   0 ? 1642 57.21                             157    0.0510 2.59  604
 N3       S   0   1642 58.81                             157    0.0510 2.59  604
 N4       P   0 ? 1642 57.22                             148   -0.0210 3.63   34
 N4       S   0   1642 58.94                             148    0.0310 3.63   34
 N5       P   0 ? 1642 57.24                             147   -0.0210 3.76  594
 N5       S   0   1642 58.93                             147   -0.0110 3.76  594
 N2       P   0 ? 1642 57.39                             143    0.1010 4.20  724
 N2       S   0   1642 58.91                             143   -0.0910 4.20  724
 N1       P   0 ? 1642 57.29                             141   -0.0510 4.59  954
 N1       S   0   1642 59.09                             141   -0.0010 4.59  954
 CAMP     P   0 ? 1642 57.43                             133   -0.0310 5.67  744
 CAMP     S   0   1642 59.23                             133   -0.0810 5.67  744
 N6       P   0 ? 1642 57.59                             130    0.0610 6.13  184
 N6       S   0   1642 59.58                             130    0.1410 6.13  184
 N10      P   0 ? 1642 57.76                             121    0.0310 7.50 3604
 N10      S   0   1642 59.60                             121   -0.1910 7.50 3604
 N9       P   0 ? 1642 57.81                             118   -0.0210 8.22  204
 N9       S   0   1643  0.09                             118    0.1110 8.22  204
 N11      P   0 ? 1642 57.96                             114    0.0110 8.95 3444
 N11      S   0   1643  0.11                             114   -0.0810 8.95 3444
                                                                                
 2021  2 2 1654 51.7 L  28.831  50.865  8.0  SLT 12 0.1                        1
 GAP=234        0.23       0.7     1.0  0.6  0.4290E+00 -0.9321E-01 -0.1058E+00E
 STAT SP IPHASW D HRMN SECON CODA AMPLIT PERI AZIMU VELO AIN AR TRES W  DIS CAZ7
 N3       P   0 ? 1654 53.50                             169   -0.0710 1.20  574
 N3       S   0   1654 54.97                             169   -0.1110 1.20  574
 N5       P   0 ? 1654 53.65                             158    0.0210 2.38  564
 N5       S   0   1654 55.27                             158    0.0810 2.38  564
 N2       P   0 ? 1654 53.75                             154    0.1010 2.84  764
 N2       S   0   1654 55.14                             154   -0.1010 2.84  764
 N4       P   0 ? 1654 53.65                             151   -0.0410 3.17 3414
 N4       S   0   1654 55.39                             151    0.0910 3.17 3414
 N1       P   0 ? 1654 53.69                             148   -0.0310 3.49 1074
 N1       S   0   1654 55.37                             148    0.0210 3.49 1074
 CAMP     P   0 ? 1654 53.77                             141   -0.0310 4.31  784
 CAMP     S   0   1654 55.55                             141    0.0610 4.31  784
 N6       P   0 ? 1654 53.93                             134    0.0210 5.24   74
 N6       S   0   1654 55.76                             134    0.0610 5.24   74
 N10      P   0 ? 1654 54.18                             123    0.0310 6.98 3504
 N10      S   0   1654 56.10                             123   -0.0310 6.98 3504
 N9       P   0 ? 1654 54.18                             121   -0.0110 7.27  134
 N9       S   0   1654 56.13                             121   -0.0710 7.27  134
 P2       P   0 ? 1654 55.31                              99    0.0210 13.9  344
 P3       P   0 ? 1654 55.75                              96   -0.0710 17.0  404
 KHIA     P   0 ? 1654 58.08                              93    0.0410 29.8  814
                                                                                
 2021  2 2 1919 18.6 L  28.826  50.861  8.2  SLT 29 0.1                        1
 GAP=206        0.27       0.4     0.5  0.5  0.1404E+00 -0.3650E-01 -0.2715E-01E
 STAT SP IPHASW D HRMN SECON CODA AMPLIT PERI AZIMU VELO AIN AR TRES W  DIS CAZ7
 N3       P   0 ? 1919 20.51                             163    0.0310 1.86  484
 N3       S   0   1919 22.09                             163    0.0610 1.86  484
 N5       P   0 ? 1919 20.61                             153    0.0510 3.03  514
 N5       S   0   1919 22.23                             153    0.0510 3.03  514
 N2       P   0 ? 1919 20.60                             150    0.0210 3.38  694
 N2       S   0   1919 22.16                             150   -0.0610 3.38  694
 N4       P   0 ? 1919 20.56                             148   -0.0410 3.62 3504
 N4       S   0   1919 22.33                             148    0.0610 3.62 3504
 N1       P   0 ? 1919 20.66                             147    0.0410 3.76  974
 N1       S   0   1919 22.11                             147   -0.1810 3.76  974
 CAMP     P   0 ? 1919 20.74                             138    0.0110 4.84  734
 CAMP     S   0   1919 22.56                             138    0.0710 4.84  734
 N6       P   0 ? 1919 20.93                             131    0.0710 5.86  104
 N6       S   0   1919 22.69                             131   -0.0510 5.86  104
 N10      P   0 ? 1919 21.10                             121    0.0110 7.49 3534
 N10      S   0   1919 23.04                             121   -0.1010 7.49 3534
 N9       P   0 ? 1919 21.23                             119    0.0810 7.91  144
 N9       S   0   1919 23.34                             119    0.0910 7.91  144
 N11      P   0 ? 1919 21.40                             113    0.0510 9.16 3394
 N11      S   0   1919 23.57                             113   -0.0410 9.16 3394
 N13      P   0 ? 1919 21.42                             110   -0.0410 9.87 3364
 N13      S   0   1919 23.75                             110   -0.0710 9.87 3364
 N15      P   0 ? 1919 21.62                             109    0.1210 10.1 3574
 N15      S   0   1919 24.07                             109    0.1810 10.1 3574
 N14      P   0 ? 1919 21.60                             107    0.0210 10.6 3474
 N14      S   0   1919 23.92                             107   -0.1210 10.6 3474
 N16      P   0 ? 1919 21.76                             105    0.0510 11.3   54
 N16      S   0   1919 24.00                             105   -0.2610 11.3   54
 N18      P   0 ? 1919 21.83                             103   -0.0210 12.2 3474
 N18      S   0   1919 24.55                             103    0.0310 12.2 3474
 P1       P   0 ? 1919 21.98                             103    0.1010 12.4  234
 P1       S   0   1919 24.52                             103   -0.0610 12.4  234
 N19      S   0   1919 24.73                             101   -0.1410 13.3   24
 N17      P   0 ? 1919 22.06                             101    0.0210 13.3 3434
 N19      P   0 ? 1919 22.03                             101   -0.0110 13.3   24
 P2       P   0 ? 1919 22.36                              99    0.1010 14.6  344
 P2       S   0   1919 25.18                              99   -0.0910 14.6  344
 N20      P   0 ? 1919 22.34                              98   -0.1110 15.7 3514
 N20      S   0   1919 25.68                              98    0.0710 15.7 3514
 P3       P   0 ? 1919 22.87                              97    0.0810 17.7  394
 P3       S   0   1919 26.47                              97    0.2410 17.7  394
 JNAK     P   0 ? 1919 23.36                              95   -0.0310 21.2 1024
 JNAK     S   0   1919 27.18                              95   -0.1310 21.2 1024
 P4       P   0 ? 1919 23.88                              94   -0.0310 24.1  504
 DLRM     P   0 ? 1919 24.50                              93   -0.0210 27.6 1304
 KHIA     P   0 ? 1919 25.00                              93    0.0210 30.2  804
 KHIA     S   0   1919 30.18                              93   -0.0010 30.2  804
 TOLS     P   0 ? 1919 24.96                              93   -0.0110 30.2  564
 KOLO     P   0 ? 1919 26.46                              92   -0.0410 39.0 1084
 P9       P   0 ? 1919 26.50                              92   -0.0110 39.1  594
 ABTL     P   0 ? 1919 26.53                              92   -0.0410 39.4  394
                                                                                
 2021  3 3 0020 41.7 L  28.816  50.850  6.4  SLT  6 0.1                        1
 GAP=282        0.31       2.2     1.7  2.2  0.2598E+01  0.2482E+01  0.3584E+01E
 STAT SP IPHASW D HRMN SECON CODA AMPLIT PERI AZIMU VELO AIN AR TRES W  DIS CAZ7
 N3       P   0 ? 0020 43.51                             146    0.0310 3.32  474
 N3       S   0   0020 45.08                             146    0.1810 3.32  474
 N5       P   0 ? 0020 43.63                             136   -0.0010 4.49  494
 N5       S   0   0020 45.18                             136   -0.0010 4.49  494
 N4       P   0 ? 0020 43.60                             135   -0.0510 4.62   54
 N4       S   0   0020 45.14                             135   -0.0710 4.62   54
 N2       P   0 ? 0020 43.68                             134    0.0210 4.76  614
 N2       S   0   0020 45.16                             134   -0.0810 4.76  614
 N1       P   0 ? 0020 43.72                             134    0.0410 4.80  834
 N1       S   0   0020 45.10                             134   -0.1610 4.80  834
 CAMP     P   0 ? 0020 43.89                             124    0.0010 6.17  664
 CAMP     S   0   0020 45.73                             124    0.0910 6.17  664
                                                                                
 2021  3 3 0440 41.2 L  28.830  50.854  7.5  SLT  6 0.1                        1
 GAP=257        0.32       2.8     2.1  1.9  0.4096E+01  0.2002E+01  0.3053E+01E
 STAT SP IPHASW D HRMN SECON CODA AMPLIT PERI AZIMU VELO AIN AR TRES W  DIS CAZ7
 N3       P   0 ? 0440 43.07                             158    0.0410 2.14  704
 N3       S   0   0440 44.62                             158    0.1010 2.14  704
 N4       P   0 ? 0440 43.16                             150    0.0610 3.05 3594
 N4       S   0   0440 44.50                             150   -0.1510 3.05 3594
 N5       P   0 ? 0440 43.20                             147    0.0710 3.30  654
 N5       S   0   0440 44.68                             147   -0.0210 3.30  654
 N2       P   0 ? 0440 43.18                             142    0.0110 3.84  794
 N2       S   0   0440 44.93                             142    0.1510 3.84  794
 N1       P   0 ? 0440 43.19                             137   -0.0610 4.46 1024
 N1       S   0   0440 44.77                             137   -0.1510 4.46 1024
 CAMP     P   0 ? 0440 43.33                             130   -0.0310 5.32  804
 CAMP     S   0   0440 45.08                             130   -0.0310 5.32  804
                                                                                
