 2021  3 3 2259 47.8 L  28.829  50.859  7.0  SLT 16 0.1                        1
 GAP=237        0.21       0.5     0.6  0.2  0.1348E+00 -0.2793E-01 -0.5426E-01E
 STAT SP IPHASW D HRMN SECON CODA AMPLIT PERI AZIMU VELO AIN AR TRES W  DIS CAZ7
 N3       P   0 ? 2259 49.46                             163   -0.0810 1.77  614
 N3       S   0   2259 51.01                             163    0.0710 1.77  614
 N5       P   0 ? 2259 49.63                             152   -0.0010 2.94  594
 N5       S   0   2259 51.13                             152    0.0210 2.94  594
 N4       P   0 ? 2259 49.63                             150   -0.0310 3.21 3514
 N4       S   0   2259 51.14                             150   -0.0110 3.21 3514
 N2       P   0 ? 2259 49.75                             148    0.0810 3.41  764
 N1       P   0 ? 2259 49.74                             144   -0.0010 3.98 1024
 N1       S   0   2259 51.22                             144   -0.0910 3.98 1024
 N6       P   0 ? 2259 49.95                             133   -0.0010 5.51  124
 N6       S   0   2259 51.70                             133    0.0110 5.51  124
 N10      P   0 ? 2259 50.26                             124    0.0610 7.08 3544
 N10      S   0   2259 52.16                             124    0.0310 7.08 3544
 N9       P   0 ? 2259 50.31                             121    0.0310 7.58  164
 N9       S   0   2259 52.18                             121   -0.1010 7.58  164
 N11      P   0 ? 2259 50.43                              59   -0.0510 8.74 3394
 N11      S   0   2259 52.68                              59    0.0310 8.74 3394
 N15      P   0 ? 2259 50.74                              59    0.0910 9.71 3584
 N15      S   0   2259 52.82                              59   -0.1410 9.71 3584
 N18      P   0 ? 2259 51.00                              59   -0.0110 11.8 3474
 P1       P   0 ? 2259 51.06                              59   -0.0110 12.1  244
 P1       S   0   2259 53.75                              59    0.0510 12.1  244
 N19      P   0 ? 2259 51.18                              59   -0.0410 12.9   34
 N19      S   0   2259 54.01                              59    0.0310 12.9   34
 P2       P   0 ? 2259 51.49                              59    0.0310 14.4  364
 P4       P   0 ? 2259 53.14                              59    0.0010 24.0  504
 P4       S   0   2259 57.49                              59    0.0410 24.0  504
 KHIA     S   0   2259 59.43                              59   -0.0310 30.3  814
                                                                                
 2021  3 3 0006 34.8 L  28.829  50.861  8.0  SLT 13 0.1                        1
 GAP=236        0.23       0.7     1.1  0.6  0.4048E+00  0.1711E+00 -0.6443E-01E
 STAT SP IPHASW D HRMN SECON CODA AMPLIT PERI AZIMU VELO AIN AR TRES W  DIS CAZ7
 N3       P   0 ? 0006 36.68                             165    0.0210 1.63  594
 N3       S   0   0006 38.32                             165    0.1310 1.63  594
 N5       P   0 ? 0006 36.66                             154   -0.0810 2.81  584
 N5       S   0   0006 38.23                             154   -0.1010 2.81  584
 N4       P   0 ? 0006 36.74                             150   -0.0310 3.23 3484
 N4       S   0   0006 38.44                             150    0.0610 3.23 3484
 N2       P   0 ? 0006 36.76                             150   -0.0110 3.27  754
 N2       S   0   0006 38.35                             150   -0.0310 3.27  754
 N1       P   0 ? 0006 36.83                             145    0.0010 3.84 1024
 N1       S   0   0006 38.47                             145   -0.0210 3.84 1024
 N6       P   0 ? 0006 37.04                             133    0.0210 5.47  114
 N6       S   0   0006 38.89                             133    0.0610 5.47  114
 N10      P   0 ? 0006 37.17                             122   -0.0710 7.09 3534
 N10      S   0   0006 39.20                             122   -0.0410 7.09 3534
 N9       P   0 ? 0006 37.42                             119    0.1210 7.53  154
 N9       S   0   0006 39.26                             119   -0.0910 7.53  154
 N11      P   0 ? 0006 37.49                             113   -0.0110 8.78 3384
 N11      S   0   0006 39.70                             113   -0.0110 8.78 3384
 N15      P   0 ? 0006 37.62                             109   -0.0310 9.71 3574
 N15      S   0   0006 40.01                             109    0.0310 9.71 3574
 N18      P   0 ? 0006 37.98                             102   -0.0210 11.8 3464
 P1       P   0 ? 0006 38.06                             102    0.0210 12.0  244
 P2       P   0 ? 0006 38.51                              98    0.0810 14.3  354
                                                                                
 2021  5 5 2043 27.6 L  28.840  50.854  6.1  SLT 14 0.1                        1
 GAP=226        0.23       0.4     0.6  0.5  0.1585E+00  0.5876E-01 -0.5476E-01E
 STAT SP IPHASW D HRMN SECON CODA AMPLIT PERI AZIMU VELO AIN AR TRES W  DIS CAZ7
 N4       P   0 ? 2043 29.24                             157    0.0810 2.03   14
 N4       S   0   2043 30.37                             157   -0.0610 2.03   14
 N3       P   0 ? 2043 29.15                             156   -0.0210 2.09  984
 N3       S   0   2043 30.32                             156   -0.1210 2.09  984
 N5       P   0 ? 2043 29.25                             146   -0.0110 3.07  834
 N5       S   0   2043 30.73                             146    0.1110 3.07  834
 N2       P   0 ? 2043 29.45                             139    0.1010 3.84  944
 N2       S   0   2043 30.72                             139   -0.0610 3.84  944
 N6       P   0 ? 2043 29.46                             133   -0.0010 4.56  224
 N6       S   0   2043 31.12                             133    0.1410 4.56  224
 N7       P   0 ? 2043 29.50                             132    0.0210 4.69 3574
 N7       S   0   2043 30.98                             132   -0.0410 4.69 3574
 N1       P   0 ? 2043 29.49                             130   -0.0110 4.83 1144
 N1       S   0   2043 31.06                             130    0.0110 4.83 1144
 CAMP     P   0 ? 2043 29.60                             127    0.0310 5.29  914
 CAMP     S   0   2043 31.17                             127   -0.0010 5.29  914
 N10      P   0 ? 2043 29.64                             122   -0.0410 5.91 3584
 N10      S   0   2043 31.45                             122    0.0810 5.91 3584
 N9       P   0 ? 2043 29.73                             117   -0.0810 6.68  234
 N9       S   0   2043 31.52                             117   -0.0910 6.68  234
 N11      P   0 ? 2043 30.01                             112    0.0510 7.48 3404
 N11      S   0   2043 31.82                             112   -0.0610 7.48 3404
 N15      P   0 ? 2043 30.19                             106    0.0210 8.57   14
 N15      S   0   2043 32.34                             106    0.0810 8.57   14
 N18      P   0 ? 2043 30.53                              99   -0.0310 10.5 3484
 N18      S   0   2043 32.95                              99   -0.0210 10.5 3484
 P1       P   0 ? 2043 30.67                              98   -0.0410 11.3  294
 P1       S   0   2043 33.20                              98   -0.0410 11.3  294
                                                                                
