 2021  3 3 2214 24.1 L  28.833  50.869  8.6  SLT  8 0.1                        1
 GAP=218        0.28       1.4     1.8  1.1  0.1974E+01  0.8196E+00  0.2851E+00E
 STAT SP IPHASW D HRMN SECON CODA AMPLIT PERI AZIMU VELO AIN AR TRES W  DIS CAZ7
 N3       P   0 ? 2214 26.06                             174   -0.0210 0.69  564
 N3       S   0   2214 27.77                             174    0.1110 0.69  564
 N5       P   0 ? 2214 26.11                             164   -0.0110 1.87  564
 N5       S   0   2214 27.49                             164   -0.2510 1.87  564
 N2       P   0 ? 2214 26.18                             160    0.0410 2.36  804
 N2       S   0   2214 27.81                             160    0.0410 2.36  804
 N4       P   0 ? 2214 26.15                             154   -0.0510 3.09 3314
 N4       S   0   2214 27.89                             154    0.0210 3.09 3314
 N1       P   0 ? 2214 26.15                             153   -0.0610 3.18 1144
 N1       S   0   2214 27.95                             153    0.0610 3.18 1144
 CAMP     P   0 ? 2214 26.28                             148    0.0210 3.84  814
 CAMP     S   0   2214 28.01                             148    0.0310 3.84  814
 N6       P   0 ? 2214 26.38                             140    0.0010 4.94   24
 N6       S   0   2214 28.23                             140    0.0310 4.94   24
 N11      P   0 ? 2214 26.91                             118    0.0210 8.73 3324
 N11      S   0   2214 29.13                             118    0.0110 8.73 3324
                                                                                
 2021  3 3 2316 52.3 L  28.826  50.857  6.6  SLT  8 0.1                        1
 GAP=260        0.28       0.9     1.3  1.1  0.7592E+00  0.7180E+00  0.1584E+00E
 STAT SP IPHASW D HRMN SECON CODA AMPLIT PERI AZIMU VELO AIN AR TRES W  DIS CAZ7
 N5       P   0 ? 2316 54.13                             147    0.0110 3.37  554
 N5       S   0   2316 55.58                             147   -0.0010 3.37  554
 N4       P   0 ? 2316 54.17                             145    0.0210 3.59 3564
 N4       S   0   2316 55.67                             145    0.0510 3.59 3564
 N2       P   0 ? 2316 54.20                             143    0.0410 3.77  714
 N2       S   0   2316 55.43                             143   -0.2210 3.77  714
 N1       P   0 ? 2316 54.22                             140    0.0010 4.16  964
 N1       S   0   2316 55.85                             140    0.1010 4.16  964
 CAMP     P   0 ? 2316 54.39                             132    0.0310 5.23  744
 CAMP     S   0   2316 56.07                             132    0.0510 5.23  744
 N6       P   0 ? 2316 54.44                             127   -0.0510 5.96  144
 N10      P   0 ? 2316 54.73                             118   -0.0110 7.47 3574
 N10      S   0   2316 56.69                             118   -0.0110 7.47 3574
 N9       P   0 ? 2316 54.76                             115   -0.0810 8.04  174
 N9       S   0   2316 56.96                             115    0.0810 8.04  174
                                                                                
 2021  3 3 2346  1.6 L  28.834  50.864  5.9  SLT  9 0.1                        1
 GAP=257        0.26       0.7     1.0  0.8  0.3574E+00  0.1603E+00 -0.1627E+00E
 STAT SP IPHASW D HRMN SECON CODA AMPLIT PERI AZIMU VELO AIN AR TRES W  DIS CAZ7
 N3       P   0 ? 2346  3.06                             166    0.0210 1.13  724
 N3       S   0   2346  4.12                             166   -0.1110 1.13  724
 N5       P   0 ? 2346  3.10                             153   -0.0310 2.29  644
 N5       S   0   2346  4.43                             153    0.0410 2.29  644
 N4       P   0 ? 2346  3.16                             147   -0.0210 2.85 3404
 N4       S   0   2346  4.60                             147    0.1110 2.85 3404
 N2       P   0 ? 2346  3.13                             147   -0.0510 2.85  834
 N2       S   0   2346  4.53                             147    0.0610 2.85  834
 CAMP     P   0 ? 2346  3.33                             132   -0.0410 4.33  824
 CAMP     S   0   2346  4.83                             132   -0.0010 4.33  824
 N6       P   0 ? 2346  3.61                             127    0.1310 4.94   84
 N6       S   0   2346  5.00                             127   -0.0210 4.94   84
 N10      P   0 ? 2346  3.81                             113    0.0410 6.66 3504
 N10      S   0   2346  5.37                             113   -0.1910 6.66 3504
 N9       P   0 ? 2346  3.81                             111   -0.0210 6.98  144
 N9       S   0   2346  5.69                             111    0.0310 6.98  144
 N15      P   0 ? 2346  4.29                              99    0.0110 9.25 3554
 N15      S   0   2346  6.50                              99    0.0310 9.25 3554
                                                                                
 2021  3 3 0026  6.6 L  28.834  50.870  8.5  SLT 11 0.1                        1
 GAP=214        0.24       0.7     1.2  0.8  0.5774E+00  0.3045E+00 -0.2957E-01E
 STAT SP IPHASW D HRMN SECON CODA AMPLIT PERI AZIMU VELO AIN AR TRES W  DIS CAZ7
 N3       P   0 ? 0026  8.53                             175   -0.0110 0.58  614
 N3       S   0   0026  9.99                             175   -0.1210 0.58  614
 N5       P   0 ? 0026  8.55                             165   -0.0310 1.76  584
 N5       S   0   0026 10.23                             165    0.0410 1.76  584
 N2       P   0 ? 0026  8.59                             160   -0.0110 2.29  834
 N2       S   0   0026 10.20                             160   -0.0210 2.29  834
 N4       P   0 ? 0026  8.65                             154   -0.0110 3.03 3294
 N4       S   0   0026 10.31                             154   -0.0110 3.03 3294
 N1       P   0 ? 0026  8.72                             153    0.0510 3.17 1164
 N1       S   0   0026 10.40                             153    0.0610 3.17 1164
 CAMP     P   0 ? 0026  8.70                             148   -0.0210 3.77  824
 CAMP     S   0   0026 10.41                             148   -0.0210 3.77  824
 N6       P   0 ? 0026  8.85                             141    0.0110 4.83   14
 N6       S   0   0026 10.80                             141    0.1610 4.83   14
 N10      P   0 ? 0026  9.16                             128    0.0910 6.72 3454
 N10      S   0   0026 11.14                             128    0.0810 6.72 3454
 N9       P   0 ? 0026  9.10                             128    0.0210 6.80   94
 N9       S   0   0026 10.96                             128   -0.1110 6.80   94
 N11      P   0 ? 0026  9.28                             118   -0.0710 8.67 3314
 N11      S   0   0026 11.57                             118   -0.0010 8.67 3314
 N15      P   0 ? 0026  9.46                             116    0.0210 9.25 3524
 N15      S   0   0026 11.65                             116   -0.0910 9.25 3524
                                                                                
 2021  3 3 1049  2.0 L  28.824  50.857  8.3  SLT 10 0.1                        1
 GAP=248        0.27       0.9     1.4  1.1  0.7283E+00  0.7003E+00  0.6264E-01E
 STAT SP IPHASW D HRMN SECON CODA AMPLIT PERI AZIMU VELO AIN AR TRES W  DIS CAZ7
 N3       P   0 ? 1049  4.01                             160    0.0810 2.27  524
 N3       S   0   1049  5.48                             160   -0.0510 2.27  524
 N5       P   0 ? 1049  4.15                             150    0.1310 3.45  544
 N5       S   0   1049  5.73                             150    0.0410 3.45  544
 N4       P   0 ? 1049  4.06                             148    0.0210 3.72 3564
 N4       S   0   1049  5.80                             148    0.0710 3.72 3564
 N2       P   0 ? 1049  4.08                             147    0.0410 3.82  694
 N2       S   0   1049  5.69                             147   -0.0510 3.82  694
 N1       P   0 ? 1049  4.04                             145   -0.0510 4.15  944
 N1       S   0   1049  5.72                             145   -0.0910 4.15  944
 CAMP     P   0 ? 1049  4.17                             136   -0.0410 5.27  724
 CAMP     S   0   1049  6.02                             136   -0.0110 5.27  724
 N10      P   0 ? 1049  4.54                             122    0.0110 7.61 3574
 N10      S   0   1049  6.71                             122    0.1010 7.61 3574
 N9       P   0 ? 1049  4.56                             119   -0.0510 8.17  174
 N9       S   0   1049  6.80                             119    0.0410 8.17  174
 N11      P   0 ? 1049  4.76                             114   -0.0010 9.17 3424
 N11      S   0   1049  6.83                             114   -0.2110 9.17 3424
 N15      S   0   1049  7.37                             110    0.0110 10.2 3604
                                                                                
 2021  3 3 1125 14.7 L  28.835  50.853  6.9  SLT  8 0.1                        1
 GAP=254        0.28       0.8     1.3  1.0  0.5366E+00  0.4061E+00  0.8605E-01E
 STAT SP IPHASW D HRMN SECON CODA AMPLIT PERI AZIMU VELO AIN AR TRES W  DIS CAZ7
 N3       P   0 ? 1125 16.47                             159    0.0310 2.14  834
 N3       S   0   1125 17.87                             159    0.0310 2.14  834
 N4       P   0 ? 1125 16.42                             155   -0.0610 2.59   24
 N4       S   0   1125 18.01                             155    0.1110 2.59   24
 N5       P   0 ? 1125 16.51                             149   -0.0310 3.24  734
 N5       S   0   1125 17.78                             149   -0.2410 3.24  734
 N2       P   0 ? 1125 16.61                             144    0.0010 3.89  864
 N2       S   0   1125 18.15                             144    0.0110 3.89  864
 N1       P   0 ? 1125 16.72                             138    0.0010 4.68 1074
 N1       S   0   1125 18.32                             138   -0.0110 4.68 1074
 N6       P   0 ? 1125 16.77                             135   -0.0110 5.11  204
 N6       S   0   1125 18.48                             135    0.0310 5.11  204
 CAMP     P   0 ? 1125 16.87                             133    0.0610 5.37  854
 CAMP     S   0   1125 18.62                             133    0.1210 5.37  854
 N9       P   0 ? 1125 17.08                             122   -0.0310 7.22  224
 N9       S   0   1125 19.03                             122   -0.0210 7.22  224
                                                                                
 2021  3 3 2106 19.5 L  28.827  50.856  6.0  SLT  6 0.1                        1
 GAP=259        0.28       1.2     1.4  1.5  0.1200E+01  0.1044E+01  0.7528E+00E
 STAT SP IPHASW D HRMN SECON CODA AMPLIT PERI AZIMU VELO AIN AR TRES W  DIS CAZ7
 N5       P   0 ? 2106 21.28                             144    0.0810 3.31  584
 N5       S   0   2106 22.70                             144    0.1210 3.31  584
 N4       P   0 ? 2106 21.21                             142   -0.0010 3.44 3564
 N4       S   0   2106 22.56                             142   -0.0410 3.44 3564
 N2       P   0 ? 2106 21.25                             139    0.0010 3.75  734
 N2       S   0   2106 22.64                             139   -0.0210 3.75  734
 N1       P   0 ? 2106 21.40                             135    0.0810 4.21  984
 N1       S   0   2106 22.65                             135   -0.1410 4.21  984
 CAMP     P   0 ? 2106 21.47                             127    0.0010 5.22  754
 CAMP     S   0   2106 23.06                             127   -0.0010 5.22  754
 N6       P   0 ? 2106 21.48                             122   -0.1010 5.83  144
 N6       S   0   2106 23.27                             122    0.0110 5.83  144
                                                                                
 2021  3 3 0031 37.9 L  28.835  50.857 11.1  SLT  9 0.1                        1
 GAP=244        0.28       1.2     2.2  1.2  0.1359E+01  0.1109E+01  0.1795E+00E
 STAT SP IPHASW D HRMN SECON CODA AMPLIT PERI AZIMU VELO AIN AR TRES W  DIS CAZ7
 N3       P   0 ? 0031 40.34                             168   -0.0110 1.77  824
 N3       S   0   0031 42.34                             168    0.0310 1.77  824
 N4       P   0 ? 0031 40.35                             163   -0.0410 2.58 3534
 N4       S   0   0031 42.35                             163   -0.0210 2.58 3534
 N5       P   0 ? 0031 40.45                             161    0.0510 2.87  724
 N5       S   0   0031 42.40                             161   -0.0010 2.87  724
 N2       P   0 ? 0031 40.45                             157    0.0210 3.52  864
 N2       S   0   0031 42.22                             157   -0.2410 3.52  864
 N1       P   0 ? 0031 40.52                             152    0.0210 4.34 1094
 N1       S   0   0031 42.65                             152    0.0810 4.34 1094
 N6       P   0 ? 0031 40.67                             148    0.1210 4.97  164
 N6       S   0   0031 42.78                             148    0.1110 4.97  164
 CAMP     P   0 ? 0031 40.52                             148   -0.0310 5.00  854
 CAMP     S   0   0031 42.71                             148    0.0510 5.00  854
 N9       P   0 ? 0031 40.74                             136   -0.0110 7.06  194
 N9       S   0   0031 42.94                             136   -0.1010 7.06  194
 N15      P   0 ? 0031 40.99                             127   -0.0110 9.10 3594
                                                                                
 2021  3 3 0102 30.3 L  28.830  50.863  7.7  SLT 11 0.1                        1
 GAP=232        0.26       0.8     1.2  0.9  0.5601E+00  0.3458E+00 -0.9395E-01E
 STAT SP IPHASW D HRMN SECON CODA AMPLIT PERI AZIMU VELO AIN AR TRES W  DIS CAZ7
 N3       P   0 ? 0102 32.12                             166   -0.0310 1.40  574
 N3       S   0   0102 33.45                             166   -0.1710 1.40  574
 N5       P   0 ? 0102 32.18                             155   -0.0410 2.58  564
 N5       S   0   0102 33.85                             155    0.0910 2.58  564
 N2       P   0 ? 0102 32.23                             150   -0.0210 3.03  754
 N2       S   0   0102 33.95                             150    0.1510 3.03  754
 N4       P   0 ? 0102 32.27                             149    0.0010 3.21 3444
 N4       S   0   0102 33.87                             149    0.0310 3.21 3444
 N1       P   0 ? 0102 32.33                             145    0.0210 3.63 1044
 N1       S   0   0102 33.99                             145    0.0710 3.63 1044
 CAMP     P   0 ? 0102 32.37                             138   -0.0310 4.50  774
 CAMP     S   0   0102 34.00                             138   -0.0810 4.50  774
 N6       P   0 ? 0102 32.49                             131   -0.0310 5.36   84
 N6       S   0   0102 34.33                             131    0.0410 5.36   84
 N10      P   0 ? 0102 32.83                             119    0.0710 7.05 3514
 N10      S   0   0102 34.63                             119   -0.0910 7.05 3514
 N9       P   0 ? 0102 32.81                             117    0.0010 7.40  144
 N9       S   0   0102 34.76                             117   -0.0610 7.40  144
 N11      S   0   0102 35.28                             109    0.0510 8.80 3374
 N15      S   0   0102 35.52                             105    0.0410 9.65 3564
                                                                                
 2021  3 3 0219 57.4 L  28.835  50.866  6.8  SLT  9 0.1                        1
 GAP=221        0.27       0.8     1.2  0.9  0.5491E+00  0.2629E+00 -0.1643E-01E
 STAT SP IPHASW D HRMN SECON CODA AMPLIT PERI AZIMU VELO AIN AR TRES W  DIS CAZ7
 N3       P   0 ? 0219 58.98                             171   -0.0310 0.88  734
 N3       S   0   0220  0.39                             171    0.0410 0.88  734
 N5       P   0 ? 0219 59.07                             160   -0.0010 2.03  634
 N5       S   0   0220  0.55                             160    0.0910 2.03  634
 N2       P   0 ? 0219 59.24                             154    0.1310 2.61  844
 N2       S   0   0220  0.66                             154    0.1410 2.61  844
 N4       P   0 ? 0219 59.15                             152    0.0210 2.85 3354
 N4       S   0   0220  0.50                             152   -0.0710 2.85 3354
 N1       P   0 ? 0219 59.20                             147   -0.0010 3.48 1144
 N1       S   0   0220  0.49                             147   -0.2010 3.48 1144
 CAMP     P   0 ? 0219 59.26                             142   -0.0110 4.09  834
 CAMP     S   0   0220  0.78                             142   -0.0310 4.09  834
 N6       P   0 ? 0219 59.39                             137    0.0210 4.82   54
 N6       S   0   0220  0.93                             137   -0.0710 4.82   54
 N10      P   0 ? 0219 59.62                             125   -0.0310 6.61 3484
 N10      S   0   0220  1.53                             125    0.0310 6.61 3484
 N9       P   0 ? 0219 59.66                             123   -0.0210 6.83  124
 N9       S   0   0220  1.56                             123   -0.0010 6.83  124
                                                                                
 2021  3 3 1749 54.1 L  28.827  50.843  7.9  SLT  8 0.1                        1
 GAP=281        0.25       0.9     1.3  1.1  0.4758E+00  0.5956E+00  0.1423E+00E
 STAT SP IPHASW D HRMN SECON CODA AMPLIT PERI AZIMU VELO AIN AR TRES W  DIS CAZ7
 N3       P   0 ? 1749 56.12                             149    0.0410 3.30  714
 N3       S   0   1749 57.73                             149    0.0410 3.30  714
 N4       P   0 ? 1749 56.18                             147    0.0710 3.57  174
 N4       S   0   1749 57.62                             147   -0.1210 3.57  174
 N5       P   0 ? 1749 56.26                             140    0.0610 4.45  674
 N5       S   0   1749 57.98                             140    0.0710 4.45  674
 N2       P   0 ? 1749 56.22                             135   -0.0410 4.99  774
 N2       S   0   1749 57.92                             135   -0.0910 4.99  774
 N1       P   0 ? 1749 56.32                             132   -0.0110 5.49  964
 N1       S   0   1749 58.09                             132   -0.0410 5.49  964
 N6       P   0 ? 1749 56.41                             127   -0.0210 6.25  264
 N6       S   0   1749 58.41                             127    0.0810 6.25  264
 CAMP     P   0 ? 1749 56.43                             125   -0.0310 6.47  784
 CAMP     S   0   1749 58.41                             125    0.0410 6.47  784
 N9       P   0 ? 1749 56.71                             114   -0.0410 8.37  264
 N9       S   0   1749 58.87                             114   -0.0310 8.37  264
                                                                                
