 2021  3 3 2355 32.8 L  28.833  50.880  9.5  SLT 12 0.1                        1
 GAP=192        0.23       0.7     1.1  0.6  0.4809E+00 -0.7363E-01 -0.1383E+00E
 STAT SP IPHASW D HRMN SECON CODA AMPLIT PERI AZIMU VELO AIN AR TRES W  DIS CAZ7
 N3       P   0 ? 2355 34.87                             175    0.0010 0.62 3154
 N3       S   0   2355 36.49                             175   -0.0910 0.62 3154
 N5       P   0 ? 2355 34.93                             171    0.0510 1.23  264
 N5       S   0   2355 36.65                             171    0.0410 1.23  264
 N2       P   0 ? 2355 34.91                             169    0.0310 1.39  714
 N2       S   0   2355 36.55                             169   -0.0510 1.39  714
 N1       P   0 ? 2355 34.90                             163   -0.0210 2.26 1234
 N1       S   0   2355 36.77                             163    0.0910 2.26 1234
 CAMP     P   0 ? 2355 35.08                             159    0.1310 2.86  774
 CAMP     S   0   2355 36.62                             159   -0.1110 2.86  774
 N4       P   0 ? 2355 34.93                             153   -0.0910 3.72 3184
 N4       S   0   2355 36.86                             153    0.0110 3.72 3184
 N6       P   0 ? 2355 35.13                             144   -0.0110 5.05 3514
 N6       S   0   2355 37.13                             144    0.0510 5.05 3514
 N9       P   0 ? 2355 35.34                             134   -0.0110 6.87   14
 N9       S   0   2355 37.50                             134    0.0510 6.87   14
 N10      P   0 ? 2355 35.44                             132    0.0510 7.17 3384
 N10      S   0   2355 37.42                             132   -0.1010 7.17 3384
 N11      P   0 ? 2355 35.64                             123   -0.0410 9.30 3274
 N11      S   0   2355 38.05                             123    0.0010 9.30 3274
 N15      P   0 ? 2355 35.74                             122    0.0210 9.59 3464
 N15      S   0   2355 38.18                             122    0.0510 9.59 3464
 P5       P   0 ? 2355 38.36                              98   -0.0810 25.9  514
                                                                                
 2021  3 3 2355 41.9 L  28.835  50.861  7.8  SLT  9 0.1                        1
 GAP=224        0.25       0.8     1.2  0.9  0.5601E+00  0.4265E+00 -0.2597E-01E
 STAT SP IPHASW D HRMN SECON CODA AMPLIT PERI AZIMU VELO AIN AR TRES W  DIS CAZ7
 N5       P   0 ? 2355 43.74                             156   -0.0310 2.46  704
 N5       S   0   2355 45.27                             156   -0.0310 2.46  704
 N4       P   0 ? 2355 43.79                             155    0.0210 2.62 3444
 N4       S   0   2355 45.29                             155   -0.0310 2.62 3444
 N2       P   0 ? 2355 43.89                             150    0.0810 3.09  864
 N2       S   0   2355 45.38                             150    0.0010 3.09  864
 N1       P   0 ? 2355 43.85                             143   -0.0510 3.96 1124
 N1       S   0   2355 45.55                             143    0.0110 3.96 1124
 CAMP     P   0 ? 2355 43.87                             138   -0.0910 4.57  854
 CAMP     S   0   2355 45.68                             138    0.0210 4.57  854
 N6       P   0 ? 2355 43.99                             136   -0.0110 4.82  114
 N6       S   0   2355 45.78                             136    0.0510 4.82  114
 N9       P   0 ? 2355 44.28                             121    0.0010 6.89  164
 N9       S   0   2355 46.32                             121    0.0910 6.89  164
 N11      P   0 ? 2355 44.56                             113    0.0710 8.22 3364
 N11      S   0   2355 46.61                             113    0.0010 8.22 3364
 N15      P   0 ? 2355 44.68                             108    0.0510 9.07 3574
 N15      S   0   2355 46.69                             108   -0.1710 9.07 3574
                                                                                
 2021  3 3 1904 42.4 L  28.831  50.857  7.9  SLT  7 0.1                        1
 GAP=250        0.30       1.5     1.8  1.4  0.1709E+01  0.1034E+01  0.7076E+00E
 STAT SP IPHASW D HRMN SECON CODA AMPLIT PERI AZIMU VELO AIN AR TRES W  DIS CAZ7
 N3       P   0 ? 1904 44.30                             162    0.0110 1.85  694
 N3       S   0   1904 45.80                             162   -0.0110 1.85  694
 N4       P   0 ? 1904 44.35                             152   -0.0210 3.00 3544
 N4       S   0   1904 46.04                             152    0.0810 3.00 3544
 N5       P   0 ? 1904 44.37                             152   -0.0010 3.01  644
 N5       S   0   1904 46.05                             152    0.0910 3.01  644
 N2       P   0 ? 1904 44.43                             147    0.0210 3.55  794
 N2       S   0   1904 45.79                             147   -0.2410 3.55  794
 N1       P   0 ? 1904 44.48                             142   -0.0010 4.19 1044
 N1       S   0   1904 46.16                             142   -0.0110 4.19 1044
 CAMP     P   0 ? 1904 44.61                             135    0.0310 5.03  804
 CAMP     S   0   1904 46.47                             135    0.1410 5.03  804
 N6       P   0 ? 1904 44.58                             133   -0.0510 5.37  144
 N6       S   0   1904 46.38                             133   -0.0410 5.37  144
                                                                                
 2021  3 3 0038  1.8 L  28.825  50.844  7.1  SLT  6 0.1                        1
 GAP=280        0.29       1.3     1.5  1.5  0.1009E+01  0.6411E+00  0.5599E+00E
 STAT SP IPHASW D HRMN SECON CODA AMPLIT PERI AZIMU VELO AIN AR TRES W  DIS CAZ7
 N3       P   0 ? 0038  3.72                             145    0.0410 3.25  674
 N3       S   0   0038  5.35                             145    0.1610 3.25  674
 N4       P   0 ? 0038  3.78                             140    0.0510 3.72  154
 N4       S   0   0038  5.16                             140   -0.1210 3.72  154
 N5       P   0 ? 0038  3.79                             134   -0.0310 4.41  644
 N5       S   0   0038  5.42                             134   -0.0210 4.41  644
 N1       P   0 ? 0038  3.92                             125   -0.0210 5.34  944
 N1       S   0   0038  5.54                             125   -0.1210 5.34  944
 N6       P   0 ? 0038  4.14                             116    0.0410 6.37  244
 N6       S   0   0038  5.94                             116   -0.0110 6.37  244
 CAMP     P   0 ? 0038  4.06                             115   -0.0310 6.38  764
 CAMP     S   0   0038  6.01                             115    0.0710 6.38  764
                                                                                
 2021  3 3 1817 19.7 L  28.838  50.864  8.4  SLT  8 0.1                        1
 GAP=220        0.28       0.9     1.6  1.0  0.8432E+00  0.2348E+00 -0.2362E+00E
 STAT SP IPHASW D HRMN SECON CODA AMPLIT PERI AZIMU VELO AIN AR TRES W  DIS CAZ7
 N3       P   0 ? 1817 21.59                             170   -0.0810 1.07  934
 N3       S   0   1817 23.26                             170    0.0310 1.07  934
 N5       P   0 ? 1817 21.75                             161    0.0310 2.13  734
 N5       S   0   1817 23.34                             161    0.0210 2.13  734
 N4       P   0 ? 1817 21.68                             158   -0.0510 2.47 3374
 N4       S   0   1817 23.31                             158   -0.0410 2.47 3374
 N2       P   0 ? 1817 21.76                             155    0.0110 2.82  914
 N2       S   0   1817 23.47                             155    0.0810 2.82  914
 N1       P   0 ? 1817 21.82                             148   -0.0210 3.82 1174
 N1       S   0   1817 23.70                             148    0.1510 3.82 1174
 CAMP     P   0 ? 1817 21.88                             144   -0.0010 4.29  884
 CAMP     S   0   1817 23.42                             144   -0.2110 4.29  884
 N6       P   0 ? 1817 21.95                             142    0.0310 4.54   94
 N6       S   0   1817 23.69                             142    0.0010 4.54   94
 N19      P   0 ? 1817 23.05                             106    0.0310 12.0   14
 N19      S   0   1817 25.71                             106    0.0310 12.0   14
                                                                                
 2021  3 3 1119 29.5 L  28.828  50.860  7.5  SLT 13 0.1                        1
 GAP=240        0.25       0.6     0.9  0.8  0.2549E+00  0.1870E+00 -0.1547E+00E
 STAT SP IPHASW D HRMN SECON CODA AMPLIT PERI AZIMU VELO AIN AR TRES W  DIS CAZ7
 N3       P   0 ? 1119 31.30                             162    0.0410 1.79  544
 N3       S   0   1119 32.68                             162   -0.0410 1.79  544
 N5       P   0 ? 1119 31.37                             150    0.0210 2.97  554
 N2       P   0 ? 1119 31.43                             146    0.0610 3.38  724
 N2       S   0   1119 32.95                             146    0.0210 3.38  724
 N4       P   0 ? 1119 31.38                             146   -0.0010 3.42 3504
 N4       S   0   1119 33.00                             146    0.0510 3.42 3504
 N1       P   0 ? 1119 31.42                             142   -0.0110 3.85  994
 N1       S   0   1119 32.95                             142   -0.0810 3.85  994
 CAMP     P   0 ? 1119 31.63                             133    0.0910 4.84  754
 CAMP     S   0   1119 33.11                             133   -0.1310 4.84  754
 N6       P   0 ? 1119 31.78                             126    0.1210 5.69  114
 N6       S   0   1119 33.57                             126    0.1110 5.69  114
 N10      P   0 ? 1119 31.80                             114   -0.1010 7.29 3544
 N10      S   0   1119 33.77                             114   -0.1210 7.29 3544
 N9       P   0 ? 1119 31.94                             111   -0.0310 7.75  154
 N9       S   0   1119 34.09                             111    0.0810 7.75  154
 N11      P   0 ? 1119 32.18                             104    0.0010 8.96 3394
 N11      S   0   1119 34.42                             104    0.0410 8.96 3394
 N15      P   0 ? 1119 32.35                             100    0.0110 9.92 3584
 N15      S   0   1119 34.53                             100   -0.1510 9.92 3584
 N18      P   0 ? 1119 32.65                              96   -0.0410 12.0 3474
 P1       P   0 ? 1119 32.73                              96   -0.0110 12.2  234
 P1       S   0   1119 35.47                              96    0.0710 12.2  234
                                                                                
 2021  3 3 1938 53.9 L  28.829  50.854  7.4  SLT  7 0.1                        1
 GAP=260        0.30       1.4     1.9  1.7  0.1286E+01  0.1703E+01  0.5474E+00E
 STAT SP IPHASW D HRMN SECON CODA AMPLIT PERI AZIMU VELO AIN AR TRES W  DIS CAZ7
 N3       P   0 ? 1938 55.77                             157    0.0310 2.22  664
 N3       S   0   1938 57.03                             157   -0.1810 2.22  664
 N4       P   0 ? 1938 55.90                             147    0.0810 3.23 3604
 N5       P   0 ? 1938 55.85                             145    0.0110 3.39  624
 N5       S   0   1938 57.50                             145    0.1110 3.39  624
 N2       P   0 ? 1938 55.86                             141   -0.0210 3.89  774
 N2       S   0   1938 57.65                             141    0.1810 3.89  774
 N1       P   0 ? 1938 55.95                             136   -0.0110 4.43 1004
 N1       S   0   1938 57.57                             136   -0.0310 4.43 1004
 CAMP     P   0 ? 1938 56.02                             128   -0.0510 5.37  784
 CAMP     S   0   1938 57.76                             128   -0.0510 5.37  784
 N6       P   0 ? 1938 56.12                             125   -0.0110 5.69  174
 N6       S   0   1938 57.86                             125   -0.0510 5.69  174
                                                                                
 2021  3 3 0321 13.0 L  28.829  50.858  7.8  SLT  6 0.1                        1
 GAP=262        0.31       1.4     1.7  1.8  0.9036E+00  0.9645E+00  0.4521E+00E
 STAT SP IPHASW D HRMN SECON CODA AMPLIT PERI AZIMU VELO AIN AR TRES W  DIS CAZ7
 N5       P   0 ? 0321 15.02                             151    0.0610 3.05  604
 N4       P   0 ? 0321 14.98                             150    0.0110 3.19 3534
 N4       S   0   0321 16.47                             150   -0.0910 3.19 3534
 CAMP     P   0 ? 0321 15.13                             134   -0.0410 5.02  784
 CAMP     S   0   0321 16.89                             134   -0.0210 5.02  784
 N6       P   0 ? 0321 15.26                             130    0.0210 5.54  134
 N6       S   0   0321 17.21                             130    0.1710 5.54  134
 N9       S   0   0321 17.48                             116   -0.1010 7.62  174
 N11      P   0 ? 0321 15.70                             110   -0.0110 8.69 3404
                                                                                
 2021  3 3 2007 49.0 L  28.829  50.858  7.8  SLT  9 0.1                        1
 GAP=252        0.28       0.9     1.8  1.4  0.6518E+00  0.1361E+01 -0.7724E-01E
 STAT SP IPHASW D HRMN SECON CODA AMPLIT PERI AZIMU VELO AIN AR TRES W  DIS CAZ7
 N3       P   0 ? 2007 50.85                             161   -0.0110 1.89  624
 N3       S   0   2007 52.51                             161    0.1410 1.89  624
 N5       P   0 ? 2007 50.99                             151    0.0410 3.07  604
 N5       S   0   2007 52.51                             151   -0.0210 3.07  604
 N4       P   0 ? 2007 50.92                             149   -0.0410 3.24 3534
 N2       P   0 ? 2007 50.97                             146   -0.0110 3.54  754
 N2       S   0   2007 52.35                             146   -0.2410 3.54  754
 N1       P   0 ? 2007 51.06                             142    0.0110 4.09 1014
 N1       S   0   2007 52.69                             142   -0.0110 4.09 1014
 CAMP     P   0 ? 2007 51.19                             134    0.0410 5.02  774
 CAMP     S   0   2007 53.00                             134    0.1110 5.02  774
 N6       P   0 ? 2007 51.26                             130    0.0310 5.58  134
 N6       S   0   2007 53.03                             130   -0.0110 5.58  134
 N9       S   0   2007 53.58                             116    0.0010 7.66  174
 N15      P   0 ? 2007 51.82                             105   -0.0610 9.76 3594
 N15      S   0   2007 54.23                             105    0.0310 9.76 3594
                                                                                
 2021  3 3 2130  9.9 L  28.827  50.856  7.8  SLT 18 0.1                        1
 GAP=212        0.24       0.5     0.7  0.5  0.1600E+00 -0.4518E-01 -0.2294E-01E
 STAT SP IPHASW D HRMN SECON CODA AMPLIT PERI AZIMU VELO AIN AR TRES W  DIS CAZ7
 N3       P   0 ? 2130 11.91                             159    0.0810 2.17  604
 N3       S   0   2130 13.36                             159   -0.0010 2.17  604
 N5       P   0 ? 2130 11.96                             149    0.0410 3.35  594
 N5       S   0   2130 13.59                             149    0.0610 3.35  594
 N4       P   0 ? 2130 11.91                             148   -0.0210 3.41 3574
 N4       S   0   2130 13.39                             148   -0.1510 3.41 3574
 N2       P   0 ? 2130 12.05                             145    0.0910 3.80  734
 N2       S   0   2130 13.66                             145    0.0710 3.80  734
 N1       P   0 ? 2130 12.03                             141    0.0110 4.27  984
 N1       S   0   2130 13.68                             141   -0.0210 4.27  984
 N6       P   0 ? 2130 12.21                             129   -0.0010 5.82  154
 N6       S   0   2130 14.00                             129   -0.0510 5.82  154
 N10      P   0 ? 2130 12.48                             119    0.0610 7.30 3574
 N10      S   0   2130 14.30                             119   -0.1310 7.30 3574
 N9       P   0 ? 2130 12.56                             115    0.0510 7.90  184
 N9       S   0   2130 14.65                             115    0.0510 7.90  184
 N11      P   0 ? 2130 12.65                             110   -0.0210 8.85 3424
 N11      S   0   2130 14.85                             110   -0.0310 8.85 3424
 N15      P   0 ? 2130 12.95                             106    0.1010 9.95   04
 N15      S   0   2130 15.25                             106    0.0510 9.95   04
 N18      P   0 ? 2130 13.14                             100   -0.0510 11.9 3494
 P1       P   0 ? 2130 13.20                              99   -0.0710 12.4  254
 P1       S   0   2130 15.86                              99   -0.1110 12.4  254
 N19      P   0 ? 2130 13.40                              98   -0.0110 13.2   44
 P3       P   0 ? 2130 14.29                              95    0.0810 17.9  414
 P4       P   0 ? 2130 15.38                              93    0.0410 24.4  514
 P4       S   0   2130 19.82                              93    0.1110 24.4  514
 P5       P   0 ? 2130 15.97                              92   -0.0210 28.1  534
 DLRM     P   0 ? 2130 16.05                              92    0.0610 28.1 1304
 DLRM     S   0   2130 20.71                              92   -0.1810 28.1 1304
 KHIA     S   0   2130 21.63                              92   -0.0810 30.7  804
                                                                                
