 2021  3 3 2129 38.9 L  28.826  50.844  7.1  SLT  9 0.1                        1
 GAP=254        0.26       1.1     1.2  1.3  0.2575E+00  0.7647E+00 -0.4904E+00E
 STAT SP IPHASW D HRMN SECON CODA AMPLIT PERI AZIMU VELO AIN AR TRES W  DIS CAZ7
 N3       P   0 ? 2129 40.75                             145    0.0310 3.24  684
 N3       S   0   2129 42.08                             145   -0.1510 3.24  684
 N4       P   0 ? 2129 40.78                             141    0.0110 3.68  154
 N5       P   0 ? 2129 40.86                             134    0.0010 4.41  654
 N5       S   0   2129 42.61                             134    0.1310 4.41  654
 N2       P   0 ? 2129 40.95                             129    0.0310 4.92  764
 N2       S   0   2129 42.65                             129    0.0710 4.92  764
 N1       P   0 ? 2129 41.00                             125    0.0110 5.36  954
 N1       S   0   2129 42.69                             125   -0.0210 5.36  954
 N6       P   0 ? 2129 41.10                             116   -0.0410 6.33  244
 CAMP     P   0 ? 2129 41.15                             115    0.0110 6.39  774
 CAMP     S   0   2129 42.94                             115   -0.0410 6.39  774
 N9       P   0 ? 2129 41.39                              97   -0.1010 8.45  254
 N9       S   0   2129 43.61                              97   -0.0010 8.45  254
 N11      P   0 ? 2129 41.60                              95    0.0710 8.71 3494
                                                                                
 2021  3 3 2352  9.5 L  28.829  50.855  7.1  SLT 12 0.1                        1
 GAP=241        0.23       0.6     0.9  0.7  0.3043E+00  0.2276E+00 -0.8811E-01E
 STAT SP IPHASW D HRMN SECON CODA AMPLIT PERI AZIMU VELO AIN AR TRES W  DIS CAZ7
 N3       P   0 ? 2352 11.25                             157   -0.0110 2.11  654
 N3       S   0   2352 12.74                             157    0.0410 2.11  654
 N4       P   0 ? 2352 11.44                             145    0.0810 3.23 3574
 N4       S   0   2352 12.82                             145   -0.0510 3.23 3574
 N5       P   0 ? 2352 11.48                             145    0.1110 3.28  614
 N5       S   0   2352 12.83                             145   -0.0610 3.28  614
 N2       P   0 ? 2352 11.37                             140   -0.0410 3.77  764
 N2       S   0   2352 13.02                             140    0.0610 3.77  764
 N1       P   0 ? 2352 11.43                             135   -0.0510 4.32 1004
 N1       S   0   2352 13.10                             135    0.0110 4.32 1004
 CAMP     P   0 ? 2352 11.56                             126   -0.0410 5.25  784
 CAMP     S   0   2352 13.34                             126    0.0310 5.25  784
 N6       P   0 ? 2352 11.63                             123   -0.0410 5.65  164
 N6       S   0   2352 13.40                             123   -0.0310 5.65  164
 N10      P   0 ? 2352 11.90                             109    0.0110 7.12 3574
 N10      S   0   2352 13.72                             109   -0.1210 7.12 3574
 N9       P   0 ? 2352 12.01                             104    0.0110 7.74  194
 N9       S   0   2352 14.03                             104    0.0110 7.74  194
 N11      P   0 ? 2352 12.15                              97   -0.0110 8.67 3414
 N11      S   0   2352 14.41                              97    0.1010 8.67 3414
 N15      P   0 ? 2352 12.24                              94   -0.1110 9.77   04
 N15      S   0   2352 14.74                              94    0.0810 9.77   04
 P1       P   0 ? 2352 12.80                              92    0.0210 12.3  264
                                                                                
 2021  3 3 0133 46.1 L  28.824  50.851  6.1  SLT  8 0.1                        1
 GAP=271        0.25       0.7     1.0  0.9  0.3448E+00  0.3461E+00  0.4007E-01E
 STAT SP IPHASW D HRMN SECON CODA AMPLIT PERI AZIMU VELO AIN AR TRES W  DIS CAZ7
 N3       P   0 ? 0133 47.80                             150    0.0510 2.73  584
 N3       S   0   0133 49.16                             150    0.0810 2.73  584
 N4       P   0 ? 0133 47.94                             140    0.0610 3.77   44
 N4       S   0   0133 49.18                             140   -0.1210 3.77   44
 N5       P   0 ? 0133 47.89                             138   -0.0110 3.91  574
 N5       S   0   0133 49.33                             138   -0.0110 3.91  574
 N2       P   0 ? 0133 47.92                             135   -0.0310 4.32  714
 N2       S   0   0133 49.35                             135   -0.0810 4.32  714
 N1       P   0 ? 0133 48.01                             132    0.0110 4.67  934
 N1       S   0   0133 49.62                             132    0.0910 4.67  934
 CAMP     P   0 ? 0133 48.09                             123   -0.0910 5.78  734
 CAMP     S   0   0133 49.82                             123   -0.0310 5.78  734
 N6       P   0 ? 0133 48.25                             120   -0.0210 6.28  184
 N6       S   0   0133 50.08                             120    0.0610 6.28  184
 N9       P   0 ? 0133 48.67                             107    0.0110 8.38  204
 N9       S   0   0133 50.76                             107    0.0410 8.38  204
                                                                                
 2021  3 3 0134 58.3 L  28.833  50.865  7.6  SLT 16 0.1                        1
 GAP=224        0.21       0.6     0.9  0.6  0.2929E+00  0.1705E+00 -0.7722E-01E
 STAT SP IPHASW D HRMN SECON CODA AMPLIT PERI AZIMU VELO AIN AR TRES W  DIS CAZ7
 N3       P   0 ? 0135  0.12                             169   -0.0210 1.09  694
 N3       S   0   0135  1.51                             169   -0.0910 1.09  694
 N5       P   0 ? 0135  0.23                             158    0.0210 2.25  624
 N5       S   0   0135  1.71                             158   -0.0010 2.25  624
 N2       P   0 ? 0135  0.33                             152    0.0910 2.80  824
 N2       S   0   0135  1.79                             152    0.0210 2.80  824
 N4       P   0 ? 0135  0.23                             151   -0.0210 2.91 3394
 N4       S   0   0135  1.77                             151   -0.0310 2.91 3394
 N1       P   0 ? 0135  0.27                             145   -0.0510 3.59 1114
 N1       S   0   0135  1.94                             145    0.0210 3.59 1114
 CAMP     P   0 ? 0135  0.39                             139    0.0010 4.28  824
 CAMP     S   0   0135  2.12                             139    0.0810 4.28  824
 N6       P   0 ? 0135  0.49                             133    0.0110 4.98   74
 N6       S   0   0135  2.20                             133   -0.0110 4.98   74
 N10      P   0 ? 0135  0.67                             120   -0.0510 6.71 3494
 N9       P   0 ? 0135  0.78                             118    0.0210 7.01  134
 N9       S   0   0135  2.63                             118   -0.0910 7.01  134
 N11      P   0 ? 0135  1.05                             109    0.0510 8.54 3354
 N11      S   0   0135  3.26                             109    0.1010 8.54 3354
 N15      P   0 ? 0135  1.16                             105    0.0310 9.30 3554
 N15      S   0   0135  3.46                             105    0.0710 9.30 3554
 N18      P   0 ? 0135  1.46                              99   -0.0410 11.5 3444
 P1       P   0 ? 0135  1.46                              99   -0.0410 11.5  234
 N19      P   0 ? 0135  1.55                              97   -0.1310 12.5   14
 N17      P   0 ? 0135  1.74                              97    0.0410 12.6 3404
 N20      P   0 ? 0135  2.10                              95   -0.0010 14.9 3494
                                                                                
 2021  3 3 1310 33.4 L  28.831  50.850  7.7  SLT  8 0.1                        1
 GAP=266        0.27       0.9     1.4  1.1  0.5613E+00  0.4687E+00  0.5452E-01E
 STAT SP IPHASW D HRMN SECON CODA AMPLIT PERI AZIMU VELO AIN AR TRES W  DIS CAZ7
 N3       P   0 ? 1310 35.33                             155    0.0410 2.55  764
 N3       S   0   1310 36.99                             155    0.1710 2.55  764
 N4       P   0 ? 1310 35.36                             151    0.0410 2.98   84
 N4       S   0   1310 36.71                             151   -0.1710 2.98   84
 N5       P   0 ? 1310 35.38                             145   -0.0110 3.68  694
 N5       S   0   1310 36.95                             145   -0.0510 3.68  694
 N2       P   0 ? 1310 35.45                             139    0.0010 4.28  824
 N2       S   0   1310 37.08                             139   -0.0210 4.28  824
 N1       P   0 ? 1310 35.49                             134   -0.0410 4.93 1024
 N1       S   0   1310 37.26                             134    0.0010 4.93 1024
 N6       P   0 ? 1310 35.69                             129    0.0710 5.57  224
 N6       S   0   1310 37.48                             129    0.0610 5.57  224
 CAMP     P   0 ? 1310 35.56                             128   -0.0810 5.76  824
 CAMP     S   0   1310 37.44                             128   -0.0110 5.76  824
 N9       P   0 ? 1310 35.92                             115   -0.0110 7.69  234
 N9       S   0   1310 37.97                             115   -0.0010 7.69  234
                                                                                
 2021  3 3 1323 39.9 L  28.832  50.859  5.9  SLT 10 0.1                        1
 GAP=234        0.25       0.6     0.9  0.7  0.3066E+00  0.2325E+00 -0.7111E-01E
 STAT SP IPHASW D HRMN SECON CODA AMPLIT PERI AZIMU VELO AIN AR TRES W  DIS CAZ7
 N3       P   0 ? 1323 41.47                             160    0.0610 1.71  704
 N3       S   0   1323 42.61                             160   -0.0210 1.71  704
 N5       P   0 ? 1323 41.48                             147   -0.0410 2.87  644
 N5       S   0   1323 42.76                             147   -0.0710 2.87  644
 N4       P   0 ? 1323 41.58                             146    0.0610 2.96 3514
 N4       S   0   1323 42.89                             146    0.0510 2.96 3514
 N2       P   0 ? 1323 41.54                             141   -0.0310 3.41  804
 N2       S   0   1323 42.98                             141    0.0510 3.41  804
 N1       P   0 ? 1323 41.70                             135    0.0310 4.09 1054
 N1       S   0   1323 43.12                             135    0.0110 4.09 1054
 CAMP     P   0 ? 1323 41.73                             128   -0.0610 4.89  804
 CAMP     S   0   1323 43.28                             128   -0.0410 4.89  804
 N6       P   0 ? 1323 41.84                             125   -0.0210 5.28  134
 N6       S   0   1323 43.48                             125    0.0310 5.28  134
 N9       P   0 ? 1323 42.20                             109   -0.0310 7.36  174
 N9       S   0   1323 44.17                             109    0.0510 7.36  174
 N11      P   0 ? 1323 42.55                             103    0.1010 8.49 3394
 N11      S   0   1323 44.31                             103   -0.2110 8.49 3394
 N15      P   0 ? 1323 42.64                              99   -0.0010 9.46 3584
 N15      S   0   1323 44.95                              99    0.0810 9.46 3584
                                                                                
 2021  3 3 1327 15.6 L  28.826  50.862  7.2  SLT 10 0.1                        1
 GAP=240        0.25       0.7     1.1  0.8  0.4128E+00  0.3703E+00 -0.8813E-01E
 STAT SP IPHASW D HRMN SECON CODA AMPLIT PERI AZIMU VELO AIN AR TRES W  DIS CAZ7
 N3       P   0 ? 1327 17.31                             161   -0.0110 1.74  474
 N3       S   0   1327 18.72                             161   -0.0210 1.74  474
 N5       P   0 ? 1327 17.42                             149    0.0110 2.91  514
 N5       S   0   1327 18.85                             149   -0.0510 2.91  514
 N2       P   0 ? 1327 17.50                             145    0.0710 3.25  694
 N2       S   0   1327 18.92                             145   -0.0210 3.25  694
 N4       P   0 ? 1327 17.53                             142    0.0610 3.59 3484
 N4       S   0   1327 19.10                             142    0.0910 3.59 3484
 N1       P   0 ? 1327 17.50                             142    0.0210 3.65  984
 N1       S   0   1327 18.86                             142   -0.1710 3.65  984
 CAMP     P   0 ? 1327 17.74                             131    0.1410 4.71  734
 CAMP     S   0   1327 19.30                             131    0.0510 4.71  734
 N6       P   0 ? 1327 17.78                             122    0.0210 5.79   94
 N6       S   0   1327 19.54                             122    0.0010 5.79   94
 N10      P   0 ? 1327 17.99                             107   -0.0310 7.44 3534
 N10      S   0   1327 20.01                             107   -0.0010 7.44 3534
 N9       P   0 ? 1327 18.03                             104   -0.0510 7.83  144
 N9       S   0   1327 20.15                             104    0.0310 7.83  144
 N11      P   0 ? 1327 18.23                              96   -0.0810 9.15 3384
 N11      S   0   1327 20.48                              96   -0.0510 9.15 3384
                                                                                
 2021  3 3 1346  4.1 L  28.829  50.857  7.6  SLT  7 0.1                        1
 GAP=255        0.30       1.5     1.7  1.5  0.1518E+01  0.1006E+01  0.6647E+00E
 STAT SP IPHASW D HRMN SECON CODA AMPLIT PERI AZIMU VELO AIN AR TRES W  DIS CAZ7
 N3       P   0 ? 1346  5.95                             160   -0.0210 2.00  624
 N3       S   0   1346  7.53                             160    0.0710 2.00  624
 N5       P   0 ? 1346  6.08                             149    0.0210 3.18  604
 N5       S   0   1346  7.60                             149   -0.0310 3.18  604
 N4       P   0 ? 1346  6.09                             148    0.0210 3.28 3554
 N4       S   0   1346  7.60                             148   -0.0410 3.28 3554
 N2       P   0 ? 1346  6.09                             144   -0.0110 3.65  754
 N2       S   0   1346  7.46                             144   -0.2310 3.65  754
 N1       P   0 ? 1346  6.14                             140   -0.0210 4.17 1004
 N1       S   0   1346  7.98                             140    0.1710 4.17 1004
 CAMP     P   0 ? 1346  6.25                             132   -0.0210 5.12  774
 CAMP     S   0   1346  8.03                             132    0.0210 5.12  774
 N6       P   0 ? 1346  6.34                             128   -0.0110 5.65  144
 N6       S   0   1346  8.24                             128    0.0910 5.65  144
                                                                                
 2021  3 3 1426 26.5 L  28.834  50.863  6.6  SLT 10 0.1                        1
 GAP=232        0.25       0.6     1.1  0.8  0.4107E+00  0.2426E+00 -0.3748E-01E
 STAT SP IPHASW D HRMN SECON CODA AMPLIT PERI AZIMU VELO AIN AR TRES W  DIS CAZ7
 N3       P   0 ? 1426 28.09                             167   -0.0410 1.25  754
 N3       S   0   1426 29.35                             167   -0.1010 1.25  754
 N5       P   0 ? 1426 28.31                             155    0.1010 2.40  654
 N5       S   0   1426 29.53                             155   -0.0610 2.40  654
 N4       P   0 ? 1426 28.29                             152    0.0410 2.79 3424
 N4       S   0   1426 29.64                             152   -0.0110 2.79 3424
 N2       P   0 ? 1426 28.26                             150    0.0010 2.98  844
 N2       S   0   1426 29.72                             150    0.0510 2.98  844
 N1       P   0 ? 1426 28.29                             143   -0.0710 3.79 1114
 N1       S   0   1426 29.85                             143    0.0010 3.79 1114
 CAMP     P   0 ? 1426 28.42                             137   -0.0210 4.46  834
 CAMP     S   0   1426 30.09                             137    0.0910 4.46  834
 N6       P   0 ? 1426 28.59                             134    0.0710 4.94   94
 N6       S   0   1426 30.21                             134    0.0710 4.94   94
 N10      P   0 ? 1426 28.74                             123   -0.0410 6.62 3514
 N10      S   0   1426 30.71                             123    0.1010 6.62 3514
 N9       P   0 ? 1426 28.84                             120   -0.0010 6.99  154
 N9       S   0   1426 30.56                             120   -0.1710 6.99  154
 N15      P   0 ? 1426 29.22                             110   -0.0310 9.22 3564
 N15      S   0   1426 31.46                             110   -0.0110 9.22 3564
                                                                                
 2021  3 3 1549 35.7 L  28.829  50.856  6.2  SLT  9 0.1                        1
 GAP=256        0.25       0.7     1.3  0.8  0.4632E+00  0.3305E+00 -0.7297E-01E
 STAT SP IPHASW D HRMN SECON CODA AMPLIT PERI AZIMU VELO AIN AR TRES W  DIS CAZ7
 N3       P   0 ? 1549 37.34                             157    0.0310 2.07  654
 N3       S   0   1549 38.63                             157    0.0310 2.07  654
 N4       P   0 ? 1549 37.53                             145    0.1110 3.22 3574
 N4       S   0   1549 38.70                             145   -0.1010 3.22 3574
 N5       P   0 ? 1549 37.47                             145    0.0410 3.24  614
 N5       S   0   1549 38.89                             145    0.0810 3.24  614
 N2       P   0 ? 1549 37.43                             140   -0.0510 3.74  764
 N2       S   0   1549 38.85                             140   -0.0610 3.74  764
 N1       P   0 ? 1549 37.48                             136   -0.0810 4.28 1004
 CAMP     P   0 ? 1549 37.74                             128    0.0410 5.21  784
 N6       P   0 ? 1549 37.77                             125   -0.0010 5.63  154
 N9       P   0 ? 1549 38.10                             111   -0.0410 7.72  194
 N9       S   0   1549 40.12                             111    0.0210 7.72  194
 N15      P   0 ? 1549 38.53                             103   -0.0110 9.75   04
 N15      S   0   1549 40.82                             103    0.0010 9.75   04
                                                                                
 2021  3 3 1559  9.3 L  28.823  50.847  8.0  SLT  8 0.1                        1
 GAP=257        0.27       1.0     1.3  1.2  0.7897E+00  0.8138E+00  0.1743E+00E
 STAT SP IPHASW D HRMN SECON CODA AMPLIT PERI AZIMU VELO AIN AR TRES W  DIS CAZ7
 N3       P   0 ? 1559 11.24                             151    0.0110 3.17  614
 N3       S   0   1559 12.82                             151   -0.0210 3.17  614
 N4       P   0 ? 1559 11.38                             144    0.0710 3.95  104
 N4       S   0   1559 13.04                             144    0.0710 3.95  104
 N5       P   0 ? 1559 11.40                             141    0.0510 4.35  594
 N5       S   0   1559 13.09                             141    0.0410 4.35  594
 N2       P   0 ? 1559 11.38                             137   -0.0110 4.78  714
 N2       S   0   1559 13.10                             137   -0.0210 4.78  714
 N1       P   0 ? 1559 11.42                             135   -0.0210 5.11  914
 N1       S   0   1559 13.09                             135   -0.1210 5.11  914
 CAMP     P   0 ? 1559 11.52                             127   -0.0610 6.24  734
 CAMP     S   0   1559 13.53                             127    0.0610 6.24  734
 N9       P   0 ? 1559 11.99                             113    0.0410 8.66  234
 N9       S   0   1559 14.18                             113    0.0410 8.66  234
 N11      P   0 ? 1559 12.08                             111    0.0610 9.07 3484
 N11      S   0   1559 14.08                             111   -0.1810 9.07 3484
                                                                                
