 2021  2 2 1122 56.6 L  29.218  51.379  5.5  SLT 33 0.1                        1
 GAP=283        0.30       1.6     2.2  2.1  0.2969E+01  0.4441E+01  0.3061E+01E
 STAT SP IPHASW D HRMN SECON CODA AMPLIT PERI AZIMU VELO AIN AR TRES W  DIS CAZ7
 ABAD     P   0 ? 1123  2.12                              43   -0.0110 24.4 2114
 ABAD     S   0   1123  6.68                              43    0.0510 24.4 2114
 ABTL     P   0 ? 1123  2.77                              43   -0.0910 28.6 2434
 ABTL     S   0   1123  7.83                              43   -0.1210 28.6 2434
 P9       P   0 ? 1123  3.02                              43    0.0910 29.0 2154
 P9       S   0   1123  8.18                              43    0.1010 29.0 2154
 NOKA     P   0 ? 1123  3.66                              43   -0.0910 33.7 2644
 NOKA     S   0   1123  9.46                              43   -0.0910 33.7 2644
 TOLS     P   0 ? 1123  4.30                              43    0.0210 36.8 2244
 TOLS     S   0   1123 10.32                              43   -0.2010 36.8 2244
 P5       P   0 ? 1123  4.57                              43   -0.0710 38.8 2274
 P5       S   0   1123 11.16                              43   -0.0110 38.8 2274
 P4       P   0 ? 1123  5.22                              43   -0.0510 42.5 2294
 P4       S   0   1123 12.39                              43    0.0710 42.5 2294
 KHIA     P   0 ? 1123  5.48                              43    0.0210 43.5 2084
 KHIA     S   0   1123 12.35                              43   -0.3010 43.5 2084
 P3       P   0 ? 1123  6.61                              43    0.1610 49.3 2334
 P3       S   0   1123 14.55                              43    0.1010 49.3 2334
 SHIF     P   0 ? 1123  6.93                              40    0.0510 51.8 2514
 SHIF     S   0   1123 14.99                              40   -0.2310 51.8 2514
 P2       P   0 ? 1123  6.97                              40   -0.0410 52.6 2334
 P2       S   0   1123 15.39                              40   -0.0610 52.6 2334
 JNAK     P   0 ? 1123  7.39                              40   -0.2110 56.3 2124
 JNAK     S   0   1123 16.42                              40   -0.1210 56.3 2124
 KOLO     P   0 ? 1123  7.75                              40    0.0010 57.1 1944
 N19      P   0 ? 1123  8.04                              40    0.1110 58.3 2394
 N19      S   0   1123 17.02                              40   -0.1110 58.3 2394
 N16      P   0 ? 1123  8.12                              40    0.0810 59.0 2374
 N16      S   0   1123 17.27                              40   -0.0610 59.0 2374
 N9       P   0 ? 1123  8.32                              40    0.0810 60.3 2344
 N9       S   0   1123 17.78                              40    0.0910 60.3 2344
 N15      P   0 ? 1123  8.29                              40   -0.0510 60.9 2374
 N15      S   0   1123 18.09                              40    0.2210 60.9 2374
 N18      P   0 ? 1123  8.48                              40   -0.0310 61.9 2394
 N18      S   0   1123 18.23                              40    0.0610 61.9 2394
 N6       P   0 ? 1123  8.49                              40   -0.0710 62.2 2334
 CAMP     P   0 ? 1123  8.65                              40    0.1010 62.2 2284
 CAMP     S   0   1123 18.36                              40    0.1110 62.2 2284
 N14      P   0 ? 1123  8.70                              40    0.1110 62.4 2384
 N17      P   0 ? 1123  8.47                              40   -0.1110 62.4 2414
 N14      S   0   1123 18.45                              40    0.1410 62.4 2384
 N17      S   0   1123 18.24                              40   -0.0710 62.4 2414
 N10      P   0 ? 1123  8.67                              40    0.04 9 62.7 2354
 N10      S   0   1123 18.57                              40    0.17 9 62.7 2354
 N2       P   0 ? 1123  8.66                              40   -0.09 9 63.4 2284
 N2       S   0   1123 18.61                              40    0.01 9 63.4 2284
 N7       P   0 ? 1123  8.89                              40    0.12 9 63.5 2344
 N7       S   0   1123 18.61                              40   -0.03 9 63.5 2344
 N5       P   0 ? 1123  8.86                              40    0.08 9 63.6 2294
 N5       S   0   1123 18.68                              40    0.02 9 63.6 2294
 N1       P   0 ? 1123  8.86                              40   -0.01 9 64.1 2274
 N11      P   0 ? 1123  8.90                              40    0.04 9 64.1 2374
 N11      S   0   1123 18.77                              40   -0.04 9 64.1 2374
 N1       S   0   1123 18.79                              40   -0.03 9 64.1 2274
 N13      P   0 ? 1123  8.89                              40   -0.04 9 64.5 2384
 N13      S   0   1123 19.12                              40    0.19 9 64.5 2384
 N3       P   0 ? 1123  8.93                              40   -0.03 9 64.7 2294
 N3       S   0   1123 19.12                              40    0.12 9 64.7 2294
 N4       P   0 ? 1123  8.89                              40   -0.09 9 64.8 2324
 N4       S   0   1123 19.04                              40    0.01 9 64.8 2324
 DLRM     P   0 ? 1123  9.58                              40    0.09 9 68.0 2064
 DLRM     S   0   1123 19.99                              40    0.04 9 68.0 2064
 ABAS     P   0 ? 1123 10.83                              40   -0.05 9 76.5 1874
                                                                                
 2021  2 2 1124  8.1 L  29.244  51.355  5.9  SLT  8 0.1                        1
 GAP=305        0.28       2.3     2.7  4.9  0.5219E+01  0.1206E+02  0.1011E+02E
 STAT SP IPHASW D HRMN SECON CODA AMPLIT PERI AZIMU VELO AIN AR TRES W  DIS CAZ7
 ABAD     P   0 ? 1124 13.79                              59   -0.0510 25.8 2034
 ABAD     S   0   1124 18.59                              59    0.0710 25.8 2034
 ABTL     P   0 ? 1124 14.20                              59   -0.0210 28.0 2364
 ABTL     S   0   1124 19.35                              59    0.1410 28.0 2364
 P9       P   0 ? 1124 14.65                              59    0.0610 30.2 2094
 P9       S   0   1124 19.76                              59   -0.1110 30.2 2094
 NOKA     P   0 ? 1124 14.94                              59    0.0610 31.9 2594
 NOKA     S   0   1124 20.27                              59   -0.1310 31.9 2594
 TOLS     P   0 ? 1124 15.87                              59    0.0310 37.4 2184
 TOLS     S   0   1124 22.10                              59   -0.0410 37.4 2184
 P5       P   0 ? 1124 16.12                              59   -0.0510 39.2 2224
 P5       S   0   1124 22.79                              59    0.0710 39.2 2224
 KHIA     P   0 ? 1124 17.10                              59   -0.0710 45.0 2044
 KHIA     S   0   1124 24.47                              59   -0.0810 45.0 2044
 JNAK     P   0 ? 1124 19.33                              53    0.0810 57.6 2094
 JNAK     S   0   1124 28.35                              53    0.0410 57.6 2094
                                                                                
 2021  2 2 0015 45.0 L  28.940  50.796  7.9  SLT 13 0.1                        1
 GAP=266        0.29       0.7     1.1  0.9  0.1204E+00  0.1146E+00  0.1312E+00E
 STAT SP IPHASW D HRMN SECON CODA AMPLIT PERI AZIMU VELO AIN AR TRES W  DIS CAZ7
 N17      P   0 ? 0015 46.86                             157   -0.0310 2.48  884
 N17      S   0   0015 48.56                             157    0.1110 2.48  884
 N18      P   0 ? 0015 46.90                             147   -0.0910 3.63 1024
 N18      S   0   0015 48.70                             147    0.0810 3.63 1024
 N13      P   0 ? 0015 47.05                             141   -0.0110 4.32 1484
 N13      S   0   0015 48.72                             141   -0.0310 4.32 1484
 N14      P   0 ? 0015 47.11                             139    0.0210 4.58 1214
 N14      S   0   0015 48.78                             139   -0.0310 4.58 1214
 N20      P   0 ? 0015 47.15                             137    0.0310 4.88  544
 N20      S   0   0015 48.84                             137   -0.0310 4.88  544
 N11      P   0 ? 0015 47.11                             135   -0.0410 5.12 1434
 N11      S   0   0015 48.86                             135   -0.0610 5.12 1434
 N15      P   0 ? 0015 47.29                             126   -0.0410 6.42 1134
 N15      S   0   0015 49.30                             126    0.0610 6.42 1134
 N19      P   0 ? 0015 47.40                             123    0.0010 6.90  844
 N19      S   0   0015 49.16                             123   -0.2110 6.90  844
 N16      P   0 ? 0015 47.66                             119    0.2010 7.38 1004
 N16      S   0   0015 49.53                             119    0.0410 7.38 1004
 N10      P   0 ? 0015 47.63                             118    0.1310 7.58 1334
 N10      S   0   0015 49.57                             118    0.0210 7.58 1334
 N7       P   0 ? 0015 47.65                             114    0.0210 8.40 1404
 N7       S   0   0015 49.68                             114   -0.1110 8.40 1404
 N9       P   0 ? 0015 47.63                             108   -0.2110 9.71 1214
 N9       S   0   0015 50.24                             108    0.0810 9.71 1214
 N6       P   0 ? 0015 47.95                             107    0.0510 10.1 1334
 N6       S   0   0015 50.33                             107    0.0510 10.1 1334
                                                                                
 2021  2 2 2112  5.4 L  28.921  51.106 10.6  SLT 34 0.1                        1
 GAP= 82        0.30       0.4     0.3  0.4  0.2255E-02  0.3577E-01  0.3392E-01E
 STAT SP IPHASW D HRMN SECON CODA AMPLIT PERI AZIMU VELO AIN AR TRES W  DIS CAZ7
 TOLS     P   0 ? 2112  8.11                             141   -0.0010 6.55  104
 TOLS     S   0   2112 10.19                             141   -0.1110 6.55  104
 P5       P   0 ? 2112  8.07                             140   -0.0610 6.70 3444
 P5       S   0   2112 10.42                             140    0.1010 6.70 3444
 P4       P   0 ? 2112  8.33                             136    0.1110 7.53 3134
 P4       S   0   2112 10.52                             136    0.0310 7.53 3134
 KHIA     P   0 ? 2112  8.27                             134   -0.0110 7.92 1324
 KHIA     S   0   2112 10.40                             134   -0.2010 7.92 1324
 P3       P   0 ? 2112  9.04                             117    0.0410 13.0 2844
 P3       S   0   2112 11.90                             117    0.0110 13.0 2844
 P9       P   0 ? 2112  9.00                             116   -0.0810 13.5  464
 JNAK     P   0 ? 2112  9.34                             112    0.0110 15.2 1924
 JNAK     S   0   2112 12.63                             112    0.1210 15.2 1924
 P2       P   0 ? 2112  9.50                             111    0.0710 15.7 2764
 P2       S   0   2112 12.42                             111   -0.2510 15.7 2764
 ABAD     P   0 ? 2112 10.09                             107    0.1910 18.6  504
 P1       P   0 ? 2112 10.13                             106    0.1510 19.1 2734
 P1       S   0   2112 13.86                             106    0.1910 19.1 2734
 ABTL     P   0 ? 2112 10.13                             105   -0.0110 20.0   34
 CAMP     P   0 ? 2112 10.17                             104   -0.1810 21.3 2454
 CAMP     S   0   2112 14.25                             104   -0.0910 21.3 2454
 N9       P   0 ? 2112 10.54                             103    0.0610 22.1 2634
 N9       S   0   2112 14.59                             103    0.0010 22.1 2634
 N2       P   0 ? 2112 10.73                             103    0.1510 22.7 2464
 N2       S   0   2112 14.67                             103   -0.1010 22.7 2464
 N1       P   0 ? 2112 10.74                             103    0.1110 22.9 2424
 N1       S   0   2112 14.75                             103   -0.1010 22.9 2424
 N16      P   0 ? 2112 10.72                             103    0.0910 23.0 2724
 N16      S   0   2112 14.78                             103   -0.0810 23.0 2724
 N5       P   0 ? 2112 10.63                             103   -0.0410 23.2 2484
 N5       S   0   2112 14.98                             103    0.0610 23.2 2484
 N6       P   0 ? 2112 10.69                             102   -0.0110 23.4 2584
 N6       S   0   2112 15.17                             102    0.1810 23.4 2584
 N19      P   0 ? 2112 10.66                             102   -0.0710 23.5 2774
 N19      S   0   2112 15.04                             102    0.0010 23.5 2774
 N15      P   0 ? 2112 10.96                             102    0.0910 24.3 2694
 N3       P   0 ? 2112 10.76                             102   -0.1010 24.3 2484
 N15      S   0   2112 15.32                             102    0.0410 24.3 2694
 N3       S   0   2112 15.16                             102   -0.1210 24.3 2484
 N10      P   0 ? 2112 11.08                              68    0.1110 24.9 2634
 N10      S   0   2112 15.53                              68    0.0710 24.9 2634
 N7       P   0 ? 2112 11.05                              68    0.0410 25.2 2604
 N7       S   0   2112 15.64                              68    0.0910 25.2 2604
 N4       P   0 ? 2112 10.96                              68   -0.1010 25.5 2544
 N4       S   0   2112 15.56                              68   -0.0710 25.5 2544
 KOLO     P   0 ? 2112 11.27                              68    0.1010 26.2 1504
 KOLO     S   0   2112 15.70                              68   -0.1310 26.2 1504
 N14      P   0 ? 2112 11.26                              68    0.0710 26.3 2704
 N14      S   0   2112 15.80                              68   -0.0610 26.3 2704
 N20      P   0 ? 2112 11.23                              68   -0.0310 26.7 2814
 N20      S   0   2112 15.86                              68   -0.1310 26.7 2814
 N18      P   0 ? 2112 11.28                              68    0.0310 26.7 2734
 N18      S   0   2112 15.87                              68   -0.1110 26.7 2734
 N11      P   0 ? 2112 11.29                              68   -0.0510 27.2 2664
 N11      S   0   2112 16.26                              68    0.1210 27.2 2664
 N17      P   0 ? 2112 11.38                              68   -0.0510 27.8 2754
 N17      S   0   2112 16.34                              68    0.0310 27.8 2754
 SHIF     P   0 ? 2112 11.32                              68   -0.1310 27.9 3064
 N13      P   0 ? 2112 11.52                              68    0.0610 28.0 2674
 N13      S   0   2112 16.29                              68   -0.0710 28.0 2674
 NOKA     P   0 ? 2112 11.70                              68   -0.1210 30.2 3474
 ABAS     P   0 ? 2112 14.63                              68    0.1410 46.7 1574
                                                                                
