 2021  2 2 0357 10.5 L  28.962  50.930 10.5  SLT 18 0.1                        1
 GAP=109        0.29       0.7     0.6  0.7 -0.7837E-01 -0.3800E-02 -0.1323E+00E
 STAT SP IPHASW D HRMN SECON CODA AMPLIT PERI AZIMU VELO AIN AR TRES W  DIS CAZ7
 P2       P   0 ? 0357 12.95                             158    0.0110 3.30 1554
 P2       S   0   0357 14.84                             158   -0.0310 3.30 1554
 P1       P   0 ? 0357 12.95                             153   -0.0510 4.16 2094
 P1       S   0   0357 15.11                             153    0.1310 4.16 2094
 P3       P   0 ? 0357 13.14                             150    0.1010 4.67 1084
 P3       S   0   0357 14.96                             150   -0.1010 4.67 1084
 N19      P   0 ? 0357 13.21                             140   -0.0210 6.52 2544
 N19      S   0   0357 15.49                             140    0.0810 6.52 2544
 N16      P   0 ? 0357 13.31                             138    0.0310 6.99 2374
 N16      S   0   0357 15.51                             138    0.0210 6.99 2374
 N15      P   0 ? 0357 13.45                             130   -0.0610 8.80 2364
 N15      S   0   0357 15.78                             130   -0.1310 8.80 2364
 N9       P   0 ? 0357 13.59                             130    0.0810 8.84 2134
 N9       S   0   0357 15.99                             130    0.0810 8.84 2134
 N20      P   0 ? 0357 13.50                             128   -0.0610 9.22 2734
 N20      S   0   0357 16.03                             128    0.0310 9.22 2734
 N18      P   0 ? 0357 13.90                             125    0.2110 10.1 2524
 N18      S   0   0357 16.21                             125   -0.0210 10.1 2524
 N14      P   0 ? 0357 13.86                             124    0.1310 10.4 2434
 N14      S   0   0357 16.24                             124   -0.0610 10.4 2434
 N6       S   0   0357 16.41                             122   -0.0510 10.9 2124
 N17      S   0   0357 16.32                             122   -0.1210 10.9 2584
 N6       P   0 ? 0357 13.65                             122   -0.1710 10.9 2124
 N17      P   0 ? 0357 13.80                             122   -0.0010 10.9 2584
 N7       P   0 ? 0357 14.00                             120    0.0610 11.8 2214
 N7       S   0   0357 16.56                             120   -0.1210 11.8 2214
 N11      P   0 ? 0357 14.11                             119    0.1410 12.0 2374
 N11      S   0   0357 16.76                             119    0.0210 12.0 2374
 N13      P   0 ? 0357 14.13                             118    0.0910 12.4 2414
 N13      S   0   0357 16.72                             118   -0.1410 12.4 2414
 N4       P   0 ? 0357 14.34                             115    0.1110 13.7 2134
 N4       S   0   0357 17.26                             115    0.0510 13.7 2134
 CAMP     P   0 ? 0357 14.23                             115   -0.0110 13.8 1894
 CAMP     S   0   0357 17.17                             115   -0.0610 13.8 1894
 NOKA     P   0 ? 0357 16.26                              68   -0.1510 26.8  224
                                                                                
 2021  2 2 0623  1.4 L  29.045  51.365  6.6  SLT  7 0.1                        1
 GAP=289        0.32       0.9     1.4  1.1  0.1011E+00  0.1168E+00  0.1997E+00E
 STAT SP IPHASW D HRMN SECON CODA AMPLIT PERI AZIMU VELO AIN AR TRES W  DIS CAZ7
 ABAD     P   0 ? 0623  4.50                             103   -0.0010 11.3 2614
 ABAD     S   0   0623  7.04                             103   -0.0010 11.3 2614
 P9       P   0 ? 0623  5.31                              59   -0.0610 16.1 2544
 P9       S   0   0623  8.78                              59    0.1610 16.1 2544
 TOLS     P   0 ? 0623  7.06                              59    0.1010 25.3 2534
 TOLS     S   0   0623 11.58                              59    0.0910 25.3 2534
 KHIA     P   0 ? 0623  7.28                              59   -0.0210 27.2 2264
 KHIA     S   0   0623 12.05                              59   -0.0510 27.2 2264
 P4       P   0 ? 0623  8.17                              59    0.0510 32.0 2544
 P4       S   0   0623 13.35                              59   -0.2510 32.0 2544
 NOKA     P   0 ? 0623  8.77                              59   -0.0310 35.8 2964
 NOKA     S   0   0623 14.81                              59   -0.0110 35.8 2964
 JNAK     P   0 ? 0623  9.55                              59   -0.0310 40.3 2254
 JNAK     S   0   0623 16.27                              59    0.0410 40.3 2254
                                                                                
 2021  2 2 0030 58.2 L  28.903  51.340  3.4  SLT  9 0.1                        1
 GAP=231        0.32       0.6     1.0  0.6  0.2018E+00 -0.1023E+00  0.7788E-01E
 STAT SP IPHASW D HRMN SECON CODA AMPLIT PERI AZIMU VELO AIN AR TRES W  DIS CAZ7
 P9       P   0 ? 0031  2.57                             101   -0.0710 17.2 3114
 P9       S   0   0031  6.23                             101   -0.0210 17.2 3114
 KHIA     P   0 ? 0031  2.62                             101   -0.0410 17.3 2594
 KHIA     S   0   0031  6.31                             101    0.0410 17.3 2594
 KOLO     P   0 ? 0031  3.91                              43    0.0610 22.8 2054
 KOLO     S   0   0031  8.14                              43   -0.2910 22.8 2054
 TOLS     P   0 ? 0031  3.90                              43   -0.0310 23.3 2914
 TOLS     S   0   0031  8.55                              43   -0.0310 23.3 2914
 P5       P   0 ? 0031  4.44                              43    0.0310 26.0 2894
 P5       S   0   0031  9.53                              43    0.0910 26.0 2894
 P4       P   0 ? 0031  4.92                              43   -0.0410 29.2 2844
 P4       S   0   0031 10.49                              43    0.0510 29.2 2844
 ABTL     P   0 ? 0031  5.18                              43   -0.0710 30.8 3154
 DLRM     P   0 ? 0031  6.36                              43    0.0810 36.8 2244
 DLRM     S   0   0031 12.89                              43    0.0510 36.8 2244
 ABAS     P   0 ? 0031  7.27                              43    0.1810 41.4 1874
                                                                                
 2021  2 2 0131  5.1 L  28.961  50.925 11.2  SLT 19 0.1                        1
 GAP=127        0.27       0.7     0.6  0.8 -0.1184E+00  0.9202E-01 -0.1399E+00E
 STAT SP IPHASW D HRMN SECON CODA AMPLIT PERI AZIMU VELO AIN AR TRES W  DIS CAZ7
 P2       P   0 ? 0131  7.57                             157   -0.0410 3.46 1464
 P2       S   0   0131  9.72                             157    0.0810 3.46 1464
 P1       P   0 ? 0131  7.56                             155   -0.0810 3.83 2034
 P1       S   0   0131  9.60                             155   -0.0910 3.83 2034
 P3       P   0 ? 0131  7.76                             147    0.0210 5.13 1054
 P3       S   0   0131  9.90                             147    0.0210 5.13 1054
 N19      P   0 ? 0131  7.80                             143   -0.0310 6.00 2544
 N19      S   0   0131 10.08                             143    0.0510 6.00 2544
 N16      P   0 ? 0131  7.89                             140    0.0210 6.49 2364
 N16      S   0   0131 10.03                             140   -0.0810 6.49 2364
 N12      P   0 ? 0131  8.01                             131   -0.0710 8.28 2264
 N12      S   0   0131 10.61                             131    0.1310 8.28 2264
 N15      P   0 ? 0131  8.05                             131   -0.0310 8.31 2344
 N15      S   0   0131 10.57                             131    0.0810 8.31 2344
 N9       P   0 ? 0131  8.14                             130    0.0410 8.47 2114
 N9       S   0   0131 10.55                             130    0.0310 8.47 2114
 N20      P   0 ? 0131  8.32                             129    0.2010 8.71 2744
 N20      S   0   0131 10.52                             129   -0.0510 8.71 2744
 N18      P   0 ? 0131  8.37                             125    0.1310 9.59 2514
 N18      S   0   0131 10.72                             125   -0.0610 9.59 2514
 N14      P   0 ? 0131  8.29                             124    0.0110 9.85 2424
 N14      S   0   0131 10.80                             124   -0.0510 9.85 2424
 N10      S   0   0131 10.87                             122   -0.1110 10.4 2244
 N17      S   0   0131 11.01                             121    0.0410 10.4 2584
 N10      P   0 ? 0131  8.15                             122   -0.2010 10.4 2244
 N17      P   0 ? 0131  8.38                             121    0.0310 10.4 2584
 N6       P   0 ? 0131  8.51                             121    0.1310 10.6 2104
 N6       S   0   0131 10.93                             121   -0.1110 10.6 2104
 N7       P   0 ? 0131  8.58                             118    0.0910 11.3 2204
 N7       S   0   0131 11.27                             118    0.0410 11.3 2204
 N11      P   0 ? 0131  8.59                             117    0.0810 11.5 2364
 N11      S   0   0131 11.18                             117   -0.0910 11.5 2364
 N13      P   0 ? 0131  8.52                             115   -0.0510 11.9 2404
 N13      S   0   0131 11.49                             115    0.1110 11.9 2404
 SHIF     P   0 ? 0131  8.59                             111   -0.1310 13.0 3374
 N4       P   0 ? 0131  8.70                             110   -0.0810 13.3 2114
                                                                                
 2021  2 2 0810 54.9 L  28.828  51.321 11.1  SLT  7 0.1                        1
 GAP=262        0.32       0.8     1.9 84.9 -0.6255E+00 -0.7606E+02  0.2584E+02E
 STAT SP IPHASW D HRMN SECON CODA AMPLIT PERI AZIMU VELO AIN AR TRES W  DIS CAZ7
 P9       P   0 ? 0811  0.01                              91   -0.0510 22.5 3304
 P9       S   0   0811  4.17                              91   -0.0510 22.5 3304
 JNAK     P   0 ? 0811  0.27                              91   -0.1110 24.6 2594
 JNAK     S   0   0811  4.93                              91    0.1210 24.6 2594
 TOLS     P   0 ? 0811  0.67                              91    0.0710 25.9 3104
 TOLS     S   0   0811  5.28                              91    0.0710 25.9 3104
 DLRM     P   0 ? 0811  1.22                              90   -0.0210 29.9 2334
 DLRM     S   0   0811  6.34                              90   -0.0210 29.9 2334
 P4       P   0 ? 0811  1.39                              90    0.0310 30.6 3004
 P4       S   0   0811  6.36                              90   -0.2110 30.6 3004
 ABTL     P   0 ? 0811  2.26                              90    0.0010 36.1 3274
 ABTL     S   0   0811  8.30                              90    0.1010 36.1 3274
 N7       P   0 ? 0811  3.96                              90    0.0910 46.2 2784
                                                                                
 2021  2 2 0106  0.8 L  29.049  51.313  8.6  SLT  6 0.0                        1
 GAP=258        0.26       1.2     1.3  1.5  0.6522E+00 -0.6109E+00 -0.3305E+00E
 STAT SP IPHASW D HRMN SECON CODA AMPLIT PERI AZIMU VELO AIN AR TRES W  DIS CAZ7
 ABAD     P   0 ? 0106  3.27                             131    0.0210 6.39 2504
 ABAD     S   0   0106  5.22                             131   -0.0110 6.39 2504
 P9       P   0 ? 0106  3.94                             109   -0.0710 11.5 2454
 P9       S   0   0106  6.61                             109    0.0010 11.5 2454
 ABTL     P   0 ? 0106  5.46                              97    0.0110 19.9 2874
 ABTL     S   0   0106  9.25                              97    0.0410 19.9 2874
 AHRM     P   0 ? 0106  5.65                              97    0.0810 20.5 1854
 TOLS     P   0 ? 0106  5.50                              97   -0.0610 20.6 2484
 TOLS     S   0   0106  9.44                              97    0.0310 20.6 2484
 KHIA     P   0 ? 0106  6.14                              96   -0.0410 24.1 2164
                                                                                
 2021  2 2 0351  7.1 L  28.631  51.129  5.6  SLT  6 0.0                        1
 GAP=182        0.26       0.6     0.7  1.0  0.1006E+00 -0.3081E+00  0.8836E-01E
 STAT SP IPHASW D HRMN SECON CODA AMPLIT PERI AZIMU VELO AIN AR TRES W  DIS CAZ7
 DLRM     P   0 ? 0351  9.24                             111    0.0410 6.36 3074
 DLRM     S   0   0351 10.93                             111    0.0110 6.36 3074
 KOLO     P   0 ? 0351 10.77                              91   -0.0710 14.5  494
 KOLO     S   0   0351 13.89                              91   -0.0010 14.5  494
 ABAS     P   0 ? 0351 11.72                              59    0.0210 19.2 1254
 ABAS     S   0   0351 15.47                              59    0.0210 19.2 1254
 KHIA     P   0 ? 0351 13.06                              59   -0.0210 27.1   84
 KHIA     S   0   0351 18.01                              59    0.0610 27.1   84
 AHRM     P   0 ? 0351 13.71                              59    0.0310 30.5  324
 N12      P   0 ? 0351 15.28                              59   -0.0910 40.3 3204
                                                                                
 2021  2 2 1713 43.7 L  28.753  51.315 14.5  SLT  4 0.0                        1
 GAP=195        0.30       1.0     1.6  1.9 -0.5238E-01 -0.5947E+00  0.3033E+00E
 STAT SP IPHASW D HRMN SECON CODA AMPLIT PERI AZIMU VELO AIN AR TRES W  DIS CAZ7
 KOLO     P   0 ? 1713 47.10                             143   -0.0110 8.26 2414
 KOLO     S   0   1713 49.86                             143    0.0310 8.26 2414
 AHRM     P   0 ? 1713 47.55                             130   -0.0310 12.4 3514
 ABAS     P   0 ? 1713 49.41                             107    0.0910 24.6 1864
 ABAS     S   0   1713 53.77                             107   -0.0710 24.6 1864
 DLRM     P   0 ? 1713 49.40                             107   -0.0010 25.2 2474
 DLRM     S   0   1713 53.98                             107   -0.0110 25.2 2474
                                                                                
 2021  2 2 0202 32.4 L  28.967  51.127 11.2  SLT 18 0.1                        1
 GAP= 86        0.28       0.5     0.4  0.7 -0.7269E-01  0.9212E-01  0.4293E-01E
 STAT SP IPHASW D HRMN SECON CODA AMPLIT PERI AZIMU VELO AIN AR TRES W  DIS CAZ7
 TOLS     P   0 ? 0202 34.90                             169    0.0110 1.66 3264
 TOLS     S   0   0202 36.84                             169   -0.0210 1.66 3264
 P5       P   0 ? 0202 34.97                             154   -0.0410 4.09 2904
 P5       S   0   0202 37.22                             154    0.1310 4.09 2904
 P4       P   0 ? 0202 35.43                             135    0.0910 7.56 2704
 P4       S   0   0202 37.56                             135   -0.1210 7.56 2704
 P9       P   0 ? 0202 35.46                             129   -0.0410 8.84  614
 P9       S   0   0202 38.04                             129    0.0710 8.84  614
 KHIA     P   0 ? 0202 35.79                             119   -0.0110 11.1 1604
 KHIA     S   0   0202 38.47                             119   -0.0510 11.1 1604
 ABAD     P   0 ? 0202 36.15                             109   -0.0810 14.0  604
 ABAD     S   0   0202 39.12                             109   -0.1710 14.0  604
 P3       P   0 ? 0202 36.31                             106   -0.0410 14.8 2624
 P3       S   0   0202 39.57                             106    0.0610 14.8 2624
 ABTL     P   0 ? 0202 36.42                             105    0.0410 14.9 3564
 ABTL     S   0   0202 39.58                             105    0.0210 14.9 3564
 P2       P   0 ? 0202 37.06                              96    0.2010 18.0 2594
 P2       S   0   0202 40.40                              96   -0.0310 18.0 2594
 AHRM     P   0 ? 0202 37.29                              94    0.1010 20.0 1254
 NOKA     P   0 ? 0202 38.16                              91    0.0310 25.9 3404
 N12      P   0 ? 0202 38.02                              91   -0.1910 26.4 2564
 N12      S   0   0202 42.82                              91   -0.0510 26.4 2564
 N6       P   0 ? 0202 38.32                              91    0.0510 26.8 2494
 N6       S   0   0202 42.92                              91   -0.0710 26.8 2494
 N15      P   0 ? 0202 38.44                              91    0.1410 26.9 2584
 N15      S   0   0202 42.96                              91   -0.0810 26.9 2584
 N18      P   0 ? 0202 38.73                              91    0.1110 28.9 2634
 N18      S   0   0202 43.50                              91   -0.1210 28.9 2634
 N4       P   0 ? 0202 38.75                              91    0.1010 29.2 2464
 N4       S   0   0202 43.73                              91    0.0510 29.2 2464
 N17      P   0 ? 0202 38.74                              91   -0.0310 29.9 2654
 N17      S   0   0202 43.80                              91   -0.1010 29.9 2654
 N11      P   0 ? 0202 38.79                              91   -0.0110 30.0 2564
 N11      S   0   0202 43.98                              91    0.0410 30.0 2564
                                                                                
 2021  2 2 0229 58.2 L  28.962  51.124 10.5  SLT 11 0.1                        1
 GAP= 99        0.25       0.5     0.5  0.7 -0.5869E-01  0.8082E-01 -0.2143E-01E
 STAT SP IPHASW D HRMN SECON CODA AMPLIT PERI AZIMU VELO AIN AR TRES W  DIS CAZ7
 TOLS     P   0 ? 0230  0.54                             167    0.0210 2.01 3394
 TOLS     S   0   0230  2.31                             167   -0.0910 2.01 3394
 P5       P   0 ? 0230  0.60                             153   -0.0410 4.10 2974
 P4       P   0 ? 0230  1.04                             136    0.0710 7.37 2744
 P4       S   0   0230  3.25                             136    0.0410 7.37 2744
 P9       P   0 ? 0230  1.19                             128   -0.0310 9.27  594
 P9       S   0   0230  3.81                             128    0.1410 9.27  594
 KHIA     P   0 ? 0230  1.36                             123   -0.0610 10.7 1584
 KHIA     S   0   0230  4.00                             123   -0.0310 10.7 1584
 ABAD     P   0 ? 0230  1.91                             113   -0.0810 14.4  594
 ABAD     S   0   0230  5.13                             113    0.0610 14.4  594
 ABTL     P   0 ? 0230  2.12                             111   -0.0410 15.4 3574
 ABTL     S   0   0230  5.32                             111   -0.0510 15.4 3574
 P2       P   0 ? 0230  2.50                             108   -0.0310 17.7 2604
 N12      P   0 ? 0230  4.04                             100    0.1110 26.0 2574
 NOKA     P   0 ? 0230  3.95                              68   -0.0310 26.3 3404
 N6       P   0 ? 0230  4.01                              68    0.0210 26.4 2494
                                                                                
