 2021  2 2 0301 32.6 L  28.966  51.127 12.5  SLT 22 0.1                        1
 GAP= 80        0.34       0.7     0.6  1.4 -0.1264E+00  0.4377E+00  0.3625E-01E
 STAT SP IPHASW D HRMN SECON CODA AMPLIT PERI AZIMU VELO AIN AR TRES W  DIS CAZ7
 TOLS     P   0 ? 0301 35.22                             170    0.0010 1.73 3254
 P5       P   0 ? 0301 35.28                             157   -0.0510 4.15 2904
 P4       P   0 ? 0301 35.73                             140    0.1110 7.61 2714
 P9       P   0 ? 0301 35.69                             135   -0.0710 8.81  614
 P9       S   0   0301 38.37                             135    0.0310 8.81  614
 KHIA     P   0 ? 0301 36.02                             127   -0.0110 11.0 1604
 KHIA     S   0   0301 38.62                             127   -0.2110 11.0 1604
 ABAD     P   0 ? 0301 36.30                             118   -0.1310 13.9  604
 ABAD     S   0   0301 39.69                             118    0.1310 13.9  604
 P3       P   0 ? 0301 36.61                             115    0.0510 14.8 2634
 P3       S   0   0301 39.89                             115    0.1110 14.8 2634
 ABTL     P   0 ? 0301 36.50                             115   -0.0810 15.0 3564
 ABTL     S   0   0301 39.92                             115    0.0910 15.0 3564
 P2       P   0 ? 0301 37.26                             108    0.2210 18.1 2594
 P2       S   0   0301 40.65                             108   -0.0010 18.1 2594
 AHRM     P   0 ? 0301 37.40                             105    0.0610 19.9 1254
 N9       P   0 ? 0301 38.18                              99    0.0110 25.2 2524
 N19      P   0 ? 0301 38.02                              99   -0.2010 25.5 2654
 N19      S   0   0301 42.72                              99   -0.0710 25.5 2654
 NOKA     P   0 ? 0301 38.28                              98   -0.0110 26.0 3404
 N12      P   0 ? 0301 38.48                              98    0.1210 26.4 2564
 N12      S   0   0301 42.95                              98   -0.0910 26.4 2564
 N15      P   0 ? 0301 38.53                              98    0.0810 27.0 2584
 N15      S   0   0301 43.00                              98   -0.2010 27.0 2584
 N5       P   0 ? 0301 38.56                              97    0.0710 27.3 2404
 N5       S   0   0301 43.41                              97    0.1210 27.3 2404
 N20      P   0 ? 0301 38.60                              97   -0.0710 28.4 2704
 N20      S   0   0301 43.41                              97   -0.1910 28.4 2704
 N7       P   0 ? 0301 38.66                              97   -0.0310 28.5 2514
 N7       S   0   0301 43.74                              97    0.0910 28.5 2514
 N18      P   0 ? 0301 38.68                              97   -0.0910 29.0 2634
 N18      S   0   0301 43.62                              97   -0.1610 29.0 2634
 N4       P   0 ? 0301 38.88                              96    0.0810 29.2 2464
 N4       S   0   0301 44.06                              96    0.2210 29.2 2464
 N17      P   0 ? 0301 38.80                              96   -0.1210 30.0 2654
 N11      P   0 ? 0301 39.04                              96    0.1010 30.1 2574
 N11      S   0   0301 44.18                              96    0.0810 30.1 2574
                                                                                
 2021  2 2 0348  0.9 L  28.969  51.131 14.9  SLT 19 0.1                        1
 GAP= 66        0.36       0.7     0.6  1.4 -0.5623E-01  0.3542E+00  0.2776E+00E
 STAT SP IPHASW D HRMN SECON CODA AMPLIT PERI AZIMU VELO AIN AR TRES W  DIS CAZ7
 TOLS     P   0 ? 0348  3.89                             172   -0.0310 1.82 3104
 P5       P   0 ? 0348  3.95                             160   -0.0710 4.47 2854
 P4       P   0 ? 0348  4.26                             146   -0.0210 8.03 2694
 P9       P   0 ? 0348  4.35                             144    0.0310 8.33  614
 P9       S   0   0348  7.25                             144    0.1510 8.33  614
 KHIA     P   0 ? 0348  4.61                             135   -0.0010 11.1 1624
 KHIA     S   0   0348  7.44                             135   -0.1910 11.1 1624
 ABAD     P   0 ? 0348  4.74                             129   -0.1610 13.4  604
 ABAD     S   0   0348  8.25                             129    0.1110 13.4  604
 ABTL     P   0 ? 0348  4.95                             125   -0.1110 14.7 3554
 ABTL     S   0   0348  8.41                             125   -0.0310 14.7 3554
 P3       P   0 ? 0348  5.16                             124    0.0310 15.3 2624
 P3       S   0   0348  8.39                             124   -0.1710 15.3 2624
 P2       P   0 ? 0348  5.78                             118    0.2110 18.5 2584
 P2       S   0   0348  9.63                             118    0.2610 18.5 2584
 AHRM     P   0 ? 0348  5.83                             116    0.0710 19.7 1264
 N9       P   0 ? 0348  6.66                             108    0.0110 25.7 2524
 N9       S   0   0348 11.49                             108    0.1810 25.7 2524
 CAMP     P   0 ? 0348  6.51                             107   -0.1910 26.1 2374
 CAMP     S   0   0348 11.52                             107    0.1110 26.1 2374
 N12      P   0 ? 0348  6.86                             107    0.0310 26.9 2564
 N12      S   0   0348 11.62                             107   -0.0210 26.9 2564
 N20      P   0 ? 0348  7.24                             105    0.1210 28.8 2704
 N20      S   0   0348 12.08                             105   -0.0910 28.8 2704
 N18      P   0 ? 0348  7.30                             104    0.0810 29.4 2624
 N18      S   0   0348 12.27                             104   -0.0810 29.4 2624
 N4       P   0 ? 0348  7.34                             104    0.0810 29.7 2464
 N4       S   0   0348 12.24                             104   -0.1810 29.7 2464
 N11      P   0 ? 0348  7.34                             104   -0.0610 30.5 2564
 N11      S   0   0348 12.80                             104    0.1310 30.5 2564
 N13      P   0 ? 0348  7.46                             103   -0.0410 31.2 2574
 N13      S   0   0348 12.68                             103   -0.1810 31.2 2574
 DLRM     P   0 ? 0348  7.86                             102   -0.0910 34.0 1894
 DLRM     S   0   0348 13.77                             102    0.1010 34.0 1894
                                                                                
 2021  2 2 0411 34.3 L  28.968  51.128 11.7  SLT 11 0.1                        1
 GAP= 99        0.42       1.0     0.8  1.3 -0.2393E+00  0.2157E+00  0.8606E-01E
 STAT SP IPHASW D HRMN SECON CODA AMPLIT PERI AZIMU VELO AIN AR TRES W  DIS CAZ7
 TOLS     P   0 ? 0411 36.82                             169   -0.0110 1.68 3194
 TOLS     S   0   0411 38.51                             169   -0.3510 1.68 3194
 P5       P   0 ? 0411 36.89                             154   -0.0710 4.21 2884
 P5       S   0   0411 39.21                             154    0.1210 4.21 2884
 P4       P   0 ? 0411 37.34                             136    0.0610 7.72 2704
 P4       S   0   0411 39.93                             136    0.2510 7.72 2704
 P9       P   0 ? 0411 37.37                             132   -0.0310 8.64  614
 P9       S   0   0411 40.09                             132    0.2110 8.64  614
 KHIA     P   0 ? 0411 37.66                             122   -0.0610 11.1 1614
 KHIA     S   0   0411 40.50                             122    0.0410 11.1 1614
 ABAD     P   0 ? 0411 38.05                             113   -0.0510 13.8  604
 ABAD     S   0   0411 41.09                             113   -0.0710 13.8  604
 ABTL     P   0 ? 0411 38.35                             110    0.0910 14.8 3564
 ABTL     S   0   0411 41.38                             110   -0.0710 14.8 3564
 P3       P   0 ? 0411 38.21                             109   -0.0610 15.0 2624
 P3       S   0   0411 41.37                             109   -0.1010 15.0 2624
 P2       P   0 ? 0411 38.96                             101    0.1910 18.2 2594
 P2       S   0   0411 42.51                             101    0.1310 18.2 2594
 N12      P   0 ? 0411 40.21                              94    0.1010 26.6 2564
 N12      S   0   0411 44.52                              94   -0.2810 26.6 2564
 N4       P   0 ? 0411 40.53                              93   -0.0310 29.4 2464
                                                                                
 2021  2 2 0520 32.9 L  28.957  51.129 12.3  SLT  7 0.1                        1
 GAP=120        0.36       0.9     1.1  1.6  0.2707E-02 -0.5749E+00 -0.2452E+00E
 STAT SP IPHASW D HRMN SECON CODA AMPLIT PERI AZIMU VELO AIN AR TRES W  DIS CAZ7
 TOLS     P   0 ? 0520 35.42                             164   -0.0810 2.73 3364
 TOLS     S   0   0520 37.53                             164   -0.1110 2.73 3364
 P5       P   0 ? 0520 35.47                             153   -0.1510 4.75 3024
 P5       S   0   0520 38.06                             153    0.2110 4.75 3024
 P4       P   0 ? 0520 35.92                             138    0.0210 7.84 2794
 P4       S   0   0520 38.41                             138    0.0510 7.84 2794
 P9       P   0 ? 0520 36.07                             132    0.0010 9.27  554
 P9       S   0   0520 38.64                             132   -0.0310 9.27  554
 KHIA     P   0 ? 0520 36.38                             129    0.2210 9.95 1584
 KHIA     S   0   0520 38.69                             129   -0.1410 9.95 1584
 ABAD     P   0 ? 0520 36.78                             115    0.0110 14.4  564
 ABAD     S   0   0520 40.04                             115    0.1110 14.4  564
 ABTL     P   0 ? 0520 36.90                             111   -0.1110 16.0 3564
 ABTL     S   0   0520 40.38                             111    0.0010 16.0 3564
                                                                                
 2021  2 2 1610 59.4 L  28.985  51.009 12.2  SLT 25 0.2                        1
 GAP= 82        0.45       0.7     0.6  1.2 -0.2432E+00  0.2617E+00 -0.2090E+00E
 STAT SP IPHASW D HRMN SECON CODA AMPLIT PERI AZIMU VELO AIN AR TRES W  DIS CAZ7
 P4       P   0 ? 1611  2.15                             154   -0.0110 4.39 1174
 P4       S   0   1611  4.55                             154    0.1910 4.39 1174
 P3       P   0 ? 1611  2.17                             151   -0.0510 5.11 2194
 P3       S   0   1611  4.60                             151    0.1410 5.11 2194
 P5       P   0 ? 1611  2.52                             138    0.0610 7.65  954
 P5       S   0   1611  4.84                             138   -0.0510 7.65  954
 P2       P   0 ? 1611  2.51                             135   -0.0210 8.33 2284
 P2       S   0   1611  4.97                             135   -0.0510 8.33 2284
 TOLS     P   0 ? 1611  2.78                             126   -0.0310 10.6  944
 TOLS     S   0   1611  5.36                             126   -0.1710 10.6  944
 P1       P   0 ? 1611  2.86                             123   -0.0610 11.4 2374
 P1       S   0   1611  5.53                             123   -0.2010 11.4 2374
 N19      P   0 ? 1611  3.34                             114   -0.0310 14.6 2534
 N19      S   0   1611  6.68                             114    0.1410 14.6 2534
 N9       P   0 ? 1611  3.62                             110    0.0510 16.0 2314
 N9       S   0   1611  6.72                             110   -0.1910 16.0 2314
 SHIF     P   0 ? 1611  3.81                             110    0.2210 16.1 3054
 SHIF     S   0   1611  7.04                             110    0.0910 16.1 3054
 N12      P   0 ? 1611  3.66                             109    0.0110 16.4 2394
 N12      S   0   1611  7.27                             109    0.2210 16.4 2394
 ABTL     P   0 ? 1611  3.77                             109    0.0910 16.6  394
 ABTL     S   0   1611  6.86                             109   -0.2510 16.6  394
 N15      P   0 ? 1611  3.49                             109   -0.2010 16.7 2434
 N15      S   0   1611  7.21                             109    0.0910 16.7 2434
 N20      P   0 ? 1611  3.77                             108    0.0410 17.0 2634
 N20      S   0   1611  6.85                             108   -0.3410 17.0 2634
 N6       P   0 ? 1611  4.01                             106    0.1310 17.9 2294
 N6       S   0   1611  7.52                             106    0.0510 17.9 2294
 N18      P   0 ? 1611  4.01                             105    0.1010 18.2 2524
 N18      S   0   1611  7.82                             105    0.2910 18.2 2524
 N14      P   0 ? 1611  4.03                             105    0.0910 18.4 2474
 N14      S   0   1611  7.14                             105   -0.4510 18.4 2474
 N17      P   0 ? 1611  3.96                             104   -0.0710 18.9 2554
 N17      S   0   1611  7.63                             104   -0.1110 18.9 2554
 CAMP     P   0 ? 1611  3.96                             104   -0.0710 18.9 2114
 CAMP     S   0   1611  8.16                             104    0.4210 18.9 2114
 P9       P   0 ? 1611  4.01                             103   -0.0910 19.3  834
 KHIA     P   0 ? 1611  4.20                             103    0.0410 19.7 1294
 N5       P   0 ? 1611  4.05                             103   -0.1210 19.8 2184
 N5       S   0   1611  8.09                             103    0.0910 19.8 2184
 N11      P   0 ? 1611  4.30                             103    0.1110 19.9 2434
 N11      S   0   1611  7.92                             103   -0.1110 19.9 2434
 N13      P   0 ? 1611  4.29                             102    0.0210 20.4 2454
 N13      S   0   1611  8.06                             102   -0.1110 20.4 2454
 N4       P   0 ? 1611  4.19                             101   -0.1110 20.6 2274
 N4       S   0   1611  8.17                             101   -0.0610 20.6 2274
 NOKA     P   0 ? 1611  4.66                              99    0.0810 22.4   64
 NOKA     S   0   1611  8.89                              99    0.1510 22.4   64
                                                                                
 2021  2 2 1611 36.1 L  28.997  50.997 16.1  SLT  7 0.1                        1
 GAP=213        0.42       3.0     1.0  2.4 -0.6572E+00 -0.1141E+00 -0.2372E+01E
 STAT SP IPHASW D HRMN SECON CODA AMPLIT PERI AZIMU VELO AIN AR TRES W  DIS CAZ7
 P2       P   0 ? 1611 39.68                             146   -0.0410 8.51 2174
 P2       S   0   1611 42.55                             146   -0.0810 8.51 2174
 P1       P   0 ? 1611 40.09                             138    0.0910 11.3 2294
 P1       S   0   1611 43.29                             138    0.1510 11.3 2294
 TOLS     P   0 ? 1611 39.87                             136   -0.2010 11.8  994
 TOLS     S   0   1611 43.35                             136    0.1010 11.8  994
 N12      P   0 ? 1611 40.64                             126    0.0410 16.2 2334
 N12      S   0   1611 44.25                             126    0.0410 16.2 2334
 N15      P   0 ? 1611 40.72                             125    0.1010 16.3 2374
 N15      S   0   1611 43.87                             125   -0.3810 16.3 2374
 N18      P   0 ? 1611 40.82                             123    0.0410 17.6 2464
 N18      S   0   1611 44.68                             123    0.1410 17.6 2464
 KHIA     P   0 ? 1611 41.26                             117   -0.0710 21.4 1304
 KHIA     S   0   1611 45.60                             117    0.0710 21.4 1304
                                                                                
