 2021  2 2 0658  2.0 L  29.032  51.446  1.3  SLT 14 0.1                        1
 GAP=272        0.31       1.0     1.0  0.8  0.2498E+00 -0.1245E+00  0.2946E+00E
 STAT SP IPHASW D HRMN SECON CODA AMPLIT PERI AZIMU VELO AIN AR TRES W  DIS CAZ7
 ABAD     P   0 ? 0658  6.73                              94   -0.0510 19.0 2694
 ABAD     S   0   0658 10.80                              94    0.1310 19.0 2694
 P9       P   0 ? 0658  7.77                              93   -0.1610 23.5 2634
 KHIA     P   0 ? 0658  9.71                              43    0.0110 32.5 2374
 KHIA     S   0   0658 15.97                              43   -0.0010 32.5 2374
 TOLS     P   0 ? 0658  9.66                              43   -0.0510 32.6 2604
 ABTL     P   0 ? 0658  9.78                              43    0.0010 32.9 2834
 ABTL     S   0   0658 16.11                              43    0.0010 32.9 2834
 P5       P   0 ? 0658 10.13                              43   -0.0810 35.4 2614
 P4       P   0 ? 0658 10.83                              43   -0.0610 39.3 2604
 KOLO     P   0 ? 0658 11.05                              43   -0.0010 40.2 2104
 KOLO     S   0   0658 18.35                              43   -0.0610 40.2 2104
 JNAK     P   0 ? 0658 12.14                              43    0.2010 45.4 2334
 JNAK     S   0   0658 19.97                              43   -0.0510 45.4 2334
 ABAS     P   0 ? 0658 14.08                              40    0.0710 57.5 1954
 N2       P   0 ? 0658 14.13                              40    0.0410 58.1 2484
 N5       P   0 ? 0658 14.01                              40   -0.1710 58.5 2494
 N15      P   0 ? 0658 14.30                              40    0.0710 58.9 2584
 N3       P   0 ? 0658 14.53                              40    0.1710 59.7 2494
                                                                                
 2021  2 2 1947  1.4 L  29.051  51.218 12.5  SLT 10 0.1                        1
 GAP=187        0.28       0.8     0.9  1.0  0.8582E-01  0.3953E+00  0.2205E+00E
 STAT SP IPHASW D HRMN SECON CODA AMPLIT PERI AZIMU VELO AIN AR TRES W  DIS CAZ7
 ABAD     P   0 ? 1947  4.11                             157    0.0010 4.02 1274
 ABAD     S   0   1947  6.46                             157    0.1210 4.02 1274
 P9       P   0 ? 1947  4.12                             151   -0.0610 5.19 1934
 P9       S   0   1947  6.38                             151   -0.1010 5.19 1934
 ABTL     P   0 ? 1947  4.85                             126    0.0010 11.3 3004
 ABTL     S   0   1947  7.64                             126   -0.0410 11.3 3004
 TOLS     P   0 ? 1947  4.95                             121   -0.0710 12.6 2314
 TOLS     S   0   1947  8.11                             121    0.1210 12.6 2314
 P5       P   0 ? 1947  5.32                             115   -0.0410 15.0 2384
 P5       S   0   1947  8.66                             115    0.0510 15.0 2384
 P4       P   0 ? 1947  5.82                             106   -0.1210 18.9 2414
 P4       S   0   1947  9.69                             106    0.0310 18.9 2414
 KHIA     P   0 ? 1947  6.12                             104   -0.0510 20.3 1944
 KHIA     S   0   1947 10.03                             104   -0.0510 20.3 1944
 P3       P   0 ? 1947  7.08                              98   -0.0010 26.1 2454
 P3       S   0   1947 11.67                              98   -0.0610 26.1 2454
 P2       P   0 ? 1947  7.80                              96    0.1710 29.5 2444
 JNAK     P   0 ? 1947  8.23                              95    0.1310 32.4 2064
 JNAK     S   0   1947 13.54                              95   -0.0210 32.4 2064
                                                                                
 2021  2 2 2121 39.7 L  29.202  51.393  6.6  SLT 20 0.1                        1
 GAP=300        0.29       1.3     1.7  2.6  0.1173E+01  0.3731E+01  0.2404E+01E
 STAT SP IPHASW D HRMN SECON CODA AMPLIT PERI AZIMU VELO AIN AR TRES W  DIS CAZ7
 ABAD     P   0 ? 2121 44.94                              59   -0.0310 23.6 2164
 ABAD     S   0   2121 49.21                              59   -0.0610 23.6 2164
 P9       P   0 ? 2121 45.70                              59   -0.1010 28.4 2204
 P9       S   0   2121 50.91                              59    0.1410 28.4 2204
 ABTL     P   0 ? 2121 45.94                              59    0.0210 29.1 2474
 ABTL     S   0   2121 50.96                              59   -0.0210 29.1 2474
 TOLS     P   0 ? 2121 47.14                              59   -0.0610 36.5 2274
 TOLS     S   0   2121 53.20                              59   -0.1110 36.5 2274
 P5       P   0 ? 2121 47.56                              59   -0.0210 38.7 2304
 AHRM     P   0 ? 2121 47.50                              59   -0.0910 38.7 1944
 P5       S   0   2121 54.09                              59    0.0910 38.7 2304
 P4       P   0 ? 2121 48.14                              59   -0.0910 42.4 2324
 P4       S   0   2121 55.19                              59    0.0210 42.4 2324
 KHIA     P   0 ? 2121 48.29                              59    0.0110 42.6 2114
 KHIA     S   0   2121 55.27                              59    0.0210 42.6 2114
 P3       P   0 ? 2121 49.57                              53    0.1410 49.3 2354
 P3       S   0   2121 57.22                              53   -0.1110 49.3 2354
 SHIF     P   0 ? 2121 49.99                              53    0.0410 52.6 2544
 SHIF     S   0   2121 58.13                              53   -0.1510 52.6 2544
 JNAK     P   0 ? 2121 50.43                              53   -0.0010 55.6 2144
 JNAK     S   0   2121 59.13                              53   -0.0210 55.6 2144
 KOLO     P   0 ? 2121 50.26                              53   -0.2110 55.8 1954
 N18      P   0 ? 2121 51.55                              53    0.0510 62.2 2414
 N18      S   0   2122  1.05                              53   -0.0410 62.2 2414
 N2       P   0 ? 2121 51.83                              53    0.16 9 63.3 2304
 N5       P   0 ? 2121 51.83                              53    0.12 9 63.5 2314
 N1       P   0 ? 2121 51.89                              53    0.11 9 63.9 2294
 N11      P   0 ? 2121 51.81                              53   -0.03 9 64.3 2394
 N13      P   0 ? 2121 51.91                              53   -0.00 9 64.7 2404
 N4       P   0 ? 2121 51.89                              53   -0.04 9 64.9 2344
 N4       S   0   2122  2.04                              53    0.17 9 64.9 2344
 DLRM     P   0 ? 2121 52.43                              53    0.15 9 67.0 2074
 DLRM     S   0   2122  2.57                              53    0.07 9 67.0 2074
                                                                                
 2021  2 2 0035 45.3 L  28.628  51.187  7.8  SLT  8 0.1                        1
 GAP=154        0.28       0.8     0.7  2.6 -0.4338E-01  0.1248E+00  0.2294E+00E
 STAT SP IPHASW D HRMN SECON CODA AMPLIT PERI AZIMU VELO AIN AR TRES W  DIS CAZ7
 KOLO     P   0 ? 0035 48.36                             102   -0.0910 11.1  284
 KOLO     S   0   0035 51.06                             102    0.0910 11.1  284
 DLRM     P   0 ? 0035 48.40                             101   -0.1010 11.5 2914
 DLRM     S   0   0035 51.10                             101    0.0310 11.5 2914
 ABAS     P   0 ? 0035 49.08                              97    0.0310 14.7 1374
 JNAK     P   0 ? 0035 50.11                              94   -0.0010 20.8 3284
 JNAK     S   0   0035 54.02                              94    0.0410 20.8 3284
 AHRM     P   0 ? 0035 51.49                              92    0.0910 28.2  224
 AHRM     S   0   0035 56.20                              92   -0.1210 28.2  224
 P9       P   0 ? 0035 53.78                              91    0.0210 41.8   34
 N9       P   0 ? 0035 53.75                              91   -0.0510 42.0 3154
 N10      P   0 ? 0035 54.19                              91    0.0610 43.9 3124
                                                                                
 2021  2 2 0628 35.6 L  28.829  50.860  8.1  SLT  8 0.1                        1
 GAP=248        0.30       1.1     1.7  1.2  0.8360E+00  0.6278E+00  0.5818E-01E
 STAT SP IPHASW D HRMN SECON CODA AMPLIT PERI AZIMU VELO AIN AR TRES W  DIS CAZ7
 N3       P   0 ? 0628 37.47                             164   -0.0210 1.71  584
 N3       S   0   0628 39.19                             164    0.1510 1.71  584
 N5       P   0 ? 0628 37.50                             154   -0.0710 2.89  574
 N5       S   0   0628 39.26                             154    0.0810 2.89  574
 N4       P   0 ? 0628 37.67                             151    0.0710 3.29 3494
 N4       S   0   0628 39.15                             151   -0.0910 3.29 3494
 N2       P   0 ? 0628 37.59                             150   -0.0110 3.33  744
 N2       S   0   0628 38.99                             150   -0.2410 3.33  744
 N1       P   0 ? 0628 37.70                             146    0.0510 3.86 1014
 N1       S   0   0628 39.34                             146    0.0010 3.86 1014
 CAMP     P   0 ? 0628 37.71                             139   -0.0410 4.80  764
 CAMP     S   0   0628 39.60                             139    0.0910 4.80  764
 N6       P   0 ? 0628 37.82                             133   -0.0310 5.55  114
 N6       S   0   0628 39.69                             133    0.0010 5.55  114
 N9       P   0 ? 0628 38.19                             120    0.0610 7.61  154
 N9       S   0   0628 40.20                             120    0.0010 7.61  154
                                                                                
 2021  2 2 1902 56.1 L  29.064  51.356  7.9  SLT 20 0.1                        1
 GAP=278        0.26       0.6     0.9  1.0  0.6993E-01  0.4577E-01  0.1918E+00E
 STAT SP IPHASW D HRMN SECON CODA AMPLIT PERI AZIMU VELO AIN AR TRES W  DIS CAZ7
 ABAD     P   0 ? 1902 59.14                             103    0.0110 10.9 2494
 P9       P   0 ? 1902 59.92                              96   -0.0710 15.9 2464
 ABTL     P   0 ? 1903  1.37                              93    0.0510 23.6 2804
 ABTL     S   0   1903  5.48                              93   -0.1110 23.6 2804
 TOLS     P   0 ? 1903  1.53                              93   -0.0410 25.1 2484
 TOLS     S   0   1903  6.18                              93    0.1410 25.1 2484
 P5       P   0 ? 1903  2.05                              93    0.0010 27.8 2504
 P5       S   0   1903  6.95                              93    0.0510 27.8 2504
 KHIA     P   0 ? 1903  2.00                              92   -0.1010 28.1 2214
 KHIA     S   0   1903  6.88                              92   -0.1210 28.1 2214
 P4       P   0 ? 1903  2.67                              92   -0.0610 31.7 2504
 NOKA     P   0 ? 1903  3.13                              92   -0.0110 34.1 2944
 NOKA     S   0   1903  8.93                              92    0.0410 34.1 2944
 P3       P   0 ? 1903  4.19                              92    0.1810 39.1 2514
 JNAK     P   0 ? 1903  4.45                              92    0.0710 41.2 2224
 JNAK     S   0   1903 11.12                              92    0.0010 41.2 2224
 P2       P   0 ? 1903  4.55                              91   -0.0410 42.5 2504
 N6       P   0 ? 1903  5.87                              68   -0.2010 51.5 2474
 N2       P   0 ? 1903  6.11                              68    0.0310 51.6 2414
 N1       P   0 ? 1903  6.22                              68    0.0810 51.9 2394
 N1       S   0   1903 14.32                              68    0.0210 51.9 2394
 DLRM     P   0 ? 1903  6.22                              68    0.0910 51.9 2124
 DLRM     S   0   1903 14.31                              68    0.0310 51.9 2124
 N5       P   0 ? 1903  6.21                              68    0.0710 52.0 2424
 N5       S   0   1903 14.31                              68   -0.0110 52.0 2424
 N18      P   0 ? 1903  6.26                              68   -0.0510 53.0 2544
 N18      S   0   1903 14.62                              68    0.0010 53.0 2544
 N3       P   0 ? 1903  6.30                              68   -0.0310 53.1 2424
 N3       S   0   1903 14.60                              68   -0.0510 53.1 2424
 N4       P   0 ? 1903  6.39                              68   -0.0710 53.9 2454
 N11      P   0 ? 1903  6.65                              68    0.1010 54.5 2514
                                                                                
 2021  2 2 0550 40.9 L  29.054  51.341  5.5  SLT  9 0.1                        1
 GAP=284        0.30       0.9     2.9  2.0  0.1454E+01  0.4999E+01  0.9656E+00E
 STAT SP IPHASW D HRMN SECON CODA AMPLIT PERI AZIMU VELO AIN AR TRES W  DIS CAZ7
 ABAD     P   0 ? 0550 43.60                              53    0.0110 9.14 2534
 P9       P   0 ? 0550 44.54                              53   -0.0610 14.2 2484
 ABTL     P   0 ? 0550 46.13                              43    0.0210 22.4 2844
 ABTL     S   0   0550 50.38                              43    0.0510 22.4 2844
 TOLS     P   0 ? 0550 46.23                              43   -0.0410 23.3 2494
 TOLS     S   0   0550 50.63                              43    0.0210 23.3 2494
 P5       P   0 ? 0550 46.75                              43    0.0110 26.0 2524
 KHIA     P   0 ? 0550 46.73                              43   -0.0610 26.3 2204
 KHIA     S   0   0550 51.37                              43   -0.1810 26.3 2204
 P4       P   0 ? 0550 47.39                              43   -0.0410 30.0 2514
 P4       S   0   0550 52.75                              43    0.0410 30.0 2514
 NOKA     P   0 ? 0550 47.95                              43   -0.0510 33.2 2964
 NOKA     S   0   0550 53.71                              43   -0.0310 33.2 2964
 JNAK     P   0 ? 0550 49.28                              43    0.2110 39.4 2224
 JNAK     S   0   0550 55.77                              43    0.0910 39.4 2224
                                                                                
 2021  2 2 0149  7.6 L  28.832  50.864  7.2  SLT 10 0.1                        1
 GAP=228        0.29       0.8     1.2  0.9  0.5309E+00  0.3676E+00 -0.2178E+00E
 STAT SP IPHASW D HRMN SECON CODA AMPLIT PERI AZIMU VELO AIN AR TRES W  DIS CAZ7
 N3       P   0 ? 0149  9.23                             167   -0.0510 1.20  614
 N3       S   0   0149 10.71                             167    0.0310 1.20  614
 N5       P   0 ? 0149  9.25                             154   -0.1010 2.38  584
 N5       S   0   0149 10.64                             154   -0.1710 2.38  584
 N2       P   0 ? 0149  9.44                             149    0.0610 2.87  784
 N2       S   0   0149 10.92                             149    0.0610 2.87  784
 N4       P   0 ? 0149  9.35                             147   -0.0610 3.07 3414
 N4       S   0   0149 11.06                             147    0.1510 3.07 3414
 N1       P   0 ? 0149  9.43                             142   -0.0310 3.57 1084
 N1       S   0   0149 11.06                             142    0.0610 3.57 1084
 CAMP     P   0 ? 0149  9.45                             135   -0.1010 4.35  794
 CAMP     S   0   0149 11.24                             135    0.0810 4.35  794
 N6       P   0 ? 0149  9.61                             127   -0.0510 5.17   74
 N6       S   0   0149 11.34                             127   -0.0310 5.17   74
 N9       P   0 ? 0149  9.99                             109    0.0210 7.20  134
 N9       S   0   0149 11.90                             109   -0.0210 7.20  134
 N11      P   0 ? 0149 10.37                              98    0.1510 8.69 3354
 N11      S   0   0149 12.23                              98   -0.1510 8.69 3354
 N15      P   0 ? 0149 10.44                              95    0.0810 9.48 3554
 N15      S   0   0149 12.68                              95    0.0510 9.48 3554
                                                                                
 2021  2 2 1442 28.0 L  28.831  50.860  7.4  SLT 10 0.1                        1
 GAP=234        0.28       0.9     1.3  1.0  0.6420E+00  0.5151E+00 -0.4312E-01E
 STAT SP IPHASW D HRMN SECON CODA AMPLIT PERI AZIMU VELO AIN AR TRES W  DIS CAZ7
 N3       P   0 ? 1442 29.69                             163   -0.0510 1.62  644
 N3       S   0   1442 31.21                             163    0.0310 1.62  644
 N5       P   0 ? 1442 29.72                             151   -0.1010 2.79  614
 N5       S   0   1442 31.17                             151   -0.1610 2.79  614
 N4       P   0 ? 1442 29.89                             148    0.0410 3.09 3494
 N4       S   0   1442 31.43                             148    0.0510 3.09 3494
 N2       P   0 ? 1442 29.80                             146   -0.0610 3.29  784
 N2       S   0   1442 31.55                             146    0.1510 3.29  784
 N1       P   0 ? 1442 29.90                             141   -0.0310 3.92 1044
 N1       S   0   1442 31.59                             141    0.0610 3.92 1044
 CAMP     P   0 ? 1442 29.94                             133   -0.0910 4.77  794
 CAMP     S   0   1442 31.79                             133    0.0810 4.77  794
 N6       P   0 ? 1442 30.06                             128   -0.0510 5.35  114
 N6       S   0   1442 31.82                             128   -0.0410 5.35  114
 N10      P   0 ? 1442 30.35                             116    0.0010 6.95 3534
 N10      S   0   1442 32.24                             116   -0.0510 6.95 3534
 N9       P   0 ? 1442 30.61                             112    0.1910 7.42  164
 N9       S   0   1442 32.35                             112   -0.0610 7.42  164
 N11      P   0 ? 1442 30.68                             105    0.0610 8.64 3384
 N11      S   0   1442 32.80                             105    0.0210 8.64 3384
                                                                                
 2021  2 2 1536 41.5 L  28.830  50.852  8.1  SLT  9 0.1                        1
 GAP=258        0.29       1.0     1.6  1.2  0.8465E+00  0.7575E+00  0.1489E+00E
 STAT SP IPHASW D HRMN SECON CODA AMPLIT PERI AZIMU VELO AIN AR TRES W  DIS CAZ7
 N3       P   0 ? 1536 43.40                             158   -0.0210 2.33  714
 N3       S   0   1536 45.13                             158    0.1410 2.33  714
 N4       P   0 ? 1536 43.58                             152    0.1010 3.09   34
 N4       S   0   1536 44.95                             152   -0.1410 3.09   34
 N5       P   0 ? 1536 43.42                             149   -0.0910 3.48  664
 N5       S   0   1536 45.16                             149    0.0010 3.48  664
 N2       P   0 ? 1536 43.50                             144   -0.0610 4.03  794
 N2       S   0   1536 45.24                             144    0.0010 4.03  794
 N1       P   0 ? 1536 43.60                             139   -0.0310 4.64 1014
 N1       S   0   1536 45.42                             139    0.0510 4.64 1014
 CAMP     P   0 ? 1536 43.62                             133   -0.1110 5.51  804
 CAMP     S   0   1536 45.55                             133   -0.0010 5.51  804
 N6       P   0 ? 1536 43.72                             132   -0.0310 5.60  194
 N6       S   0   1536 45.66                             132    0.0710 5.60  194
 N10      P   0 ? 1536 43.99                             124    0.0510 6.96 3604
 N10      S   0   1536 45.87                             124   -0.0510 6.96 3604
 N9       P   0 ? 1536 44.24                             119    0.2010 7.70  214
 N9       S   0   1536 46.05                             119   -0.0710 7.70  214
                                                                                
