 2021  2 2 1614 49.3 L  28.996  51.006 14.1  SLT 26 0.0                        1
 GAP=144        0.11       0.3     0.2  0.3 -0.2273E-01  0.1088E-01 -0.1480E-01E
 STAT SP IPHASW D HRMN SECON CODA AMPLIT PERI AZIMU VELO AIN AR TRES W  DIS CAZ7
 P4       P   0 ? 1614 52.37                             155    0.0110 5.28 1274
 P4       S   0   1614 54.86                             155    0.0210 5.28 1274
 P3       P   0 ? 1614 52.42                             152    0.0110 5.97 2094
 P3       S   0   1614 54.94                             152    0.0110 5.97 2094
 P5       P   0 ? 1614 52.60                             143    0.0010 8.12 1034
 P5       S   0   1614 55.28                             143    0.0110 8.12 1034
 P2       P   0 ? 1614 52.68                             140   -0.0010 8.99 2214
 P2       S   0   1614 55.42                             140   -0.0010 8.99 2214
 TOLS     P   0 ? 1614 52.90                             133   -0.0110 11.0 1004
 TOLS     S   0   1614 55.82                             133   -0.0210 11.0 1004
 P1       P   0 ? 1614 53.01                             130   -0.0110 11.9 2324
 P1       S   0   1614 56.01                             130   -0.0310 11.9 2324
 N19      P   0 ? 1614 53.39                             122   -0.0010 14.7 2484
 N19      S   0   1614 56.70                             122   -0.0010 14.7 2484
 N16      P   0 ? 1614 53.45                             121   -0.0110 15.2 2404
 N16      S   0   1614 56.81                             121   -0.0110 15.2 2404
 ABTL     P   0 ? 1614 53.57                             120    0.0110 15.9  434
 N9       P   0 ? 1614 53.63                             118   -0.0110 16.5 2274
 N9       S   0   1614 57.14                             118   -0.0110 16.5 2274
 N12      S   0   1614 57.23                             118   -0.0110 16.9 2354
 N20      P   0 ? 1614 53.69                             118    0.0010 16.9 2594
 N20      S   0   1614 57.25                             118    0.0110 16.9 2594
 N12      P   0 ? 1614 53.68                             118   -0.0110 16.9 2354
 N15      P   0 ? 1614 53.71                             117   -0.0010 17.0 2394
 N15      S   0   1614 57.28                             117   -0.0110 17.0 2394
 N18      P   0 ? 1614 53.90                             115    0.0010 18.3 2484
 N18      S   0   1614 57.63                             115    0.0110 18.3 2484
 N6       P   0 ? 1614 53.93                             115   -0.0010 18.5 2254
 N6       S   0   1614 57.69                             115    0.0010 18.5 2254
 N14      P   0 ? 1614 53.95                             114    0.0010 18.6 2434
 N14      S   0   1614 57.71                             114    0.0010 18.6 2434
 N10      P   0 ? 1614 53.98                             114    0.0010 18.8 2334
 N10      S   0   1614 57.77                             114    0.0010 18.8 2334
 N17      P   0 ? 1614 54.00                             114    0.0010 19.0 2514
 N17      S   0   1614 57.81                             114    0.0110 19.0 2514
 P9       P   0 ? 1614 54.09                             113    0.0110 19.5  874
 N7       P   0 ? 1614 54.11                             113    0.0010 19.7 2304
 N7       S   0   1614 58.00                             113    0.0010 19.7 2304
 CAMP     P   0 ? 1614 54.12                             112    0.0010 19.8 2094
 CAMP     S   0   1614 58.02                             112   -0.0010 19.8 2094
 N11      P   0 ? 1614 54.19                             112    0.0010 20.2 2394
 N11      S   0   1614 58.15                             112    0.0110 20.2 2394
 N5       P   0 ? 1614 54.25                             111    0.0110 20.6 2154
 N5       S   0   1614 58.25                             111    0.0010 20.6 2154
 KHIA     P   0 ? 1614 54.26                             111   -0.0010 20.7 1314
 KHIA     S   0   1614 58.28                             111   -0.0010 20.7 1314
 N2       P   0 ? 1614 54.26                             111    0.0010 20.8 2124
 N2       S   0   1614 58.27                             111    0.0010 20.8 2124
 N4       P   0 ? 1614 54.34                             110    0.0010 21.3 2244
 N4       S   0   1614 58.43                             110    0.0110 21.3 2244
                                                                                
 2021  2 2 1615  8.0 L  28.985  51.012 13.4  SLT  5 0.0                        1
 GAP=159        0.24       1.3     1.0  1.6 -0.1110E+01  0.9807E+00 -0.1269E+01E
 STAT SP IPHASW D HRMN SECON CODA AMPLIT PERI AZIMU VELO AIN AR TRES W  DIS CAZ7
 P4       P   0 ? 1615 10.87                             159    0.0110 4.12 1194
 P4       S   0   1615 13.20                             159    0.0010 4.12 1194
 TOLS     P   0 ? 1615 11.43                             133    0.0010 10.3  944
 TOLS     S   0   1615 14.22                             133   -0.0110 10.3  944
 P1       P   0 ? 1615 11.59                             128   -0.0110 11.7 2384
 P1       S   0   1615 14.51                             128   -0.0210 11.7 2384
 ABTL     P   0 ? 1615 12.27                             116    0.0110 16.4  384
 ABTL     S   0   1615 15.73                             116   -0.0110 16.4  384
 N12      P   0 ? 1615 12.30                             115    0.0110 16.7 2404
 N12      S   0   1615 15.79                             115    0.0110 16.7 2404
                                                                                
 2021  2 2 1619 40.9 L  28.987  51.011 12.0  SLT  9 0.0                        1
 GAP=147        0.20       0.8     0.5  0.9 -0.2264E+00  0.1274E+00 -0.2164E+00E
 STAT SP IPHASW D HRMN SECON CODA AMPLIT PERI AZIMU VELO AIN AR TRES W  DIS CAZ7
 P4       P   0 ? 1619 43.60                             155    0.0110 4.30 1214
 P4       S   0   1619 45.79                             155    0.0210 4.30 1214
 P5       P   0 ? 1619 43.87                             139   -0.0110 7.45  974
 TOLS     P   0 ? 1619 44.21                             127   -0.0110 10.3  954
 TOLS     S   0   1619 46.90                             127   -0.0110 10.3  954
 P1       P   0 ? 1619 44.39                             121   -0.0210 11.7 2374
 P1       S   0   1619 47.23                             121   -0.0110 11.7 2374
 N19      P   0 ? 1619 44.86                             112    0.0010 14.8 2524
 N19      S   0   1619 48.06                             112   -0.0010 14.8 2524
 ABTL     P   0 ? 1619 45.09                             109    0.0010 16.3  394
 ABTL     S   0   1619 48.48                             109    0.0010 16.3  394
 N15      P   0 ? 1619 45.18                             107   -0.0010 17.0 2434
 N15      S   0   1619 48.66                             107    0.0110 17.0 2434
 P9       P   0 ? 1619 45.52                             103    0.0110 19.1  844
 KHIA     P   0 ? 1619 45.62                             102    0.0110 19.7 1304
                                                                                
 2021  2 2 1618 55.4 L  28.704  51.174  6.6  SLT  6 0.0                        1
 GAP= 96        0.24       0.7     0.5  0.8 -0.1278E+00  0.1867E+00 -0.3354E+00E
 STAT SP IPHASW D HRMN SECON CODA AMPLIT PERI AZIMU VELO AIN AR TRES W  DIS CAZ7
 KOLO     P   0 ? 1618 57.65                             122    0.0010 6.69  784
 KOLO     S   0   1618 59.48                             122   -0.0110 6.69  784
 DLRM     P   0 ? 1618 58.35                             105    0.0110 10.4 2454
 DLRM     S   0   1619  0.74                             105   -0.0010 10.4 2454
 JNAK     P   0 ? 1618 58.91                              59    0.0010 13.5 3134
 JNAK     S   0   1619  1.75                              59   -0.0210 13.5 3134
 KHIA     P   0 ? 1618 59.84                              59    0.0110 18.7 3584
 KHIA     S   0   1619  3.44                              59    0.0010 18.7 3584
 AHRM     P   0 ? 1619  0.28                              59    0.0010 21.3  344
 ABAS     P   0 ? 1619  0.43                              59   -0.0110 22.2 1494
                                                                                
 2021  2 2 0017 52.7 L  29.003  51.256 10.7  SLT 22 0.0                        1
 GAP=176        0.12       0.2     0.3  0.2  0.8515E-02  0.2866E-01  0.1277E-01E
 STAT SP IPHASW D HRMN SECON CODA AMPLIT PERI AZIMU VELO AIN AR TRES W  DIS CAZ7
 ABAD     P   0 ? 0017 55.12                             161   -0.0110 2.91 3504
 ABAD     S   0   0017 57.09                             161    0.0010 2.91 3504
 P9       P   0 ? 0017 55.26                             150    0.0010 4.88 2734
 P9       S   0   0017 57.33                             150    0.0010 4.88 2734
 TOLS     P   0 ? 0017 56.42                             116   -0.0010 13.8 2594
 TOLS     S   0   0017 59.43                             116   -0.0010 13.8 2594
 AHRM     P   0 ? 0017 56.76                             112   -0.0110 15.9 1664
 KHIA     P   0 ? 0017 56.92                             110   -0.0010 16.9 2114
 KHIA     S   0   0018  0.34                             110    0.0110 16.9 2114
 ABTL     P   0 ? 0017 57.00                             109    0.0010 17.3 3094
 ABTL     S   0   0018  0.48                             109    0.0010 17.3 3094
 P4       P   0 ? 0017 57.51                             105   -0.0110 20.6 2594
 P4       S   0   0018  1.42                             105   -0.0110 20.6 2594
 P3       P   0 ? 0017 58.73                              68   -0.0010 27.9 2584
 P3       S   0   0018  3.60                              68   -0.0110 27.9 2584
 NOKA     P   0 ? 0017 59.00                              68   -0.0010 29.6 3134
 NOKA     S   0   0018  4.11                              68    0.0010 29.6 3134
 JNAK     P   0 ? 0017 59.04                              68   -0.0010 29.9 2174
 JNAK     S   0   0018  4.17                              68   -0.0010 29.9 2174
 P2       P   0 ? 0017 59.26                              68    0.0010 31.2 2564
 P2       S   0   0018  4.57                              68    0.0010 31.2 2564
 KOLO     P   0 ? 0017 59.35                              68    0.0010 31.7 1834
 SHIF     P   0 ? 0018  0.34                              68    0.0010 37.9 2814
 SHIF     S   0   0018  6.52                              68   -0.0010 37.9 2814
 CAMP     P   0 ? 0018  0.43                              68   -0.0010 38.5 2424
 N2       P   0 ? 0018  0.65                              68   -0.0010 39.9 2434
 N1       P   0 ? 0018  0.71                              68    0.0010 40.2 2404
 N1       S   0   0018  7.19                              68    0.0010 40.2 2404
 N5       P   0 ? 0018  0.73                              68    0.0110 40.3 2444
 N5       S   0   0018  7.22                              68    0.0010 40.3 2444
 N10      P   0 ? 0018  0.88                              68    0.0010 41.2 2534
 N10      S   0   0018  7.50                              68    0.0010 41.2 2534
 N3       P   0 ? 0018  0.91                              68    0.0010 41.5 2444
 N3       S   0   0018  7.56                              68    0.0010 41.5 2444
 N14      P   0 ? 0018  1.00                              68    0.0010 42.0 2574
 N14      S   0   0018  7.72                              68    0.0010 42.0 2574
 N17      P   0 ? 0018  1.15                              68    0.0010 42.9 2614
 N17      S   0   0018  7.99                              68    0.0010 42.9 2614
 N13      P   0 ? 0018  1.31                              68    0.0010 43.9 2564
 N13      S   0   0018  8.27                              68   -0.0010 43.9 2564
                                                                                
 2021  2 2 0107 51.0 L  29.004  51.259 10.6  SLT 13 0.0                        1
 GAP=183        0.17       0.4     0.5  0.4  0.2939E-01  0.4096E-02  0.8985E-01E
 STAT SP IPHASW D HRMN SECON CODA AMPLIT PERI AZIMU VELO AIN AR TRES W  DIS CAZ7
 ABAD     P   0 ? 0107 53.41                             161   -0.0010 2.88 3454
 ABAD     S   0   0107 55.36                             161    0.0010 2.88 3454
 P9       P   0 ? 0107 53.57                             148   -0.0010 5.15 2714
 P9       S   0   0107 55.65                             148   -0.0010 5.15 2714
 TOLS     P   0 ? 0107 54.76                             115   -0.0010 14.1 2594
 TOLS     S   0   0107 57.81                             115    0.0010 14.1 2594
 AHRM     P   0 ? 0107 55.06                             111   -0.0110 15.9 1674
 P5       P   0 ? 0107 55.23                             109    0.0010 17.0 2614
 P5       S   0   0107 58.65                             109    0.0110 17.0 2614
 KHIA     P   0 ? 0107 55.25                             109   -0.0010 17.1 2124
 KHIA     S   0   0107 58.70                             109    0.0010 17.1 2124
 ABTL     P   0 ? 0107 55.32                             109   -0.0010 17.5 3084
 ABTL     S   0   0107 58.82                             109    0.0010 17.5 3084
 P4       P   0 ? 0107 55.86                             105   -0.0110 20.9 2594
 P4       S   0   0107 59.80                             105   -0.0110 20.9 2594
 JNAK     P   0 ? 0107 57.39                              68    0.0010 30.1 2174
 JNAK     S   0   0108  2.56                              68    0.0010 30.1 2174
 KOLO     P   0 ? 0107 57.68                              68    0.0110 31.8 1834
 N18      P   0 ? 0107 59.36                              68   -0.0010 42.3 2594
 N4       P   0 ? 0107 59.42                              68    0.0110 42.7 2484
 ABAS     P   0 ? 0108  0.99                              68    0.0010 52.4 1774
                                                                                
 2021  2 2 1025 25.3 L  28.980  51.348  5.7  SLT  7 0.0                        1
 GAP=291        0.21       0.6     1.0  0.9  0.1746E+00  0.1280E+00  0.3167E+00E
 STAT SP IPHASW D HRMN SECON CODA AMPLIT PERI AZIMU VELO AIN AR TRES W  DIS CAZ7
 ABAD     P   0 ? 1025 28.34                              93    0.0010 10.9 3004
 ABAD     S   0   1025 30.81                              93    0.0010 10.9 3004
 P9       P   0 ? 1025 28.98                              92   -0.0010 14.1 2814
 P9       S   0   1025 31.97                              92   -0.0010 14.1 2814
 KHIA     P   0 ? 1025 30.30                              59   -0.0010 21.4 2364
 KHIA     S   0   1025 34.36                              59    0.0010 21.4 2364
 ABTL     P   0 ? 1025 31.15                              59    0.0010 26.2 3014
 ABTL     S   0   1025 35.89                              59   -0.0010 26.2 3014
 P4       P   0 ? 1025 31.66                              59    0.0010 29.2 2674
 P4       S   0   1025 36.82                              59    0.0010 29.2 2674
 JNAK     P   0 ? 1025 32.55                              59    0.0010 34.3 2324
 JNAK     S   0   1025 38.42                              59   -0.0010 34.3 2324
 P3       P   0 ? 1025 32.92                              59    0.0010 36.4 2654
                                                                                
 2021  2 2 2045 31.4 L  28.697  51.203 10.7  SLT  9 0.0                        1
 GAP= 99        0.22       0.6     0.6  0.7 -0.2340E-01  0.7610E-01 -0.1206E+00E
 STAT SP IPHASW D HRMN SECON CODA AMPLIT PERI AZIMU VELO AIN AR TRES W  DIS CAZ7
 KOLO     P   0 ? 2045 33.91                             153   -0.0010 4.32  594
 KOLO     S   0   2045 35.95                             153    0.0110 4.32  594
 DLRM     P   0 ? 2045 34.96                             118   -0.0110 12.8 2544
 DLRM     S   0   2045 37.85                             118   -0.0010 12.8 2544
 JNAK     P   0 ? 2045 35.49                             111   -0.0010 16.2 3084
 JNAK     S   0   2045 38.81                             111    0.0010 16.2 3084
 KHIA     P   0 ? 2045 36.10                             106   -0.0110 19.8 3494
 ABAS     P   0 ? 2045 36.16                             106    0.0010 20.1 1554
 AHRM     P   0 ? 2045 36.23                             105   -0.0110 20.6  264
 TOLS     P   0 ? 2045 38.15                              68    0.0010 32.4 3454
 P5       P   0 ? 2045 38.29                              68    0.0010 33.3 3404
 N6       P   0 ? 2045 39.08                              68    0.0010 38.1 3024
                                                                                
 2021  2 2 2219 20.6 L  29.269  51.334  7.4  SLT  9 0.0                        1
 GAP=296        0.19       0.7     0.9  1.2  0.8373E-01 -0.4730E+00  0.9792E-01E
 STAT SP IPHASW D HRMN SECON CODA AMPLIT PERI AZIMU VELO AIN AR TRES W  DIS CAZ7
 ABAD     P   0 ? 2219 26.61                              91   -0.0010 27.8 1974
 ABAD     S   0   2219 31.47                              91    0.0010 27.8 1974
 ABTL     P   0 ? 2219 26.67                              91   -0.0010 28.1 2294
 ABTL     S   0   2219 31.58                              91    0.0110 28.1 2294
 NOKA     P   0 ? 2219 27.08                              91   -0.0110 30.6 2534
 NOKA     S   0   2219 32.33                              91    0.0010 30.6 2534
 P9       P   0 ? 2219 27.30                              91   -0.0010 31.8 2034
 P9       S   0   2219 32.72                              91    0.0010 31.8 2034
 TOLS     P   0 ? 2219 28.45                              91   -0.0110 38.4 2134
 TOLS     S   0   2219 34.81                              91    0.0010 38.4 2134
 KHIA     P   0 ? 2219 29.90                              68   -0.0110 46.8 2004
 KHIA     S   0   2219 37.42                              68   -0.0210 46.8 2004
 JNAK     P   0 ? 2219 31.90                              68    0.0110 59.1 2064
 N18      P   0 ? 2219 32.27                              68    0.0110 61.4 2334
 KOLO     P   0 ? 2219 32.34                              68    0.0110 61.8 1884
 KOLO     S   0   2219 41.83                              68    0.0110 61.8 1884
                                                                                
