 2021  2 2 2112 23.9 L  28.920  51.104 10.6  SLT 34 0.1                        1
 GAP= 81        0.25       0.4     0.3  0.4 -0.8496E-02  0.3709E-01  0.1784E-01E
 STAT SP IPHASW D HRMN SECON CODA AMPLIT PERI AZIMU VELO AIN AR TRES W  DIS CAZ7
 TOLS     P   0 ? 2112 26.67                             140    0.0210 6.71  114
 TOLS     S   0   2112 28.76                             140   -0.1010 6.71  114
 P5       P   0 ? 2112 26.66                             139   -0.0010 6.79 3464
 P5       S   0   2112 28.97                             139    0.1010 6.79 3464
 P4       P   0 ? 2112 26.82                             136    0.0810 7.50 3154
 P4       S   0   2112 29.06                             136    0.0510 7.50 3154
 KHIA     P   0 ? 2112 26.80                             134   -0.0110 7.96 1304
 KHIA     S   0   2112 28.91                             134   -0.2210 7.96 1304
 P3       P   0 ? 2112 27.54                             117    0.0410 12.9 2854
 P3       S   0   2112 30.40                             117    0.0210 12.9 2854
 P9       P   0 ? 2112 27.58                             115   -0.0610 13.7  464
 JNAK     P   0 ? 2112 27.83                             113   -0.0010 15.0 1924
 JNAK     S   0   2112 31.08                             113    0.1010 15.0 1924
 P2       P   0 ? 2112 27.98                             112    0.0610 15.6 2764
 P2       S   0   2112 30.90                             112   -0.2510 15.6 2764
 ABAD     P   0 ? 2112 28.53                             107    0.0710 18.8  504
 P1       P   0 ? 2112 28.56                             107    0.0910 18.9 2734
 P1       S   0   2112 32.34                             107    0.1910 18.9 2734
 ABTL     P   0 ? 2112 28.67                             105   -0.0210 20.1   44
 CAMP     P   0 ? 2112 28.75                             104   -0.0810 21.1 2454
 CAMP     S   0   2112 32.70                             104   -0.1010 21.1 2454
 N9       P   0 ? 2112 29.01                             104    0.0310 21.9 2634
 N9       S   0   2112 33.06                             104    0.0010 21.9 2634
 N2       P   0 ? 2112 29.15                             103    0.0810 22.5 2464
 N2       S   0   2112 33.13                             103   -0.1010 22.5 2464
 N1       P   0 ? 2112 29.17                             103    0.0610 22.7 2424
 N1       S   0   2112 33.20                             103   -0.1110 22.7 2424
 N16      P   0 ? 2112 29.18                             103    0.0510 22.8 2724
 N16      S   0   2112 33.26                             103   -0.0710 22.8 2724
 N5       P   0 ? 2112 29.14                             103   -0.0210 23.0 2484
 N5       S   0   2112 33.44                             103    0.0510 23.0 2484
 N6       P   0 ? 2112 29.19                             103   -0.0010 23.2 2594
 N6       S   0   2112 33.63                             103    0.1810 23.2 2594
 N19      P   0 ? 2112 29.20                             103   -0.0310 23.4 2774
 N19      S   0   2112 33.53                             103    0.0210 23.4 2774
 N3       P   0 ? 2112 29.40                             102    0.0510 24.1 2484
 N15      P   0 ? 2112 29.31                             102   -0.0510 24.2 2694
 N15      S   0   2112 33.79                             102    0.0310 24.2 2694
 N10      P   0 ? 2112 29.51                              68    0.0510 24.7 2634
 N10      S   0   2112 33.80                              68   -0.1310 24.7 2634
 N7       P   0 ? 2112 29.52                              68    0.0210 25.0 2604
 N7       S   0   2112 34.09                              68    0.0810 25.0 2604
 N4       P   0 ? 2112 29.50                              68   -0.0510 25.3 2544
 N4       S   0   2112 34.19                              68    0.1010 25.3 2544
 N14      P   0 ? 2112 29.72                              68    0.0410 26.1 2704
 N14      S   0   2112 34.26                              68   -0.0710 26.1 2704
 KOLO     P   0 ? 2112 29.70                              68    0.0110 26.1 1494
 N18      P   0 ? 2112 29.77                              68    0.0210 26.5 2734
 N18      S   0   2112 34.36                              68   -0.0910 26.5 2734
 N20      P   0 ? 2112 29.75                              68   -0.0110 26.6 2814
 N20      S   0   2112 34.41                              68   -0.0610 26.6 2814
 N11      P   0 ? 2112 29.82                              68   -0.0110 27.1 2664
 N11      S   0   2112 34.51                              68   -0.0910 27.1 2664
 N17      P   0 ? 2112 29.91                              68   -0.0210 27.7 2754
 N17      S   0   2112 34.67                              68   -0.1110 27.7 2754
 N13      P   0 ? 2112 29.91                              68   -0.0410 27.8 2674
 N13      S   0   2112 34.96                              68    0.1410 27.8 2674
 SHIF     P   0 ? 2112 29.99                              68    0.0310 27.8 3074
 NOKA     P   0 ? 2112 30.30                              68   -0.0510 30.3 3474
 ABAS     P   0 ? 2112 33.10                              68    0.1110 46.6 1574
                                                                                
 2021  2 2 2132 22.1 L  28.920  51.103  9.8  SLT 10 0.1                        1
 GAP= 80        0.25       0.4     0.5  1.0 -0.2094E-01  0.8422E-01  0.1112E+00E
 STAT SP IPHASW D HRMN SECON CODA AMPLIT PERI AZIMU VELO AIN AR TRES W  DIS CAZ7
 TOLS     P   0 ? 2132 24.69                             136    0.0110 6.71  124
 TOLS     S   0   2132 26.83                             136    0.0310 6.71  124
 P5       P   0 ? 2132 24.68                             136   -0.0010 6.76 3464
 P5       S   0   2132 26.64                             136   -0.1610 6.76 3464
 P4       P   0 ? 2132 24.85                             133    0.0810 7.44 3154
 P4       S   0   2132 27.04                             133    0.0910 7.44 3154
 KHIA     P   0 ? 2132 24.81                             130   -0.0410 8.02 1304
 KHIA     S   0   2132 27.17                             130    0.0610 8.02 1304
 P9       P   0 ? 2132 25.69                             111   -0.0310 13.8  474
 P9       S   0   2132 28.66                             111   -0.0110 13.8  474
 JNAK     P   0 ? 2132 25.86                             109   -0.0510 15.0 1914
 JNAK     S   0   2132 29.03                             109    0.0010 15.0 1914
 ABAD     P   0 ? 2132 26.49                             104   -0.0710 18.8  504
 P1       P   0 ? 2132 26.60                             103    0.0410 18.9 2734
 P1       S   0   2132 30.14                             103   -0.0510 18.9 2734
 ABTL     P   0 ? 2132 26.87                             102    0.0910 20.1   44
 N6       P   0 ? 2132 27.35                             100    0.0610 23.1 2594
 N6       S   0   2132 31.45                             100   -0.0610 23.1 2594
                                                                                
 2021  2 2 2218 38.8 L  28.916  51.107 10.5  SLT 31 0.1                        1
 GAP= 81        0.25       0.3     0.3  0.4 -0.2521E-01  0.5411E-01 -0.4260E-02E
 STAT SP IPHASW D HRMN SECON CODA AMPLIT PERI AZIMU VELO AIN AR TRES W  DIS CAZ7
 TOLS     P   0 ? 2218 41.57                             138    0.0110 7.07   84
 TOLS     S   0   2218 43.80                             138    0.0110 7.07   84
 P5       P   0 ? 2218 41.57                             137   -0.0110 7.28 3444
 P5       S   0   2218 43.70                             137   -0.1310 7.28 3444
 KHIA     P   0 ? 2218 41.68                             136    0.0710 7.44 1304
 KHIA     S   0   2218 43.89                             136    0.0210 7.44 1304
 P4       P   0 ? 2218 41.69                             133    0.0210 8.03 3154
 P4       S   0   2218 43.88                             133   -0.1110 8.03 3154
 P3       P   0 ? 2218 42.48                             116    0.0410 13.3 2864
 P3       S   0   2218 45.46                             116    0.0910 13.3 2864
 P9       P   0 ? 2218 42.47                             115   -0.0510 13.8  444
 P9       S   0   2218 45.44                             115   -0.0810 13.8  444
 JNAK     P   0 ? 2218 42.68                             113    0.0310 14.6 1934
 JNAK     S   0   2218 45.57                             113   -0.1810 14.6 1934
 P2       P   0 ? 2218 42.92                             110    0.0610 16.0 2784
 P2       S   0   2218 46.14                             110    0.0110 16.0 2784
 ABAD     P   0 ? 2218 43.42                             106    0.0810 18.8  484
 P1       P   0 ? 2218 43.51                             106    0.1010 19.3 2744
 P1       S   0   2218 47.24                             106    0.1210 19.3 2744
 ABTL     P   0 ? 2218 43.62                             105   -0.0110 20.5   34
 CAMP     P   0 ? 2218 43.67                             104   -0.0610 21.2 2464
 CAMP     S   0   2218 47.46                             104   -0.2510 21.2 2464
 N9       P   0 ? 2218 43.95                             103    0.0510 22.2 2644
 N9       S   0   2218 48.20                             103    0.1910 22.2 2644
 N2       P   0 ? 2218 44.07                             103    0.1010 22.6 2474
 N2       S   0   2218 48.05                             103   -0.0910 22.6 2474
 N1       P   0 ? 2218 44.08                             103    0.0810 22.8 2434
 N1       S   0   2218 48.23                             103    0.0210 22.8 2434
 N5       P   0 ? 2218 44.13                             102    0.0710 23.1 2504
 N5       S   0   2218 48.21                             102   -0.0910 23.1 2504
 N6       P   0 ? 2218 44.11                             102   -0.0010 23.4 2604
 N6       S   0   2218 48.30                             102   -0.1010 23.4 2604
 N19      P   0 ? 2218 44.17                             102    0.0010 23.7 2784
 N19      S   0   2218 48.42                             102   -0.0810 23.7 2784
 N3       P   0 ? 2218 44.24                             102   -0.0110 24.3 2494
 N3       S   0   2218 48.72                             102    0.0710 24.3 2494
 N15      P   0 ? 2218 44.35                             101    0.0610 24.5 2704
 N15      S   0   2218 48.91                             101    0.1810 24.5 2704
 N10      P   0 ? 2218 44.34                             101   -0.0410 25.0 2644
 N10      S   0   2218 48.91                             101    0.0210 25.0 2644
 N7       P   0 ? 2218 44.50                             101    0.0710 25.3 2624
 N7       S   0   2218 49.02                             101    0.0510 25.3 2624
 N4       P   0 ? 2218 44.43                             101   -0.0310 25.5 2564
 N4       S   0   2218 48.92                             101   -0.1210 25.5 2564
 KOLO     P   0 ? 2218 44.49                             101    0.0110 25.6 1494
 N14      P   0 ? 2218 44.69                              68    0.0710 26.4 2714
 N14      S   0   2218 49.40                              68    0.0810 26.4 2714
 N18      P   0 ? 2218 44.74                              68    0.0510 26.9 2744
 N18      S   0   2218 49.55                              68    0.1110 26.9 2744
 N20      P   0 ? 2218 44.73                              68    0.0210 27.0 2824
 N20      S   0   2218 49.40                              68   -0.0810 27.0 2824
 N11      P   0 ? 2218 44.77                              68    0.0110 27.4 2674
 N11      S   0   2218 49.49                              68   -0.0910 27.4 2674
 N17      P   0 ? 2218 44.87                              68   -0.0010 28.0 2764
 N17      S   0   2218 49.72                              68   -0.0610 28.0 2764
 N13      P   0 ? 2218 44.88                              68   -0.0110 28.1 2684
 N13      S   0   2218 49.71                              68   -0.0910 28.1 2684
 SHIF     P   0 ? 2218 44.87                              68   -0.0510 28.4 3074
 SHIF     S   0   2218 49.73                              68   -0.1410 28.4 3074
                                                                                
 2021  2 2 2232 36.9 L  28.915  51.108  9.8  SLT 15 0.1                        1
 GAP= 82        0.21       0.4     0.4  0.8 -0.1831E-01  0.9950E-01  0.7596E-01E
 STAT SP IPHASW D HRMN SECON CODA AMPLIT PERI AZIMU VELO AIN AR TRES W  DIS CAZ7
 TOLS     P   0 ? 2232 39.54                             134    0.0110 7.16   74
 TOLS     S   0   2232 41.77                             134    0.0810 7.16   74
 KHIA     P   0 ? 2232 39.65                             133    0.0910 7.33 1294
 KHIA     S   0   2232 41.77                             133    0.0310 7.33 1294
 P5       P   0 ? 2232 39.54                             133   -0.0210 7.39 3444
 P5       S   0   2232 41.69                             133   -0.0510 7.39 3444
 P4       P   0 ? 2232 39.66                             129    0.0010 8.14 3154
 P4       S   0   2232 41.85                             129   -0.0710 8.14 3154
 P9       P   0 ? 2232 40.49                             111   -0.0310 13.8  444
 P9       S   0   2232 43.47                             111   -0.0210 13.8  444
 JNAK     P   0 ? 2232 40.64                             109    0.0010 14.6 1934
 JNAK     S   0   2232 43.62                             109   -0.0710 14.6 1934
 ABAD     P   0 ? 2232 41.28                             103   -0.0810 18.8  484
 P1       P   0 ? 2232 41.45                             103    0.0110 19.3 2754
 P1       S   0   2232 45.20                             103    0.0610 19.3 2754
 ABTL     P   0 ? 2232 41.71                             102    0.0410 20.6   24
 CAMP     P   0 ? 2232 41.82                             101    0.0710 21.2 2474
 N2       P   0 ? 2232 42.00                             100    0.0010 22.7 2484
 N1       P   0 ? 2232 41.93                             100   -0.1010 22.8 2434
 N5       P   0 ? 2232 42.10                             100    0.0110 23.1 2504
 N6       P   0 ? 2232 42.19                             100    0.0510 23.4 2604
 N6       S   0   2232 46.39                             100   -0.0310 23.4 2604
 N18      P   0 ? 2232 42.75                              98    0.0110 27.0 2744
                                                                                
 2021  2 2 0107 12.4 L  28.926  51.081 12.0  SLT  6 0.0                        1
 GAP=143        0.25       0.8     1.5  1.7 -0.7556E+00 -0.1829E+01  0.8383E+00E
 STAT SP IPHASW D HRMN SECON CODA AMPLIT PERI AZIMU VELO AIN AR TRES W  DIS CAZ7
 P4       P   0 ? 0107 15.22                             148    0.0510 5.52 3264
 P4       S   0   0107 17.41                             148   -0.0110 5.52 3264
 TOLS     P   0 ? 0107 15.27                             141   -0.0310 6.85  314
 TOLS     S   0   0107 17.64                             141   -0.0110 6.85  314
 KHIA     P   0 ? 0107 15.64                             127   -0.0510 10.1 1254
 P9       P   0 ? 0107 16.35                             111   -0.0210 15.0  544
 JNAK     P   0 ? 0107 16.39                             110   -0.0310 15.4 1834
 JNAK     S   0   0107 19.74                             110    0.0510 15.4 1834
 ABAD     P   0 ? 0107 17.15                             101   -0.0210 20.1  554
 ABAD     S   0   0107 21.10                             101    0.0610 20.1  554
                                                                                
 2021  2 2 0654 53.1 L  28.868  50.844  7.2  SLT 13 0.1                        1
 GAP=199        0.24       0.5     1.0  0.7  0.3639E+00  0.1900E+00  0.3160E-01E
 STAT SP IPHASW D HRMN SECON CODA AMPLIT PERI AZIMU VELO AIN AR TRES W  DIS CAZ7
 N4       P   0 ? 0654 54.84                             164    0.0010 1.47 1374
 N4       S   0   0654 56.33                             164    0.0810 1.47 1374
 N7       P   0 ? 0654 54.87                             161    0.0110 1.74  244
 N7       S   0   0654 56.39                             161    0.1010 1.74  244
 N6       P   0 ? 0654 54.97                             149    0.0310 2.90  674
 N6       S   0   0654 56.37                             149   -0.0710 2.90  674
 N10      P   0 ? 0654 55.00                             149    0.0610 2.92  164
 N10      S   0   0654 56.47                             149    0.0310 2.92  164
 N11      P   0 ? 0654 55.08                             136   -0.0010 4.24 3374
 N11      S   0   0654 56.56                             136   -0.1310 4.24 3374
 N3       P   0 ? 0654 55.14                             133    0.0210 4.57 1384
 N3       S   0   0654 56.69                             133   -0.0710 4.57 1384
 N9       P   0 ? 0654 55.15                             131    0.0110 4.73  504
 N9       S   0   0654 56.85                             131    0.0510 4.73  504
 N5       P   0 ? 0654 55.24                             130    0.0810 4.87 1244
 N5       S   0   0654 56.73                             130   -0.1110 4.87 1244
 N15      P   0 ? 0654 55.37                             124    0.1110 5.59  124
 N15      S   0   0654 57.04                             124    0.0210 5.59  124
 N14      P   0 ? 0654 55.34                             123    0.0610 5.73 3524
 N14      S   0   0654 56.97                             123   -0.0910 5.73 3524
 N2       P   0 ? 0654 55.36                             121    0.0610 5.89 1254
 N2       S   0   0654 56.98                             121   -0.1010 5.89 1254
 N18      P   0 ? 0654 55.41                             109   -0.1210 7.33 3514
 N18      S   0   0654 57.48                             109   -0.0210 7.33 3514
 N17      P   0 ? 0654 55.70                             100   -0.0110 8.42 3454
                                                                                
 2021  2 2 2101 36.2 L  29.255  51.368  7.0  SLT  8 0.1                        1
 GAP=308        0.27       2.3     2.7  4.9  0.5108E+01  0.1178E+02  0.1016E+02E
 STAT SP IPHASW D HRMN SECON CODA AMPLIT PERI AZIMU VELO AIN AR TRES W  DIS CAZ7
 ABAD     P   0 ? 2101 42.14                              59   -0.0210 27.5 2044
 ABAD     S   0   2101 47.10                              59    0.1110 27.5 2044
 ABTL     P   0 ? 2101 42.56                              59    0.0110 29.8 2354
 ABTL     S   0   2101 47.83                              59    0.1410 29.8 2354
 P9       P   0 ? 2101 42.95                              59    0.0310 31.9 2104
 P9       S   0   2101 48.27                              59   -0.0810 31.9 2104
 NOKA     P   0 ? 2101 43.23                              59    0.0710 33.3 2574
 NOKA     S   0   2101 48.67                              59   -0.1210 33.3 2574
 TOLS     P   0 ? 2101 44.18                              59    0.0010 39.1 2194
 TOLS     S   0   2101 50.59                              59   -0.0410 39.1 2194
 P4       P   0 ? 2101 45.07                              59   -0.0410 44.5 2244
 P4       S   0   2101 52.35                              59    0.0310 44.5 2244
 KHIA     P   0 ? 2101 45.42                              59   -0.0710 46.7 2054
 KHIA     S   0   2101 52.92                              59   -0.1010 46.7 2054
 JNAK     P   0 ? 2101 47.58                              53    0.0410 59.3 2094
 JNAK     S   0   2101 56.75                              53    0.0310 59.3 2094
                                                                                
