 2021  2 2 1122 56.6 L  29.227  51.387  8.7  SLT 33 0.0                        1
 GAP=285        0.10       0.2     0.3  0.3 -0.9796E-02  0.2112E-01  0.1572E-01E
 STAT SP IPHASW D HRMN SECON CODA AMPLIT PERI AZIMU VELO AIN AR TRES W  DIS CAZ7
 ABAD     P   0 ? 1123  2.25                              95   -0.0110 25.7 2114
 ABAD     S   0   1123  6.83                              95    0.0110 25.7 2114
 ABTL     P   0 ? 1123  2.96                              94   -0.0110 29.8 2424
 ABTL     S   0   1123  8.12                              94    0.0010 29.8 2424
 P9       P   0 ? 1123  3.05                              94   -0.0010 30.3 2164
 P9       S   0   1123  8.27                              94   -0.0010 30.3 2164
 NOKA     P   0 ? 1123  3.80                              94   -0.0110 34.7 2624
 NOKA     S   0   1123  9.62                              94   -0.0110 34.7 2624
 TOLS     P   0 ? 1123  4.39                              93   -0.0110 38.1 2244
 TOLS     S   0   1123 10.69                              93   -0.0210 38.1 2244
 P5       P   0 ? 1123  4.73                              68   -0.0210 40.1 2274
 P5       S   0   1123 11.31                              68   -0.0210 40.1 2274
 P4       P   0 ? 1123  5.33                              68   -0.0010 43.8 2294
 P4       S   0   1123 12.39                              68   -0.0010 43.8 2294
 KHIA     P   0 ? 1123  5.50                              68   -0.0010 44.8 2094
 KHIA     S   0   1123 12.70                              68   -0.0010 44.8 2094
 P3       P   0 ? 1123  6.42                              68   -0.0010 50.5 2324
 P3       S   0   1123 14.37                              68    0.0010 50.5 2324
 SHIF     P   0 ? 1123  6.81                              68    0.0010 52.9 2514
 SHIF     S   0   1123 15.06                              68   -0.0010 52.9 2514
 P2       P   0 ? 1123  6.96                              68    0.0010 53.9 2334
 P2       S   0   1123 15.34                              68    0.0010 53.9 2334
 JNAK     P   0 ? 1123  7.56                              68   -0.0010 57.6 2124
 JNAK     S   0   1123 16.43                              68    0.0010 57.6 2124
 KOLO     P   0 ? 1123  7.68                              68   -0.0010 58.3 1944
 N19      P   0 ? 1123  7.88                              68   -0.0010 59.6 2394
 N19      S   0   1123 17.01                              68    0.0010 59.6 2394
 N16      P   0 ? 1123  8.00                              68    0.0010 60.3 2374
 N16      S   0   1123 17.22                              68    0.0110 60.3 2374
 N9       P   0 ? 1123  8.20                              68    0.0010 61.5 2334
 N9       S   0   1123 17.58                              68    0.0010 61.5 2334
 N15      P   0 ? 1123  8.29                              68   -0.0010 62.1 2374
 N15      S   0   1123 17.75                              68    0.0010 62.1 2374
 N18      P   0 ? 1123  8.46                              68    0.01 9 63.1 2394
 N18      S   0   1123 18.04                              68   -0.00 9 63.1 2394
 N6       P   0 ? 1123  8.51                              68    0.00 9 63.5 2334
 CAMP     P   0 ? 1123  8.51                              68    0.00 9 63.5 2274
 CAMP     S   0   1123 18.14                              68   -0.00 9 63.5 2274
 N14      P   0 ? 1123  8.54                              68    0.00 9 63.6 2384
 N17      P   0 ? 1123  8.53                              68    0.00 9 63.6 2404
 N14      S   0   1123 18.19                              68   -0.00 9 63.6 2384
 N17      S   0   1123 18.18                              68    0.00 9 63.6 2404
 N10      P   0 ? 1123  8.59                              68    0.00 9 64.0 2354
 N10      S   0   1123 18.29                              68    0.01 9 64.0 2354
 N7       P   0 ? 1123  8.72                              68    0.00 9 64.7 2344
 N7       S   0   1123 18.52                              68   -0.00 9 64.7 2344
 N2       P   0 ? 1123  8.71                              68    0.01 9 64.7 2284
 N2       S   0   1123 18.50                              68    0.01 9 64.7 2284
 N5       P   0 ? 1123  8.74                              68    0.01 9 64.9 2294
 N5       S   0   1123 18.55                              68    0.00 9 64.9 2294
 N11      P   0 ? 1123  8.81                              68    0.00 9 65.3 2374
 N11      S   0   1123 18.69                              68    0.00 9 65.3 2374
 N1       P   0 ? 1123  8.83                              68    0.01 9 65.4 2274
 N1       S   0   1123 18.71                              68   -0.00 9 65.4 2274
 N13      P   0 ? 1123  8.88                              68    0.01 9 65.7 2374
 N13      S   0   1123 18.80                              68   -0.00 9 65.7 2374
 N3       P   0 ? 1123  8.92                              68    0.00 9 66.0 2294
 N3       S   0   1123 18.89                              68    0.00 9 66.0 2294
 N4       P   0 ? 1123  8.94                              68    0.01 9 66.1 2324
 N4       S   0   1123 18.91                              68   -0.00 9 66.1 2324
 DLRM     P   0 ? 1123  9.45                              68    0.01 9 69.3 2064
 DLRM     S   0   1123 19.84                              68    0.00 9 69.3 2064
 ABAS     P   0 ? 1123 10.80                              68    0.00 9 77.6 1874
                                                                                
 2021  2 2 1124  8.2 L  29.242  51.367  7.4  SLT  8 0.0                        1
 GAP=306        0.19       0.6     0.9  1.5  0.3533E-01 -0.2362E+00  0.1413E+00E
 STAT SP IPHASW D HRMN SECON CODA AMPLIT PERI AZIMU VELO AIN AR TRES W  DIS CAZ7
 ABAD     P   0 ? 1124 13.92                              91    0.0110 26.2 2064
 ABAD     S   0   1124 18.55                              91    0.0110 26.2 2064
 ABTL     P   0 ? 1124 14.39                              91    0.0010 28.9 2374
 ABTL     S   0   1124 19.40                              91    0.0010 28.9 2374
 P9       P   0 ? 1124 14.68                              91    0.0010 30.6 2114
 P9       S   0   1124 19.93                              91    0.0110 30.6 2114
 NOKA     P   0 ? 1124 15.08                              91   -0.0010 32.9 2594
 NOKA     S   0   1124 20.65                              91   -0.0110 32.9 2594
 TOLS     P   0 ? 1124 15.96                              91    0.0010 37.9 2204
 TOLS     S   0   1124 22.24                              91    0.0010 37.9 2204
 P5       P   0 ? 1124 16.29                              91   -0.0010 39.9 2234
 P5       S   0   1124 22.85                              91    0.0110 39.9 2234
 KHIA     P   0 ? 1124 17.23                              91   -0.0110 45.3 2064
 KHIA     S   0   1124 24.54                              91   -0.0310 45.3 2064
 JNAK     P   0 ? 1124 19.29                              68    0.0110 58.0 2104
 JNAK     S   0   1124 28.26                              68   -0.0010 58.0 2104
                                                                                
 2021  2 2 0015 45.0 L  28.944  50.795  8.2  SLT 13 0.0                        1
 GAP=268        0.15       0.4     0.6  0.5  0.3873E-01  0.4731E-01  0.3692E-01E
 STAT SP IPHASW D HRMN SECON CODA AMPLIT PERI AZIMU VELO AIN AR TRES W  DIS CAZ7
 N17      P   0 ? 0015 46.96                             157    0.0110 2.51  984
 N17      S   0   0015 48.55                             157    0.0110 2.51  984
 N18      P   0 ? 0015 47.06                             147    0.0010 3.77 1094
 N18      S   0   0015 48.74                             147    0.0110 3.77 1094
 N20      P   0 ? 0015 47.15                             140    0.0010 4.64  584
 N20      S   0   0015 48.89                             140   -0.0010 4.64  584
 N13      P   0 ? 0015 47.16                             139    0.0010 4.71 1514
 N13      S   0   0015 48.91                             139   -0.0010 4.71 1514
 N14      P   0 ? 0015 47.17                             139   -0.0010 4.83 1254
 N14      S   0   0015 48.94                             139   -0.0010 4.83 1254
 N11      P   0 ? 0015 47.25                             134   -0.0010 5.50 1464
 N11      S   0   0015 49.07                             134   -0.0110 5.50 1464
 N15      P   0 ? 0015 47.40                             126   -0.0010 6.62 1174
 N15      S   0   0015 49.35                             126   -0.0110 6.62 1174
 N19      P   0 ? 0015 47.44                             125   -0.0010 6.88  884
 N19      S   0   0015 49.42                             125   -0.0110 6.88  884
 N16      P   0 ? 0015 47.52                             121   -0.0010 7.48 1044
 N16      S   0   0015 49.57                             121   -0.0010 7.48 1044
 N10      P   0 ? 0015 47.59                             119   -0.0010 7.91 1364
 N10      S   0   0015 49.69                             119   -0.0110 7.91 1364
 N7       P   0 ? 0015 47.73                             115    0.0010 8.76 1424
 N7       S   0   0015 49.94                             115   -0.0010 8.76 1424
 N9       P   0 ? 0015 47.92                             110    0.0110 9.96 1234
 N9       S   0   0015 50.29                             110    0.0110 9.96 1234
 N6       P   0 ? 0015 48.00                             108    0.0110 10.4 1354
 N6       S   0   0015 50.43                             108    0.0110 10.4 1354
                                                                                
 2021  2 2 2112  5.5 L  28.922  51.107 10.9  SLT 34 0.0                        1
 GAP= 84        0.10       0.2     0.1  0.2  0.4797E-02  0.1193E-01  0.1035E-01E
 STAT SP IPHASW D HRMN SECON CODA AMPLIT PERI AZIMU VELO AIN AR TRES W  DIS CAZ7
 TOLS     P   0 ? 2112  8.23                             142    0.0110 6.40   94
 TOLS     S   0   2112 10.44                             142    0.0110 6.40   94
 P5       P   0 ? 2112  8.25                             141    0.0110 6.62 3434
 P5       S   0   2112 10.47                             141    0.0110 6.62 3434
 P4       P   0 ? 2112  8.34                             137   -0.0110 7.55 3114
 P4       S   0   2112 10.65                             137   -0.0010 7.55 3114
 KHIA     P   0 ? 2112  8.40                             136    0.0010 7.90 1334
 KHIA     S   0   2112 10.74                             136   -0.0010 7.90 1334
 P3       P   0 ? 2112  9.12                             118   -0.0010 13.1 2834
 P3       S   0   2112 12.06                             118    0.0110 13.1 2834
 P9       P   0 ? 2112  9.16                             118    0.0010 13.3  464
 JNAK     P   0 ? 2112  9.47                             113    0.0110 15.3 1934
 JNAK     S   0   2112 12.69                             113    0.0210 15.3 1934
 P2       P   0 ? 2112  9.56                             112    0.0110 15.9 2754
 P2       S   0   2112 12.85                             112    0.0210 15.9 2754
 ABAD     P   0 ? 2112  9.98                             109    0.0110 18.4  504
 P1       P   0 ? 2112 10.10                             107   -0.0010 19.2 2724
 P1       S   0   2112 13.83                             107    0.0010 19.2 2724
 ABTL     P   0 ? 2112 10.22                             107    0.0010 19.9   34
 CAMP     P   0 ? 2112 10.47                              68   -0.0010 21.5 2454
 CAMP     S   0   2112 14.49                              68   -0.0110 21.5 2454
 N9       P   0 ? 2112 10.59                              68   -0.0110 22.2 2624
 N9       S   0   2112 14.72                              68   -0.0110 22.2 2624
 N2       P   0 ? 2112 10.69                              68   -0.0110 22.9 2464
 N2       S   0   2112 14.90                              68   -0.0110 22.9 2464
 N16      P   0 ? 2112 10.73                              68   -0.0110 23.1 2724
 N16      S   0   2112 14.97                              68   -0.0110 23.1 2724
 N1       P   0 ? 2112 10.74                              68    0.0010 23.1 2414
 N1       S   0   2112 14.98                              68   -0.0010 23.1 2414
 N5       P   0 ? 2112 10.78                              68    0.0010 23.4 2484
 N5       S   0   2112 15.05                              68   -0.0010 23.4 2484
 N6       P   0 ? 2112 10.81                              68    0.0010 23.5 2584
 N6       S   0   2112 15.10                              68   -0.0110 23.5 2584
 N19      P   0 ? 2112 10.83                              68    0.0010 23.7 2774
 N19      S   0   2112 15.14                              68   -0.0110 23.7 2774
 N15      P   0 ? 2112 10.96                              68   -0.0010 24.5 2694
 N3       P   0 ? 2112 10.96                              68   -0.0010 24.5 2474
 N15      S   0   2112 15.38                              68   -0.0110 24.5 2694
 N3       S   0   2112 15.38                              68   -0.0110 24.5 2474
 N10      P   0 ? 2112 11.06                              68    0.0010 25.1 2634
 N10      S   0   2112 15.55                              68   -0.0110 25.1 2634
 N7       P   0 ? 2112 11.10                              68   -0.0110 25.4 2604
 N7       S   0   2112 15.64                              68   -0.0110 25.4 2604
 N4       P   0 ? 2112 11.15                              68   -0.0010 25.7 2544
 N4       S   0   2112 15.72                              68   -0.0110 25.7 2544
 KOLO     P   0 ? 2112 11.24                              68   -0.0010 26.2 1504
 KOLO     S   0   2112 15.89                              68   -0.0010 26.2 1504
 N14      P   0 ? 2112 11.28                              68    0.0010 26.4 2694
 N14      S   0   2112 15.95                              68   -0.0110 26.4 2694
 N18      P   0 ? 2112 11.34                              68    0.0010 26.8 2734
 N18      S   0   2112 16.07                              68    0.0010 26.8 2734
 N20      P   0 ? 2112 11.34                              68   -0.0010 26.9 2814
 N20      S   0   2112 16.07                              68   -0.0110 26.9 2814
 N11      P   0 ? 2112 11.43                              68    0.0010 27.4 2664
 N11      S   0   2112 16.23                              68   -0.0010 27.4 2664
 N17      S   0   2112 16.39                              68   -0.0010 28.0 2744
 SHIF     P   0 ? 2112 11.52                              68    0.0010 28.0 3064
 N17      P   0 ? 2112 11.52                              68    0.0010 28.0 2744
 N13      P   0 ? 2112 11.55                              68    0.0010 28.1 2674
 N13      S   0   2112 16.45                              68    0.0010 28.1 2674
 NOKA     P   0 ? 2112 11.87                              68    0.0010 30.1 3464
 ABAS     P   0 ? 2112 14.57                              68    0.0110 46.8 1574
                                                                                
