 2021  2 2 1614 49.4 L  29.000  51.004 13.2  SLT 26 0.2                        1
 GAP=147        0.46       1.1     0.7  1.3 -0.3607E+00  0.2143E+00 -0.2484E+00E
 STAT SP IPHASW D HRMN SECON CODA AMPLIT PERI AZIMU VELO AIN AR TRES W  DIS CAZ7
 P4       P   0 ? 1614 52.33                             151    0.0210 5.70 1294
 P4       S   0   1614 54.87                             151    0.1610 5.70 1294
 P3       P   0 ? 1614 52.32                             148   -0.0310 6.21 2064
 P3       S   0   1614 54.84                             148    0.0610 6.21 2064
 P5       P   0 ? 1614 52.66                             139    0.0910 8.43 1064
 P5       S   0   1614 55.13                             139   -0.0410 8.43 1064
 P2       P   0 ? 1614 52.63                             136   -0.0110 9.16 2194
 P2       S   0   1614 55.25                             136   -0.0610 9.16 2194
 TOLS     P   0 ? 1614 52.90                             129   -0.0010 11.3 1024
 TOLS     S   0   1614 55.54                             129   -0.2410 11.3 1024
 P1       P   0 ? 1614 52.93                             126   -0.0610 12.0 2294
 P1       S   0   1614 56.06                             126    0.1210 12.0 2294
 N19      P   0 ? 1614 53.34                             119   -0.0210 14.7 2464
 N19      S   0   1614 56.43                             119   -0.1810 14.7 2464
 N16      P   0 ? 1614 53.48                             117    0.0410 15.2 2394
 N16      S   0   1614 56.83                             117    0.0910 15.2 2394
 ABTL     P   0 ? 1614 53.77                             116    0.2510 15.7  444
 N9       P   0 ? 1614 53.75                             114    0.1110 16.6 2264
 N9       S   0   1614 56.91                             114   -0.2010 16.6 2264
 N20      P   0 ? 1614 53.48                             114   -0.1810 16.7 2574
 N20      S   0   1614 57.26                             114    0.1210 16.7 2574
 N12      P   0 ? 1614 53.68                             114   -0.0010 16.9 2344
 N12      S   0   1614 57.38                             114    0.1910 16.9 2344
 N15      P   0 ? 1614 53.74                             113    0.0410 17.0 2384
 N15      S   0   1614 56.86                             113   -0.3710 17.0 2384
 N18      P   0 ? 1614 54.02                             111    0.1410 18.3 2464
 N18      S   0   1614 57.62                             111    0.0610 18.3 2464
 N14      P   0 ? 1614 54.01                             110    0.0710 18.6 2414
 N14      S   0   1614 57.18                             110   -0.4710 18.6 2414
 N6       P   0 ? 1614 54.01                             110    0.0610 18.7 2244
 N6       S   0   1614 57.90                             110    0.2310 18.7 2244
 N10      P   0 ? 1614 53.91                             110   -0.0710 18.9 2314
 N17      P   0 ? 1614 53.96                             110   -0.0210 18.9 2504
 N17      S   0   1614 57.62                             110   -0.1110 18.9 2504
 N10      S   0   1614 58.14                             110    0.4010 18.9 2314
 P9       P   0 ? 1614 54.00                             109   -0.1110 19.7  884
 N7       P   0 ? 1614 54.18                             108    0.0610 19.8 2294
 N7       S   0   1614 58.03                             108    0.0510 19.8 2294
 CAMP     P   0 ? 1614 53.99                             108   -0.1710 20.1 2084
 CAMP     S   0   1614 57.84                             108   -0.2110 20.1 2084
 N11      P   0 ? 1614 54.28                             108    0.0910 20.3 2384
 N11      S   0   1614 57.97                             108   -0.1410 20.3 2384
 N5       P   0 ? 1614 54.25                             107   -0.0310 20.8 2144
 N5       S   0   1614 58.13                             107   -0.1410 20.8 2144
 N2       P   0 ? 1614 54.35                             107    0.0610 21.0 2114
 N2       S   0   1614 58.67                             107    0.3710 21.0 2114
 KHIA     P   0 ? 1614 54.14                             106   -0.1910 21.1 1324
 KHIA     S   0   1614 58.42                             106    0.0610 21.1 1324
 N4       P   0 ? 1614 54.39                             106    0.0310 21.4 2234
 N4       S   0   1614 58.50                             106    0.0810 21.4 2234
                                                                                
 2021  2 2 1615  7.9 L  28.966  51.026 13.9  SLT  5 0.1                        1
 GAP=161        0.34       2.0     1.5  2.0 -0.2443E+01  0.1520E+01 -0.1888E+01E
 STAT SP IPHASW D HRMN SECON CODA AMPLIT PERI AZIMU VELO AIN AR TRES W  DIS CAZ7
 P4       P   0 ? 1615 10.83                             168    0.0110 2.29  874
 P4       S   0   1615 13.05                             168   -0.1010 2.29  874
 TOLS     P   0 ? 1615 11.33                             139    0.0210 9.03  814
 TOLS     S   0   1615 14.12                             139    0.0810 9.03  814
 P1       P   0 ? 1615 11.66                             129    0.0110 12.0 2504
 P1       S   0   1615 14.57                             129   -0.0810 12.0 2504
 N12      P   0 ? 1615 12.30                             117   -0.0310 17.0 2484
 N12      S   0   1615 16.02                             117    0.1410 17.0 2484
 ABTL     P   0 ? 1615 12.22                             116   -0.1810 17.4  314
 ABTL     S   0   1615 16.13                             116    0.1210 17.4  314
                                                                                
 2021  2 2 1619 40.9 L  28.985  51.008 11.9  SLT  9 0.2                        1
 GAP=147        0.46       1.8     1.1  2.1 -0.1237E+01  0.6555E+00 -0.1222E+01E
 STAT SP IPHASW D HRMN SECON CODA AMPLIT PERI AZIMU VELO AIN AR TRES W  DIS CAZ7
 P4       P   0 ? 1619 43.56                             153   -0.0610 4.47 1174
 P4       S   0   1619 46.02                             153    0.2210 4.47 1174
 P5       P   0 ? 1619 43.77                             137   -0.1510 7.71  954
 TOLS     P   0 ? 1619 44.27                             125   -0.0110 10.6  944
 TOLS     S   0   1619 46.90                             125   -0.0910 10.6  944
 P1       P   0 ? 1619 44.35                             122   -0.0310 11.4 2374
 P1       S   0   1619 46.80                             122   -0.3710 11.4 2374
 N19      P   0 ? 1619 44.86                             112    0.0310 14.5 2534
 N19      S   0   1619 48.11                             112    0.1210 14.5 2534
 ABTL     P   0 ? 1619 45.01                             107   -0.1410 16.6  404
 ABTL     S   0   1619 48.71                             107    0.1310 16.6  404
 N15      P   0 ? 1619 45.14                             107   -0.0210 16.7 2434
 N15      S   0   1619 48.81                             107    0.2310 16.7 2434
 P9       P   0 ? 1619 45.55                             102   -0.0310 19.4  844
 KHIA     P   0 ? 1619 45.82                             101    0.1710 19.8 1294
                                                                                
 2021  2 2 1618 55.3 L  28.699  51.179  6.4  SLT  6 0.1                        1
 GAP=100        0.31       0.9     0.7  1.0 -0.2235E+00  0.3234E+00 -0.5083E+00E
 STAT SP IPHASW D HRMN SECON CODA AMPLIT PERI AZIMU VELO AIN AR TRES W  DIS CAZ7
 KOLO     P   0 ? 1618 57.61                             122    0.0510 6.42  724
 KOLO     S   0   1618 59.38                             122    0.0310 6.42  724
 DLRM     P   0 ? 1618 58.25                             103   -0.0910 10.6 2494
 DLRM     S   0   1619  0.81                             103    0.0410 10.6 2494
 JNAK     P   0 ? 1618 58.97                              59   -0.0610 14.2 3134
 JNAK     S   0   1619  2.16                              59    0.1410 14.2 3134
 KHIA     P   0 ? 1618 59.79                              59   -0.1510 19.3 3564
 KHIA     S   0   1619  3.68                              59    0.0310 19.3 3564
 ABAS     P   0 ? 1619  0.35                              59    0.0510 21.4 1494
 AHRM     P   0 ? 1619  0.29                              59   -0.0310 21.5  324
                                                                                
 2021  2 2 0017 52.7 L  29.003  51.255 10.7  SLT 22 0.1                        1
 GAP=173        0.40       0.7     1.0  0.7  0.8993E-01  0.3084E+00  0.1358E+00E
 STAT SP IPHASW D HRMN SECON CODA AMPLIT PERI AZIMU VELO AIN AR TRES W  DIS CAZ7
 ABAD     P   0 ? 0017 55.08                             162   -0.0410 2.90 3524
 ABAD     S   0   0017 57.11                             162    0.0310 2.90 3524
 P9       P   0 ? 0017 55.16                             151   -0.0810 4.77 2734
 P9       S   0   0017 57.08                             151   -0.2310 4.77 2734
 TOLS     P   0 ? 0017 56.48                             116    0.0810 13.7 2594
 TOLS     S   0   0017 59.62                             116    0.2210 13.7 2594
 AHRM     P   0 ? 0017 56.72                             112   -0.0410 15.9 1664
 KHIA     P   0 ? 0017 56.92                             110    0.0210 16.8 2114
 KHIA     S   0   0018  0.43                             110    0.1210 16.8 2114
 ABTL     P   0 ? 0017 56.92                             110   -0.0610 17.3 3094
 ABTL     S   0   0018  0.49                             110    0.0510 17.3 3094
 P4       P   0 ? 0017 57.47                             106   -0.0310 20.5 2594
 P4       S   0   0018  1.31                             106   -0.0810 20.5 2594
 P3       P   0 ? 0017 58.76                              68    0.0610 27.8 2584
 P3       S   0   0018  3.45                              68   -0.1210 27.8 2584
 NOKA     P   0 ? 0017 59.21                              68    0.2310 29.5 3134
 NOKA     S   0   0018  3.94                              68   -0.1310 29.5 3134
 JNAK     P   0 ? 0017 59.16                              68    0.1410 29.8 2174
 JNAK     S   0   0018  3.89                              68   -0.2510 29.8 2174
 P2       P   0 ? 0017 59.26                              68    0.0310 31.1 2564
 P2       S   0   0018  4.62                              68    0.0910 31.1 2564
 KOLO     P   0 ? 0017 59.14                              68   -0.2010 31.7 1824
 SHIF     P   0 ? 0018  0.37                              68    0.0610 37.8 2814
 SHIF     S   0   0018  6.26                              68   -0.2210 37.8 2814
 CAMP     P   0 ? 0018  0.55                              68    0.1510 38.4 2424
 N2       P   0 ? 0018  0.73                              68    0.1010 39.8 2434
 N1       P   0 ? 0018  0.77                              68    0.0910 40.1 2404
 N1       S   0   0018  7.20                              68    0.0510 40.1 2404
 N5       P   0 ? 0018  0.66                              68   -0.0410 40.2 2444
 N5       S   0   0018  6.98                              68   -0.2010 40.2 2444
 N10      P   0 ? 0018  0.83                              68   -0.0210 41.1 2534
 N10      S   0   0018  7.64                              68    0.1910 41.1 2534
 N3       P   0 ? 0018  0.82                              68   -0.0610 41.4 2444
 N3       S   0   0018  7.57                              68    0.0510 41.4 2444
 N14      P   0 ? 0018  1.07                              68    0.1010 41.9 2574
 N14      S   0   0018  7.30                              68   -0.3810 41.9 2574
 N17      P   0 ? 0018  1.02                              68   -0.1010 42.8 2614
 N17      S   0   0018  7.98                              68    0.0310 42.8 2614
 N13      P   0 ? 0018  1.40                              68    0.1210 43.8 2564
 N13      S   0   0018  8.49                              68    0.2610 43.8 2564
                                                                                
 2021  2 2 0107 51.0 L  29.005  51.257 11.2  SLT 13 0.1                        1
 GAP=180        0.37       0.9     1.1  1.2  0.2608E+00  0.3465E+00  0.5234E+00E
 STAT SP IPHASW D HRMN SECON CODA AMPLIT PERI AZIMU VELO AIN AR TRES W  DIS CAZ7
 ABAD     P   0 ? 0107 53.36                             162   -0.1110 2.69 3474
 ABAD     S   0   0107 55.59                             162    0.1010 2.69 3474
 P9       P   0 ? 0107 53.47                             148   -0.1510 4.99 2704
 P9       S   0   0107 55.80                             148    0.0510 4.99 2704
 TOLS     P   0 ? 0107 54.82                             109    0.0610 14.0 2584
 TOLS     S   0   0107 57.93                             109    0.1210 14.0 2584
 AHRM     P   0 ? 0107 55.02                             102   -0.0810 16.1 1674
 P5       P   0 ? 0107 55.23                              99    0.0310 16.8 2604
 P5       S   0   0107 58.51                              99   -0.1110 16.8 2604
 KHIA     P   0 ? 0107 55.18                              99   -0.0810 17.1 2114
 KHIA     S   0   0107 58.61                              99   -0.1110 17.1 2114
 ABTL     P   0 ? 0107 55.27                              98   -0.0110 17.3 3084
 ABTL     S   0   0107 58.63                              98   -0.1410 17.3 3084
 P4       P   0 ? 0107 55.89                              93    0.0610 20.7 2584
 P4       S   0   0107 59.94                              93    0.1910 20.7 2584
 JNAK     P   0 ? 0107 57.59                              91    0.2510 30.1 2174
 JNAK     S   0   0108  2.30                              91   -0.1910 30.1 2174
 KOLO     P   0 ? 0107 57.79                              91    0.1410 32.0 1834
 N18      P   0 ? 0107 59.36                              91    0.0710 42.2 2594
 N4       P   0 ? 0107 59.20                              91   -0.1510 42.6 2484
 ABAS     P   0 ? 0108  1.02                              90    0.0610 52.5 1764
                                                                                
 2021  2 2 1025 25.2 L  28.986  51.359  8.3  SLT  7 0.2                        1
 GAP=293        0.50       1.5     2.7  7.7 -0.4433E+00 -0.8851E+01  0.5565E+01E
 STAT SP IPHASW D HRMN SECON CODA AMPLIT PERI AZIMU VELO AIN AR TRES W  DIS CAZ7
 ABAD     P   0 ? 1025 28.30                             106   -0.1010 11.5 2944
 ABAD     S   0   1025 30.87                             106   -0.1210 11.5 2944
 P9       P   0 ? 1025 28.88                             100   -0.1110 15.0 2784
 P9       S   0   1025 32.37                             100    0.3110 15.0 2784
 KHIA     P   0 ? 1025 30.36                              95    0.0710 22.6 2364
 KHIA     S   0   1025 34.59                              95    0.1710 22.6 2364
 ABTL     P   0 ? 1025 31.10                              94    0.0810 26.8 2984
 ABTL     S   0   1025 35.89                              94    0.1510 26.8 2984
 P4       P   0 ? 1025 31.66                              93    0.0410 30.3 2664
 P4       S   0   1025 36.40                              93   -0.4210 30.3 2664
 JNAK     P   0 ? 1025 32.47                              93   -0.0610 35.6 2324
 JNAK     S   0   1025 38.47                              93   -0.0110 35.6 2324
 P3       P   0 ? 1025 32.88                              93    0.0010 37.5 2644
                                                                                
 2021  2 2 2045 31.5 L  28.700  51.198 10.5  SLT  9 0.1                        1
 GAP= 97        0.43       1.2     1.2  1.4 -0.9192E-01  0.3183E+00 -0.5279E+00E
 STAT SP IPHASW D HRMN SECON CODA AMPLIT PERI AZIMU VELO AIN AR TRES W  DIS CAZ7
 KOLO     P   0 ? 2045 33.87                             151   -0.0910 4.62  664
 KOLO     S   0   2045 36.19                             151    0.2110 4.62  664
 DLRM     P   0 ? 2045 34.86                             118   -0.0810 12.4 2524
 DLRM     S   0   2045 37.85                             118    0.0810 12.4 2524
 JNAK     P   0 ? 2045 35.55                             111    0.1210 15.5 3084
 JNAK     S   0   2045 38.39                             111   -0.2510 15.5 3084
 KHIA     P   0 ? 2045 36.06                             106   -0.0110 19.4 3514
 AHRM     P   0 ? 2045 36.15                             105   -0.1110 20.5  284
 ABAS     P   0 ? 2045 36.16                             105   -0.1410 20.7 1544
 TOLS     P   0 ? 2045 38.10                              68   -0.0310 31.9 3464
 P5       P   0 ? 2045 38.32                              68    0.0610 32.7 3414
 N6       P   0 ? 2045 39.28                              68    0.2410 37.5 3024
                                                                                
 2021  2 2 2219 20.5 L  29.279  51.325  7.5  SLT  9 0.1                        1
 GAP=297        0.36       1.2     1.7  2.3  0.3065E+00 -0.1611E+01  0.2768E+00E
 STAT SP IPHASW D HRMN SECON CODA AMPLIT PERI AZIMU VELO AIN AR TRES W  DIS CAZ7
 ABTL     P   0 ? 2219 26.57                              91   -0.0410 28.2 2264
 ABTL     S   0   2219 31.58                              91    0.0510 28.2 2264
 ABAD     P   0 ? 2219 26.56                              91   -0.1110 28.6 1954
 ABAD     S   0   2219 31.71                              91    0.0710 28.6 1954
 NOKA     P   0 ? 2219 27.14                              91    0.2110 30.1 2504
 NOKA     S   0   2219 31.90                              91   -0.2110 30.1 2504
 P9       P   0 ? 2219 27.25                              91   -0.0910 32.5 2014
 P9       S   0   2219 32.77                              91   -0.0810 32.5 2014
 TOLS     P   0 ? 2219 28.45                              91   -0.0110 38.9 2114
 TOLS     S   0   2219 35.04                              91    0.1710 38.9 2114
 KHIA     P   0 ? 2219 29.82                              68   -0.1210 47.5 1994
 KHIA     S   0   2219 37.57                              68    0.0110 47.5 1994
 JNAK     P   0 ? 2219 31.85                              68   -0.0510 59.8 2044
 N18      P   0 ? 2219 32.30                              68    0.1310 61.4 2324
 KOLO     P   0 ? 2219 32.54                              68    0.14 9 62.8 1884
 KOLO     S   0   2219 41.95                              68   -0.05 9 62.8 1884
                                                                                
