 2021  2 2 1614 49.3 L  28.997  51.005 13.4  SLT 26 0.1                        1
 GAP=145        0.25       0.6     0.4  0.7 -0.1096E+00  0.6052E-01 -0.7042E-01E
 STAT SP IPHASW D HRMN SECON CODA AMPLIT PERI AZIMU VELO AIN AR TRES W  DIS CAZ7
 P4       P   0 ? 1614 52.30                             152    0.0210 5.47 1284
 P4       S   0   1614 54.78                             152    0.0910 5.47 1284
 P3       P   0 ? 1614 52.32                             150   -0.0010 6.02 2084
 P3       S   0   1614 54.81                             150    0.0510 6.02 2084
 P5       P   0 ? 1614 52.59                             140    0.0610 8.28 1044
 P5       S   0   1614 55.12                             140   -0.0310 8.28 1044
 P2       P   0 ? 1614 52.61                             137    0.0010 9.01 2204
 P2       S   0   1614 55.26                             137   -0.0210 9.01 2204
 TOLS     P   0 ? 1614 52.86                             130   -0.0010 11.1 1004
 TOLS     S   0   1614 55.60                             130   -0.1410 11.1 1004
 P1       P   0 ? 1614 52.92                             127   -0.0310 11.9 2314
 P1       S   0   1614 55.95                             127    0.0410 11.9 2314
 N19      P   0 ? 1614 53.32                             120   -0.0110 14.6 2474
 N19      S   0   1614 56.49                             120   -0.1010 14.6 2474
 N16      P   0 ? 1614 53.42                             118    0.0210 15.2 2404
 N16      S   0   1614 56.74                             118    0.0310 15.2 2404
 ABTL     P   0 ? 1614 53.63                             117    0.1210 15.9  444
 N9       P   0 ? 1614 53.65                             115    0.0610 16.5 2274
 N9       S   0   1614 56.95                             115   -0.1110 16.5 2274
 N12      S   0   1614 57.24                             115    0.0910 16.8 2354
 N20      P   0 ? 1614 53.54                             115   -0.0910 16.8 2584
 N20      S   0   1614 57.18                             115    0.0510 16.8 2584
 N12      P   0 ? 1614 53.64                             115    0.0010 16.8 2354
 N15      P   0 ? 1614 53.68                             114    0.0210 17.0 2394
 N15      S   0   1614 57.00                             114   -0.1910 17.0 2394
 N18      P   0 ? 1614 53.92                             112    0.0710 18.2 2474
 N18      S   0   1614 57.55                             112    0.0210 18.2 2474
 N6       P   0 ? 1614 53.93                             112    0.0310 18.5 2254
 N6       S   0   1614 57.72                             112    0.1110 18.5 2254
 N14      P   0 ? 1614 53.94                             111    0.0410 18.6 2424
 N14      S   0   1614 57.38                             111   -0.2410 18.6 2424
 N10      P   0 ? 1614 53.90                             111   -0.0410 18.8 2324
 N10      S   0   1614 57.88                             111    0.1910 18.8 2324
 N17      P   0 ? 1614 53.94                             111   -0.0110 18.9 2514
 N17      S   0   1614 57.65                             111   -0.0610 18.9 2514
 P9       P   0 ? 1614 54.00                             110   -0.0610 19.6  874
 N7       P   0 ? 1614 54.10                             110    0.0310 19.7 2304
 N7       S   0   1614 57.95                             110    0.0310 19.7 2304
 CAMP     P   0 ? 1614 54.01                             109   -0.0810 19.9 2084
 CAMP     S   0   1614 57.86                             109   -0.1110 19.9 2084
 N11      P   0 ? 1614 54.20                             109    0.0510 20.2 2394
 N11      S   0   1614 58.00                             109   -0.0610 20.2 2394
 N5       P   0 ? 1614 54.21                             108   -0.0110 20.7 2144
 N5       S   0   1614 58.13                             108   -0.0610 20.7 2144
 N2       P   0 ? 1614 54.27                             108    0.0410 20.8 2124
 N2       S   0   1614 58.41                             108    0.1910 20.8 2124
 KHIA     P   0 ? 1614 54.16                             108   -0.1010 20.9 1314
 KHIA     S   0   1614 58.29                             108    0.0210 20.9 1314
 N4       P   0 ? 1614 54.33                             107    0.0210 21.3 2244
 N4       S   0   1614 58.40                             107    0.0410 21.3 2244
                                                                                
 2021  2 2 1615  7.9 L  28.977  51.017 13.3  SLT  5 0.0                        1
 GAP=152        0.26       1.5     1.1  1.7 -0.1371E+01  0.1093E+01 -0.1402E+01E
 STAT SP IPHASW D HRMN SECON CODA AMPLIT PERI AZIMU VELO AIN AR TRES W  DIS CAZ7
 P4       P   0 ? 1615 10.80                             163    0.0310 3.29 1104
 P4       S   0   1615 13.03                             163   -0.0310 3.29 1104
 TOLS     P   0 ? 1615 11.33                             134    0.0110 9.72  894
 TOLS     S   0   1615 14.07                             134    0.0110 9.72  894
 P1       P   0 ? 1615 11.57                             128    0.0110 11.7 2434
 P1       S   0   1615 14.44                             128   -0.0510 11.7 2434
 N12      P   0 ? 1615 12.25                             115   -0.0110 16.7 2434
 N12      S   0   1615 15.81                             115    0.0610 16.7 2434
 ABTL     P   0 ? 1615 12.19                             115   -0.0910 16.8  354
 ABTL     S   0   1615 15.84                             115    0.0510 16.8  354
                                                                                
 2021  2 2 1619 40.9 L  28.987  51.009 11.7  SLT  9 0.1                        1
 GAP=148        0.29       1.1     0.7  1.3 -0.4764E+00  0.2843E+00 -0.5025E+00E
 STAT SP IPHASW D HRMN SECON CODA AMPLIT PERI AZIMU VELO AIN AR TRES W  DIS CAZ7
 P4       P   0 ? 1619 43.52                             152    0.0110 4.53 1204
 P4       S   0   1619 45.79                             152    0.1310 4.53 1204
 P5       P   0 ? 1619 43.76                             136   -0.0510 7.69  974
 TOLS     P   0 ? 1619 44.18                             124    0.0110 10.6  954
 TOLS     S   0   1619 46.77                             124   -0.0910 10.6  954
 P1       P   0 ? 1619 44.30                             120   -0.0010 11.6 2364
 P1       S   0   1619 46.89                             120   -0.2010 11.6 2364
 N19      P   0 ? 1619 44.79                             110    0.0310 14.6 2524
 N19      S   0   1619 47.96                             110    0.0510 14.6 2524
 ABTL     P   0 ? 1619 44.98                             105   -0.0610 16.4  404
 ABTL     S   0   1619 48.47                             105    0.0410 16.4  404
 N15      P   0 ? 1619 45.09                             105    0.0010 16.8 2424
 N15      S   0   1619 48.60                             105    0.0910 16.8 2424
 P9       P   0 ? 1619 45.47                             100   -0.0210 19.3  844
 KHIA     P   0 ? 1619 45.65                              99    0.0710 19.9 1294
                                                                                
 2021  2 2 1618 55.3 L  28.703  51.176  6.5  SLT  6 0.0                        1
 GAP= 97        0.25       0.7     0.5  0.8 -0.1399E+00  0.2049E+00 -0.3515E+00E
 STAT SP IPHASW D HRMN SECON CODA AMPLIT PERI AZIMU VELO AIN AR TRES W  DIS CAZ7
 KOLO     P   0 ? 1618 57.57                             122    0.0610 6.59  764
 KOLO     S   0   1618 59.31                             122   -0.0210 6.59  764
 DLRM     P   0 ? 1618 58.22                             104   -0.0110 10.5 2474
 DLRM     S   0   1619  0.63                             104   -0.0110 10.5 2474
 JNAK     P   0 ? 1618 58.85                              59    0.0110 13.7 3134
 JNAK     S   0   1619  1.79                              59    0.0410 13.7 3134
 KHIA     P   0 ? 1618 59.72                              59   -0.0410 18.9 3574
 KHIA     S   0   1619  3.38                              59   -0.0210 18.9 3574
 AHRM     P   0 ? 1619  0.19                              59    0.0010 21.3  334
 ABAS     P   0 ? 1619  0.29                              59   -0.0010 22.0 1494
                                                                                
 2021  2 2 0017 52.7 L  29.003  51.254 10.2  SLT 22 0.1                        1
 GAP=171        0.27       0.5     0.6  0.5  0.3243E-01  0.1189E+00  0.5971E-01E
 STAT SP IPHASW D HRMN SECON CODA AMPLIT PERI AZIMU VELO AIN AR TRES W  DIS CAZ7
 ABAD     P   0 ? 0017 55.04                             160    0.0310 2.93 3554
 ABAD     S   0   0017 56.98                             160    0.0710 2.93 3554
 P9       P   0 ? 0017 55.14                             149    0.0010 4.67 2734
 P9       S   0   0017 57.08                             149   -0.0510 4.67 2734
 TOLS     P   0 ? 0017 56.37                             114    0.0510 13.6 2594
 TOLS     S   0   0017 59.37                             114    0.0910 13.6 2594
 AHRM     P   0 ? 0017 56.65                             110   -0.0510 15.9 1654
 KHIA     P   0 ? 0017 56.83                             108   -0.0110 16.7 2114
 KHIA     S   0   0018  0.22                             108    0.0110 16.7 2114
 ABTL     P   0 ? 0017 56.87                             107   -0.0510 17.2 3094
 ABTL     S   0   0018  0.33                             107   -0.0310 17.2 3094
 P4       P   0 ? 0017 57.41                             104   -0.0210 20.3 2594
 P4       S   0   0018  1.21                             104   -0.0810 20.3 2594
 P3       P   0 ? 0017 58.68                              99   -0.0110 27.7 2584
 P3       S   0   0018  3.41                              99   -0.1610 27.7 2584
 NOKA     P   0 ? 0017 59.05                              68    0.0710 29.5 3144
 NOKA     S   0   0018  3.92                              68   -0.1810 29.5 3144
 JNAK     P   0 ? 0017 59.04                              68    0.0310 29.7 2164
 JNAK     S   0   0018  3.93                              68   -0.2210 29.7 2164
 P2       P   0 ? 0017 59.21                              68   -0.0110 31.0 2564
 P2       S   0   0018  4.51                              68   -0.0210 31.0 2564
 KOLO     P   0 ? 0017 59.19                              68   -0.1510 31.7 1824
 SHIF     P   0 ? 0018  0.34                              68    0.0310 37.7 2814
 SHIF     S   0   0018  6.38                              68   -0.1110 37.7 2814
 CAMP     P   0 ? 0018  0.48                              68    0.0810 38.3 2424
 N2       P   0 ? 0018  0.69                              68    0.0710 39.7 2434
 N1       P   0 ? 0018  0.74                              68    0.0710 40.0 2404
 N1       S   0   0018  7.21                              68    0.0610 40.0 2404
 N5       P   0 ? 0018  0.69                              68    0.0010 40.1 2444
 N5       S   0   0018  7.12                              68   -0.0610 40.1 2444
 N10      P   0 ? 0018  0.86                              68    0.0210 41.0 2534
 N10      S   0   0018  7.60                              68    0.1410 41.0 2534
 N3       P   0 ? 0018  0.87                              68   -0.0110 41.2 2444
 N3       S   0   0018  7.59                              68    0.0710 41.2 2444
 N14      P   0 ? 0018  1.05                              68    0.0910 41.8 2574
 N14      S   0   0018  7.54                              68   -0.1410 41.8 2574
 N17      P   0 ? 0018  1.11                              68   -0.0010 42.7 2614
 N17      S   0   0018  8.03                              68    0.0810 42.7 2614
 N13      P   0 ? 0018  1.38                              68    0.1110 43.7 2564
 N13      S   0   0018  8.44                              68    0.2010 43.7 2564
                                                                                
 2021  2 2 0107 51.0 L  29.003  51.254 10.5  SLT 13 0.1                        1
 GAP=172        0.26       0.6     0.7  0.6  0.6450E-01  0.1809E-01  0.2104E+00E
 STAT SP IPHASW D HRMN SECON CODA AMPLIT PERI AZIMU VELO AIN AR TRES W  DIS CAZ7
 ABAD     P   0 ? 0107 53.32                             161   -0.0510 2.89 3544
 ABAD     S   0   0107 55.35                             161    0.0510 2.89 3544
 P9       P   0 ? 0107 53.45                             150   -0.0510 4.71 2734
 P9       S   0   0107 55.60                             150    0.0710 4.71 2734
 TOLS     P   0 ? 0107 54.71                             115    0.0410 13.6 2594
 TOLS     S   0   0107 57.72                             115    0.0810 13.6 2594
 AHRM     P   0 ? 0107 54.95                             111   -0.0910 15.9 1664
 P5       P   0 ? 0107 55.14                             110    0.0110 16.5 2614
 P5       S   0   0107 58.42                             110   -0.0610 16.5 2614
 KHIA     P   0 ? 0107 55.13                             109   -0.0510 16.8 2114
 KHIA     S   0   0107 58.50                             109   -0.0710 16.8 2114
 ABTL     P   0 ? 0107 55.21                             109   -0.0410 17.2 3094
 ABTL     S   0   0107 58.57                             109   -0.1310 17.2 3094
 P4       P   0 ? 0107 55.79                             105    0.0210 20.4 2594
 P4       S   0   0107 59.72                             105    0.0810 20.4 2594
 JNAK     P   0 ? 0107 57.42                              68    0.1010 29.8 2164
 JNAK     S   0   0108  2.32                              68   -0.1310 29.8 2164
 KOLO     P   0 ? 0107 57.68                              68    0.0310 31.7 1824
 N18      P   0 ? 0107 59.37                              68    0.0910 41.9 2594
 N4       P   0 ? 0107 59.32                              68   -0.0110 42.2 2484
 ABAS     P   0 ? 0108  1.07                              68    0.1010 52.3 1764
                                                                                
 2021  2 2 1025 25.2 L  28.982  51.346  6.3  SLT  7 0.1                        1
 GAP=290        0.29       0.9     1.3  1.1  0.2792E+00  0.8736E-01  0.5324E+00E
 STAT SP IPHASW D HRMN SECON CODA AMPLIT PERI AZIMU VELO AIN AR TRES W  DIS CAZ7
 ABAD     P   0 ? 1025 28.24                             101   -0.0210 10.7 2994
 ABAD     S   0   1025 30.69                             101   -0.0010 10.7 2994
 P9       P   0 ? 1025 28.83                              59   -0.0710 13.9 2814
 P9       S   0   1025 31.99                              59    0.1310 13.9 2814
 KHIA     P   0 ? 1025 30.23                              59    0.0410 21.3 2364
 KHIA     S   0   1025 34.29                              59    0.1010 21.3 2364
 ABTL     P   0 ? 1025 31.02                              59    0.0210 26.0 3014
 ABTL     S   0   1025 35.69                              59    0.0310 26.0 3014
 P4       P   0 ? 1025 31.56                              59    0.0410 29.0 2674
 P4       S   0   1025 36.41                              59   -0.2010 29.0 2674
 JNAK     P   0 ? 1025 32.40                              59   -0.0410 34.3 2314
 JNAK     S   0   1025 38.24                              59   -0.0310 34.3 2314
 P3       P   0 ? 1025 32.79                              59    0.0010 36.3 2644
                                                                                
 2021  2 2 2045 31.4 L  28.699  51.199 10.3  SLT  9 0.1                        1
 GAP= 98        0.32       0.9     0.8  1.0 -0.5580E-01  0.1844E+00 -0.2707E+00E
 STAT SP IPHASW D HRMN SECON CODA AMPLIT PERI AZIMU VELO AIN AR TRES W  DIS CAZ7
 KOLO     P   0 ? 2045 33.83                             150   -0.0110 4.59  644
 KOLO     S   0   2045 35.95                             150    0.1110 4.59  644
 DLRM     P   0 ? 2045 34.83                             117   -0.0210 12.5 2534
 DLRM     S   0   2045 37.70                             117    0.0310 12.5 2534
 JNAK     P   0 ? 2045 35.44                             110    0.0810 15.7 3094
 JNAK     S   0   2045 38.44                             110   -0.1610 15.7 3094
 KHIA     P   0 ? 2045 35.99                             105   -0.0210 19.6 3514
 ABAS     P   0 ? 2045 36.07                             104   -0.1010 20.5 1544
 AHRM     P   0 ? 2045 36.11                             104   -0.0810 20.6  274
 TOLS     P   0 ? 2045 38.08                              68   -0.0210 32.1 3464
 P5       P   0 ? 2045 38.26                              68    0.0310 32.9 3414
 N6       P   0 ? 2045 39.17                              68    0.1710 37.7 3024
                                                                                
 2021  2 2 2219 20.6 L  29.264  51.319  5.5  SLT  9 0.1                        1
 GAP=294        0.27       2.6     2.4  2.9  0.5548E+01  0.6370E+01  0.7221E+01E
 STAT SP IPHASW D HRMN SECON CODA AMPLIT PERI AZIMU VELO AIN AR TRES W  DIS CAZ7
 ABTL     P   0 ? 2219 26.53                              43   -0.0110 26.6 2274
 ABTL     S   0   2219 31.42                              43    0.0610 26.6 2274
 ABAD     P   0 ? 2219 26.50                              43   -0.0710 26.8 1944
 ABAD     S   0   2219 31.43                              43    0.0110 26.8 1944
 NOKA     P   0 ? 2219 27.02                              43    0.0810 29.0 2534
 NOKA     S   0   2219 31.95                              43   -0.1310 29.0 2534
 P9       P   0 ? 2219 27.18                              43   -0.0610 30.7 2014
 P9       S   0   2219 32.58                              43   -0.0410 30.7 2014
 TOLS     P   0 ? 2219 28.36                              43   -0.0010 37.1 2124
 TOLS     S   0   2219 34.76                              43    0.1010 37.1 2124
 KHIA     P   0 ? 2219 29.77                              43   -0.1010 45.7 1994
 KHIA     S   0   2219 37.34                              43   -0.0410 45.7 1994
 JNAK     P   0 ? 2219 31.89                              40    0.0010 58.0 2044
 N18      P   0 ? 2219 32.31                              40    0.1110 59.9 2324
 KOLO     P   0 ? 2219 32.47                              40    0.0810 61.0 1874
 KOLO     S   0   2219 41.96                              40    0.0210 61.0 1874
                                                                                
