 2021  2 2 1550 48.6 L  28.817  50.855  7.4  SLT  8 0.1                        1
 GAP=276        0.29       1.1     1.6  1.4  0.8613E+00  0.1279E+01  0.1073E+00E
 STAT SP IPHASW D HRMN SECON CODA AMPLIT PERI AZIMU VELO AIN AR TRES W  DIS CAZ7
 N3       P   0 ? 1550 50.47                             150    0.0210 2.96  404
 N5       P   0 ? 1550 50.55                             139   -0.0210 4.11  454
 N5       S   0   1550 52.34                             139    0.1510 4.11  454
 N1       P   0 ? 1550 50.64                             137    0.0510 4.29  824
 N1       S   0   1550 52.00                             137   -0.2210 4.29  824
 N2       P   0 ? 1550 50.65                             137    0.0710 4.31  584
 N2       S   0   1550 52.30                             137    0.0910 4.31  584
 N4       P   0 ? 1550 50.62                             135   -0.0010 4.59 3584
 N4       S   0   1550 52.21                             135   -0.0710 4.59 3584
 CAMP     P   0 ? 1550 50.76                             125   -0.0110 5.70  644
 CAMP     S   0   1550 52.53                             125   -0.0210 5.70  644
 N6       P   0 ? 1550 50.95                             115   -0.0210 6.97  134
 N6       S   0   1550 52.92                             115    0.0110 6.97  134
 N15      P   0 ? 1550 51.67                              96    0.0110 11.1   04
 N15      S   0   1550 54.13                              96   -0.0410 11.1   04
                                                                                
 2021  2 2 1642 55.2 L  28.824  50.848  7.6  SLT 10 0.1                        1
 GAP=254        0.24       0.7     1.1  1.0  0.4645E+00  0.5606E+00  0.7322E-01E
 STAT SP IPHASW D HRMN SECON CODA AMPLIT PERI AZIMU VELO AIN AR TRES W  DIS CAZ7
 N3       P   0 ? 1642 57.13                             151   -0.0210 2.95  614
 N3       S   0   1642 58.74                             151    0.0510 2.95  614
 N4       P   0 ? 1642 57.20                             143   -0.0310 3.78   84
 N4       S   0   1642 58.71                             143   -0.1210 3.78   84
 N5       P   0 ? 1642 57.29                             140    0.0210 4.12  604
 N5       S   0   1642 58.96                             140    0.0510 4.12  604
 N2       P   0 ? 1642 57.26                             136   -0.0510 4.57  724
 N2       S   0   1642 59.10                             136    0.1110 4.57  724
 N1       P   0 ? 1642 57.31                             133   -0.0510 4.94  934
 N1       S   0   1642 59.10                             133    0.0210 4.94  934
 CAMP     P   0 ? 1642 57.42                             125   -0.0910 6.03  744
 CAMP     S   0   1642 59.35                             125    0.0110 6.03  744
 N6       P   0 ? 1642 57.54                             123   -0.0210 6.35  204
 N6       S   0   1642 59.40                             123   -0.0410 6.35  204
 N10      P   0 ? 1642 57.77                             114    0.0210 7.62   34
 N10      S   0   1642 59.78                             114   -0.0110 7.62   34
 N9       P   0 ? 1642 57.97                             109    0.0810 8.46  224
 N9       S   0   1642 59.94                             109   -0.0910 8.46  224
 N11      P   0 ? 1642 58.03                             106    0.0610 8.97 3474
 N11      S   0   1643  0.28                             106    0.0910 8.97 3474
                                                                                
 2021  2 2 1654 51.7 L  28.829  50.866  8.0  SLT 12 0.1                        1
 GAP=236        0.25       0.8     1.1  0.6  0.4979E+00 -0.1028E+00 -0.1211E+00E
 STAT SP IPHASW D HRMN SECON CODA AMPLIT PERI AZIMU VELO AIN AR TRES W  DIS CAZ7
 N3       P   0 ? 1654 53.53                             168   -0.0310 1.22  444
 N3       S   0   1654 55.07                             168   -0.0010 1.22  444
 N5       P   0 ? 1654 53.58                             158   -0.0410 2.39  504
 N5       S   0   1654 55.31                             158    0.1210 2.39  504
 N2       P   0 ? 1654 53.68                             154    0.0410 2.75  724
 N2       S   0   1654 55.31                             154    0.0910 2.75  724
 N1       P   0 ? 1654 53.69                             150   -0.0010 3.29 1044
 N1       S   0   1654 55.23                             150   -0.0810 3.29 1044
 N4       P   0 ? 1654 53.65                             149   -0.0510 3.41 3404
 N4       S   0   1654 55.34                             149    0.0110 3.41 3404
 CAMP     P   0 ? 1654 53.76                             142   -0.0210 4.22  754
 CAMP     S   0   1654 55.45                             142   -0.0210 4.22  754
 N6       P   0 ? 1654 53.91                             133   -0.0210 5.43   54
 N6       S   0   1654 55.64                             133   -0.1010 5.43   54
 N10      P   0 ? 1654 54.17                             121   -0.0110 7.21 3494
 N10      S   0   1654 56.22                             121    0.0410 7.21 3494
 N9       P   0 ? 1654 54.32                             120    0.1110 7.44  114
 N9       S   0   1654 56.13                             120   -0.1110 7.44  114
 P2       P   0 ? 1654 55.40                              98    0.1010 14.0  334
 P3       P   0 ? 1654 55.87                              96    0.0510 17.1  394
 KHIA     P   0 ? 1654 57.93                              93   -0.0910 29.6  804
                                                                                
 2021  2 2 1714 27.7 L  29.233  51.315  2.6  SLT 13 0.1                        1
 GAP=296        0.27       2.7     3.1  3.2  0.7766E+01  0.9464E+01  0.8327E+01E
 STAT SP IPHASW D HRMN SECON CODA AMPLIT PERI AZIMU VELO AIN AR TRES W  DIS CAZ7
 ABAD     P   0 ? 1714 33.56                              43   -0.0510 23.5 1954
 ABAD     S   0   1714 38.46                              43    0.0410 23.5 1954
 ABTL     P   0 ? 1714 33.73                              43   -0.0110 24.2 2334
 ABTL     S   0   1714 38.78                              43    0.1310 24.2 2334
 P9       P   0 ? 1714 34.27                              43   -0.0310 27.4 2034
 P9       S   0   1714 39.57                              43   -0.0910 27.4 2034
 NOKA     P   0 ? 1714 34.31                              43   -0.0510 27.8 2594
 NOKA     S   0   1714 39.67                              43   -0.1110 27.8 2594
 TOLS     P   0 ? 1714 35.50                              43    0.0410 34.2 2144
 TOLS     S   0   1714 41.76                              43   -0.0110 34.2 2144
 KHIA     P   0 ? 1714 36.85                              43   -0.0710 42.5 2004
 KHIA     S   0   1714 44.24                              43   -0.1610 42.5 2004
 SHIF     P   0 ? 1714 37.58                              43   -0.0510 46.6 2474
 SHIF     S   0   1714 45.68                              43   -0.0110 46.6 2474
 P2       P   0 ? 1714 38.06                              43    0.0410 48.9 2284
 N19      P   0 ? 1714 39.03                              40    0.1110 54.1 2344
 JNAK     P   0 ? 1714 39.08                              40    0.0510 54.8 2064
 N18      P   0 ? 1714 39.52                              40    0.0410 57.6 2354
 N18      S   0   1714 48.97                              40   -0.0810 57.6 2354
 N6       P   0 ? 1714 39.58                              40   -0.0510 58.5 2284
 N6       S   0   1714 49.49                              40    0.1810 58.5 2284
 DLRM     P   0 ? 1714 41.08                              40    0.06 9 67.1 2004
 DLRM     S   0   1714 51.92                              40    0.09 9 67.1 2004
                                                                                
 2021  2 2 1919 18.6 L  28.826  50.860  7.9  SLT 29 0.1                        1
 GAP=206        0.24       0.4     0.5  0.4  0.1152E+00 -0.2519E-01 -0.2510E-01E
 STAT SP IPHASW D HRMN SECON CODA AMPLIT PERI AZIMU VELO AIN AR TRES W  DIS CAZ7
 N3       P   0 ? 1919 20.49                             162    0.0210 1.84  514
 N3       S   0   1919 21.97                             162   -0.0210 1.84  514
 N5       P   0 ? 1919 20.55                             152   -0.0010 3.02  534
 N5       S   0   1919 22.08                             152   -0.0610 3.02  534
 N2       P   0 ? 1919 20.60                             148    0.0210 3.39  704
 N2       S   0   1919 22.13                             148   -0.0610 3.39  704
 N4       P   0 ? 1919 20.65                             147    0.0510 3.55 3504
 N4       S   0   1919 22.29                             147    0.0710 3.55 3504
 N1       P   0 ? 1919 20.65                             145    0.0210 3.80  974
 N1       S   0   1919 22.33                             145    0.0610 3.80  974
 CAMP     P   0 ? 1919 20.74                             136    0.0010 4.85  734
 CAMP     S   0   1919 22.42                             136   -0.0510 4.85  734
 N6       P   0 ? 1919 20.87                             129    0.0010 5.80  104
 N6       S   0   1919 22.83                             129    0.1210 5.80  104
 N10      P   0 ? 1919 21.12                             119    0.0210 7.42 3544
 N10      S   0   1919 23.14                             119    0.0110 7.42 3544
 N9       P   0 ? 1919 21.29                             116    0.1310 7.86  154
 N9       S   0   1919 23.08                             116   -0.1610 7.86  154
 N11      P   0 ? 1919 21.40                             110    0.0410 9.08 3394
 N11      S   0   1919 23.56                             110   -0.0410 9.08 3394
 N13      P   0 ? 1919 21.45                             107   -0.0310 9.79 3364
 N13      S   0   1919 23.87                             107    0.0610 9.79 3364
 N15      P   0 ? 1919 21.42                             106   -0.1010 10.0 3584
 N15      S   0   1919 23.63                             106   -0.2610 10.0 3584
 N14      P   0 ? 1919 21.61                             104    0.0110 10.5 3474
 N14      S   0   1919 24.20                             104    0.1610 10.5 3474
 N16      P   0 ? 1919 21.80                             102    0.0710 11.3   54
 N16      S   0   1919 24.18                             102   -0.0810 11.3   54
 N18      P   0 ? 1919 21.89                             100    0.0210 12.1 3474
 N18      S   0   1919 24.51                             100   -0.0110 12.1 3474
 P1       P   0 ? 1919 21.96                             100    0.0510 12.3  234
 P1       S   0   1919 24.54                             100   -0.0510 12.3  234
 N19      P   0 ? 1919 22.05                              99   -0.0210 13.2   24
 N19      S   0   1919 24.80                              99   -0.0810 13.2   24
 N17      P   0 ? 1919 22.01                              99   -0.0510 13.3 3434
 P2       P   0 ? 1919 22.27                              97   -0.0210 14.6  344
 P2       S   0   1919 25.27                              97   -0.0210 14.6  344
 N20      P   0 ? 1919 22.50                              96    0.0310 15.6 3514
 N20      S   0   1919 25.66                              96    0.0410 15.6 3514
 P3       P   0 ? 1919 22.78                              95   -0.0410 17.6  404
 P3       S   0   1919 26.49                              95    0.2410 17.6  404
 JNAK     P   0 ? 1919 23.46                              94    0.0210 21.2 1024
 JNAK     S   0   1919 27.36                              94   -0.0010 21.2 1024
 P4       P   0 ? 1919 23.96                              93    0.0210 24.1  504
 DLRM     P   0 ? 1919 24.44                              93   -0.1310 27.7 1304
 TOLS     P   0 ? 1919 25.04                              92    0.0310 30.2  564
 KHIA     P   0 ? 1919 25.06                              92    0.0410 30.3  804
 KHIA     S   0   1919 30.27                              92    0.0410 30.3  804
 P9       P   0 ? 1919 26.52                              92   -0.0310 39.1  604
 KOLO     P   0 ? 1919 26.51                              92   -0.0410 39.1 1084
 ABTL     P   0 ? 1919 26.56                              92   -0.0510 39.4  394
                                                                                
 2021  2 2 2330 25.9 L  29.078  51.387  5.7  SLT 32 0.1                        1
 GAP=270        0.23       0.6     0.9  1.1  0.2668E+00  0.8605E+00  0.3900E+00E
 STAT SP IPHASW D HRMN SECON CODA AMPLIT PERI AZIMU VELO AIN AR TRES W  DIS CAZ7
 ABAD     P   0 ? 2330 29.73                              91    0.1010 14.3 2484
 P9       P   0 ? 2330 30.56                              59   -0.0110 19.3 2454
 P9       S   0   2330 34.30                              59   -0.0410 19.3 2454
 ABTL     P   0 ? 2330 31.85                              59    0.0610 26.4 2764
 ABTL     S   0   2330 36.61                              59    0.0510 26.4 2764
 TOLS     P   0 ? 2330 32.16                              59    0.0110 28.4 2474
 TOLS     S   0   2330 37.15                              59   -0.0510 28.4 2474
 P5       S   0   2330 38.12                              59    0.0710 31.2 2504
 KHIA     S   0   2330 38.16                              59    0.0710 31.2 2244
 P5       P   0 ? 2330 32.61                              59   -0.0110 31.2 2504
 KHIA     P   0 ? 2330 32.63                              59   -0.0110 31.2 2244
 P4       P   0 ? 2330 33.30                              59   -0.0010 35.1 2504
 P4       S   0   2330 39.13                              59   -0.1610 35.1 2504
 NOKA     P   0 ? 2330 33.52                              59   -0.0010 36.4 2894
 NOKA     S   0   2330 39.65                              59   -0.0410 36.4 2894
 KOLO     P   0 ? 2330 34.57                              59   -0.0110 42.4 2004
 KOLO     S   0   2330 41.52                              59   -0.0810 42.4 2004
 P3       P   0 ? 2330 34.65                              59    0.0710 42.5 2504
 P3       S   0   2330 41.36                              59   -0.2510 42.5 2504
 JNAK     P   0 ? 2330 34.88                              59   -0.0410 44.4 2244
 JNAK     S   0   2330 42.34                              59    0.1210 44.4 2244
 P2       P   0 ? 2330 35.06                              59   -0.1110 45.8 2504
 P2       S   0   2330 42.57                              59   -0.1010 45.8 2504
 P1       P   0 ? 2330 35.76                              59   -0.0010 49.3 2514
 P1       S   0   2330 43.73                              59   -0.0210 49.3 2514
 SHIF     P   0 ? 2330 35.91                              59    0.0310 49.9 2694
 N19      P   0 ? 2330 36.38                              53    0.0310 52.8 2544
 N19      S   0   2330 44.71                              53   -0.0910 52.8 2544
 N9       P   0 ? 2330 36.45                              53    0.0310 53.3 2484
 N9       S   0   2330 44.85                              53   -0.0910 53.3 2484
 CAMP     P   0 ? 2330 36.43                              53   -0.0510 53.6 2414
 CAMP     S   0   2330 44.97                              53   -0.0710 53.6 2414
 N15      P   0 ? 2330 36.61                              53   -0.0410 54.7 2514
 N15      S   0   2330 45.58                              53    0.2210 54.7 2514
 DLRM     P   0 ? 2330 36.59                              53   -0.0810 54.8 2144
 DLRM     S   0   2330 45.37                              53   -0.0210 54.8 2144
 N6       P   0 ? 2330 36.73                              53    0.0410 54.9 2464
 N6       S   0   2330 45.48                              53    0.0610 54.9 2464
 N2       S   0   2330 45.52                              53    0.0810 55.0 2414
 N20      S   0   2330 45.39                              53   -0.0710 55.0 2574
 N2       P   0 ? 2330 36.63                              53   -0.0710 55.0 2414
 N20      P   0 ? 2330 36.76                              53    0.0510 55.0 2574
 N1       P   0 ? 2330 36.76                              53    0.0010 55.3 2394
 N1       S   0   2330 45.66                              53    0.1210 55.3 2394
 N5       P   0 ? 2330 36.71                              53   -0.0510 55.4 2424
 N5       S   0   2330 45.70                              53    0.1410 55.4 2424
 N10      P   0 ? 2330 36.92                              53    0.0610 56.0 2494
 N10      S   0   2330 45.72                              53   -0.0110 56.0 2494
 N18      S   0   2330 45.80                              53   -0.0410 56.4 2544
 N14      P   0 ? 2330 36.96                              53    0.0210 56.4 2524
 N14      S   0   2330 45.87                              53   -0.0110 56.4 2524
 N18      P   0 ? 2330 36.96                              53    0.0410 56.4 2544
 N3       P   0 ? 2330 36.94                              53   -0.0110 56.5 2424
 N3       S   0   2330 45.84                              53   -0.0510 56.5 2424
 N17      P   0 ? 2330 37.03                              53   -0.0210 57.1 2554
 N17      S   0   2330 46.02                              53   -0.0510 57.1 2554
 N4       P   0 ? 2330 37.06                              53   -0.0210 57.3 2454
 N4       S   0   2330 46.31                              53    0.1910 57.3 2454
 N11      P   0 ? 2330 37.12                              53   -0.0510 57.9 2514
 N11      S   0   2330 46.39                              53    0.1110 57.9 2514
 N13      P   0 ? 2330 37.30                              53    0.0410 58.4 2514
 N13      S   0   2330 46.46                              53    0.0110 58.4 2514
                                                                                
 2021  3 3 0020 41.7 L  28.830  50.866  7.7  SLT  6 0.1                        1
 GAP=235        0.28       2.5     1.9  1.5  0.3397E+01  0.1353E+01  0.1781E+01E
 STAT SP IPHASW D HRMN SECON CODA AMPLIT PERI AZIMU VELO AIN AR TRES W  DIS CAZ7
 N3       P   0 ? 0020 43.53                             168   -0.0310 1.19  474
 N3       S   0   0020 44.92                             168   -0.1210 1.19  474
 N5       P   0 ? 0020 43.60                             157   -0.0310 2.37  514
 N5       S   0   0020 45.18                             157    0.0210 2.37  514
 N2       P   0 ? 0020 43.66                             153    0.0110 2.75  734
 N2       S   0   0020 45.33                             153    0.1410 2.75  734
 N1       P   0 ? 0020 43.74                             148    0.0310 3.32 1054
 N1       S   0   0020 45.32                             148    0.0310 3.32 1054
 N4       P   0 ? 0020 43.68                             148   -0.0310 3.36 3394
 N4       S   0   0020 45.35                             148    0.0510 3.36 3394
 CAMP     P   0 ? 0020 43.83                             140    0.0410 4.22  764
 CAMP     S   0   0020 45.33                             140   -0.1210 4.22  764
                                                                                
