 2021  2 2 0357 10.5 L  28.962  50.930 10.5  SLT 18 0.1                        1
 GAP=109        0.24       0.5     0.5  0.6 -0.5383E-01 -0.3638E-02 -0.9184E-01E
 STAT SP IPHASW D HRMN SECON CODA AMPLIT PERI AZIMU VELO AIN AR TRES W  DIS CAZ7
 P2       P   0 ? 0357 12.97                             158    0.0310 3.33 1544
 P2       S   0   0357 14.84                             158   -0.0410 3.33 1544
 P1       P   0 ? 0357 13.00                             153    0.0010 4.15 2084
 P1       S   0   0357 15.11                             153    0.1210 4.15 2084
 P3       P   0 ? 0357 13.11                             150    0.0610 4.71 1084
 P3       S   0   0357 14.96                             150   -0.1210 4.71 1084
 N19      P   0 ? 0357 13.23                             141    0.0010 6.49 2544
 N19      S   0   0357 15.49                             141    0.0910 6.49 2544
 N16      P   0 ? 0357 13.31                             138    0.0310 6.96 2374
 N16      S   0   0357 15.51                             138    0.0210 6.96 2374
 N15      P   0 ? 0357 13.49                             130   -0.0210 8.77 2354
 N15      S   0   0357 15.78                             130   -0.1210 8.77 2354
 N9       P   0 ? 0357 13.57                             130    0.0610 8.83 2134
 N9       S   0   0357 15.99                             130    0.0810 8.83 2134
 N20      P   0 ? 0357 13.52                             129   -0.0410 9.17 2734
 N20      S   0   0357 16.03                             129    0.0410 9.17 2734
 N18      P   0 ? 0357 13.79                             125    0.1110 10.1 2514
 N18      S   0   0357 16.21                             125   -0.0110 10.1 2514
 N14      P   0 ? 0357 13.80                             125    0.0810 10.3 2434
 N14      S   0   0357 16.24                             125   -0.0610 10.3 2434
 N6       S   0   0357 16.41                             123   -0.0510 10.9 2124
 N17      S   0   0357 16.32                             123   -0.1110 10.9 2584
 N6       P   0 ? 0357 13.75                             123   -0.0610 10.9 2124
 N17      P   0 ? 0357 13.80                             123    0.0010 10.9 2584
 N7       P   0 ? 0357 13.98                             120    0.0510 11.7 2214
 N7       S   0   0357 16.56                             120   -0.1210 11.7 2214
 N11      P   0 ? 0357 14.05                             119    0.0910 12.0 2374
 N11      S   0   0357 16.76                             119    0.0310 12.0 2374
 N13      P   0 ? 0357 14.09                             118    0.0610 12.4 2414
 N13      S   0   0357 16.72                             118   -0.1310 12.4 2414
 N4       P   0 ? 0357 14.30                             115    0.0710 13.7 2134
 N4       S   0   0357 17.26                             115    0.0510 13.7 2134
 CAMP     P   0 ? 0357 14.26                             115    0.0210 13.8 1894
 CAMP     S   0   0357 17.17                             115   -0.0710 13.8 1894
 NOKA     P   0 ? 0357 16.28                              68   -0.1210 26.8  224
                                                                                
 2021  2 2 0623  1.4 L  29.045  51.366  7.5  SLT  7 0.1                        1
 GAP=289        0.31       1.2     4.2  6.2  0.2968E+01  0.2445E+02  0.4526E+01E
 STAT SP IPHASW D HRMN SECON CODA AMPLIT PERI AZIMU VELO AIN AR TRES W  DIS CAZ7
 ABAD     P   0 ? 0623  4.52                              98   -0.0310 11.3 2614
 ABAD     S   0   0623  7.04                              98   -0.0510 11.3 2614
 P9       P   0 ? 0623  5.36                              93   -0.0310 16.2 2544
 P9       S   0   0623  8.78                              93    0.1710 16.2 2544
 TOLS     P   0 ? 0623  7.03                              92    0.0610 25.3 2534
 TOLS     S   0   0623 11.58                              92    0.1010 25.3 2534
 KHIA     P   0 ? 0623  7.31                              91   -0.0110 27.2 2264
 KHIA     S   0   0623 12.05                              91   -0.0510 27.2 2264
 P4       P   0 ? 0623  8.17                              91    0.0310 32.0 2544
 P4       S   0   0623 13.35                              91   -0.2410 32.0 2544
 NOKA     P   0 ? 0623  8.80                              91   -0.0110 35.9 2964
 NOKA     S   0   0623 14.81                              91    0.0210 35.9 2964
 JNAK     P   0 ? 0623  9.58                              91   -0.0110 40.4 2254
 JNAK     S   0   0623 16.27                              91    0.0510 40.4 2254
                                                                                
 2021  2 2 0030 58.2 L  28.903  51.341  3.5  SLT  9 0.1                        1
 GAP=232        0.29       0.5     0.9  0.5  0.1637E+00 -0.8278E-01  0.6356E-01E
 STAT SP IPHASW D HRMN SECON CODA AMPLIT PERI AZIMU VELO AIN AR TRES W  DIS CAZ7
 P9       P   0 ? 0031  2.60                             101   -0.0610 17.3 3114
 KHIA     P   0 ? 0031  2.67                             101    0.0110 17.3 2594
 KHIA     S   0   0031  6.31                             101    0.0210 17.3 2594
 P9       S   0   0031  6.23                             101   -0.0510 17.3 3114
 KOLO     P   0 ? 0031  3.88                              43    0.0510 22.8 2054
 KOLO     S   0   0031  8.14                              43   -0.2610 22.8 2054
 TOLS     P   0 ? 0031  3.93                              43   -0.0010 23.4 2914
 TOLS     S   0   0031  8.55                              43   -0.0410 23.4 2914
 P5       P   0 ? 0031  4.44                              43    0.0310 26.1 2894
 P5       S   0   0031  9.53                              43    0.0810 26.1 2894
 P4       P   0 ? 0031  4.96                              43   -0.0010 29.3 2844
 P4       S   0   0031 10.49                              43    0.0410 29.3 2844
 ABTL     P   0 ? 0031  5.20                              43   -0.0510 30.9 3154
 DLRM     P   0 ? 0031  6.34                              43    0.0710 36.8 2244
 DLRM     S   0   0031 12.89                              43    0.0710 36.8 2244
 ABAS     P   0 ? 0031  7.17                              43    0.1010 41.4 1874
                                                                                
 2021  2 2 0131  5.1 L  28.961  50.925 11.2  SLT 19 0.1                        1
 GAP=128        0.22       0.6     0.5  0.7 -0.7658E-01  0.5997E-01 -0.9145E-01E
 STAT SP IPHASW D HRMN SECON CODA AMPLIT PERI AZIMU VELO AIN AR TRES W  DIS CAZ7
 P2       P   0 ? 0131  7.59                             157   -0.0310 3.51 1464
 P2       S   0   0131  9.72                             157    0.0710 3.51 1464
 P1       P   0 ? 0131  7.61                             155   -0.0310 3.85 2024
 P1       S   0   0131  9.60                             155   -0.0910 3.85 2024
 P3       P   0 ? 0131  7.73                             147   -0.0110 5.17 1054
 P3       S   0   0131  9.90                             147    0.0210 5.17 1054
 N19      P   0 ? 0131  7.82                             143   -0.0010 5.98 2544
 N19      S   0   0131 10.08                             143    0.0510 5.98 2544
 N16      P   0 ? 0131  7.89                             140    0.0210 6.49 2354
 N16      S   0   0131 10.03                             140   -0.0810 6.49 2354
 N12      P   0 ? 0131  8.05                             131   -0.0310 8.29 2264
 N12      S   0   0131 10.61                             131    0.1310 8.29 2264
 N15      P   0 ? 0131  8.07                             131   -0.0110 8.31 2344
 N15      S   0   0131 10.57                             131    0.0810 8.31 2344
 N9       P   0 ? 0131  8.13                             130    0.0310 8.49 2104
 N9       S   0   0131 10.55                             130    0.0210 8.49 2104
 N20      P   0 ? 0131  8.22                             129    0.1010 8.67 2744
 N20      S   0   0131 10.52                             129   -0.0510 8.67 2744
 N18      P   0 ? 0131  8.31                             125    0.0710 9.57 2514
 N18      S   0   0131 10.72                             125   -0.0610 9.57 2514
 N14      P   0 ? 0131  8.29                             124    0.0110 9.84 2424
 N14      S   0   0131 10.80                             124   -0.0510 9.84 2424
 N10      S   0   0131 10.87                             121   -0.1110 10.4 2234
 N17      S   0   0131 11.01                             121    0.0410 10.4 2584
 N10      P   0 ? 0131  8.26                             121   -0.0910 10.4 2234
 N17      P   0 ? 0131  8.37                             121    0.0310 10.4 2584
 N6       P   0 ? 0131  8.45                             121    0.0610 10.6 2104
 N6       S   0   0131 10.93                             121   -0.1110 10.6 2104
 N7       P   0 ? 0131  8.54                             118    0.0510 11.3 2194
 N7       S   0   0131 11.27                             118    0.0310 11.3 2194
 N11      P   0 ? 0131  8.56                             117    0.0510 11.5 2364
 N11      S   0   0131 11.18                             117   -0.0910 11.5 2364
 N13      P   0 ? 0131  8.55                             115   -0.0210 11.9 2404
 N13      S   0   0131 11.49                             115    0.1110 11.9 2404
 SHIF     P   0 ? 0131  8.62                             112   -0.0910 12.9 3384
 N4       P   0 ? 0131  8.75                             110   -0.0310 13.4 2114
                                                                                
 2021  2 2 0810 54.9 L  28.828  51.322 11.9  SLT  7 0.1                        1
 GAP=263        0.31       0.7     1.7  1.8 -0.2631E+00 -0.1041E+01 -0.1504E+00E
 STAT SP IPHASW D HRMN SECON CODA AMPLIT PERI AZIMU VELO AIN AR TRES W  DIS CAZ7
 P9       P   0 ? 0811  0.03                              98   -0.0310 22.6 3304
 P9       S   0   0811  4.17                              98   -0.0710 22.6 3304
 JNAK     P   0 ? 0811  0.33                              96   -0.0610 24.7 2594
 JNAK     S   0   0811  4.93                              96    0.0810 24.7 2594
 TOLS     P   0 ? 0811  0.64                              95    0.0310 26.1 3104
 TOLS     S   0   0811  5.28                              95    0.0410 26.1 3104
 DLRM     P   0 ? 0811  1.24                              94    0.0010 30.0 2334
 DLRM     S   0   0811  6.34                              94   -0.0410 30.0 2334
 P4       P   0 ? 0811  1.39                              94    0.0310 30.8 3004
 P4       S   0   0811  6.36                              94   -0.2410 30.8 3004
 ABTL     P   0 ? 0811  2.29                              93    0.0410 36.2 3274
 ABTL     S   0   0811  8.30                              93    0.0910 36.2 3274
 N7       P   0 ? 0811  3.98                              92    0.1010 46.4 2774
                                                                                
 2021  2 2 0106  0.8 L  29.049  51.312  8.6  SLT  6 0.0                        1
 GAP=258        0.25       1.1     1.2  1.4  0.5853E+00 -0.5495E+00 -0.3111E+00E
 STAT SP IPHASW D HRMN SECON CODA AMPLIT PERI AZIMU VELO AIN AR TRES W  DIS CAZ7
 ABAD     P   0 ? 0106  3.29                             131    0.0310 6.37 2494
 ABAD     S   0   0106  5.22                             131   -0.0110 6.37 2494
 P9       P   0 ? 0106  3.99                             109   -0.0410 11.4 2454
 P9       S   0   0106  6.61                             109   -0.0110 11.4 2454
 ABTL     P   0 ? 0106  5.43                              97   -0.0310 19.8 2874
 ABTL     S   0   0106  9.25                              97    0.0410 19.8 2874
 TOLS     P   0 ? 0106  5.53                              97   -0.0410 20.5 2484
 TOLS     S   0   0106  9.44                              97    0.0210 20.5 2484
 AHRM     P   0 ? 0106  5.65                              97    0.0510 20.6 1854
 KHIA     P   0 ? 0106  6.18                              95   -0.0310 24.2 2164
                                                                                
 2021  2 2 0351  7.1 L  28.630  51.129  5.6  SLT  6 0.0                        1
 GAP=182        0.25       0.6     0.6  0.9  0.9213E-01 -0.2821E+00  0.8410E-01E
 STAT SP IPHASW D HRMN SECON CODA AMPLIT PERI AZIMU VELO AIN AR TRES W  DIS CAZ7
 DLRM     P   0 ? 0351  9.27                             110    0.0610 6.40 3074
 DLRM     S   0   0351 10.93                             110   -0.0110 6.40 3074
 KOLO     P   0 ? 0351 10.82                              91   -0.0310 14.5  494
 KOLO     S   0   0351 13.89                              91   -0.0110 14.5  494
 ABAS     P   0 ? 0351 11.69                              59   -0.0110 19.1 1254
 ABAS     S   0   0351 15.47                              59    0.0210 19.1 1254
 KHIA     P   0 ? 0351 13.08                              59   -0.0210 27.1   84
 KHIA     S   0   0351 18.01                              59    0.0410 27.1   84
 AHRM     P   0 ? 0351 13.71                              59    0.0210 30.5  324
 N12      P   0 ? 0351 15.32                              59   -0.0610 40.3 3204
                                                                                
 2021  2 2 1713 43.8 L  28.752  51.315 14.5  SLT  4 0.0                        1
 GAP=194        0.28       1.0     1.5  1.8 -0.4193E-01 -0.5452E+00  0.2735E+00E
 STAT SP IPHASW D HRMN SECON CODA AMPLIT PERI AZIMU VELO AIN AR TRES W  DIS CAZ7
 KOLO     P   0 ? 1713 47.13                             144    0.0110 8.16 2424
 KOLO     S   0   1713 49.86                             144    0.0210 8.16 2424
 AHRM     P   0 ? 1713 47.60                             129   -0.0310 12.6 3514
 ABAS     P   0 ? 1713 49.38                             108    0.0610 24.5 1864
 ABAS     S   0   1713 53.77                             108   -0.0510 24.5 1864
 DLRM     P   0 ? 1713 49.42                             107    0.0010 25.1 2484
 DLRM     S   0   1713 53.98                             107   -0.0110 25.1 2484
                                                                                
 2021  2 2 0202 32.4 L  28.966  51.127 11.3  SLT 18 0.1                        1
 GAP= 86        0.23       0.5     0.3  0.6 -0.5036E-01  0.6413E-01  0.3023E-01E
 STAT SP IPHASW D HRMN SECON CODA AMPLIT PERI AZIMU VELO AIN AR TRES W  DIS CAZ7
 TOLS     P   0 ? 0202 34.93                             169    0.0410 1.69 3264
 TOLS     S   0   0202 36.84                             169   -0.0410 1.69 3264
 P5       P   0 ? 0202 35.02                             154    0.0010 4.11 2904
 P5       S   0   0202 37.22                             154    0.1210 4.11 2904
 P4       P   0 ? 0202 35.40                             135    0.0610 7.57 2714
 P4       S   0   0202 37.56                             135   -0.1310 7.57 2714
 P9       P   0 ? 0202 35.49                             129   -0.0110 8.84  614
 P9       S   0   0202 38.04                             129    0.0610 8.84  614
 KHIA     P   0 ? 0202 35.79                             120   -0.0110 11.0 1604
 KHIA     S   0   0202 38.47                             120   -0.0410 11.0 1604
 ABAD     P   0 ? 0202 36.19                             109   -0.0410 14.0  604
 ABAD     S   0   0202 39.12                             109   -0.1810 14.0  604
 P3       P   0 ? 0202 36.33                             106   -0.0210 14.8 2634
 P3       S   0   0202 39.57                             106    0.0610 14.8 2634
 ABTL     P   0 ? 0202 36.40                             106    0.0210 14.9 3564
 ABTL     S   0   0202 39.58                             106    0.0110 14.9 3564
 P2       P   0 ? 0202 36.96                              97    0.1010 18.0 2594
 P2       S   0   0202 40.40                              97   -0.0310 18.0 2594
 AHRM     P   0 ? 0202 37.23                              94    0.0510 19.9 1254
 NOKA     P   0 ? 0202 38.16                              92    0.0310 26.0 3404
 N12      P   0 ? 0202 38.12                              92   -0.0810 26.4 2564
 N12      S   0   0202 42.82                              92   -0.0510 26.4 2564
 N6       P   0 ? 0202 38.31                              92    0.0410 26.8 2494
 N6       S   0   0202 42.92                              92   -0.0710 26.8 2494
 N15      P   0 ? 0202 38.38                              92    0.0910 26.9 2584
 N15      S   0   0202 42.96                              92   -0.0710 26.9 2584
 N18      P   0 ? 0202 38.69                              91    0.0710 28.9 2634
 N18      S   0   0202 43.50                              91   -0.1110 28.9 2634
 N4       P   0 ? 0202 38.72                              91    0.0710 29.2 2464
 N4       S   0   0202 43.73                              91    0.0510 29.2 2464
 N17      P   0 ? 0202 38.78                              91    0.0110 29.9 2654
 N17      S   0   0202 43.80                              91   -0.0910 29.9 2654
 N11      P   0 ? 0202 38.81                              91    0.0210 30.0 2574
 N11      S   0   0202 43.98                              91    0.0510 30.0 2574
                                                                                
 2021  2 2 0229 58.2 L  28.961  51.124 10.5  SLT 11 0.1                        1
 GAP= 98        0.23       0.5     0.5  0.6 -0.4795E-01  0.7810E-01 -0.8597E-02E
 STAT SP IPHASW D HRMN SECON CODA AMPLIT PERI AZIMU VELO AIN AR TRES W  DIS CAZ7
 TOLS     P   0 ? 0230  0.57                             166    0.0510 2.05 3424
 TOLS     S   0   0230  2.31                             166   -0.1010 2.05 3424
 P5       P   0 ? 0230  0.65                             154    0.0210 4.06 2994
 P4       P   0 ? 0230  1.01                             137    0.0610 7.29 2754
 P4       S   0   0230  3.25                             137    0.0510 7.29 2754
 P9       P   0 ? 0230  1.21                             128   -0.0210 9.38  594
 P9       S   0   0230  3.81                             128    0.1110 9.38  594
 KHIA     P   0 ? 0230  1.36                             124   -0.0510 10.6 1574
 KHIA     S   0   0230  4.00                             124   -0.0210 10.6 1574
 ABAD     P   0 ? 0230  1.95                             114   -0.0510 14.5  594
 ABAD     S   0   0230  5.13                             114    0.0310 14.5  594
 ABTL     P   0 ? 0230  2.15                             112   -0.0110 15.5 3584
 ABTL     S   0   0230  5.32                             112   -0.0610 15.5 3584
 P2       P   0 ? 0230  2.48                             108   -0.0210 17.6 2604
 N12      P   0 ? 0230  3.94                              68    0.0410 26.0 2574
 N6       P   0 ? 0230  3.95                              68   -0.0110 26.3 2494
 NOKA     P   0 ? 0230  3.95                              68   -0.0210 26.4 3414
                                                                                
