 2021  2 2 0658  2.0 L  29.035  51.458  1.7  SLT 14 0.1                        1
 GAP=274        0.34       1.1     1.1  0.8  0.2801E+00 -0.1639E+00  0.3585E+00E
 STAT SP IPHASW D HRMN SECON CODA AMPLIT PERI AZIMU VELO AIN AR TRES W  DIS CAZ7
 ABAD     P   0 ? 0658  7.04                              95   -0.0710 20.2 2684
 ABAD     S   0   0658 11.44                              95    0.1710 20.2 2684
 P9       P   0 ? 0658  8.11                              94   -0.1610 24.8 2624
 KHIA     P   0 ? 0658  9.85                              43    0.0010 33.7 2384
 KHIA     S   0   0658 16.15                              43   -0.0710 33.7 2384
 TOLS     P   0 ? 0658  9.80                              43   -0.0710 33.8 2604
 ABTL     P   0 ? 0658  9.92                              43    0.0110 34.0 2834
 ABTL     S   0   0658 16.43                              43    0.1010 34.0 2834
 P5       P   0 ? 0658 10.27                              43   -0.1010 36.7 2604
 P4       P   0 ? 0658 10.97                              43   -0.0710 40.6 2594
 KOLO     P   0 ? 0658 11.19                              43    0.0510 41.1 2114
 KOLO     S   0   0658 18.57                              43    0.0110 41.1 2114
 JNAK     P   0 ? 0658 12.28                              43    0.2010 46.5 2344
 JNAK     S   0   0658 20.15                              43   -0.1110 46.5 2344
 ABAS     P   0 ? 0658 14.20                              40    0.1510 58.1 1964
 N2       P   0 ? 0658 14.24                              40    0.0110 59.3 2484
 N5       P   0 ? 0658 14.12                              40   -0.1910 59.8 2494
 N15      P   0 ? 0658 14.40                              40    0.0310 60.1 2584
 N3       P   0 ? 0658 14.63                              40    0.1310 60.9 2494
                                                                                
 2021  2 2 1947  1.3 L  29.049  51.222 12.8  SLT 10 0.1                        1
 GAP=189        0.38       1.0     1.2  1.4  0.1379E+00  0.7006E+00  0.3899E+00E
 STAT SP IPHASW D HRMN SECON CODA AMPLIT PERI AZIMU VELO AIN AR TRES W  DIS CAZ7
 ABAD     P   0 ? 1947  4.16                             160    0.0410 3.60 1284
 ABAD     S   0   1947  6.55                             160    0.1710 3.60 1284
 P9       P   0 ? 1947  4.17                             153   -0.0510 5.12 1984
 P9       S   0   1947  6.26                             153   -0.2810 5.12 1984
 ABTL     P   0 ? 1947  4.90                             126   -0.0310 11.7 2994
 ABTL     S   0   1947  7.76                             126   -0.0710 11.7 2994
 TOLS     P   0 ? 1947  5.00                             122   -0.0710 12.8 2334
 TOLS     S   0   1947  8.32                             122    0.2410 12.8 2334
 P5       P   0 ? 1947  5.38                             116   -0.0310 15.2 2394
 P5       S   0   1947  8.83                             116    0.1310 15.2 2394
 P4       P   0 ? 1947  5.87                             108   -0.1210 19.1 2424
 P4       S   0   1947  9.84                             108    0.0910 19.1 2424
 KHIA     P   0 ? 1947  6.16                             106   -0.0110 20.2 1964
 KHIA     S   0   1947 10.05                             106   -0.0310 20.2 1964
 P3       P   0 ? 1947  7.11                              99   -0.0210 26.4 2454
 P3       S   0   1947 11.67                              99   -0.1410 26.4 2454
 P2       P   0 ? 1947  7.82                              97    0.1510 29.8 2454
 JNAK     P   0 ? 1947  8.23                              96    0.1310 32.5 2074
 JNAK     S   0   1947 13.44                              96   -0.1310 32.5 2074
                                                                                
 2021  2 2 2121 39.7 L  29.204  51.398  8.6  SLT 20 0.1                        1
 GAP=301        0.35       1.1     1.2  1.2 -0.2265E+00  0.1463E+00 -0.4001E-01E
 STAT SP IPHASW D HRMN SECON CODA AMPLIT PERI AZIMU VELO AIN AR TRES W  DIS CAZ7
 ABAD     P   0 ? 2121 45.03                              96   -0.0310 24.1 2164
 ABAD     S   0   2121 49.23                              96   -0.1710 24.1 2164
 P9       P   0 ? 2121 45.79                              94   -0.1010 28.9 2204
 P9       S   0   2121 51.16                              94    0.2610 28.9 2204
 ABTL     P   0 ? 2121 46.03                              94    0.0210 29.6 2474
 ABTL     S   0   2121 51.14                              94    0.0110 29.6 2474
 TOLS     P   0 ? 2121 47.23                              93   -0.0610 37.0 2284
 TOLS     S   0   2121 53.24                              93   -0.2010 37.0 2284
 AHRM     P   0 ? 2121 47.59                              93   -0.0610 39.0 1954
 P5       P   0 ? 2121 47.65                              93   -0.0210 39.2 2314
 P5       S   0   2121 54.34                              93    0.2110 39.2 2314
 P4       P   0 ? 2121 48.22                              68   -0.0510 42.9 2324
 P4       S   0   2121 55.37                              68    0.1510 42.9 2324
 KHIA     P   0 ? 2121 48.36                              68    0.0510 43.0 2124
 KHIA     S   0   2121 55.40                              68    0.1210 43.0 2124
 P3       P   0 ? 2121 49.59                              68    0.2010 49.8 2364
 P3       S   0   2121 57.21                              68   -0.0310 49.8 2364
 SHIF     P   0 ? 2121 50.00                              68    0.0810 53.1 2544
 SHIF     S   0   2121 58.04                              68   -0.1610 53.1 2544
 JNAK     P   0 ? 2121 50.41                              68    0.0310 56.0 2144
 JNAK     S   0   2121 59.00                              68   -0.0410 56.0 2144
 KOLO     P   0 ? 2121 50.24                              68   -0.1610 56.1 1964
 N18      P   0 ? 2121 51.48                              68    0.01 9 62.7 2424
 N18      S   0   2122  0.77                              68   -0.24 9 62.7 2424
 N2       P   0 ? 2121 51.76                              68    0.12 9 63.8 2314
 N5       P   0 ? 2121 51.76                              68    0.09 9 64.0 2314
 N1       P   0 ? 2121 51.82                              68    0.07 9 64.4 2294
 N11      P   0 ? 2121 51.73                              68   -0.08 9 64.8 2394
 N13      P   0 ? 2121 51.83                              68   -0.05 9 65.2 2404
 N4       P   0 ? 2121 51.80                              68   -0.10 9 65.4 2344
 N4       S   0   2122  1.89                              68    0.11 9 65.4 2344
 DLRM     P   0 ? 2121 52.34                              68    0.11 9 67.4 2084
 DLRM     S   0   2122  2.24                              68   -0.14 9 67.4 2084
                                                                                
 2021  2 2 0035 45.4 L  28.628  51.190  8.8  SLT  8 0.1                        1
 GAP=153        0.40       1.1     1.0  2.0 -0.8732E-01  0.1432E+00  0.1874E+00E
 STAT SP IPHASW D HRMN SECON CODA AMPLIT PERI AZIMU VELO AIN AR TRES W  DIS CAZ7
 KOLO     P   0 ? 0035 48.44                             112   -0.1410 11.0  274
 KOLO     S   0   0035 51.33                             112    0.2010 11.0  274
 DLRM     P   0 ? 0035 48.48                             109   -0.2210 11.8 2904
 DLRM     S   0   0035 51.45                             109    0.1010 11.8 2904
 ABAS     P   0 ? 0035 49.18                             104    0.0410 14.4 1374
 JNAK     P   0 ? 0035 50.22                              98   -0.0510 21.0 3274
 JNAK     S   0   0035 54.22                              98    0.0410 21.0 3274
 AHRM     P   0 ? 0035 51.60                              95    0.1010 28.1  214
 AHRM     S   0   0035 56.20                              95   -0.2210 28.1  214
 P9       P   0 ? 0035 53.91                              68    0.0810 41.8   24
 N9       P   0 ? 0035 53.87                              68   -0.0310 42.3 3144
 N10      P   0 ? 0035 54.31                              68    0.1010 44.2 3124
                                                                                
 2021  2 2 0628 35.5 L  28.824  50.857  8.7  SLT  8 0.2                        1
 GAP=262        0.48       1.8     2.9  2.0  0.2412E+01  0.2417E+01  0.5770E+00E
 STAT SP IPHASW D HRMN SECON CODA AMPLIT PERI AZIMU VELO AIN AR TRES W  DIS CAZ7
 N3       P   0 ? 0628 37.53                             161   -0.0210 2.25  514
 N3       S   0   0628 39.49                             161    0.2910 2.25  514
 N5       P   0 ? 0628 37.56                             152   -0.0810 3.43  534
 N5       S   0   0628 39.48                             152    0.1310 3.43  534
 N4       P   0 ? 0628 37.72                             149    0.0610 3.74 3564
 N4       S   0   0628 39.26                             149   -0.1310 3.74 3564
 N2       P   0 ? 0628 37.65                             149   -0.0110 3.79  684
 N2       S   0   0628 38.89                             149   -0.5010 3.79  684
 N1       P   0 ? 0628 37.76                             147    0.0610 4.11  944
 N1       S   0   0628 39.47                             147    0.0110 4.11  944
 CAMP     P   0 ? 0628 37.78                             139   -0.0310 5.24  724
 CAMP     S   0   0628 39.84                             139    0.1710 5.24  724
 N6       P   0 ? 0628 37.88                             133   -0.0510 6.10  134
 N6       S   0   0628 39.89                             133    0.0210 6.10  134
 N9       P   0 ? 0628 38.26                             122    0.0510 8.18  174
 N9       S   0   0628 40.40                             122    0.0210 8.18  174
                                                                                
 2021  2 2 1902 56.1 L  29.063  51.357  8.9  SLT 20 0.1                        1
 GAP=278        0.35       0.9     1.2  1.2  0.1042E+00 -0.4651E-01  0.4837E+00E
 STAT SP IPHASW D HRMN SECON CODA AMPLIT PERI AZIMU VELO AIN AR TRES W  DIS CAZ7
 ABAD     P   0 ? 1902 59.22                             113   -0.0410 10.9 2504
 P9       P   0 ? 1903  0.00                             102   -0.1010 16.0 2464
 ABTL     P   0 ? 1903  1.46                              97    0.0410 23.7 2804
 ABTL     S   0   1903  5.51                              97   -0.2010 23.7 2804
 TOLS     P   0 ? 1903  1.62                              96   -0.0410 25.1 2484
 TOLS     S   0   1903  6.44                              96    0.2910 25.1 2484
 P5       P   0 ? 1903  2.13                              95   -0.0010 27.8 2514
 P5       S   0   1903  7.12                              95    0.1110 27.8 2514
 KHIA     P   0 ? 1903  2.09                              95   -0.0910 28.1 2214
 KHIA     S   0   1903  6.92                              95   -0.1710 28.1 2214
 P4       P   0 ? 1903  2.77                              95   -0.0410 31.8 2514
 NOKA     P   0 ? 1903  3.22                              94   -0.0210 34.2 2944
 NOKA     S   0   1903  9.19                              94    0.1910 34.2 2944
 P3       P   0 ? 1903  4.26                              68    0.1910 39.2 2514
 JNAK     P   0 ? 1903  4.51                              68    0.1110 41.2 2224
 JNAK     S   0   1903 11.27                              68    0.1610 41.2 2224
 P2       P   0 ? 1903  4.61                              68   -0.0010 42.5 2514
 N6       P   0 ? 1903  5.86                              68   -0.2210 51.6 2474
 N2       P   0 ? 1903  6.10                              68    0.0210 51.7 2414
 DLRM     P   0 ? 1903  6.22                              68    0.1010 51.8 2124
 DLRM     S   0   1903 14.28                              68    0.0610 51.8 2124
 N1       P   0 ? 1903  6.21                              68    0.0710 52.0 2394
 N5       P   0 ? 1903  6.21                              68    0.0610 52.0 2424
 N5       S   0   1903 14.20                              68   -0.0710 52.0 2424
 N1       S   0   1903 14.24                              68   -0.0210 52.0 2394
 N18      P   0 ? 1903  6.24                              68   -0.0810 53.1 2544
 N18      S   0   1903 14.49                              68   -0.0910 53.1 2544
 N3       P   0 ? 1903  6.29                              68   -0.0410 53.2 2424
 N3       S   0   1903 14.41                              68   -0.2010 53.2 2424
 N4       P   0 ? 1903  6.37                              68   -0.0910 54.0 2454
 N11      P   0 ? 1903  6.62                              68    0.0710 54.6 2514
                                                                                
 2021  2 2 0550 40.9 L  29.051  51.347  5.3  SLT  9 0.1                        1
 GAP=286        0.40       1.0     2.3  1.0  0.7018E+00  0.1233E+01  0.2412E+00E
 STAT SP IPHASW D HRMN SECON CODA AMPLIT PERI AZIMU VELO AIN AR TRES W  DIS CAZ7
 ABAD     P   0 ? 0550 43.68                             118    0.0210 9.66 2554
 P9       P   0 ? 0550 44.63                              53   -0.0810 14.6 2504
 ABTL     P   0 ? 0550 46.23                              43   -0.0210 23.0 2844
 ABTL     S   0   0550 50.67                              43    0.0710 23.0 2844
 TOLS     P   0 ? 0550 46.33                              43   -0.0410 23.8 2504
 TOLS     S   0   0550 50.81                              43   -0.0110 23.8 2504
 KHIA     P   0 ? 0550 46.83                              43   -0.0210 26.5 2224
 KHIA     S   0   0550 51.35                              43   -0.3310 26.5 2224
 P5       P   0 ? 0550 46.85                              43   -0.0010 26.5 2524
 P4       P   0 ? 0550 47.49                              43   -0.0510 30.5 2524
 P4       S   0   0550 52.96                              43    0.0410 30.5 2524
 NOKA     P   0 ? 0550 48.05                              43   -0.0810 33.9 2964
 NOKA     S   0   0550 54.02                              43    0.0210 33.9 2964
 JNAK     P   0 ? 0550 49.38                              43    0.2510 39.6 2224
 JNAK     S   0   0550 56.04                              43    0.2410 39.6 2224
                                                                                
 2021  2 2 0149  7.6 L  28.830  50.863  7.3  SLT 10 0.1                        1
 GAP=232        0.43       1.2     1.8  1.4  0.1178E+01  0.8933E+00 -0.4032E+00E
 STAT SP IPHASW D HRMN SECON CODA AMPLIT PERI AZIMU VELO AIN AR TRES W  DIS CAZ7
 N3       P   0 ? 0149  9.29                             165   -0.0610 1.40  584
 N3       S   0   0149 10.81                             165    0.0410 1.40  584
 N5       P   0 ? 0149  9.31                             153   -0.1210 2.58  574
 N5       S   0   0149 10.54                             153   -0.3710 2.58  574
 N2       P   0 ? 0149  9.50                             148    0.0410 3.03  764
 N2       S   0   0149 11.06                             148    0.0910 3.03  764
 N4       P   0 ? 0149  9.41                             147   -0.0710 3.19 3444
 N4       S   0   0149 11.28                             147    0.2810 3.19 3444
 N1       P   0 ? 0149  9.49                             142   -0.0410 3.64 1054
 N1       S   0   0149 11.25                             142    0.1610 3.64 1054
 CAMP     P   0 ? 0149  9.51                             134   -0.1110 4.51  784
 CAMP     S   0   0149 11.41                             134    0.1510 4.51  784
 N6       P   0 ? 0149  9.68                             127   -0.0610 5.35   84
 N6       S   0   0149 11.39                             127   -0.0910 5.35   84
 N9       P   0 ? 0149 10.06                             110    0.0110 7.39  144
 N9       S   0   0149 11.99                             110   -0.0510 7.39  144
 N11      P   0 ? 0149 10.44                             100    0.1510 8.79 3374
 N11      S   0   0149 12.28                             100   -0.1810 8.79 3374
 N15      P   0 ? 0149 10.52                              97    0.0910 9.64 3564
 N15      S   0   0149 12.89                              97    0.1610 9.64 3564
                                                                                
 2021  2 2 1442 28.0 L  28.831  50.860  7.6  SLT 10 0.1                        1
 GAP=234        0.42       1.3     1.9  1.5  0.1487E+01  0.1189E+01 -0.1593E-01E
 STAT SP IPHASW D HRMN SECON CODA AMPLIT PERI AZIMU VELO AIN AR TRES W  DIS CAZ7
 N3       P   0 ? 1442 29.75                             164   -0.0810 1.60  644
 N3       S   0   1442 31.32                             164    0.0210 1.60  644
 N5       P   0 ? 1442 29.78                             152   -0.1310 2.78  614
 N5       S   0   1442 31.07                             152   -0.3710 2.78  614
 N4       P   0 ? 1442 29.95                             149    0.0210 3.09 3494
 N4       S   0   1442 31.56                             149    0.0810 3.09 3494
 N2       P   0 ? 1442 29.86                             148   -0.0810 3.28  784
 N2       S   0   1442 31.78                             148    0.2810 3.28  784
 N1       P   0 ? 1442 29.96                             142   -0.0510 3.91 1044
 N1       S   0   1442 31.78                             142    0.1510 3.91 1044
 CAMP     P   0 ? 1442 30.00                             135   -0.1110 4.76  794
 CAMP     S   0   1442 31.97                             135    0.1710 4.76  794
 N6       P   0 ? 1442 30.12                             130   -0.0710 5.35  114
 N6       S   0   1442 31.88                             130   -0.0710 5.35  114
 N10      P   0 ? 1442 30.42                             118   -0.0010 6.95 3534
 N10      S   0   1442 32.32                             118   -0.0510 6.95 3534
 N9       P   0 ? 1442 30.68                             115    0.1910 7.41  164
 N9       S   0   1442 32.39                             115   -0.1010 7.41  164
 N11      P   0 ? 1442 30.76                             108    0.0710 8.64 3384
 N11      S   0   1442 33.00                             108    0.1410 8.64 3384
                                                                                
 2021  2 2 1536 41.5 L  28.829  50.843  8.1  SLT  9 0.1                        1
 GAP=269        0.40       1.3     2.1  1.8  0.1491E+01  0.1737E+01  0.4739E+00E
 STAT SP IPHASW D HRMN SECON CODA AMPLIT PERI AZIMU VELO AIN AR TRES W  DIS CAZ7
 N3       P   0 ? 1536 43.45                             151   -0.0310 3.21  744
 N3       S   0   1536 45.35                             151    0.2510 3.21  744
 N4       P   0 ? 1536 43.64                             149    0.1510 3.38  184
 N4       S   0   1536 44.85                             149   -0.2810 3.38  184
 N5       P   0 ? 1536 43.48                             142   -0.1110 4.34  694
 N5       S   0   1536 45.27                             142   -0.0310 4.34  694
 N2       P   0 ? 1536 43.56                             137   -0.0910 4.92  804
 N2       S   0   1536 45.37                             137   -0.0310 4.92  804
 N1       P   0 ? 1536 43.67                             133   -0.0510 5.48  984
 N1       S   0   1536 45.65                             133    0.1110 5.48  984
 N6       P   0 ? 1536 43.78                             129   -0.0210 6.06  264
 N6       S   0   1536 45.84                             129    0.1510 6.06  264
 CAMP     P   0 ? 1536 43.68                             127   -0.1610 6.40  804
 CAMP     S   0   1536 45.75                             127   -0.0110 6.40  804
 N10      P   0 ? 1536 44.05                             122    0.1010 7.14   74
 N10      S   0   1536 45.93                             122   -0.0310 7.14   74
 N9       P   0 ? 1536 44.31                             117    0.2010 8.18  274
 N9       S   0   1536 46.13                             117   -0.1110 8.18  274
                                                                                
