 2021  2 2 2345 28.9 L  28.974  51.013 13.7  SLT 23 0.1                        1
 GAP= 98        0.27       0.8     0.5  0.8 -0.2731E+00  0.6373E-01 -0.1524E+00E
 STAT SP IPHASW D HRMN SECON CODA AMPLIT PERI AZIMU VELO AIN AR TRES W  DIS CAZ7
 P4       P   0 ? 2345 31.80                             162   -0.0210 3.60 1024
 P3       P   0 ? 2345 31.82                             157   -0.0610 4.55 2324
 P3       S   0   2345 34.24                             157   -0.0310 4.55 2324
 P5       P   0 ? 2345 32.15                             145    0.0610 7.24  864
 P5       S   0   2345 34.76                             145    0.1110 7.24  864
 P2       P   0 ? 2345 32.13                             143   -0.0110 7.91 2374
 P2       S   0   2345 34.87                             143    0.1110 7.91 2374
 TOLS     P   0 ? 2345 32.37                             134   -0.0210 10.1  874
 TOLS     S   0   2345 35.18                             134   -0.0310 10.1  874
 P1       P   0 ? 2345 32.44                             131   -0.0710 11.2 2444
 P1       S   0   2345 35.41                             131   -0.0110 11.2 2444
 N19      P   0 ? 2345 32.94                             121   -0.0310 14.6 2584
 N19      S   0   2345 36.22                             121   -0.0310 14.6 2584
 N16      P   0 ? 2345 33.03                             121    0.0410 14.8 2504
 N16      S   0   2345 36.24                             121   -0.0410 14.8 2504
 N9       P   0 ? 2345 33.29                             119    0.2010 15.6 2364
 N9       S   0   2345 36.34                             119   -0.1310 15.6 2364
 N12      P   0 ? 2345 33.31                             118    0.1310 16.2 2444
 N12      S   0   2345 36.69                             118    0.0510 16.2 2444
 N15      P   0 ? 2345 33.24                             117    0.0110 16.5 2484
 N15      S   0   2345 36.64                             117   -0.0910 16.5 2484
 ABTL     S   0   2345 36.86                             115   -0.0910 17.3  364
 N20      P   0 ? 2345 33.48                             115    0.1510 17.3 2674
 ABTL     P   0 ? 2345 33.38                             115    0.0310 17.3  364
 N6       P   0 ? 2345 33.15                             115   -0.2210 17.5 2324
 N6       S   0   2345 36.99                             115    0.0210 17.5 2324
 N10      P   0 ? 2345 33.54                             114    0.0810 18.1 2404
 N10      S   0   2345 37.23                             114    0.1010 18.1 2404
 N18      P   0 ? 2345 33.43                             114   -0.0410 18.2 2564
 N18      S   0   2345 37.23                             114    0.0610 18.2 2564
 N14      P   0 ? 2345 33.46                             113   -0.0310 18.3 2514
 N14      S   0   2345 37.03                             113   -0.1610 18.3 2514
 KHIA     P   0 ? 2345 33.53                             113   -0.0210 18.6 1274
 N17      P   0 ? 2345 33.50                             112   -0.1010 19.1 2594
 P9       P   0 ? 2345 33.48                             112   -0.1310 19.1  804
 N17      S   0   2345 37.45                             112    0.0610 19.1 2594
 N2       P   0 ? 2345 33.66                             112    0.0510 19.2 2184
 NOKA     P   0 ? 2345 34.35                             106    0.0610 23.6   54
 ABAD     P   0 ? 2345 34.42                             105    0.0610 24.0  754
                                                                                
 2021  2 2 2348 45.1 L  28.981  51.015 12.7  SLT 14 0.1                        1
 GAP=141        0.29       1.2     0.7  1.0 -0.6325E+00  0.2630E+00 -0.4759E+00E
 STAT SP IPHASW D HRMN SECON CODA AMPLIT PERI AZIMU VELO AIN AR TRES W  DIS CAZ7
 P4       P   0 ? 2348 47.81                             160   -0.0110 3.63 1154
 P4       S   0   2348 50.16                             160    0.1110 3.63 1154
 P3       P   0 ? 2348 47.86                             152   -0.0710 5.18 2274
 P3       S   0   2348 50.34                             152    0.1010 5.18 2274
 P2       P   0 ? 2348 48.32                             137    0.0810 8.51 2334
 P2       S   0   2348 50.74                             137   -0.0610 8.51 2334
 TOLS     P   0 ? 2348 48.35                             131   -0.0610 9.93  914
 TOLS     S   0   2348 51.02                             131   -0.0910 9.93  914
 P1       P   0 ? 2348 48.64                             125    0.0110 11.7 2414
 P1       S   0   2348 51.41                             125   -0.1010 11.7 2414
 N19      P   0 ? 2348 49.03                             116   -0.0710 15.0 2554
 N19      S   0   2348 52.42                             116    0.0610 15.0 2554
 N16      P   0 ? 2348 49.09                             115   -0.0410 15.3 2484
 N16      S   0   2348 52.28                             115   -0.1410 15.3 2484
 ABTL     P   0 ? 2348 49.35                             112    0.0110 16.6  374
 ABTL     S   0   2348 52.83                             112    0.0410 16.6  374
 N12      P   0 ? 2348 49.56                             112    0.2110 16.7 2424
 N12      S   0   2348 52.82                             112    0.0110 16.7 2424
 N15      P   0 ? 2348 49.52                             111    0.1310 17.0 2464
 N15      S   0   2348 52.77                             111   -0.1310 17.0 2464
 N6       P   0 ? 2348 49.57                             109    0.0210 18.1 2314
 N6       S   0   2348 53.28                             109    0.1010 18.1 2314
 N18      P   0 ? 2348 49.43                             108   -0.2010 18.6 2544
 N18      S   0   2348 53.37                             108    0.0510 18.6 2544
 N14      P   0 ? 2348 49.79                             108    0.1310 18.7 2494
 N14      S   0   2348 53.32                             108   -0.0510 18.7 2494
 P9       P   0 ? 2348 49.67                             108    0.0110 18.8  824
 P9       S   0   2348 53.34                             108   -0.0410 18.8  824
                                                                                
 2021  2 2 0213  0.1 L  28.645  51.116 10.4  SLT  9 0.1                        1
 GAP=174        0.34       0.8     0.9  1.0  0.3066E+00 -0.5934E-01 -0.9951E-01E
 STAT SP IPHASW D HRMN SECON CODA AMPLIT PERI AZIMU VELO AIN AR TRES W  DIS CAZ7
 DLRM     P   0 ? 0213  2.50                             151   -0.0510 4.42 3004
 DLRM     S   0   0213  4.64                             151    0.1010 4.42 3004
 KOLO     P   0 ? 0213  3.87                             112   -0.0410 14.6  574
 KOLO     S   0   0213  7.11                             112    0.1010 14.6  574
 JNAK     P   0 ? 0213  4.22                             109    0.0410 16.3 3454
 JNAK     S   0   0213  7.24                             109   -0.2610 16.3 3454
 ABAS     P   0 ? 0213  4.93                             104   -0.0710 21.1 1264
 ABAS     S   0   0213  8.96                             104   -0.0110 21.1 1264
 KHIA     P   0 ? 0213  5.78                             100   -0.0010 25.7  114
 KHIA     S   0   0213 10.49                             100    0.1010 25.7  114
 AHRM     P   0 ? 0213  6.43                              68   -0.0510 29.9  364
 P4       P   0 ? 0213  7.45                              68   -0.0410 36.3 3504
 N14      P   0 ? 0213  8.23                              68   -0.0010 40.9 3184
 N19      P   0 ? 0213  8.50                              68    0.1910 41.3 3244
                                                                                
 2021  2 2 1400  5.4 L  29.246  51.364  5.8  SLT  8 0.1                        1
 GAP=291        0.29       2.4     2.8  5.2  0.5820E+01  0.1332E+02  0.1153E+02E
 STAT SP IPHASW D HRMN SECON CODA AMPLIT PERI AZIMU VELO AIN AR TRES W  DIS CAZ7
 ABAD     P   0 ? 1400 11.29                              59   -0.0310 26.4 2054
 ABAD     S   0   1400 16.18                              59    0.0910 26.4 2054
 ABTL     P   0 ? 1400 11.74                              59   -0.0110 28.9 2364
 ABTL     S   0   1400 17.01                              59    0.1510 28.9 2364
 P9       P   0 ? 1400 12.16                              59    0.0810 30.8 2104
 P9       S   0   1400 17.36                              59   -0.1010 30.8 2104
 NOKA     P   0 ? 1400 12.49                              59    0.0810 32.8 2584
 NOKA     S   0   1400 17.93                              59   -0.1310 32.8 2584
 AHRM     P   0 ? 1400 14.12                              59   -0.0610 42.9 1894
 P4       P   0 ? 1400 14.25                              59   -0.0410 43.5 2254
 P4       S   0   1400 21.42                              59   -0.0310 43.5 2254
 KHIA     P   0 ? 1400 14.59                              59   -0.0610 45.6 2054
 KHIA     S   0   1400 22.07                              59   -0.0510 45.6 2054
 JNAK     P   0 ? 1400 16.81                              53    0.0710 58.2 2094
 JNAK     S   0   1400 25.92                              53    0.0310 58.2 2094
                                                                                
 2021  2 2 1834 28.7 L  29.243  51.364  5.3  SLT  8 0.1                        1
 GAP=305        0.29       3.0     3.8  3.9  0.1040E+02  0.1399E+02  0.1130E+02E
 STAT SP IPHASW D HRMN SECON CODA AMPLIT PERI AZIMU VELO AIN AR TRES W  DIS CAZ7
 ABAD     P   0 ? 1834 34.51                              43   -0.0610 26.1 2054
 ABAD     S   0   1834 39.41                              43    0.0610 26.1 2054
 ABTL     P   0 ? 1834 35.00                              43   -0.0210 28.7 2374
 ABTL     S   0   1834 40.31                              43    0.1610 28.7 2374
 P9       P   0 ? 1834 35.39                              43    0.0610 30.5 2104
 P9       S   0   1834 40.61                              43   -0.1110 30.5 2104
 NOKA     P   0 ? 1834 35.76                              43    0.0610 32.7 2594
 NOKA     S   0   1834 41.27                              43   -0.1310 32.7 2594
 TOLS     P   0 ? 1834 36.63                              43    0.0310 37.8 2194
 TOLS     S   0   1834 42.99                              43   -0.0310 37.8 2194
 P4       P   0 ? 1834 37.50                              43   -0.0510 43.3 2254
 P4       S   0   1834 44.80                              43    0.0710 43.3 2254
 KHIA     P   0 ? 1834 37.81                              43   -0.0910 45.3 2054
 KHIA     S   0   1834 45.27                              43   -0.1110 45.3 2054
 DLRM     P   0 ? 1834 42.03                              40    0.10 9 69.9 2044
 DLRM     S   0   1834 52.75                              40    0.08 9 69.9 2044
                                                                                
 2021  2 2 2251 43.5 L  29.244  51.374  7.6  SLT  7 0.1                        1
 GAP=307        0.33       1.2     1.6  2.7  0.3189E-01 -0.1291E+01  0.7260E+00E
 STAT SP IPHASW D HRMN SECON CODA AMPLIT PERI AZIMU VELO AIN AR TRES W  DIS CAZ7
 ABAD     P   0 ? 2251 49.29                              92    0.0110 26.7 2074
 ABAD     S   0   2251 54.00                              92    0.0210 26.7 2074
 ABTL     P   0 ? 2251 49.74                              91   -0.0510 29.6 2384
 ABTL     S   0   2251 55.09                              91    0.1810 29.6 2384
 P9       P   0 ? 2251 50.16                              91    0.1110 31.1 2124
 P9       S   0   2251 55.47                              91    0.0910 31.1 2124
 NOKA     P   0 ? 2251 50.49                              91   -0.0110 33.7 2594
 NOKA     S   0   2251 56.16                              91   -0.0210 33.7 2594
 TOLS     P   0 ? 2251 51.38                              91    0.0310 38.6 2214
 TOLS     S   0   2251 57.46                              91   -0.2610 38.6 2214
 P5       P   0 ? 2251 51.63                              91   -0.0610 40.5 2244
 P5       S   0   2251 58.30                              91   -0.0310 40.5 2244
 KHIA     P   0 ? 2251 52.56                              68   -0.0510 45.8 2064
 KHIA     S   0   2252  0.03                              68    0.0310 45.8 2064
                                                                                
 2021  2 2 0233 44.9 L  29.242  51.372  5.6  SLT  9 0.1                        1
 GAP=307        0.31       3.6     5.2  9.5  0.1736E+02  0.4762E+02  0.3275E+02E
 STAT SP IPHASW D HRMN SECON CODA AMPLIT PERI AZIMU VELO AIN AR TRES W  DIS CAZ7
 ABAD     P   0 ? 0233 50.84                              59    0.0010 26.4 2074
 ABAD     S   0   0233 55.77                              59    0.1610 26.4 2074
 ABTL     P   0 ? 0233 51.29                              59   -0.0610 29.3 2384
 ABTL     S   0   0233 56.56                              59    0.0210 29.3 2384
 P9       P   0 ? 0233 51.71                              59    0.1010 30.8 2124
 P9       S   0   0233 56.82                              59   -0.1910 30.8 2124
 NOKA     P   0 ? 0233 52.01                              59   -0.0510 33.5 2594
 NOKA     S   0   0233 57.80                              59   -0.0210 33.5 2594
 TOLS     P   0 ? 0233 52.92                              59    0.0210 38.3 2204
 TOLS     S   0   0233 59.46                              59    0.1110 38.3 2204
 P5       P   0 ? 0233 53.17                              59   -0.0710 40.2 2244
 P5       S   0   0234  0.01                              59    0.0510 40.2 2244
 P4       P   0 ? 0233 53.80                              59   -0.0610 43.8 2264
 P4       S   0   0234  1.08                              59    0.0010 43.8 2264
 KHIA     P   0 ? 0233 54.17                              59   -0.0010 45.6 2064
 KHIA     S   0   0234  1.48                              59   -0.1610 45.6 2064
 P3       P   0 ? 0233 55.16                              53    0.1510 50.4 2304
                                                                                
 2021  2 2 0724 56.8 L  29.252  51.368  8.2  SLT  6 0.1                        1
 GAP=307        0.28       1.1     1.4  1.8  0.1997E+00 -0.7325E+00  0.5536E+00E
 STAT SP IPHASW D HRMN SECON CODA AMPLIT PERI AZIMU VELO AIN AR TRES W  DIS CAZ7
 ABAD     P   0 ? 0725  2.67                              93   -0.0310 27.2 2054
 ABAD     S   0   0725  7.38                              93   -0.1010 27.2 2054
 ABTL     P   0 ? 0725  3.03                              93   -0.0910 29.6 2364
 ABTL     S   0   0725  8.21                              93   -0.0310 29.6 2364
 P9       P   0 ? 0725  3.53                              93    0.0710 31.6 2104
 P9       S   0   0725  8.98                              93    0.1310 31.6 2104
 NOKA     P   0 ? 0725  3.72                              93   -0.0410 33.3 2574
 NOKA     S   0   0725  9.44                              93    0.0510 33.3 2574
 KHIA     P   0 ? 0725  6.01                              68    0.0310 46.4 2054
 KHIA     S   0   0725 13.39                              68   -0.0110 46.4 2054
 JNAK     P   0 ? 0725  8.06                              68    0.0610 59.0 2094
 JNAK     S   0   0725 17.03                              68   -0.0410 59.0 2094
                                                                                
 2021  2 2 0100  5.9 L  28.981  51.331  6.2  SLT  4 0.1                        1
 GAP=251        0.30       1.0     1.9  1.5  0.1225E+01 -0.5536E+00 -0.7209E+00E
 STAT SP IPHASW D HRMN SECON CODA AMPLIT PERI AZIMU VELO AIN AR TRES W  DIS CAZ7
 ABAD     P   0 ? 0100  8.68                             104   -0.0310 9.44 3044
 P9       P   0 ? 0100  9.26                              97   -0.0510 12.5 2824
 P9       S   0   0100 12.08                              97    0.0510 12.5 2824
 AHRM     P   0 ? 0100  9.61                              96    0.0910 13.5 1954
 AHRM     S   0   0100 12.35                              96   -0.0610 13.5 1954
 ABTL     P   0 ? 0100 11.49                              59    0.0010 24.7 3024
 ABTL     S   0   0100 15.97                              59   -0.0110 24.7 3024
                                                                                
