 2021  2 2 0301 32.5 L  28.967  51.128 12.3  SLT 22 0.1                        1
 GAP= 79        0.26       0.5     0.5  1.1 -0.7380E-01  0.2729E+00  0.2396E-01E
 STAT SP IPHASW D HRMN SECON CODA AMPLIT PERI AZIMU VELO AIN AR TRES W  DIS CAZ7
 TOLS     P   0 ? 0301 35.17                             170    0.0210 1.71 3194
 P5       P   0 ? 0301 35.23                             156   -0.0310 4.24 2884
 P4       P   0 ? 0301 35.67                             138    0.1010 7.75 2704
 P9       P   0 ? 0301 35.63                             135   -0.0510 8.63  614
 P9       S   0   0301 38.27                             135    0.0510 8.63  614
 KHIA     P   0 ? 0301 35.96                             125   -0.0210 11.1 1614
 KHIA     S   0   0301 38.64                             125   -0.1410 11.1 1614
 ABAD     P   0 ? 0301 36.24                             117   -0.1110 13.7  604
 ABAD     S   0   0301 39.50                             117    0.0510 13.7  604
 ABTL     P   0 ? 0301 36.45                             114   -0.0610 14.8 3564
 ABTL     S   0   0301 39.78                             114    0.0510 14.8 3564
 P3       P   0 ? 0301 36.55                             114    0.0310 15.0 2624
 P3       S   0   0301 39.79                             114    0.0310 15.0 2624
 P2       P   0 ? 0301 37.21                             106    0.2010 18.2 2594
 P2       S   0   0301 40.61                             106   -0.0310 18.2 2594
 AHRM     P   0 ? 0301 37.35                             104    0.0610 19.9 1254
 N9       P   0 ? 0301 38.15                              98   -0.0010 25.4 2524
 N19      P   0 ? 0301 37.99                              98   -0.2110 25.7 2654
 N19      S   0   0301 42.74                              98   -0.0510 25.7 2654
 NOKA     P   0 ? 0301 38.25                              97    0.0210 25.9 3394
 N12      P   0 ? 0301 38.45                              97    0.1110 26.6 2564
 N12      S   0   0301 42.99                              97   -0.0510 26.6 2564
 N15      P   0 ? 0301 38.51                              97    0.0810 27.1 2584
 N15      S   0   0301 43.10                              97   -0.1010 27.1 2584
 N5       P   0 ? 0301 38.54                              96    0.0610 27.4 2404
 N5       S   0   0301 43.34                              96    0.0510 27.4 2404
 N20      P   0 ? 0301 38.58                              96   -0.0610 28.5 2704
 N20      S   0   0301 43.51                              96   -0.0810 28.5 2704
 N7       P   0 ? 0301 38.64                              96   -0.0410 28.7 2514
 N7       S   0   0301 43.70                              96    0.0510 28.7 2514
 N18      P   0 ? 0301 38.66                              96   -0.0910 29.1 2634
 N18      S   0   0301 43.71                              96   -0.0710 29.1 2634
 N4       P   0 ? 0301 38.86                              96    0.0810 29.4 2464
 N4       S   0   0301 43.96                              96    0.1110 29.4 2464
 N17      P   0 ? 0301 38.78                              95   -0.1210 30.1 2654
 N11      P   0 ? 0301 39.03                              95    0.1010 30.2 2564
 N11      S   0   0301 44.16                              95    0.0610 30.2 2564
                                                                                
 2021  2 2 0348  0.9 L  28.971  51.133 14.8  SLT 19 0.1                        1
 GAP= 67        0.27       0.5     0.5  1.1 -0.3012E-01  0.2161E+00  0.1661E+00E
 STAT SP IPHASW D HRMN SECON CODA AMPLIT PERI AZIMU VELO AIN AR TRES W  DIS CAZ7
 TOLS     P   0 ? 0348  3.85                             171   -0.0310 1.85 3014
 P5       P   0 ? 0348  3.91                             159   -0.0810 4.61 2824
 P9       P   0 ? 0348  4.31                             145    0.0510 8.05  624
 P9       S   0   0348  7.12                             145    0.1210 8.05  624
 P4       P   0 ? 0348  4.23                             144   -0.0410 8.23 2674
 KHIA     P   0 ? 0348  4.58                             134   -0.0210 11.3 1644
 KHIA     S   0   0348  7.51                             134   -0.1110 11.3 1644
 ABAD     P   0 ? 0348  4.71                             129   -0.1210 13.2  604
 ABAD     S   0   0348  8.11                             129    0.0710 13.2  604
 ABTL     P   0 ? 0348  4.92                             125   -0.0910 14.5 3544
 ABTL     S   0   0348  8.35                             125   -0.0110 14.5 3544
 P3       P   0 ? 0348  5.13                             123    0.0010 15.5 2614
 P3       S   0   0348  8.46                             123   -0.1110 15.5 2614
 P2       P   0 ? 0348  5.76                             117    0.1810 18.8 2584
 P2       S   0   0348  9.50                             117    0.1110 18.8 2584
 AHRM     P   0 ? 0348  5.81                             115    0.0810 19.7 1274
 N9       P   0 ? 0348  6.65                             107   -0.0210 26.0 2514
 N9       S   0   0348 11.45                             107    0.0910 26.0 2514
 CAMP     P   0 ? 0348  6.50                             107   -0.2210 26.4 2364
 CAMP     S   0   0348 11.51                             107    0.0510 26.4 2364
 N12      P   0 ? 0348  6.86                             106    0.0210 27.1 2564
 N12      S   0   0348 11.68                             106   -0.0010 27.1 2564
 N20      P   0 ? 0348  7.24                             104    0.1110 29.0 2694
 N20      S   0   0348 12.18                             104   -0.0210 29.0 2694
 N18      P   0 ? 0348  7.31                             104    0.0710 29.7 2624
 N18      S   0   0348 12.37                             104   -0.0210 29.7 2624
 N4       P   0 ? 0348  7.35                             104    0.0710 30.0 2454
 N4       S   0   0348 12.40                             104   -0.0810 30.0 2454
 N11      P   0 ? 0348  7.35                             103   -0.0710 30.8 2564
 N11      S   0   0348 12.81                             103    0.0910 30.8 2564
 N13      P   0 ? 0348  7.48                             103   -0.0410 31.4 2574
 N13      S   0   0348 12.84                             103   -0.0610 31.4 2574
 DLRM     P   0 ? 0348  7.89                             101   -0.0810 34.3 1894
 DLRM     S   0   0348 13.82                             101    0.1010 34.3 1894
                                                                                
 2021  2 2 0411 34.3 L  28.966  51.129 11.5  SLT 11 0.1                        1
 GAP=100        0.29       0.7     0.5  0.9 -0.1108E+00  0.1010E+00  0.3886E-01E
 STAT SP IPHASW D HRMN SECON CODA AMPLIT PERI AZIMU VELO AIN AR TRES W  DIS CAZ7
 TOLS     P   0 ? 0411 36.76                             168    0.0110 1.82 3214
 TOLS     S   0   0411 38.62                             168   -0.1410 1.82 3214
 P5       P   0 ? 0411 36.83                             153   -0.0510 4.30 2894
 P5       S   0   0411 39.08                             153    0.0810 4.30 2894
 P4       P   0 ? 0411 37.28                             135    0.0810 7.76 2714
 P4       S   0   0411 39.70                             135    0.1110 7.76 2714
 P9       P   0 ? 0411 37.30                             131   -0.0210 8.68  604
 P9       S   0   0411 39.90                             131    0.1010 8.68  604
 KHIA     P   0 ? 0411 37.59                             122   -0.0310 10.9 1614
 KHIA     S   0   0411 40.32                             122   -0.0210 10.9 1614
 ABAD     P   0 ? 0411 37.98                             112   -0.0510 13.8  604
 ABAD     S   0   0411 41.03                             112   -0.0610 13.8  604
 P3       S   0   0411 41.29                             108   -0.1110 15.0 2634
 ABTL     S   0   0411 41.34                             108   -0.0710 15.0 3564
 P3       P   0 ? 0411 38.14                             108   -0.0610 15.0 2634
 ABTL     P   0 ? 0411 38.27                             108    0.0610 15.0 3564
 P2       P   0 ? 0411 38.89                             100    0.1910 18.2 2594
 P2       S   0   0411 42.31                             100    0.0010 18.2 2594
 N12      P   0 ? 0411 40.16                              93    0.1210 26.6 2564
 N12      S   0   0411 44.57                              93   -0.1610 26.6 2564
 N4       P   0 ? 0411 40.49                              92   -0.0010 29.3 2464
                                                                                
 2021  2 2 0520 32.9 L  28.962  51.127 11.7  SLT  7 0.1                        1
 GAP=116        0.26       0.6     0.7  1.1 -0.2402E-02 -0.3124E+00 -0.1158E+00E
 STAT SP IPHASW D HRMN SECON CODA AMPLIT PERI AZIMU VELO AIN AR TRES W  DIS CAZ7
 TOLS     P   0 ? 0520 35.36                             167   -0.0210 2.11 3334
 TOLS     S   0   0520 37.39                             167   -0.0310 2.11 3334
 P5       P   0 ? 0520 35.41                             154   -0.0810 4.31 2964
 P5       S   0   0520 37.74                             154    0.1010 4.31 2964
 P4       P   0 ? 0520 35.85                             137    0.0510 7.59 2744
 P4       S   0   0520 38.17                             137   -0.0110 7.59 2744
 P9       P   0 ? 0520 35.99                             130    0.0110 9.08  584
 P9       S   0   0520 38.50                             130   -0.0110 9.08  584
 KHIA     P   0 ? 0520 36.30                             124    0.1310 10.6 1594
 KHIA     S   0   0520 38.76                             124   -0.1110 10.6 1594
 ABAD     P   0 ? 0520 36.70                             112    0.0010 14.2  584
 ABAD     S   0   0520 39.86                             112    0.0510 14.2  584
 ABTL     P   0 ? 0520 36.82                             108   -0.0610 15.4 3574
 ABTL     S   0   0520 40.12                             108   -0.0210 15.4 3574
                                                                                
 2021  2 2 1610 59.4 L  28.984  51.009 12.2  SLT 25 0.1                        1
 GAP= 83        0.30       0.5     0.4  0.8 -0.1080E+00  0.1160E+00 -0.9219E-01E
 STAT SP IPHASW D HRMN SECON CODA AMPLIT PERI AZIMU VELO AIN AR TRES W  DIS CAZ7
 P4       P   0 ? 1611  2.10                             155    0.0010 4.33 1164
 P4       S   0   1611  4.41                             155    0.1210 4.33 1164
 P3       P   0 ? 1611  2.11                             151   -0.0410 5.09 2204
 P3       S   0   1611  4.50                             151    0.1110 5.09 2204
 P5       P   0 ? 1611  2.46                             138    0.0710 7.60  954
 P5       S   0   1611  4.79                             138   -0.0310 7.60  954
 P2       P   0 ? 1611  2.46                             135   -0.0010 8.32 2294
 P2       S   0   1611  4.94                             135   -0.0210 8.32 2294
 TOLS     P   0 ? 1611  2.72                             126   -0.0210 10.5  934
 TOLS     S   0   1611  5.33                             126   -0.1310 10.5  934
 P1       P   0 ? 1611  2.80                             123   -0.0610 11.4 2384
 P1       S   0   1611  5.56                             123   -0.1110 11.4 2384
 N19      P   0 ? 1611  3.28                             114   -0.0310 14.6 2534
 N19      S   0   1611  6.54                             114    0.0510 14.6 2534
 N9       P   0 ? 1611  3.56                             110    0.0510 15.9 2324
 N9       S   0   1611  6.74                             110   -0.1110 15.9 2324
 SHIF     P   0 ? 1611  3.75                             110    0.2110 16.2 3054
 SHIF     S   0   1611  6.92                             110    0.0110 16.2 3054
 N12      P   0 ? 1611  3.60                             109    0.0210 16.4 2394
 N12      S   0   1611  7.09                             109    0.1110 16.4 2394
 ABTL     P   0 ? 1611  3.71                             109    0.0910 16.6  394
 ABTL     S   0   1611  6.87                             109   -0.1810 16.6  394
 N15      P   0 ? 1611  3.43                             108   -0.1910 16.7 2434
 N15      S   0   1611  7.09                             108    0.0310 16.7 2434
 N20      P   0 ? 1611  3.71                             108    0.0410 17.0 2634
 N20      S   0   1611  6.96                             108   -0.1810 17.0 2634
 N6       P   0 ? 1611  3.95                             106    0.1410 17.9 2294
 N6       S   0   1611  7.42                             106    0.0210 17.9 2294
 N18      P   0 ? 1611  3.95                             105    0.1010 18.2 2524
 N18      S   0   1611  7.61                             105    0.1410 18.2 2524
 N14      P   0 ? 1611  3.97                             105    0.0910 18.4 2474
 N14      S   0   1611  7.30                             105   -0.2310 18.4 2474
 CAMP     P   0 ? 1611  3.91                             104   -0.0510 18.9 2124
 CAMP     S   0   1611  7.87                             104    0.2010 18.9 2124
 N17      P   0 ? 1611  3.90                             104   -0.0710 19.0 2554
 N17      S   0   1611  7.62                             104   -0.0710 19.0 2554
 P9       P   0 ? 1611  3.95                             103   -0.0810 19.3  834
 KHIA     P   0 ? 1611  4.14                             103    0.0510 19.6 1294
 N5       P   0 ? 1611  4.00                             103   -0.1110 19.8 2184
 N5       S   0   1611  7.97                             103    0.0410 19.8 2184
 N11      P   0 ? 1611  4.24                             102    0.1110 19.9 2434
 N11      S   0   1611  7.91                             102   -0.0610 19.9 2434
 N13      P   0 ? 1611  4.24                             102    0.0310 20.4 2454
 N13      S   0   1611  8.05                             102   -0.0610 20.4 2454
 N4       P   0 ? 1611  4.13                             101   -0.1010 20.6 2274
 N4       S   0   1611  8.13                             101   -0.0310 20.6 2274
 NOKA     P   0 ? 1611  4.61                              99    0.0810 22.5   64
 NOKA     S   0   1611  8.73                              99    0.0410 22.5   64
                                                                                
 2021  2 2 1611 36.2 L  28.998  51.001 15.0  SLT  7 0.1                        1
 GAP=214        0.29       1.9     0.6  1.6 -0.2911E+00 -0.1837E-01 -0.9699E+00E
 STAT SP IPHASW D HRMN SECON CODA AMPLIT PERI AZIMU VELO AIN AR TRES W  DIS CAZ7
 P2       P   0 ? 1611 39.64                             143   -0.0210 8.85 2184
 P2       S   0   1611 42.45                             143   -0.0310 8.85 2184
 TOLS     P   0 ? 1611 39.83                             134   -0.1210 11.5 1004
 TOLS     S   0   1611 43.07                             134    0.0610 11.5 1004
 P1       P   0 ? 1611 40.05                             134    0.0910 11.7 2294
 P1       S   0   1611 43.10                             134    0.0710 11.7 2294
 N12      P   0 ? 1611 40.61                             122    0.0110 16.6 2344
 N12      S   0   1611 44.18                             122    0.0010 16.6 2344
 N15      P   0 ? 1611 40.68                             121    0.0610 16.7 2384
 N15      S   0   1611 44.02                             121   -0.1910 16.7 2384
 N18      P   0 ? 1611 40.79                             119    0.0010 17.9 2464
 N18      S   0   1611 44.59                             119    0.0710 17.9 2464
 KHIA     P   0 ? 1611 41.23                             113   -0.0410 21.2 1314
 KHIA     S   0   1611 45.43                             113    0.0310 21.2 1314
                                                                                
