 2021  2 2 1122 56.6 L  29.222  51.389  8.2  SLT 33 0.2                        1
 GAP=284        0.44       1.1     1.1  1.3 -0.2059E+00  0.3704E+00  0.2441E+00E
 STAT SP IPHASW D HRMN SECON CODA AMPLIT PERI AZIMU VELO AIN AR TRES W  DIS CAZ7
 ABAD     P   0 ? 1123  2.21                              94    0.0310 25.3 2124
 ABAD     S   0   1123  6.85                              94    0.1710 25.3 2124
 ABTL     P   0 ? 1123  2.86                              93   -0.0810 29.7 2434
 ABTL     S   0   1123  7.88                              93   -0.1910 29.7 2434
 P9       P   0 ? 1123  3.11                              93    0.1310 29.9 2174
 P9       S   0   1123  8.42                              93    0.2810 29.9 2174
 NOKA     P   0 ? 1123  3.75                              92   -0.0710 34.8 2634
 NOKA     S   0   1123  9.64                              92   -0.0110 34.8 2634
 TOLS     P   0 ? 1123  4.39                              92    0.0510 37.8 2254
 TOLS     S   0   1123 10.27                              92   -0.3410 37.8 2254
 P5       P   0 ? 1123  4.65                              92   -0.0610 39.9 2284
 P5       S   0   1123 11.30                              92    0.0410 39.9 2284
 P4       P   0 ? 1123  5.28                              68   -0.0410 43.5 2304
 P4       S   0   1123 12.60                              68    0.2310 43.5 2304
 KHIA     P   0 ? 1123  5.53                              68    0.0710 44.4 2094
 KHIA     S   0   1123 12.17                              68   -0.4610 44.4 2094
 P3       P   0 ? 1123  6.63                              68    0.2110 50.3 2334
 P3       S   0   1123 14.74                              68    0.3810 50.3 2334
 SHIF     P   0 ? 1123  6.92                              68    0.0910 52.9 2514
 SHIF     S   0   1123 14.87                              68   -0.2410 52.9 2514
 P2       P   0 ? 1123  6.96                              68    0.0010 53.7 2344
 P2       S   0   1123 15.37                              68    0.0410 53.7 2344
 JNAK     P   0 ? 1123  7.35                              68   -0.1810 57.2 2134
 JNAK     S   0   1123 16.25                              68   -0.1210 57.2 2134
 KOLO     P   0 ? 1123  7.71                              68    0.0810 57.8 1954
 N19      P   0 ? 1123  8.00                              68    0.1110 59.4 2394
 N19      S   0   1123 16.83                              68   -0.1910 59.4 2394
 N16      P   0 ? 1123  8.07                              68    0.0710 60.1 2374
 N16      S   0   1123 17.10                              68   -0.1210 60.1 2374
 N9       P   0 ? 1123  8.26                              68    0.0710 61.3 2344
 N9       S   0   1123 17.72                              68    0.1510 61.3 2344
 N15      P   0 ? 1123  8.22                              68   -0.0710 61.9 2374
 N15      S   0   1123 18.15                              68    0.3910 61.9 2374
 N18      P   0 ? 1123  8.41                              68   -0.05 9 63.0 2404
 N18      S   0   1123 18.12                              68    0.06 9 63.0 2404
 N6       P   0 ? 1123  8.42                              68   -0.09 9 63.2 2334
 CAMP     P   0 ? 1123  8.58                              68    0.08 9 63.2 2284
 CAMP     S   0   1123 18.27                              68    0.15 9 63.2 2284
 N14      P   0 ? 1123  8.63                              68    0.09 9 63.5 2384
 N17      P   0 ? 1123  8.40                              68   -0.14 9 63.5 2414
 N14      S   0   1123 18.39                              68    0.19 9 63.5 2384
 N17      S   0   1123 17.98                              68   -0.21 9 63.5 2414
 N10      P   0 ? 1123  8.60                              68    0.01 9 63.8 2354
 N10      S   0   1123 18.53                              68    0.24 9 63.8 2354
 N7       P   0 ? 1123  8.81                              68    0.09 9 64.5 2344
 N7       S   0   1123 18.36                              68   -0.16 9 64.5 2344
 N2       P   0 ? 1123  8.58                              68   -0.11 9 64.5 2294
 N2       S   0   1123 18.39                              68   -0.09 9 64.5 2294
 N5       P   0 ? 1123  8.78                              68    0.06 9 64.6 2304
 N5       S   0   1123 18.46                              68   -0.07 9 64.6 2304
 N1       P   0 ? 1123  8.78                              68   -0.03 9 65.2 2274
 N11      P   0 ? 1123  8.82                              68    0.01 9 65.2 2374
 N11      S   0   1123 18.50                              68   -0.19 9 65.2 2374
 N1       S   0   1123 18.50                              68   -0.19 9 65.2 2274
 N13      P   0 ? 1123  8.80                              68   -0.08 9 65.6 2384
 N13      S   0   1123 19.07                              68    0.26 9 65.6 2384
 N3       P   0 ? 1123  8.84                              68   -0.07 9 65.8 2304
 N3       S   0   1123 18.98                              68    0.11 9 65.8 2304
 N4       P   0 ? 1123  8.80                              68   -0.13 9 65.9 2324
 N4       S   0   1123 18.79                              68   -0.12 9 65.9 2324
 DLRM     P   0 ? 1123  9.47                              68    0.07 9 68.8 2064
 DLRM     S   0   1123 19.69                              68   -0.07 9 68.8 2064
 ABAS     P   0 ? 1123 10.67                              68   -0.07 9 77.1 1874
                                                                                
 2021  2 2 1124  8.0 L  29.270  51.375  7.1  SLT  8 0.1                        1
 GAP=310        0.37       1.3     1.7  2.2 -0.4319E-01 -0.1317E+01  0.7271E+00E
 STAT SP IPHASW D HRMN SECON CODA AMPLIT PERI AZIMU VELO AIN AR TRES W  DIS CAZ7
 ABAD     P   0 ? 1124 13.88                              59   -0.0610 29.3 2044
 ABAD     S   0   1124 18.96                              59    0.1710 29.3 2044
 ABTL     P   0 ? 1124 14.29                              59   -0.0010 31.3 2334
 ABTL     S   0   1124 19.63                              59    0.2010 31.3 2334
 P9       P   0 ? 1124 14.74                              59    0.0410 33.6 2094
 P9       S   0   1124 19.93                              59   -0.2310 33.6 2094
 NOKA     P   0 ? 1124 15.03                              59    0.2010 34.4 2544
 NOKA     S   0   1124 20.22                              59   -0.1910 34.4 2544
 TOLS     P   0 ? 1124 15.96                              59    0.0110 40.8 2184
 TOLS     S   0   1124 22.29                              59   -0.1410 40.8 2184
 P5       P   0 ? 1124 16.22                              59   -0.0510 42.7 2214
 P5       S   0   1124 23.08                              59    0.0710 42.7 2214
 KHIA     P   0 ? 1124 17.19                              53   -0.0310 48.4 2054
 KHIA     S   0   1124 24.69                              53   -0.0410 48.4 2054
 JNAK     P   0 ? 1124 19.32                              53    0.0710 61.0 2094
 JNAK     S   0   1124 28.38                              53   -0.0210 61.0 2094
                                                                                
 2021  2 2 0015 45.0 L  28.939  50.790  8.1  SLT 13 0.1                        1
 GAP=275        0.39       1.0     1.5  1.3  0.2653E+00  0.3886E+00  0.2524E+00E
 STAT SP IPHASW D HRMN SECON CODA AMPLIT PERI AZIMU VELO AIN AR TRES W  DIS CAZ7
 N17      P   0 ? 0015 46.92                             152   -0.0310 3.05  874
 N17      S   0   0015 48.78                             152    0.2210 3.05  874
 N18      P   0 ? 0015 46.96                             143   -0.1010 4.18 1004
 N18      S   0   0015 48.88                             143    0.1210 4.18 1004
 N13      P   0 ? 0015 47.11                             140    0.0110 4.59 1424
 N13      S   0   0015 48.77                             140   -0.0710 4.59 1424
 N14      P   0 ? 0015 47.17                             137    0.0110 5.04 1174
 N14      S   0   0015 48.85                             137   -0.0910 5.04 1174
 N20      P   0 ? 0015 47.21                             134    0.0110 5.39  574
 N20      S   0   0015 49.02                             134    0.0110 5.39  574
 N11      P   0 ? 0015 47.17                             134   -0.0310 5.43 1384
 N11      S   0   0015 48.89                             134   -0.1310 5.43 1384
 N15      P   0 ? 0015 47.35                             124   -0.0610 6.92 1114
 N15      S   0   0015 49.49                             124    0.1010 6.92 1114
 N19      P   0 ? 0015 47.47                             121   -0.0210 7.47  844
 N19      S   0   0015 49.16                             121   -0.3810 7.47  844
 N16      P   0 ? 0015 47.72                             118    0.1710 7.93  994
 N16      S   0   0015 49.75                             118    0.1010 7.93  994
 N10      P   0 ? 0015 47.71                             118    0.1510 7.96 1304
 N10      S   0   0015 49.71                             118    0.0410 7.96 1304
 N7       P   0 ? 0015 47.73                             114    0.0410 8.73 1374
 N7       S   0   0015 49.69                             114   -0.2010 8.73 1374
 N9       P   0 ? 0015 47.71                             108   -0.2010 10.2 1194
 N9       S   0   0015 50.47                             108    0.1610 10.2 1194
 N6       P   0 ? 0015 48.02                             107    0.0610 10.4 1314
 N6       S   0   0015 50.52                             107    0.1210 10.4 1314
                                                                                
 2021  2 2 2112  5.5 L  28.921  51.108 10.7  SLT 34 0.2                        1
 GAP= 84        0.45       0.6     0.6  0.7  0.5989E-01  0.1837E+00  0.1549E+00E
 STAT SP IPHASW D HRMN SECON CODA AMPLIT PERI AZIMU VELO AIN AR TRES W  DIS CAZ7
 TOLS     P   0 ? 2112  8.18                             142    0.0010 6.48   84
 TOLS     S   0   2112 10.20                             142   -0.1710 6.48   84
 P5       P   0 ? 2112  8.14                             140   -0.0610 6.74 3424
 P5       S   0   2112 10.62                             140    0.2010 6.74 3424
 P4       P   0 ? 2112  8.40                             136    0.0910 7.69 3114
 P4       S   0   2112 10.66                             136    0.0510 7.69 3114
 KHIA     P   0 ? 2112  8.35                             136    0.0210 7.76 1334
 KHIA     S   0   2112 10.32                             136   -0.3310 7.76 1334
 P3       P   0 ? 2112  9.12                             117    0.0310 13.2 2844
 P3       S   0   2112 12.05                             117    0.0210 13.2 2844
 P9       P   0 ? 2112  9.08                             117   -0.0310 13.3  464
 JNAK     P   0 ? 2112  9.43                             113    0.0210 15.2 1934
 JNAK     S   0   2112 12.90                             113    0.3010 15.2 1934
 P2       P   0 ? 2112  9.59                             111    0.0710 16.0 2764
 P2       S   0   2112 12.32                             111   -0.4910 16.0 2764
 ABAD     P   0 ? 2112 10.18                             108    0.2510 18.3  494
 P1       P   0 ? 2112 10.22                             107    0.1410 19.3 2734
 P1       S   0   2112 14.20                             107    0.3910 19.3 2734
 ABTL     P   0 ? 2112 10.22                             106    0.0310 19.9   24
 CAMP     P   0 ? 2112 10.25                             104   -0.1910 21.5 2454
 CAMP     S   0   2112 14.30                             104   -0.1810 21.5 2454
 N9       P   0 ? 2112 10.62                             104    0.0410 22.3 2634
 N9       S   0   2112 14.75                             104    0.0210 22.3 2634
 N2       P   0 ? 2112 10.81                              68    0.1310 23.0 2464
 N2       S   0   2112 14.72                              68   -0.1910 23.0 2464
 N16      P   0 ? 2112 10.79                              68    0.0610 23.2 2724
 N16      S   0   2112 14.86                              68   -0.1310 23.2 2724
 N1       P   0 ? 2112 10.81                              68    0.0910 23.2 2424
 N1       S   0   2112 14.80                              68   -0.1810 23.2 2424
 N5       P   0 ? 2112 10.71                              68   -0.0510 23.4 2484
 N5       S   0   2112 15.19                              68    0.1410 23.4 2484
 N6       P   0 ? 2112 10.76                              68   -0.0410 23.6 2584
 N6       S   0   2112 15.51                              68    0.3910 23.6 2584
 N19      P   0 ? 2112 10.73                              68   -0.0910 23.8 2774
 N19      S   0   2112 15.21                              68    0.0510 23.8 2774
 N15      P   0 ? 2112 11.03                              68    0.0810 24.6 2694
 N3       P   0 ? 2112 10.83                              68   -0.1210 24.6 2484
 N15      S   0   2112 15.51                              68    0.1110 24.6 2694
 N3       S   0   2112 15.19                              68   -0.2010 24.6 2484
 N10      P   0 ? 2112 11.15                              68    0.1010 25.2 2634
 N10      S   0   2112 15.75                              68    0.1810 25.2 2634
 N7       P   0 ? 2112 11.11                              68    0.0210 25.4 2604
 N7       S   0   2112 15.88                              68    0.2310 25.4 2604
 N4       P   0 ? 2112 11.03                              68   -0.1110 25.7 2544
 N4       S   0   2112 15.62                              68   -0.1110 25.7 2544
 KOLO     P   0 ? 2112 11.33                              68    0.1410 26.1 1504
 KOLO     S   0   2112 15.73                              68   -0.1110 26.1 1504
 N14      P   0 ? 2112 11.32                              68    0.0510 26.5 2704
 N14      S   0   2112 15.86                              68   -0.1110 26.5 2704
 N18      P   0 ? 2112 11.34                              68    0.0110 26.9 2734
 N18      S   0   2112 15.88                              68   -0.2010 26.9 2734
 N20      P   0 ? 2112 11.29                              68   -0.0510 27.0 2814
 N20      S   0   2112 15.86                              68   -0.2310 27.0 2814
 N11      P   0 ? 2112 11.35                              68   -0.0710 27.5 2664
 N11      S   0   2112 16.49                              68    0.2510 27.5 2664
 N17      S   0   2112 16.48                              68    0.0710 28.1 2754
 SHIF     P   0 ? 2112 11.38                              68   -0.1310 28.1 3064
 N17      P   0 ? 2112 11.44                              68   -0.0710 28.1 2754
 N13      P   0 ? 2112 11.57                              68    0.0310 28.2 2674
 N13      S   0   2112 16.33                              68   -0.1310 28.2 2674
 NOKA     P   0 ? 2112 11.74                              68   -0.1210 30.2 3464
 ABAS     P   0 ? 2112 14.57                              68    0.0610 46.6 1584
                                                                                
