 2021  2 2 2112 24.0 L  28.921  51.107 10.9  SLT 34 0.2                        1
 GAP= 83        0.46       0.7     0.7  0.7  0.6351E-01  0.2931E+00  0.1928E+00E
 STAT SP IPHASW D HRMN SECON CODA AMPLIT PERI AZIMU VELO AIN AR TRES W  DIS CAZ7
 TOLS     P   0 ? 2112 26.72                             142    0.0010 6.55   94
 TOLS     S   0   2112 28.77                             142   -0.1710 6.55   94
 P5       P   0 ? 2112 26.68                             141   -0.0610 6.76 3434
 P5       S   0   2112 29.18                             141    0.2110 6.76 3434
 P4       P   0 ? 2112 26.93                             137    0.1010 7.63 3124
 P4       S   0   2112 29.20                             137    0.0510 7.63 3124
 KHIA     P   0 ? 2112 26.85                             136   -0.0210 7.82 1324
 KHIA     S   0   2112 28.83                             136   -0.3810 7.82 1324
 P3       P   0 ? 2112 27.62                             118    0.0210 13.1 2844
 P3       S   0   2112 30.55                             118    0.0110 13.1 2844
 P9       P   0 ? 2112 27.63                             118   -0.0210 13.4  464
 JNAK     P   0 ? 2112 27.89                             114   -0.0310 15.2 1934
 JNAK     S   0   2112 31.35                             114    0.2410 15.2 1934
 P2       P   0 ? 2112 28.08                             112    0.0510 15.8 2764
 P2       S   0   2112 30.81                             112   -0.5010 15.8 2764
 ABAD     P   0 ? 2112 28.72                             109    0.2510 18.5  494
 P1       P   0 ? 2112 28.71                             108    0.1410 19.2 2734
 P1       S   0   2112 32.68                             108    0.3810 19.2 2734
 ABTL     P   0 ? 2112 28.76                             107    0.0410 20.0   34
 CAMP     P   0 ? 2112 28.73                              68   -0.2010 21.4 2454
 CAMP     S   0   2112 32.75                              68   -0.1910 21.4 2454
 N9       P   0 ? 2112 29.10                              68    0.0410 22.2 2634
 N9       S   0   2112 33.21                              68    0.0310 22.2 2634
 N2       P   0 ? 2112 29.28                              68    0.1210 22.8 2464
 N2       S   0   2112 33.17                              68   -0.1810 22.8 2464
 N1       P   0 ? 2112 29.28                              68    0.0810 23.0 2424
 N1       S   0   2112 33.24                              68   -0.1910 23.0 2424
 N16      P   0 ? 2112 29.28                              68    0.0710 23.1 2724
 N16      S   0   2112 33.33                              68   -0.1110 23.1 2724
 N5       P   0 ? 2112 29.18                              68   -0.0610 23.3 2484
 N5       S   0   2112 33.64                              68    0.1410 23.3 2484
 N6       P   0 ? 2112 29.24                              68   -0.0310 23.5 2584
 N6       S   0   2112 33.97                              68    0.4110 23.5 2584
 N19      P   0 ? 2112 29.22                              68   -0.0810 23.6 2774
 N19      S   0   2112 33.69                              68    0.0810 23.6 2774
 N3       P   0 ? 2112 29.50                              68    0.0810 24.4 2484
 N15      P   0 ? 2112 29.31                              68   -0.1210 24.5 2694
 N15      S   0   2112 33.98                              68    0.1310 24.5 2694
 N10      P   0 ? 2112 29.63                              68    0.1110 25.0 2634
 N10      S   0   2112 33.82                              68   -0.2010 25.0 2634
 N7       P   0 ? 2112 29.59                              68    0.0210 25.3 2604
 N7       S   0   2112 34.30                              68    0.2010 25.3 2604
 N4       P   0 ? 2112 29.50                              68   -0.1110 25.6 2544
 N4       S   0   2112 34.42                              68    0.2410 25.6 2544
 KOLO     P   0 ? 2112 29.81                              68    0.1210 26.1 1504
 N14      P   0 ? 2112 29.80                              68    0.0610 26.4 2704
 N14      S   0   2112 34.31                              68   -0.1110 26.4 2704
 N18      P   0 ? 2112 29.83                              68    0.0210 26.8 2734
 N18      S   0   2112 34.37                              68   -0.1610 26.8 2734
 N20      P   0 ? 2112 29.78                              68   -0.0410 26.9 2814
 N20      S   0   2112 34.46                              68   -0.0910 26.9 2814
 N11      P   0 ? 2112 29.83                              68   -0.0610 27.3 2664
 N11      S   0   2112 34.50                              68   -0.1910 27.3 2664
 N17      P   0 ? 2112 29.92                              68   -0.0710 28.0 2754
 SHIF     P   0 ? 2112 30.05                              68    0.0510 28.0 3064
 N17      S   0   2112 34.65                              68   -0.2110 28.0 2754
 N13      P   0 ? 2112 29.89                              68   -0.1310 28.1 2674
 N13      S   0   2112 35.17                              68    0.2610 28.1 2674
 NOKA     P   0 ? 2112 30.26                              68   -0.1010 30.3 3464
 ABAS     P   0 ? 2112 33.04                              68    0.0310 46.6 1574
                                                                                
 2021  2 2 2132 22.2 L  28.921  51.102  9.8  SLT 10 0.1                        1
 GAP= 80        0.39       0.7     0.7  1.5 -0.5093E-01  0.1898E+00  0.2864E+00E
 STAT SP IPHASW D HRMN SECON CODA AMPLIT PERI AZIMU VELO AIN AR TRES W  DIS CAZ7
 P5       P   0 ? 2132 24.69                             137   -0.0810 6.56 3474
 P5       S   0   2132 26.55                             137   -0.3210 6.56 3474
 TOLS     P   0 ? 2132 24.74                             137   -0.0410 6.57  134
 TOLS     S   0   2132 26.95                             137    0.0810 6.57  134
 P4       P   0 ? 2132 24.95                             133    0.1010 7.23 3154
 P4       S   0   2132 27.19                             133    0.1810 7.23 3154
 KHIA     P   0 ? 2132 24.86                             129   -0.1310 8.23 1314
 KHIA     S   0   2132 27.41                             129    0.1410 8.23 1314
 P9       P   0 ? 2132 25.77                             111   -0.0610 13.7  484
 P9       S   0   2132 28.89                             111    0.1110 13.7  484
 JNAK     P   0 ? 2132 25.90                             108   -0.1510 15.1 1914
 JNAK     S   0   2132 29.24                             108    0.0610 15.1 1914
 P1       P   0 ? 2132 26.70                             103    0.0510 18.7 2734
 P1       S   0   2132 30.22                             103   -0.0410 18.7 2734
 ABAD     P   0 ? 2132 26.55                             103   -0.1310 18.8  514
 ABTL     P   0 ? 2132 27.05                             102    0.1810 20.0   44
 N6       P   0 ? 2132 27.49                             100    0.1010 23.0 2584
 N6       S   0   2132 31.56                             100   -0.0410 23.0 2584
                                                                                
 2021  2 2 2218 38.9 L  28.915  51.108 10.6  SLT 31 0.2                        1
 GAP= 82        0.46       0.6     0.6  0.7 -0.7112E-01  0.1729E+00  0.1800E-01E
 STAT SP IPHASW D HRMN SECON CODA AMPLIT PERI AZIMU VELO AIN AR TRES W  DIS CAZ7
 TOLS     P   0 ? 2218 41.62                             138   -0.0310 7.17   74
 TOLS     S   0   2218 43.96                             138    0.0610 7.17   74
 KHIA     P   0 ? 2218 41.78                             137    0.1110 7.28 1294
 KHIA     S   0   2218 44.03                             137    0.1010 7.28 1294
 P5       P   0 ? 2218 41.59                             137   -0.0910 7.42 3444
 P5       S   0   2218 43.70                             137   -0.2410 7.42 3444
 P4       P   0 ? 2218 41.74                             133   -0.0310 8.19 3154
 P4       S   0   2218 43.90                             133   -0.2110 8.19 3154
 P3       P   0 ? 2218 42.57                             116    0.0410 13.4 2864
 P3       S   0   2218 45.69                             116    0.2010 13.4 2864
 P9       P   0 ? 2218 42.52                             115   -0.0710 13.8  444
 P9       S   0   2218 45.60                             115    0.0010 13.8  444
 JNAK     P   0 ? 2218 42.74                             114    0.0310 14.6 1944
 JNAK     S   0   2218 45.52                             114   -0.2910 14.6 1944
 P2       P   0 ? 2218 43.02                             111    0.0710 16.1 2784
 P2       S   0   2218 46.30                             111    0.0510 16.1 2784
 ABAD     P   0 ? 2218 43.61                             107    0.2010 18.8  484
 P1       P   0 ? 2218 43.65                             106    0.1510 19.4 2754
 P1       S   0   2218 47.50                             106    0.2610 19.4 2754
 ABTL     P   0 ? 2218 43.70                             105   -0.0210 20.6   24
 CAMP     P   0 ? 2218 43.64                             104   -0.1710 21.3 2474
 CAMP     S   0   2218 47.34                             104   -0.4610 21.3 2474
 N9       P   0 ? 2218 44.04                             103    0.0610 22.3 2644
 N9       S   0   2218 48.52                             103    0.4010 22.3 2644
 N2       P   0 ? 2218 44.20                             103    0.1510 22.7 2484
 N2       S   0   2218 48.09                             103   -0.1510 22.7 2484
 N1       P   0 ? 2218 44.20                             103    0.1210 22.9 2434
 N1       S   0   2218 48.38                             103    0.0810 22.9 2434
 N5       P   0 ? 2218 44.23                             103    0.0910 23.2 2504
 N5       S   0   2218 48.26                             103   -0.1410 23.2 2504
 N6       P   0 ? 2218 44.15                             102   -0.0510 23.5 2604
 N6       S   0   2218 48.35                             102   -0.1510 23.5 2604
 N19      P   0 ? 2218 44.22                             102   -0.0410 23.9 2784
 N19      S   0   2218 48.50                             102   -0.1210 23.9 2784
 N3       P   0 ? 2218 44.26                             102   -0.0710 24.3 2494
 N3       S   0   2218 48.92                             102    0.1710 24.3 2494
 N15      P   0 ? 2218 44.46                              68    0.0810 24.6 2714
 N15      S   0   2218 49.24                              68    0.4010 24.6 2714
 N10      P   0 ? 2218 44.35                              68   -0.1110 25.1 2654
 N10      S   0   2218 49.07                              68    0.0810 25.1 2654
 N7       P   0 ? 2218 44.61                              68    0.1010 25.4 2624
 KOLO     P   0 ? 2218 44.56                              68    0.0410 25.4 1494
 N7       S   0   2218 49.20                              68    0.1410 25.4 2624
 N4       P   0 ? 2218 44.43                              68   -0.1110 25.6 2564
 N4       S   0   2218 48.95                              68   -0.1710 25.6 2564
 N14      P   0 ? 2218 44.80                              68    0.1010 26.6 2714
 N14      S   0   2218 49.61                              68    0.2010 26.6 2714
 N18      P   0 ? 2218 44.82                              68    0.0510 27.0 2744
 N18      S   0   2218 49.78                              68    0.2410 27.0 2744
 N20      P   0 ? 2218 44.80                              68    0.0110 27.1 2824
 N20      S   0   2218 49.46                              68   -0.1110 27.1 2824
 N11      P   0 ? 2218 44.81                              68   -0.0310 27.5 2674
 N11      S   0   2218 49.52                              68   -0.1510 27.5 2674
 N13      P   0 ? 2218 44.90                              68   -0.0610 28.2 2684
 N17      P   0 ? 2218 44.89                              68   -0.0610 28.2 2764
 N13      S   0   2218 49.72                              68   -0.1710 28.2 2684
 N17      S   0   2218 49.78                              68   -0.0910 28.2 2764
 SHIF     P   0 ? 2218 44.86                              68   -0.1510 28.5 3074
 SHIF     S   0   2218 49.73                              68   -0.2410 28.5 3074
                                                                                
 2021  2 2 2232 37.0 L  28.914  51.108  9.6  SLT 15 0.1                        1
 GAP= 81        0.33       0.5     0.6  1.2 -0.4184E-01  0.2474E+00  0.1787E+00E
 STAT SP IPHASW D HRMN SECON CODA AMPLIT PERI AZIMU VELO AIN AR TRES W  DIS CAZ7
 KHIA     P   0 ? 2232 39.75                             133    0.1210 7.21 1284
 KHIA     S   0   2232 41.86                             133    0.0810 7.21 1284
 TOLS     P   0 ? 2232 39.58                             132   -0.0610 7.31   74
 TOLS     S   0   2232 41.96                             132    0.1610 7.31   74
 P5       P   0 ? 2232 39.55                             131   -0.1210 7.54 3444
 P5       S   0   2232 41.75                             131   -0.1010 7.54 3444
 P4       P   0 ? 2232 39.71                             128   -0.0510 8.27 3164
 P4       S   0   2232 41.88                             128   -0.1410 8.27 3164
 P9       P   0 ? 2232 40.57                             110   -0.0610 13.9  434
 P9       S   0   2232 43.69                             110    0.0910 13.9  434
 JNAK     P   0 ? 2232 40.69                             109   -0.0210 14.4 1944
 JNAK     S   0   2232 43.64                             109   -0.1010 14.4 1944
 ABAD     P   0 ? 2232 41.35                             103   -0.1310 18.9  474
 P1       P   0 ? 2232 41.55                             102    0.0110 19.4 2754
 P1       S   0   2232 45.45                             102    0.2010 19.4 2754
 ABTL     P   0 ? 2232 41.89                             101    0.1010 20.8   24
 CAMP     P   0 ? 2232 41.97                             101    0.1210 21.2 2474
 N2       P   0 ? 2232 42.08                             100   -0.0110 22.6 2484
 N1       P   0 ? 2232 41.91                             100   -0.2110 22.8 2444
 N5       P   0 ? 2232 42.19                              99    0.0110 23.1 2504
 N6       P   0 ? 2232 42.33                              99    0.0910 23.4 2604
 N6       S   0   2232 46.54                              99    0.0210 23.4 2604
 N18      P   0 ? 2232 42.86                              98    0.0110 27.0 2754
                                                                                
 2021  2 2 0107 12.3 L  28.934  51.067 13.4  SLT  6 0.1                        1
 GAP=156        0.34       1.2     2.1  2.1 -0.1554E+01 -0.2835E+01  0.1371E+01E
 STAT SP IPHASW D HRMN SECON CODA AMPLIT PERI AZIMU VELO AIN AR TRES W  DIS CAZ7
 P4       P   0 ? 0107 15.26                             159    0.1210 4.10 3344
 P4       S   0   0107 17.48                             159    0.0110 4.10 3344
 TOLS     P   0 ? 0107 15.29                             146   -0.0710 6.97  444
 TOLS     S   0   0107 17.80                             146   -0.0710 6.97  444
 KHIA     P   0 ? 0107 15.74                             128   -0.1610 11.7 1254
 P9       P   0 ? 0107 16.40                             117   -0.0310 15.6  604
 JNAK     P   0 ? 0107 16.46                             116   -0.0510 16.3 1784
 JNAK     S   0   0107 20.07                             116    0.1210 16.3 1784
 ABAD     P   0 ? 0107 17.18                             108   -0.0210 20.8  594
 ABAD     S   0   0107 21.35                             108    0.1610 20.8  594
                                                                                
 2021  2 2 0654 53.1 L  28.864  50.842  7.5  SLT 13 0.1                        1
 GAP=209        0.36       0.8     1.5  1.1  0.8727E+00  0.5838E+00  0.1107E+00E
 STAT SP IPHASW D HRMN SECON CODA AMPLIT PERI AZIMU VELO AIN AR TRES W  DIS CAZ7
 N4       P   0 ? 0654 54.84                             166   -0.0410 1.33 1194
 N4       S   0   0654 56.51                             166    0.1810 1.33 1194
 N7       P   0 ? 0654 54.91                             158   -0.0310 2.20  234
 N7       S   0   0654 56.61                             158    0.1810 2.20  234
 N6       P   0 ? 0654 55.00                             148   -0.0210 3.23  614
 N6       S   0   0654 56.41                             148   -0.1710 3.23  614
 N10      P   0 ? 0654 55.09                             146    0.0610 3.38  174
 N10      S   0   0654 56.64                             146    0.0410 3.38  174
 N3       P   0 ? 0654 55.16                             137    0.0310 4.38 1334
 N3       S   0   0654 56.71                             137   -0.0710 4.38 1334
 N11      P   0 ? 0654 55.14                             136   -0.0210 4.58 3414
 N11      S   0   0654 56.63                             136   -0.2010 4.58 3414
 N5       P   0 ? 0654 55.32                             134    0.1410 4.79 1194
 N5       S   0   0654 56.72                             134   -0.1610 4.79 1194
 N9       P   0 ? 0654 55.20                             131   -0.0310 5.14  484
 N9       S   0   0654 57.04                             131    0.0810 5.14  484
 N2       P   0 ? 0654 55.43                             126    0.1210 5.79 1214
 N2       S   0   0654 56.99                             126   -0.1210 5.79 1214
 N15      P   0 ? 0654 55.54                             124    0.1810 6.05  134
 N15      S   0   0654 57.25                             124    0.0610 6.05  134
 N14      P   0 ? 0654 55.46                             123    0.0910 6.14 3554
 N14      S   0   0654 57.10                             123   -0.1210 6.14 3554
 N18      P   0 ? 0654 55.37                             112   -0.2410 7.73 3534
 N18      S   0   0654 57.70                             112    0.0510 7.73 3534
 N17      P   0 ? 0654 55.79                             106    0.0010 8.80 3474
                                                                                
 2021  2 2 2101 36.1 L  29.267  51.369  8.8  SLT  8 0.1                        1
 GAP=309        0.38       1.4     1.8  1.8  0.3670E-01 -0.4997E+00  0.7394E+00E
 STAT SP IPHASW D HRMN SECON CODA AMPLIT PERI AZIMU VELO AIN AR TRES W  DIS CAZ7
 ABAD     P   0 ? 2101 42.20                              95   -0.0910 28.8 2044
 ABAD     S   0   2101 47.46                              95    0.1610 28.8 2044
 ABTL     P   0 ? 2101 42.60                              95   -0.0210 30.7 2334
 ABTL     S   0   2101 48.11                              95    0.2210 30.7 2334
 P9       P   0 ? 2101 43.07                              94    0.0310 33.1 2094
 P9       S   0   2101 48.44                              94   -0.2110 33.1 2094
 NOKA     P   0 ? 2101 43.30                              94    0.1510 33.8 2554
 NOKA     S   0   2101 48.62                              94   -0.2410 33.8 2554
 TOLS     P   0 ? 2101 44.27                              68    0.0210 40.3 2184
 TOLS     S   0   2101 50.77                              68   -0.0810 40.3 2184
 P4       P   0 ? 2101 45.09                              68   -0.0110 45.6 2234
 P4       S   0   2101 52.56                              68    0.1710 45.6 2234
 KHIA     P   0 ? 2101 45.44                              68   -0.0610 48.0 2044
 KHIA     S   0   2101 53.06                              68   -0.0410 48.0 2044
 JNAK     P   0 ? 2101 47.55                              68    0.0410 60.5 2094
 JNAK     S   0   2101 56.71                              68   -0.0410 60.5 2094
                                                                                
