 2021  2 2 0658  1.9 L  29.039  51.460  1.6  SLT 14 0.0                        1
 GAP=275        0.18       0.6     0.6  0.4  0.7212E-01 -0.4706E-01  0.9795E-01E
 STAT SP IPHASW D HRMN SECON CODA AMPLIT PERI AZIMU VELO AIN AR TRES W  DIS CAZ7
 ABAD     P   0 ? 0658  7.08                              94    0.0010 20.3 2674
 ABAD     S   0   0658 11.29                              94    0.0210 20.3 2674
 P9       P   0 ? 0658  8.21                              94   -0.0410 25.0 2614
 TOLS     P   0 ? 0658  9.85                              43   -0.0110 34.0 2594
 KHIA     P   0 ? 0658  9.85                              43   -0.0110 34.0 2374
 KHIA     S   0   0658 16.29                              43   -0.0010 34.0 2374
 ABTL     P   0 ? 0658  9.86                              43   -0.0110 34.1 2824
 ABTL     S   0   0658 16.31                              43   -0.0110 34.1 2824
 P5       P   0 ? 0658 10.35                              43   -0.0010 36.9 2604
 P4       P   0 ? 0658 11.02                              43   -0.0110 40.8 2594
 KOLO     P   0 ? 0658 11.16                              43   -0.0010 41.5 2114
 KOLO     S   0   0658 18.66                              43   -0.0010 41.5 2114
 JNAK     P   0 ? 0658 12.08                              43   -0.0110 46.9 2344
 JNAK     S   0   0658 20.33                              43   -0.0110 46.9 2344
 ABAS     P   0 ? 0658 14.08                              40    0.0110 58.5 1964
 N2       P   0 ? 0658 14.24                              40    0.0210 59.6 2484
 N5       P   0 ? 0658 14.33                              40    0.0210 60.1 2494
 N15      P   0 ? 0658 14.37                              40    0.0210 60.4 2574
 N3       P   0 ? 0658 14.51                              40    0.0210 61.2 2494
                                                                                
 2021  2 2 1947  1.3 L  29.054  51.217 13.3  SLT 10 0.0                        1
 GAP=191        0.18       0.5     0.6  0.6  0.2723E-01  0.1414E+00  0.8381E-01E
 STAT SP IPHASW D HRMN SECON CODA AMPLIT PERI AZIMU VELO AIN AR TRES W  DIS CAZ7
 ABAD     P   0 ? 1947  4.20                             157    0.0010 4.33 1304
 ABAD     S   0   1947  6.55                             157    0.0110 4.33 1304
 P9       P   0 ? 1947  4.27                             152   -0.0010 5.52 1914
 P9       S   0   1947  6.69                             152    0.0110 5.52 1914
 ABTL     P   0 ? 1947  4.84                             130   -0.0010 11.0 2984
 ABTL     S   0   1947  7.71                             130   -0.0010 11.0 2984
 TOLS     P   0 ? 1947  5.05                             124   -0.0210 12.8 2304
 TOLS     S   0   1947  8.09                             124   -0.0210 12.8 2304
 P5       P   0 ? 1947  5.38                             118   -0.0110 15.1 2374
 P5       S   0   1947  8.68                             118   -0.0110 15.1 2374
 P4       P   0 ? 1947  5.95                             110   -0.0010 19.0 2404
 P4       S   0   1947  9.72                             110    0.0110 19.0 2404
 KHIA     P   0 ? 1947  6.21                             108   -0.0110 20.6 1944
 KHIA     S   0   1947 10.19                             108   -0.0010 20.6 1944
 P3       P   0 ? 1947  7.08                             101    0.0110 26.2 2444
 P3       S   0   1947 11.76                             101    0.0210 26.2 2444
 P2       P   0 ? 1947  7.62                              99    0.0110 29.6 2444
 JNAK     P   0 ? 1947  8.11                              98   -0.0010 32.7 2054
 JNAK     S   0   1947 13.63                              98    0.0010 32.7 2054
                                                                                
 2021  2 2 2121 39.6 L  29.210  51.397  8.3  SLT 20 0.0                        1
 GAP=302        0.14       0.4     0.5  0.5 -0.3612E-01  0.2685E-01 -0.6371E-02E
 STAT SP IPHASW D HRMN SECON CODA AMPLIT PERI AZIMU VELO AIN AR TRES W  DIS CAZ7
 ABAD     P   0 ? 2121 45.07                              94    0.0110 24.6 2154
 ABAD     S   0   2121 49.50                              94    0.0210 24.6 2154
 P9       P   0 ? 2121 45.89                              93    0.0010 29.4 2194
 P9       S   0   2121 50.98                              93    0.0110 29.4 2194
 ABTL     P   0 ? 2121 45.97                              93    0.0010 29.8 2464
 ABTL     S   0   2121 51.12                              93    0.0010 29.8 2464
 TOLS     P   0 ? 2121 47.28                              92   -0.0010 37.4 2274
 TOLS     S   0   2121 53.49                              92   -0.0010 37.4 2274
 P5       P   0 ? 2121 47.65                              92   -0.0110 39.6 2304
 AHRM     P   0 ? 2121 47.66                              92   -0.0210 39.6 1954
 P5       S   0   2121 54.16                              92   -0.0210 39.6 2304
 P4       P   0 ? 2121 48.27                              68   -0.0110 43.3 2324
 P4       S   0   2121 55.28                              68   -0.0110 43.3 2324
 KHIA     P   0 ? 2121 48.33                              68   -0.0110 43.6 2114
 KHIA     S   0   2121 55.39                              68   -0.0110 43.6 2114
 P3       P   0 ? 2121 49.39                              68    0.0010 50.2 2354
 P3       S   0   2121 57.31                              68    0.0110 50.2 2354
 SHIF     P   0 ? 2121 49.88                              68   -0.0010 53.3 2534
 SHIF     S   0   2121 58.20                              68    0.0010 53.3 2534
 JNAK     P   0 ? 2121 50.41                              68   -0.0010 56.5 2144
 JNAK     S   0   2121 59.16                              68    0.0010 56.5 2144
 KOLO     P   0 ? 2121 50.45                              68    0.0010 56.7 1964
 N18      P   0 ? 2121 51.46                              68    0.00 9 63.0 2414
 N18      S   0   2122  1.05                              68    0.00 9 63.0 2414
 N2       P   0 ? 2121 51.65                              68    0.01 9 64.2 2304
 N5       P   0 ? 2121 51.68                              68    0.00 9 64.4 2314
 N1       P   0 ? 2121 51.76                              68    0.01 9 64.9 2294
 N11      P   0 ? 2121 51.80                              68    0.00 9 65.1 2394
 N13      P   0 ? 2121 51.87                              68    0.00 9 65.6 2394
 N4       P   0 ? 2121 51.90                              68    0.00 9 65.7 2344
 N4       S   0   2122  1.84                              68   -0.00 9 65.7 2344
 DLRM     P   0 ? 2121 52.27                              68    0.01 9 68.0 2074
 DLRM     S   0   2122  2.51                              68    0.00 9 68.0 2074
                                                                                
 2021  2 2 0035 45.4 L  28.625  51.185  6.1  SLT  8 0.0                        1
 GAP=158        0.22       0.6     0.5  0.8 -0.2292E-01  0.1717E-01 -0.1717E+00E
 STAT SP IPHASW D HRMN SECON CODA AMPLIT PERI AZIMU VELO AIN AR TRES W  DIS CAZ7
 DLRM     P   0 ? 0035 48.52                              97    0.0110 11.5 2934
 KOLO     S   0   0035 51.10                              97   -0.0010 11.5  284
 DLRM     S   0   0035 51.05                              97   -0.0210 11.5 2934
 KOLO     P   0 ? 0035 48.54                              97    0.0110 11.5  284
 ABAS     P   0 ? 0035 49.12                              94   -0.0210 14.5 1354
 JNAK     P   0 ? 0035 50.27                              59    0.0110 21.0 3294
 JNAK     S   0   0035 54.22                              59   -0.0110 21.0 3294
 AHRM     P   0 ? 0035 51.60                              59    0.0110 28.6  224
 AHRM     S   0   0035 56.62                              59   -0.0210 28.6  224
 P9       P   0 ? 0035 53.95                              59    0.0110 42.1   34
 N9       P   0 ? 0035 53.95                              59    0.0110 42.1 3154
 N10      P   0 ? 0035 54.28                              59    0.0110 44.0 3124
                                                                                
 2021  2 2 0628 35.7 L  28.829  50.858  7.9  SLT  8 0.0                        1
 GAP=253        0.19       0.7     1.0  0.8  0.3100E+00  0.2387E+00  0.1565E-01E
 STAT SP IPHASW D HRMN SECON CODA AMPLIT PERI AZIMU VELO AIN AR TRES W  DIS CAZ7
 N3       P   0 ? 0628 37.57                             162    0.0010 1.92  634
 N3       S   0   0628 39.09                             162   -0.0010 1.92  634
 N5       P   0 ? 0628 37.66                             151    0.0110 3.09  604
 N5       S   0   0628 39.25                             151    0.0010 3.09  604
 N4       P   0 ? 0628 37.66                             150   -0.0010 3.22 3544
 N4       S   0   0628 39.26                             150   -0.0010 3.22 3544
 N2       P   0 ? 0628 37.69                             147    0.0010 3.57  764
 N2       S   0   0628 39.31                             147   -0.0010 3.57  764
 N1       P   0 ? 0628 37.76                             142    0.0110 4.12 1014
 N1       S   0   0628 39.43                             142    0.0010 4.12 1014
 CAMP     P   0 ? 0628 37.85                             135   -0.0010 5.05  774
 CAMP     S   0   0628 39.60                             135   -0.0110 5.05  774
 N6       P   0 ? 0628 37.93                             131    0.0010 5.57  144
 N6       S   0   0628 39.74                             131   -0.0110 5.57  144
 N9       P   0 ? 0628 38.23                             117    0.0110 7.65  174
 N9       S   0   0628 40.28                             117    0.0010 7.65  174
                                                                                
 2021  2 2 1902 56.0 L  29.066  51.363  8.9  SLT 20 0.0                        1
 GAP=279        0.14       0.4     0.5  0.5  0.1477E-01 -0.9208E-02  0.7741E-01E
 STAT SP IPHASW D HRMN SECON CODA AMPLIT PERI AZIMU VELO AIN AR TRES W  DIS CAZ7
 ABAD     P   0 ? 1902 59.26                             111    0.0010 11.6 2494
 P9       P   0 ? 1903  0.10                             102    0.0010 16.7 2464
 ABTL     P   0 ? 1903  1.40                              97    0.0010 24.2 2794
 ABTL     S   0   1903  5.77                              97    0.0010 24.2 2794
 TOLS     P   0 ? 1903  1.66                              96   -0.0010 25.8 2484
 TOLS     S   0   1903  6.25                              96    0.0010 25.8 2484
 P5       P   0 ? 1903  2.13                              95   -0.0110 28.5 2504
 P5       S   0   1903  7.10                              95   -0.0010 28.5 2504
 KHIA     P   0 ? 1903  2.17                              95   -0.0010 28.7 2224
 KHIA     S   0   1903  7.17                              95   -0.0010 28.7 2224
 P4       P   0 ? 1903  2.81                              94   -0.0110 32.5 2504
 NOKA     P   0 ? 1903  3.19                              94   -0.0010 34.6 2934
 NOKA     S   0   1903  9.01                              94   -0.0110 34.6 2934
 P3       P   0 ? 1903  4.06                              68   -0.0010 39.8 2514
 JNAK     P   0 ? 1903  4.39                              68   -0.0010 41.9 2224
 JNAK     S   0   1903 11.18                              68   -0.0010 41.9 2224
 P2       P   0 ? 1903  4.61                              68    0.0110 43.2 2504
 N6       P   0 ? 1903  6.07                              68    0.0010 52.2 2474
 N2       P   0 ? 1903  6.08                              68    0.0110 52.3 2414
 DLRM     P   0 ? 1903  6.10                              68    0.0010 52.4 2124
 DLRM     S   0   1903 14.27                              68   -0.0110 52.4 2124
 N1       P   0 ? 1903  6.14                              68    0.0110 52.7 2394
 N5       P   0 ? 1903  6.15                              68    0.0110 52.7 2424
 N5       S   0   1903 14.35                              68   -0.0010 52.7 2424
 N1       S   0   1903 14.34                              68    0.0010 52.7 2394
 N18      P   0 ? 1903  6.31                              68    0.0010 53.8 2544
 N18      S   0   1903 14.66                              68    0.0010 53.8 2544
 N3       P   0 ? 1903  6.33                              68    0.0010 53.9 2424
 N3       S   0   1903 14.69                              68    0.0010 53.9 2424
 N4       P   0 ? 1903  6.46                              68    0.0010 54.7 2454
 N11      P   0 ? 1903  6.55                              68    0.0010 55.2 2514
                                                                                
 2021  2 2 0550 40.9 L  29.059  51.348  5.7  SLT  9 0.0                        1
 GAP=286        0.20       0.5     1.2  1.0  0.2170E+00  0.7793E+00  0.1421E+00E
 STAT SP IPHASW D HRMN SECON CODA AMPLIT PERI AZIMU VELO AIN AR TRES W  DIS CAZ7
 ABAD     P   0 ? 0550 43.73                              93    0.0010 9.99 2514
 P9       P   0 ? 0550 44.73                              91   -0.0210 15.0 2474
 ABTL     P   0 ? 0550 46.17                              59    0.0110 22.9 2824
 ABTL     S   0   0550 50.44                              59   -0.0110 22.9 2824
 TOLS     P   0 ? 0550 46.38                              59    0.0110 24.2 2494
 TOLS     S   0   0550 50.81                              59   -0.0110 24.2 2494
 P5       P   0 ? 0550 46.85                              59    0.0110 26.9 2514
 KHIA     P   0 ? 0550 46.90                              59    0.0010 27.2 2214
 KHIA     S   0   0550 51.77                              59   -0.0010 27.2 2214
 P4       P   0 ? 0550 47.53                              59    0.0010 30.8 2514
 P4       S   0   0550 52.91                              59   -0.0010 30.8 2514
 NOKA     P   0 ? 0550 48.02                              59    0.0110 33.6 2954
 NOKA     S   0   0550 53.79                              59   -0.0110 33.6 2954
 JNAK     P   0 ? 0550 49.18                              59    0.0110 40.3 2224
 JNAK     S   0   0550 55.89                              59   -0.0110 40.3 2224
                                                                                
 2021  2 2 0149  7.5 L  28.827  50.861  7.7  SLT 10 0.0                        1
 GAP=240        0.17       0.5     0.8  0.6  0.2260E+00  0.2016E+00 -0.3032E-01E
 STAT SP IPHASW D HRMN SECON CODA AMPLIT PERI AZIMU VELO AIN AR TRES W  DIS CAZ7
 N3       P   0 ? 0149  9.33                             163    0.0010 1.72  504
 N3       S   0   0149 10.81                             163   -0.0010 1.72  504
 N5       P   0 ? 0149  9.41                             152    0.0010 2.90  524
 N5       S   0   0149 10.96                             152   -0.0010 2.90  524
 N2       P   0 ? 0149  9.44                             148    0.0110 3.27  704
 N2       S   0   0149 11.01                             148    0.0010 3.27  704
 N4       P   0 ? 0149  9.46                             146    0.0010 3.50 3484
 N4       S   0   0149 11.05                             146   -0.0110 3.50 3484
 N1       P   0 ? 0149  9.49                             144    0.0110 3.71  994
 N1       S   0   0149 11.10                             144    0.0010 3.71  994
 CAMP     P   0 ? 0149  9.59                             136   -0.0010 4.74  744
 CAMP     S   0   0149 11.29                             136   -0.0110 4.74  744
 N6       P   0 ? 0149  9.72                             128   -0.0110 5.72   94
 N6       S   0   0149 11.53                             128   -0.0110 5.72   94
 N9       P   0 ? 0149 10.03                             114    0.0010 7.77  144
 N9       S   0   0149 12.08                             114   -0.0010 7.77  144
 N11      P   0 ? 0149 10.24                             107    0.0010 9.06 3384
 N11      S   0   0149 12.46                             107   -0.0110 9.06 3384
 N15      P   0 ? 0149 10.40                             104    0.0110 9.98 3574
 N15      S   0   0149 12.75                             104    0.0010 9.98 3574
                                                                                
 2021  2 2 1442 27.9 L  28.826  50.856  7.9  SLT 10 0.0                        1
 GAP=245        0.17       0.6     0.8  0.7  0.2850E+00  0.2784E+00  0.4382E-01E
 STAT SP IPHASW D HRMN SECON CODA AMPLIT PERI AZIMU VELO AIN AR TRES W  DIS CAZ7
 N3       P   0 ? 1442 29.79                             159    0.0010 2.17  584
 N3       S   0   1442 31.32                             159   -0.0110 2.17  584
 N5       P   0 ? 1442 29.88                             149    0.0010 3.36  574
 N5       S   0   1442 31.49                             149   -0.0010 3.36  574
 N4       P   0 ? 1442 29.89                             148    0.0010 3.50 3564
 N4       S   0   1442 31.51                             148   -0.0010 3.50 3564
 N2       P   0 ? 1442 29.91                             145    0.0010 3.78  724
 N2       S   0   1442 31.55                             145   -0.0010 3.78  724
 N1       P   0 ? 1442 29.96                             142   -0.0010 4.21  974
 N1       S   0   1442 31.63                             142   -0.0210 4.21  974
 CAMP     P   0 ? 1442 30.08                             134    0.0010 5.24  754
 CAMP     S   0   1442 31.85                             134   -0.0110 5.24  754
 N6       P   0 ? 1442 30.17                             129   -0.0010 5.89  144
 N6       S   0   1442 32.02                             129   -0.0110 5.89  144
 N10      P   0 ? 1442 30.39                             119    0.0110 7.38 3574
 N10      S   0   1442 32.41                             119   -0.0010 7.38 3574
 N9       P   0 ? 1442 30.48                             116    0.0110 7.97  184
 N9       S   0   1442 32.57                             116    0.0010 7.97  184
 N11      P   0 ? 1442 30.64                             111    0.0110 8.95 3414
 N11      S   0   1442 32.86                             111    0.0110 8.95 3414
                                                                                
 2021  2 2 1536 41.5 L  28.829  50.857  8.6  SLT  9 0.0                        1
 GAP=255        0.18       0.6     1.0  0.7  0.3824E+00  0.3285E+00  0.7871E-01E
 STAT SP IPHASW D HRMN SECON CODA AMPLIT PERI AZIMU VELO AIN AR TRES W  DIS CAZ7
 N3       P   0 ? 1536 43.50                             163    0.0010 2.02  624
 N3       S   0   1536 45.12                             163   -0.0010 2.02  624
 N5       P   0 ? 1536 43.58                             153    0.0010 3.19  604
 N5       S   0   1536 45.27                             153    0.0010 3.19  604
 N4       P   0 ? 1536 43.58                             153    0.0010 3.28 3554
 N4       S   0   1536 45.27                             153   -0.0110 3.28 3554
 N2       P   0 ? 1536 43.61                             150    0.0010 3.67  754
 N2       S   0   1536 45.32                             150   -0.0010 3.67  754
 N1       P   0 ? 1536 43.66                             146   -0.0010 4.19 1004
 N1       S   0   1536 45.42                             146   -0.0110 4.19 1004
 CAMP     P   0 ? 1536 43.76                             139    0.0010 5.14  774
 CAMP     S   0   1536 45.60                             139    0.0010 5.14  774
 N6       P   0 ? 1536 43.83                             136    0.0010 5.66  144
 N6       S   0   1536 45.72                             136   -0.0110 5.66  144
 N10      P   0 ? 1536 44.02                             127   -0.0010 7.16 3564
 N10      S   0   1536 46.07                             127   -0.0110 7.16 3564
 N9       P   0 ? 1536 44.11                             124    0.0110 7.74  184
 N9       S   0   1536 46.22                             124    0.0010 7.74  184
                                                                                
