 2021  2 2 1122 56.6 L  29.218  51.378  5.5  SLT 33 0.1                        1
 GAP=282        0.26       1.4     2.0  1.9  0.2369E+01  0.3539E+01  0.2442E+01E
 STAT SP IPHASW D HRMN SECON CODA AMPLIT PERI AZIMU VELO AIN AR TRES W  DIS CAZ7
 ABAD     P   0 ? 1123  2.15                              43    0.0110 24.3 2114
 ABAD     S   0   1123  6.68                              43    0.0410 24.3 2114
 ABTL     P   0 ? 1123  2.82                              43   -0.0510 28.5 2434
 ABTL     S   0   1123  7.83                              43   -0.1210 28.5 2434
 P9       P   0 ? 1123  2.99                              43    0.0510 28.9 2154
 P9       S   0   1123  8.18                              43    0.1010 28.9 2154
 NOKA     P   0 ? 1123  3.68                              43   -0.0710 33.6 2644
 NOKA     S   0   1123  9.46                              43   -0.0910 33.6 2644
 TOLS     P   0 ? 1123  4.30                              43    0.0110 36.7 2244
 TOLS     S   0   1123 10.32                              43   -0.2010 36.7 2244
 P5       P   0 ? 1123  4.61                              43   -0.0410 38.8 2274
 P5       S   0   1123 11.16                              43   -0.0110 38.8 2274
 P4       P   0 ? 1123  5.24                              43   -0.0410 42.4 2294
 P4       S   0   1123 12.39                              43    0.0710 42.4 2294
 KHIA     P   0 ? 1123  5.46                              43   -0.0110 43.5 2084
 KHIA     S   0   1123 12.35                              43   -0.3110 43.5 2084
 P3       P   0 ? 1123  6.51                              43    0.0510 49.2 2334
 P3       S   0   1123 14.55                              43    0.1010 49.2 2334
 SHIF     P   0 ? 1123  6.87                              40   -0.0110 51.7 2514
 SHIF     S   0   1123 14.99                              40   -0.2310 51.7 2514
 P2       P   0 ? 1123  6.97                              40   -0.0410 52.5 2334
 P2       S   0   1123 15.39                              40   -0.0610 52.5 2334
 JNAK     P   0 ? 1123  7.49                              40   -0.1210 56.3 2124
 JNAK     S   0   1123 16.42                              40   -0.1210 56.3 2124
 KOLO     P   0 ? 1123  7.73                              40   -0.0310 57.1 1944
 N19      P   0 ? 1123  7.99                              40    0.0510 58.2 2394
 N19      S   0   1123 17.02                              40   -0.1110 58.2 2394
 N16      P   0 ? 1123  8.09                              40    0.0410 59.0 2374
 N16      S   0   1123 17.27                              40   -0.0610 59.0 2374
 N9       P   0 ? 1123  8.29                              40    0.0410 60.2 2344
 N9       S   0   1123 17.78                              40    0.0910 60.2 2344
 N15      P   0 ? 1123  8.32                              40   -0.0310 60.8 2374
 N15      S   0   1123 18.09                              40    0.2210 60.8 2374
 N18      P   0 ? 1123  8.50                              40   -0.0110 61.8 2394
 N18      S   0   1123 18.23                              40    0.0610 61.8 2394
 N6       P   0 ? 1123  8.54                              40   -0.0210 62.1 2334
 CAMP     P   0 ? 1123  8.62                              40    0.0610 62.1 2284
 CAMP     S   0   1123 18.36                              40    0.1110 62.1 2284
 N14      P   0 ? 1123  8.66                              40    0.0710 62.3 2384
 N17      P   0 ? 1123  8.54                              40   -0.0510 62.3 2414
 N14      S   0   1123 18.45                              40    0.1410 62.3 2384
 N17      S   0   1123 18.24                              40   -0.0610 62.3 2414
 N10      P   0 ? 1123  8.67                              40    0.03 9 62.6 2354
 N10      S   0   1123 18.57                              40    0.17 9 62.6 2354
 N7       P   0 ? 1123  8.85                              40    0.08 9 63.4 2344
 N7       S   0   1123 18.61                              40   -0.03 9 63.4 2344
 N2       P   0 ? 1123  8.73                              40   -0.02 9 63.4 2284
 N2       S   0   1123 18.61                              40    0.01 9 63.4 2284
 N5       P   0 ? 1123  8.84                              40    0.06 9 63.5 2294
 N5       S   0   1123 18.68                              40    0.02 9 63.5 2294
 N11      P   0 ? 1123  8.90                              40    0.03 9 64.0 2374
 N11      S   0   1123 18.77                              40   -0.04 9 64.0 2374
 N1       P   0 ? 1123  8.89                              40    0.02 9 64.1 2274
 N1       S   0   1123 18.79                              40   -0.03 9 64.1 2274
 N13      P   0 ? 1123  8.93                              40   -0.00 9 64.4 2384
 N13      S   0   1123 19.12                              40    0.19 9 64.4 2384
 N3       P   0 ? 1123  8.97                              40   -0.00 9 64.7 2294
 N3       S   0   1123 19.12                              40    0.12 9 64.7 2294
 N4       P   0 ? 1123  8.96                              40   -0.03 9 64.8 2324
 N4       S   0   1123 19.04                              40    0.01 9 64.8 2324
 DLRM     P   0 ? 1123  9.57                              40    0.07 9 68.0 2064
 DLRM     S   0   1123 19.99                              40    0.03 9 68.0 2064
 ABAS     P   0 ? 1123 10.90                              40    0.01 9 76.5 1864
                                                                                
 2021  2 2 1124  8.1 L  29.244  51.356  6.2  SLT  8 0.1                        1
 GAP=305        0.27       2.2     2.7  4.8  0.4943E+01  0.1144E+02  0.9575E+01E
 STAT SP IPHASW D HRMN SECON CODA AMPLIT PERI AZIMU VELO AIN AR TRES W  DIS CAZ7
 ABAD     P   0 ? 1124 13.81                              59   -0.0410 25.9 2034
 ABAD     S   0   1124 18.59                              59    0.0710 25.9 2034
 ABTL     P   0 ? 1124 14.25                              59    0.0110 28.1 2364
 ABTL     S   0   1124 19.35                              59    0.1410 28.1 2364
 P9       P   0 ? 1124 14.62                              59    0.0210 30.2 2094
 P9       S   0   1124 19.76                              59   -0.1110 30.2 2094
 NOKA     P   0 ? 1124 14.96                              59    0.0610 32.0 2594
 NOKA     S   0   1124 20.27                              59   -0.1310 32.0 2594
 TOLS     P   0 ? 1124 15.87                              59    0.0110 37.4 2184
 TOLS     S   0   1124 22.10                              59   -0.0410 37.4 2184
 P5       P   0 ? 1124 16.16                              59   -0.0210 39.3 2224
 P5       S   0   1124 22.79                              59    0.0610 39.3 2224
 KHIA     P   0 ? 1124 17.12                              59   -0.0710 45.1 2044
 KHIA     S   0   1124 24.47                              59   -0.0710 45.1 2044
 JNAK     P   0 ? 1124 19.32                              53    0.0610 57.6 2094
 JNAK     S   0   1124 28.35                              53    0.0510 57.6 2094
                                                                                
 2021  2 2 0015 45.0 L  28.940  50.796  7.9  SLT 13 0.1                        1
 GAP=264        0.24       0.6     0.9  0.7  0.8397E-01  0.7757E-01  0.9051E-01E
 STAT SP IPHASW D HRMN SECON CODA AMPLIT PERI AZIMU VELO AIN AR TRES W  DIS CAZ7
 N17      P   0 ? 0015 46.88                             157   -0.0110 2.40  894
 N17      S   0   0015 48.56                             157    0.1110 2.40  894
 N18      P   0 ? 0015 46.95                             147   -0.0410 3.57 1034
 N18      S   0   0015 48.70                             147    0.0810 3.57 1034
 N13      P   0 ? 0015 47.07                             141    0.0010 4.31 1494
 N13      S   0   0015 48.72                             141   -0.0510 4.31 1494
 N14      P   0 ? 0015 47.11                             139    0.0110 4.53 1224
 N14      S   0   0015 48.78                             139   -0.0310 4.53 1224
 N20      P   0 ? 0015 47.12                             137   -0.0010 4.79  544
 N20      S   0   0015 48.84                             137   -0.0210 4.79  544
 N11      P   0 ? 0015 47.15                             135   -0.0110 5.11 1444
 N11      S   0   0015 48.86                             135   -0.0710 5.11 1444
 N15      P   0 ? 0015 47.31                             126   -0.0210 6.37 1144
 N15      S   0   0015 49.30                             126    0.0610 6.37 1144
 N19      P   0 ? 0015 47.39                             123   -0.0010 6.81  854
 N19      S   0   0015 49.16                             123   -0.1910 6.81  854
 N16      P   0 ? 0015 47.55                             120    0.0910 7.31 1014
 N16      S   0   0015 49.53                             120    0.0510 7.31 1014
 N10      P   0 ? 0015 47.58                             119    0.0810 7.55 1344
 N10      S   0   0015 49.57                             119    0.0210 7.55 1344
 N7       P   0 ? 0015 47.65                             114    0.0110 8.39 1414
 N7       S   0   0015 49.68                             114   -0.1110 8.39 1414
 N9       P   0 ? 0015 47.74                             108   -0.1010 9.67 1214
 N9       S   0   0015 50.24                             108    0.0810 9.67 1214
 N6       P   0 ? 0015 47.93                             107    0.0210 10.0 1344
 N6       S   0   0015 50.33                             107    0.0510 10.0 1344
                                                                                
 2021  2 2 2112  5.4 L  28.921  51.106 10.6  SLT 34 0.1                        1
 GAP= 82        0.26       0.3     0.3  0.4  0.1667E-02  0.2643E-01  0.2504E-01E
 STAT SP IPHASW D HRMN SECON CODA AMPLIT PERI AZIMU VELO AIN AR TRES W  DIS CAZ7
 TOLS     P   0 ? 2112  8.13                             141    0.0110 6.56  104
 TOLS     S   0   2112 10.19                             141   -0.1110 6.56  104
 P5       P   0 ? 2112  8.12                             140   -0.0110 6.71 3444
 P5       S   0   2112 10.42                             140    0.0910 6.71 3444
 P4       P   0 ? 2112  8.30                             136    0.0710 7.54 3134
 P4       S   0   2112 10.52                             136    0.0210 7.54 3134
 KHIA     P   0 ? 2112  8.30                             134    0.0210 7.92 1324
 KHIA     S   0   2112 10.40                             134   -0.2010 7.92 1324
 P3       P   0 ? 2112  9.04                             117    0.0410 13.0 2844
 P3       S   0   2112 11.90                             117   -0.0010 13.0 2844
 P9       P   0 ? 2112  9.04                             116   -0.0510 13.5  464
 JNAK     P   0 ? 2112  9.36                             112    0.0210 15.1 1924
 JNAK     S   0   2112 12.63                             112    0.1210 15.1 1924
 P2       P   0 ? 2112  9.48                             111    0.0510 15.7 2764
 P2       S   0   2112 12.42                             111   -0.2610 15.7 2764
 ABAD     P   0 ? 2112  9.99                             107    0.0810 18.6  504
 P1       P   0 ? 2112 10.07                             106    0.0910 19.1 2734
 P1       S   0   2112 13.86                             106    0.1810 19.1 2734
 ABTL     P   0 ? 2112 10.13                             105   -0.0210 20.0   34
 CAMP     P   0 ? 2112 10.28                             104   -0.0710 21.3 2454
 CAMP     S   0   2112 14.25                             104   -0.0910 21.3 2454
 N9       P   0 ? 2112 10.53                             104    0.0410 22.1 2634
 N9       S   0   2112 14.59                             104   -0.0010 22.1 2634
 N2       P   0 ? 2112 10.68                             103    0.0910 22.7 2464
 N2       S   0   2112 14.67                             103   -0.1010 22.7 2464
 N1       P   0 ? 2112 10.70                             103    0.0710 22.9 2424
 N1       S   0   2112 14.75                             103   -0.1010 22.9 2424
 N16      P   0 ? 2112 10.69                             103    0.0510 23.0 2724
 N16      S   0   2112 14.78                             103   -0.0810 23.0 2724
 N5       P   0 ? 2112 10.67                             103   -0.0010 23.2 2484
 N5       S   0   2112 14.98                             103    0.0510 23.2 2484
 N6       P   0 ? 2112 10.71                             103    0.0010 23.4 2584
 N6       S   0   2112 15.17                             103    0.1810 23.4 2584
 N19      P   0 ? 2112 10.70                             102   -0.0410 23.5 2774
 N19      S   0   2112 15.04                             102   -0.0010 23.5 2774
 N15      P   0 ? 2112 10.92                             102    0.0510 24.3 2694
 N3       P   0 ? 2112 10.83                             102   -0.0410 24.3 2484
 N15      S   0   2112 15.32                             102    0.0310 24.3 2694
 N3       S   0   2112 15.16                             102   -0.1210 24.3 2484
 N10      P   0 ? 2112 11.03                              68    0.0610 24.9 2634
 N10      S   0   2112 15.53                              68    0.0710 24.9 2634
 N7       P   0 ? 2112 11.04                              68    0.0210 25.2 2604
 N7       S   0   2112 15.64                              68    0.0910 25.2 2604
 N4       P   0 ? 2112 11.02                              68   -0.0410 25.5 2544
 N4       S   0   2112 15.56                              68   -0.0710 25.5 2544
 KOLO     P   0 ? 2112 11.23                              68    0.0610 26.1 1504
 KOLO     S   0   2112 15.70                              68   -0.1310 26.1 1504
 N14      P   0 ? 2112 11.24                              68    0.0510 26.3 2704
 N14      S   0   2112 15.80                              68   -0.0610 26.3 2704
 N20      P   0 ? 2112 11.26                              68   -0.0010 26.7 2814
 N20      S   0   2112 15.86                              68   -0.1310 26.7 2814
 N18      P   0 ? 2112 11.28                              68    0.0310 26.7 2734
 N18      S   0   2112 15.87                              68   -0.1110 26.7 2734
 N11      P   0 ? 2112 11.33                              68   -0.0110 27.2 2664
 N11      S   0   2112 16.26                              68    0.1210 27.2 2664
 N17      P   0 ? 2112 11.42                              68   -0.0210 27.8 2754
 N17      S   0   2112 16.34                              68    0.0310 27.8 2754
 SHIF     P   0 ? 2112 11.39                              68   -0.0610 27.9 3064
 N13      P   0 ? 2112 11.51                              68    0.0510 28.0 2674
 N13      S   0   2112 16.29                              68   -0.0710 28.0 2674
 NOKA     P   0 ? 2112 11.76                              68   -0.0610 30.2 3474
 ABAS     P   0 ? 2112 14.63                              68    0.1410 46.7 1574
                                                                                
