 2021  2 2 0301 32.5 L  28.967  51.129 12.4  SLT 22 0.1                        1
 GAP= 79        0.20       0.4     0.4  0.8 -0.4521E-01  0.1643E+00  0.1377E-01E
 STAT SP IPHASW D HRMN SECON CODA AMPLIT PERI AZIMU VELO AIN AR TRES W  DIS CAZ7
 TOLS     P   0 ? 0301 35.19                             170    0.0410 1.79 3204
 P5       P   0 ? 0301 35.28                             156    0.0110 4.29 2894
 P4       P   0 ? 0301 35.64                             139    0.0610 7.77 2704
 P9       P   0 ? 0301 35.66                             135   -0.0210 8.65  614
 P9       S   0   0301 38.27                             135    0.0410 8.65  614
 KHIA     P   0 ? 0301 35.96                             126   -0.0110 11.0 1614
 KHIA     S   0   0301 38.64                             126   -0.1210 11.0 1614
 ABAD     P   0 ? 0301 36.28                             117   -0.0810 13.8  604
 ABAD     S   0   0301 39.50                             117    0.0410 13.8  604
 ABTL     P   0 ? 0301 36.47                             114   -0.0510 14.9 3564
 ABTL     S   0   0301 39.78                             114    0.0210 14.9 3564
 P3       P   0 ? 0301 36.54                             114    0.0110 15.0 2634
 P3       S   0   0301 39.79                             114    0.0310 15.0 2634
 P2       P   0 ? 0301 37.11                             107    0.1010 18.2 2594
 P2       S   0   0301 40.61                             107   -0.0410 18.2 2594
 AHRM     P   0 ? 0301 37.29                             104    0.0210 19.8 1254
 N9       P   0 ? 0301 38.15                              98    0.0010 25.4 2524
 N19      P   0 ? 0301 38.09                              98   -0.1110 25.7 2654
 N19      S   0   0301 42.74                              98   -0.0510 25.7 2654
 NOKA     P   0 ? 0301 38.24                              98   -0.0010 26.0 3394
 N12      P   0 ? 0301 38.40                              97    0.0710 26.6 2564
 N12      S   0   0301 42.99                              97   -0.0510 26.6 2564
 N15      P   0 ? 0301 38.47                              97    0.0410 27.1 2584
 N15      S   0   0301 43.10                              97   -0.1010 27.1 2584
 N5       P   0 ? 0301 38.51                              97    0.0410 27.4 2404
 N5       S   0   0301 43.34                              97    0.0610 27.4 2404
 N20      P   0 ? 0301 38.62                              96   -0.0210 28.5 2704
 N20      S   0   0301 43.51                              96   -0.0910 28.5 2704
 N7       P   0 ? 0301 38.66                              96   -0.0110 28.7 2514
 N7       S   0   0301 43.70                              96    0.0510 28.7 2514
 N18      P   0 ? 0301 38.71                              96   -0.0410 29.2 2634
 N18      S   0   0301 43.71                              96   -0.0710 29.2 2634
 N4       P   0 ? 0301 38.83                              96    0.0510 29.4 2464
 N4       S   0   0301 43.96                              96    0.1210 29.4 2464
 N17      P   0 ? 0301 38.85                              96   -0.0510 30.1 2654
 N11      P   0 ? 0301 38.98                              96    0.0610 30.2 2574
 N11      S   0   0301 44.16                              96    0.0610 30.2 2574
                                                                                
 2021  2 2 0348  0.9 L  28.971  51.133 14.8  SLT 19 0.1                        1
 GAP= 67        0.22       0.4     0.4  0.9 -0.1980E-01  0.1393E+00  0.1079E+00E
 STAT SP IPHASW D HRMN SECON CODA AMPLIT PERI AZIMU VELO AIN AR TRES W  DIS CAZ7
 TOLS     P   0 ? 0348  3.88                             171   -0.0010 1.84 3004
 P5       P   0 ? 0348  3.96                             159   -0.0410 4.61 2814
 P9       P   0 ? 0348  4.28                             145    0.0210 8.04  624
 P9       S   0   0348  7.12                             145    0.1110 8.04  624
 P4       P   0 ? 0348  4.25                             145   -0.0210 8.23 2674
 KHIA     P   0 ? 0348  4.58                             134   -0.0210 11.3 1644
 KHIA     S   0   0348  7.51                             134   -0.1210 11.3 1644
 ABAD     P   0 ? 0348  4.75                             129   -0.0810 13.1  614
 ABAD     S   0   0348  8.11                             129    0.0710 13.1  614
 ABTL     P   0 ? 0348  4.94                             126   -0.0610 14.5 3544
 ABTL     S   0   0348  8.35                             126   -0.0110 14.5 3544
 P3       P   0 ? 0348  5.11                             123   -0.0210 15.5 2614
 P3       S   0   0348  8.46                             123   -0.1210 15.5 2614
 P2       P   0 ? 0348  5.66                             117    0.0810 18.8 2584
 P2       S   0   0348  9.50                             117    0.1010 18.8 2584
 AHRM     P   0 ? 0348  5.75                             115    0.0210 19.7 1274
 N9       P   0 ? 0348  6.65                             107   -0.0110 26.0 2514
 N9       S   0   0348 11.45                             107    0.0910 26.0 2514
 CAMP     P   0 ? 0348  6.61                             107   -0.1110 26.4 2364
 CAMP     S   0   0348 11.51                             107    0.0510 26.4 2364
 N12      P   0 ? 0348  6.85                             106    0.0110 27.1 2554
 N12      S   0   0348 11.68                             106   -0.0010 27.1 2554
 N20      P   0 ? 0348  7.18                             105    0.0510 29.0 2694
 N20      S   0   0348 12.18                             105   -0.0210 29.0 2694
 N18      P   0 ? 0348  7.27                             104    0.0410 29.7 2624
 N18      S   0   0348 12.37                             104   -0.0210 29.7 2624
 N4       P   0 ? 0348  7.31                             104    0.0310 30.0 2454
 N4       S   0   0348 12.40                             104   -0.0810 30.0 2454
 N11      P   0 ? 0348  7.38                             103   -0.0310 30.8 2564
 N11      S   0   0348 12.81                             103    0.1010 30.8 2564
 N13      P   0 ? 0348  7.50                             103   -0.0110 31.4 2574
 N13      S   0   0348 12.84                             103   -0.0610 31.4 2574
 DLRM     P   0 ? 0348  7.94                             101   -0.0310 34.3 1894
 DLRM     S   0   0348 13.82                             101    0.1010 34.3 1894
                                                                                
 2021  2 2 0411 34.2 L  28.966  51.128 11.6  SLT 11 0.1                        1
 GAP=100        0.26       0.6     0.5  0.8 -0.8935E-01  0.8041E-01  0.3198E-01E
 STAT SP IPHASW D HRMN SECON CODA AMPLIT PERI AZIMU VELO AIN AR TRES W  DIS CAZ7
 TOLS     P   0 ? 0411 36.78                             169    0.0310 1.80 3234
 TOLS     S   0   0411 38.62                             169   -0.1610 1.80 3234
 P5       P   0 ? 0411 36.88                             154    0.0010 4.26 2904
 P5       S   0   0411 39.08                             154    0.0710 4.26 2904
 P4       P   0 ? 0411 37.25                             136    0.0510 7.72 2714
 P4       S   0   0411 39.70                             136    0.1110 7.72 2714
 P9       P   0 ? 0411 37.33                             131    0.0110 8.72  604
 P9       S   0   0411 39.90                             131    0.0910 8.72  604
 KHIA     P   0 ? 0411 37.59                             122   -0.0210 10.9 1604
 KHIA     S   0   0411 40.32                             122   -0.0210 10.9 1604
 ABAD     P   0 ? 0411 38.02                             112   -0.0110 13.8  604
 ABAD     S   0   0411 41.03                             112   -0.0710 13.8  604
 P3       P   0 ? 0411 38.16                             109   -0.0310 14.9 2634
 P3       S   0   0411 41.29                             109   -0.0910 14.9 2634
 ABTL     P   0 ? 0411 38.26                             109    0.0610 15.0 3564
 ABTL     S   0   0411 41.34                             109   -0.0710 15.0 3564
 P2       P   0 ? 0411 38.79                             101    0.1010 18.2 2594
 P2       S   0   0411 42.31                             101    0.0210 18.2 2594
 N12      P   0 ? 0411 40.10                              93    0.0710 26.5 2564
 N12      S   0   0411 44.57                              93   -0.1510 26.5 2564
 N4       P   0 ? 0411 40.50                              93    0.0210 29.3 2464
                                                                                
 2021  2 2 0520 32.9 L  28.962  51.127 11.6  SLT  7 0.1                        1
 GAP=116        0.26       0.6     0.7  1.1 -0.1017E-02 -0.2946E+00 -0.1100E+00E
 STAT SP IPHASW D HRMN SECON CODA AMPLIT PERI AZIMU VELO AIN AR TRES W  DIS CAZ7
 TOLS     P   0 ? 0520 35.39                             167    0.0010 2.12 3344
 TOLS     S   0   0520 37.39                             167   -0.0310 2.12 3344
 P5       P   0 ? 0520 35.46                             154   -0.0410 4.30 2964
 P5       S   0   0520 37.74                             154    0.1010 4.30 2964
 P4       P   0 ? 0520 35.82                             136    0.0110 7.58 2744
 P4       S   0   0520 38.17                             136   -0.0210 7.58 2744
 P9       P   0 ? 0520 36.02                             130    0.0310 9.10  584
 P9       S   0   0520 38.50                             130   -0.0210 9.10  584
 KHIA     P   0 ? 0520 36.30                             124    0.1110 10.6 1594
 KHIA     S   0   0520 38.76                             124   -0.1110 10.6 1594
 ABAD     P   0 ? 0520 36.74                             111    0.0310 14.2  584
 ABAD     S   0   0520 39.86                             111    0.0310 14.2  584
 ABTL     P   0 ? 0520 36.84                             108   -0.0610 15.4 3574
 ABTL     S   0   0520 40.12                             108   -0.0410 15.4 3574
                                                                                
 2021  2 2 1610 59.4 L  28.985  51.009 12.2  SLT 25 0.1                        1
 GAP= 82        0.25       0.4     0.4  0.7 -0.7853E-01  0.8489E-01 -0.6734E-01E
 STAT SP IPHASW D HRMN SECON CODA AMPLIT PERI AZIMU VELO AIN AR TRES W  DIS CAZ7
 P4       P   0 ? 1611  2.12                             155    0.0210 4.37 1174
 P4       S   0   1611  4.41                             155    0.1110 4.37 1174
 P3       P   0 ? 1611  2.16                             151    0.0110 5.15 2194
 P3       S   0   1611  4.50                             151    0.1010 5.15 2194
 P5       P   0 ? 1611  2.43                             139    0.0410 7.62  954
 P5       S   0   1611  4.79                             139   -0.0310 7.62  954
 P2       P   0 ? 1611  2.48                             135    0.0110 8.37 2284
 P2       S   0   1611  4.94                             135   -0.0310 8.37 2284
 TOLS     P   0 ? 1611  2.72                             127   -0.0210 10.5  944
 TOLS     S   0   1611  5.33                             127   -0.1310 10.5  944
 P1       P   0 ? 1611  2.84                             123   -0.0210 11.5 2374
 P1       S   0   1611  5.56                             123   -0.1110 11.5 2374
 N19      P   0 ? 1611  3.31                             114    0.0010 14.6 2534
 N19      S   0   1611  6.54                             114    0.0510 14.6 2534
 N9       P   0 ? 1611  3.54                             110    0.0310 16.0 2314
 N9       S   0   1611  6.74                             110   -0.1210 16.0 2314
 SHIF     P   0 ? 1611  3.65                             110    0.1210 16.1 3054
 SHIF     S   0   1611  6.92                             110    0.0310 16.1 3054
 N12      P   0 ? 1611  3.61                             109    0.0210 16.5 2394
 N12      S   0   1611  7.09                             109    0.1010 16.5 2394
 ABTL     P   0 ? 1611  3.65                             109    0.0410 16.6  394
 ABTL     S   0   1611  6.87                             109   -0.1710 16.6  394
 N15      P   0 ? 1611  3.54                             109   -0.0810 16.7 2434
 N15      S   0   1611  7.09                             109    0.0310 16.7 2434
 N20      P   0 ? 1611  3.70                             108    0.0410 17.0 2634
 N20      S   0   1611  6.96                             108   -0.1710 17.0 2634
 N6       P   0 ? 1611  3.89                             106    0.0710 17.9 2294
 N6       S   0   1611  7.42                             106    0.0110 17.9 2294
 N18      P   0 ? 1611  3.91                             106    0.0610 18.2 2524
 N18      S   0   1611  7.61                             106    0.1410 18.2 2524
 N14      P   0 ? 1611  3.94                             105    0.0610 18.4 2474
 N14      S   0   1611  7.30                             105   -0.2310 18.4 2474
 N17      P   0 ? 1611  3.95                             104   -0.0210 19.0 2554
 N17      S   0   1611  7.62                             104   -0.0710 19.0 2554
 CAMP     P   0 ? 1611  3.94                             104   -0.0310 19.0 2114
 CAMP     S   0   1611  7.87                             104    0.1910 19.0 2114
 P9       P   0 ? 1611  3.98                             104   -0.0510 19.3  834
 KHIA     P   0 ? 1611  4.10                             103    0.0110 19.7 1294
 N11      P   0 ? 1611  4.20                             103    0.0710 19.9 2434
 N5       P   0 ? 1611  4.06                             103   -0.0510 19.9 2184
 N5       S   0   1611  7.97                             103    0.0310 19.9 2184
 N11      S   0   1611  7.91                             103   -0.0610 19.9 2434
 N13      P   0 ? 1611  4.23                             102    0.0310 20.5 2454
 N13      S   0   1611  8.05                             102   -0.0610 20.5 2454
 N4       P   0 ? 1611  4.19                             102   -0.0510 20.7 2274
 N4       S   0   1611  8.13                             102   -0.0410 20.7 2274
 NOKA     P   0 ? 1611  4.56                              99    0.0510 22.4   64
 NOKA     S   0   1611  8.73                              99    0.0610 22.4   64
                                                                                
 2021  2 2 1611 36.2 L  28.996  51.001 15.0  SLT  7 0.1                        1
 GAP=212        0.27       1.8     0.6  1.5 -0.2620E+00 -0.2281E-01 -0.8348E+00E
 STAT SP IPHASW D HRMN SECON CODA AMPLIT PERI AZIMU VELO AIN AR TRES W  DIS CAZ7
 P2       P   0 ? 1611 39.66                             143   -0.0110 8.68 2194
 P2       S   0   1611 42.45                             143   -0.0310 8.68 2194
 TOLS     P   0 ? 1611 39.88                             134   -0.1010 11.5  994
 P1       S   0   1611 43.10                             134    0.0710 11.5 2304
 TOLS     S   0   1611 43.07                             134    0.0410 11.5  994
 P1       P   0 ? 1611 40.02                             134    0.0410 11.5 2304
 N12      P   0 ? 1611 40.63                             122    0.0210 16.4 2344
 N12      S   0   1611 44.18                             122    0.0110 16.4 2344
 N15      P   0 ? 1611 40.68                             121    0.0510 16.6 2384
 N15      S   0   1611 44.02                             121   -0.1910 16.6 2384
 N18      P   0 ? 1611 40.83                             119    0.0310 17.9 2474
 N18      S   0   1611 44.59                             119    0.0710 17.9 2474
 KHIA     P   0 ? 1611 41.25                             114   -0.0310 21.1 1304
 KHIA     S   0   1611 45.43                             114    0.0410 21.1 1304
                                                                                
