 2021  2 2 2345 28.9 L  28.974  51.013 13.8  SLT 23 0.1                        1
 GAP= 98        0.22       0.6     0.4  0.7 -0.1765E+00  0.3996E-01 -0.9653E-01E
 STAT SP IPHASW D HRMN SECON CODA AMPLIT PERI AZIMU VELO AIN AR TRES W  DIS CAZ7
 P4       P   0 ? 2345 31.82                             162   -0.0010 3.57 1024
 P3       P   0 ? 2345 31.87                             157   -0.0110 4.54 2334
 P3       S   0   2345 34.24                             157   -0.0410 4.54 2334
 P5       P   0 ? 2345 32.12                             146    0.0410 7.22  854
 P5       S   0   2345 34.76                             146    0.1010 7.22  854
 P2       P   0 ? 2345 32.15                             143    0.0010 7.91 2374
 P2       S   0   2345 34.87                             143    0.1010 7.91 2374
 TOLS     P   0 ? 2345 32.37                             135   -0.0210 10.1  874
 TOLS     S   0   2345 35.18                             135   -0.0310 10.1  874
 P1       P   0 ? 2345 32.48                             131   -0.0310 11.2 2444
 P1       S   0   2345 35.41                             131   -0.0210 11.2 2444
 N19      P   0 ? 2345 32.96                             121   -0.0110 14.7 2584
 N19      S   0   2345 36.22                             121   -0.0410 14.7 2584
 N16      P   0 ? 2345 33.02                             121    0.0310 14.8 2504
 N16      S   0   2345 36.24                             121   -0.0510 14.8 2504
 N9       P   0 ? 2345 33.19                             119    0.1010 15.6 2364
 N9       S   0   2345 36.34                             119   -0.1310 15.6 2364
 N12      P   0 ? 2345 33.25                             118    0.0710 16.2 2444
 N12      S   0   2345 36.69                             118    0.0510 16.2 2444
 N15      P   0 ? 2345 33.25                             117    0.0210 16.6 2484
 N15      S   0   2345 36.64                             117   -0.0910 16.6 2484
 N20      P   0 ? 2345 33.42                             116    0.0910 17.3 2674
 ABTL     S   0   2345 36.86                             116   -0.1010 17.4  364
 N6       P   0 ? 2345 33.26                             115   -0.1010 17.4 2334
 N6       S   0   2345 36.99                             115    0.0210 17.4 2334
 ABTL     P   0 ? 2345 33.37                             116    0.0110 17.4  364
 N10      P   0 ? 2345 33.50                             114    0.0510 18.1 2404
 N10      S   0   2345 37.23                             114    0.0910 18.1 2404
 N18      P   0 ? 2345 33.46                             114   -0.0110 18.2 2564
 N18      S   0   2345 37.23                             114    0.0610 18.2 2564
 N14      P   0 ? 2345 33.48                             114   -0.0110 18.3 2514
 N14      S   0   2345 37.03                             114   -0.1710 18.3 2514
 KHIA     P   0 ? 2345 33.50                             113   -0.0410 18.6 1274
 N17      P   0 ? 2345 33.56                             112   -0.0410 19.1 2594
 N2       P   0 ? 2345 33.63                             112    0.0310 19.1 2184
 P9       P   0 ? 2345 33.53                             112   -0.0810 19.1  794
 N17      S   0   2345 37.45                             112    0.0610 19.1 2594
 NOKA     P   0 ? 2345 34.35                             106    0.0610 23.6   54
 ABAD     P   0 ? 2345 34.38                             106    0.0210 24.0  754
                                                                                
 2021  2 2 2348 45.1 L  28.980  51.015 12.8  SLT 14 0.1                        1
 GAP=141        0.24       1.0     0.5  0.8 -0.4270E+00  0.1735E+00 -0.3147E+00E
 STAT SP IPHASW D HRMN SECON CODA AMPLIT PERI AZIMU VELO AIN AR TRES W  DIS CAZ7
 P4       P   0 ? 2348 47.83                             160    0.0110 3.59 1144
 P4       S   0   2348 50.16                             160    0.1010 3.59 1144
 P3       P   0 ? 2348 47.91                             152   -0.0210 5.16 2284
 P3       S   0   2348 50.34                             152    0.1010 5.16 2284
 P2       P   0 ? 2348 48.28                             137    0.0410 8.48 2344
 P2       S   0   2348 50.74                             137   -0.0610 8.48 2344
 TOLS     P   0 ? 2348 48.37                             132   -0.0410 9.91  914
 TOLS     S   0   2348 51.02                             132   -0.0910 9.91  914
 P1       P   0 ? 2348 48.64                             125    0.0110 11.7 2414
 P1       S   0   2348 51.41                             125   -0.1110 11.7 2414
 N19      P   0 ? 2348 49.07                             116   -0.0310 15.0 2554
 N19      S   0   2348 52.42                             116    0.0610 15.0 2554
 N16      P   0 ? 2348 49.12                             115   -0.0110 15.3 2484
 N16      S   0   2348 52.28                             115   -0.1410 15.3 2484
 ABTL     S   0   2348 52.83                             112    0.0310 16.7  364
 N12      P   0 ? 2348 49.46                             112    0.1210 16.7 2424
 N12      S   0   2348 52.82                             112    0.0110 16.7 2424
 ABTL     P   0 ? 2348 49.34                             112   -0.0010 16.7  364
 N15      P   0 ? 2348 49.46                             111    0.0710 17.0 2464
 N15      S   0   2348 52.77                             111   -0.1210 17.0 2464
 N6       P   0 ? 2348 49.57                             109    0.0210 18.0 2314
 N6       S   0   2348 53.28                             109    0.1010 18.0 2314
 N18      P   0 ? 2348 49.54                             108   -0.0910 18.6 2544
 N18      S   0   2348 53.37                             108    0.0510 18.6 2544
 N14      P   0 ? 2348 49.73                             108    0.0810 18.7 2494
 N14      S   0   2348 53.32                             108   -0.0410 18.7 2494
 P9       P   0 ? 2348 49.66                             108    0.0010 18.8  824
 P9       S   0   2348 53.34                             108   -0.0410 18.8  824
                                                                                
 2021  2 2 0213  0.1 L  28.645  51.115 10.4  SLT  9 0.1                        1
 GAP=175        0.30       0.7     0.8  0.9  0.2493E+00 -0.4245E-01 -0.7765E-01E
 STAT SP IPHASW D HRMN SECON CODA AMPLIT PERI AZIMU VELO AIN AR TRES W  DIS CAZ7
 DLRM     P   0 ? 0213  2.52                             152   -0.0310 4.31 3014
 DLRM     S   0   0213  4.64                             152    0.1010 4.31 3014
 KOLO     P   0 ? 0213  3.92                             113   -0.0110 14.7  574
 KOLO     S   0   0213  7.11                             113    0.0710 14.7  574
 JNAK     P   0 ? 0213  4.19                             110    0.0110 16.3 3454
 JNAK     S   0   0213  7.24                             110   -0.2510 16.3 3454
 ABAS     P   0 ? 0213  4.96                             104   -0.0510 21.2 1264
 ABAS     S   0   0213  8.96                             104   -0.0410 21.2 1264
 KHIA     P   0 ? 0213  5.78                             101   -0.0010 25.8  114
 KHIA     S   0   0213 10.49                             101    0.0910 25.8  114
 AHRM     P   0 ? 0213  6.47                              68   -0.0110 30.0  364
 P4       P   0 ? 0213  7.47                              68   -0.0110 36.3 3504
 N14      P   0 ? 0213  8.22                              68    0.0110 40.8 3184
 N19      P   0 ? 0213  8.39                              68    0.1010 41.3 3244
                                                                                
 2021  2 2 1400  5.5 L  29.247  51.365  6.2  SLT  8 0.1                        1
 GAP=291        0.28       2.4     2.8  5.1  0.5577E+01  0.1278E+02  0.1105E+02E
 STAT SP IPHASW D HRMN SECON CODA AMPLIT PERI AZIMU VELO AIN AR TRES W  DIS CAZ7
 ABAD     P   0 ? 1400 11.31                              59   -0.0310 26.6 2054
 ABAD     S   0   1400 16.18                              59    0.1010 26.6 2054
 ABTL     P   0 ? 1400 11.79                              59    0.0210 29.0 2364
 ABTL     S   0   1400 17.01                              59    0.1410 29.0 2364
 P9       P   0 ? 1400 12.13                              59    0.0410 30.9 2104
 P9       S   0   1400 17.36                              59   -0.1010 30.9 2104
 NOKA     P   0 ? 1400 12.51                              59    0.0810 32.9 2584
 NOKA     S   0   1400 17.93                              59   -0.1410 32.9 2584
 AHRM     P   0 ? 1400 14.12                              59   -0.0710 42.9 1894
 P4       P   0 ? 1400 14.29                              59   -0.0110 43.7 2254
 P4       S   0   1400 21.42                              59   -0.0410 43.7 2254
 KHIA     P   0 ? 1400 14.62                              59   -0.0510 45.7 2054
 KHIA     S   0   1400 22.07                              59   -0.0510 45.7 2054
 JNAK     P   0 ? 1400 16.80                              53    0.0610 58.4 2094
 JNAK     S   0   1400 25.92                              53    0.0510 58.4 2094
                                                                                
 2021  2 2 1834 28.7 L  29.243  51.365  5.5  SLT  8 0.1                        1
 GAP=305        0.28       2.9     3.7  3.8  0.9790E+01  0.1319E+02  0.1064E+02E
 STAT SP IPHASW D HRMN SECON CODA AMPLIT PERI AZIMU VELO AIN AR TRES W  DIS CAZ7
 ABAD     P   0 ? 1834 34.53                              43   -0.0510 26.2 2054
 ABAD     S   0   1834 39.41                              43    0.0710 26.2 2054
 ABTL     P   0 ? 1834 35.05                              43    0.0110 28.8 2374
 ABTL     S   0   1834 40.31                              43    0.1510 28.8 2374
 P9       P   0 ? 1834 35.36                              43    0.0210 30.6 2104
 P9       S   0   1834 40.61                              43   -0.1110 30.6 2104
 NOKA     P   0 ? 1834 35.79                              43    0.0710 32.8 2594
 NOKA     S   0   1834 41.27                              43   -0.1410 32.8 2594
 TOLS     P   0 ? 1834 36.63                              43    0.0110 37.9 2204
 TOLS     S   0   1834 42.99                              43   -0.0410 37.9 2204
 P4       P   0 ? 1834 37.54                              43   -0.0210 43.4 2254
 P4       S   0   1834 44.80                              43    0.0710 43.4 2254
 KHIA     P   0 ? 1834 37.84                              43   -0.0710 45.3 2054
 KHIA     S   0   1834 45.27                              43   -0.1010 45.3 2054
 DLRM     P   0 ? 1834 42.01                              40    0.07 9 69.9 2044
 DLRM     S   0   1834 52.75                              40    0.09 9 69.9 2044
                                                                                
 2021  2 2 2251 43.5 L  29.243  51.374  7.5  SLT  7 0.1                        1
 GAP=307        0.32       1.2     1.5  2.6  0.3525E-01 -0.1196E+01  0.6852E+00E
 STAT SP IPHASW D HRMN SECON CODA AMPLIT PERI AZIMU VELO AIN AR TRES W  DIS CAZ7
 ABAD     P   0 ? 2251 49.31                              92    0.0110 26.5 2074
 ABAD     S   0   2251 54.00                              92    0.0210 26.5 2074
 ABTL     P   0 ? 2251 49.79                              91   -0.0210 29.5 2384
 ABTL     S   0   2251 55.09                              91    0.1810 29.5 2384
 P9       P   0 ? 2251 50.13                              91    0.0610 31.0 2124
 P9       S   0   2251 55.47                              91    0.1010 31.0 2124
 NOKA     P   0 ? 2251 50.52                              91   -0.0010 33.6 2594
 NOKA     S   0   2251 56.16                              91   -0.0310 33.6 2594
 TOLS     P   0 ? 2251 51.38                              91    0.0210 38.4 2214
 TOLS     S   0   2251 57.46                              91   -0.2610 38.4 2214
 P5       P   0 ? 2251 51.67                              91   -0.0310 40.4 2244
 P5       S   0   2251 58.30                              91   -0.0310 40.4 2244
 KHIA     P   0 ? 2251 52.59                              68   -0.0410 45.7 2064
 KHIA     S   0   2252  0.03                              68    0.0310 45.7 2064
                                                                                
 2021  2 2 0233 45.0 L  29.245  51.377  6.5  SLT  9 0.1                        1
 GAP=307        0.29       3.3     4.8  8.8  0.1491E+02  0.4103E+02  0.2811E+02E
 STAT SP IPHASW D HRMN SECON CODA AMPLIT PERI AZIMU VELO AIN AR TRES W  DIS CAZ7
 ABAD     P   0 ? 0233 50.86                              59    0.0210 26.8 2074
 ABAD     S   0   0233 55.77                              59    0.1710 26.8 2074
 ABTL     P   0 ? 0233 51.34                              59   -0.0210 29.8 2384
 ABTL     S   0   0233 56.56                              59    0.0110 29.8 2384
 P9       P   0 ? 0233 51.68                              59    0.0710 31.3 2124
 P9       S   0   0233 56.82                              59   -0.1810 31.3 2124
 NOKA     P   0 ? 0233 52.04                              59   -0.0310 33.9 2594
 NOKA     S   0   0233 57.80                              59   -0.0210 33.9 2594
 TOLS     P   0 ? 0233 52.92                              59    0.0110 38.8 2214
 TOLS     S   0   0233 59.46                              59    0.1110 38.8 2214
 P5       P   0 ? 0233 53.21                              59   -0.0410 40.7 2244
 P5       S   0   0234  0.01                              59    0.0410 40.7 2244
 P4       P   0 ? 0233 53.83                              59   -0.0410 44.3 2264
 P4       S   0   0234  1.08                              59   -0.0010 44.3 2264
 KHIA     P   0 ? 0233 54.16                              59   -0.0110 46.0 2074
 KHIA     S   0   0234  1.48                              59   -0.1510 46.0 2074
 P3       P   0 ? 0233 55.06                              53    0.0610 50.9 2304
                                                                                
 2021  2 2 0724 56.8 L  29.251  51.368  8.2  SLT  6 0.1                        1
 GAP=307        0.27       1.1     1.4  1.7  0.1916E+00 -0.6855E+00  0.5220E+00E
 STAT SP IPHASW D HRMN SECON CODA AMPLIT PERI AZIMU VELO AIN AR TRES W  DIS CAZ7
 ABAD     P   0 ? 0725  2.69                              93   -0.0310 27.1 2054
 ABAD     S   0   0725  7.38                              93   -0.1010 27.1 2054
 ABTL     P   0 ? 0725  3.08                              93   -0.0610 29.5 2364
 ABTL     S   0   0725  8.21                              93   -0.0310 29.5 2364
 P9       P   0 ? 0725  3.50                              93    0.0310 31.4 2104
 P9       S   0   0725  8.98                              93    0.1410 31.4 2104
 NOKA     P   0 ? 0725  3.74                              93   -0.0410 33.2 2584
 NOKA     S   0   0725  9.44                              93    0.0410 33.2 2584
 KHIA     P   0 ? 0725  6.01                              68    0.0210 46.2 2054
 KHIA     S   0   0725 13.39                              68   -0.0110 46.2 2054
 JNAK     P   0 ? 0725  8.10                              68    0.0810 58.9 2094
 JNAK     S   0   0725 17.03                              68   -0.0410 58.9 2094
                                                                                
 2021  2 2 0100  6.0 L  28.980  51.331  6.3  SLT  4 0.0                        1
 GAP=250        0.29       0.9     1.8  1.4  0.1126E+01 -0.5094E+00 -0.6455E+00E
 STAT SP IPHASW D HRMN SECON CODA AMPLIT PERI AZIMU VELO AIN AR TRES W  DIS CAZ7
 ABAD     P   0 ? 0100  8.70                             106   -0.0310 9.45 3054
 P9       P   0 ? 0100  9.31                              98   -0.0210 12.4 2834
 P9       S   0   0100 12.08                              98    0.0310 12.4 2834
 AHRM     P   0 ? 0100  9.58                              97    0.0610 13.4 1954
 AHRM     S   0   0100 12.35                              97   -0.0410 13.4 1954
 ABTL     P   0 ? 0100 11.51                              59    0.0110 24.7 3034
 ABTL     S   0   0100 15.97                              59   -0.0110 24.7 3034
                                                                                
