 2021  2 2 2112 24.0 L  28.920  51.106 11.0  SLT 34 0.0                        1
 GAP= 82        0.10       0.2     0.2  0.2  0.2549E-02  0.1495E-01  0.8021E-02E
 STAT SP IPHASW D HRMN SECON CODA AMPLIT PERI AZIMU VELO AIN AR TRES W  DIS CAZ7
 TOLS     P   0 ? 2112 26.76                             142   -0.0010 6.63   94
 TOLS     S   0   2112 29.00                             142    0.0010 6.63   94
 P5       P   0 ? 2112 26.78                             141    0.0010 6.80 3444
 P5       S   0   2112 29.03                             141    0.0010 6.80 3444
 P4       P   0 ? 2112 26.87                             137    0.0010 7.63 3134
 P4       S   0   2112 29.19                             137   -0.0010 7.63 3134
 KHIA     P   0 ? 2112 26.90                             136   -0.0010 7.82 1324
 KHIA     S   0   2112 29.25                             136   -0.0010 7.82 1324
 P3       P   0 ? 2112 27.62                             119   -0.0110 13.1 2844
 P3       S   0   2112 30.56                             119   -0.0010 13.1 2844
 P9       P   0 ? 2112 27.70                             118   -0.0010 13.5  464
 JNAK     P   0 ? 2112 27.94                             114    0.0010 15.1 1924
 JNAK     S   0   2112 31.13                             114    0.0110 15.1 1924
 P2       P   0 ? 2112 28.05                             113    0.0010 15.8 2764
 P2       S   0   2112 31.34                             113    0.0110 15.8 2764
 ABAD     P   0 ? 2112 28.52                             109    0.0110 18.6  494
 P1       P   0 ? 2112 28.59                              68   -0.0010 19.1 2734
 P1       S   0   2112 32.31                              68    0.0010 19.1 2734
 ABTL     P   0 ? 2112 28.76                              68    0.0010 20.1   34
 CAMP     P   0 ? 2112 28.94                              68   -0.0010 21.3 2454
 CAMP     S   0   2112 32.94                              68    0.0010 21.3 2454
 N9       P   0 ? 2112 29.07                              68   -0.0110 22.1 2634
 N9       S   0   2112 33.18                              68   -0.0010 22.1 2634
 N2       P   0 ? 2112 29.17                              68    0.0010 22.7 2464
 N2       S   0   2112 33.35                              68   -0.0010 22.7 2464
 N1       P   0 ? 2112 29.21                              68    0.0010 22.9 2424
 N1       S   0   2112 33.42                              68   -0.0010 22.9 2424
 N16      P   0 ? 2112 29.22                              68   -0.0010 23.0 2724
 N16      S   0   2112 33.45                              68    0.0010 23.0 2724
 N5       P   0 ? 2112 29.25                              68    0.0010 23.2 2484
 N5       S   0   2112 33.50                              68    0.0010 23.2 2484
 N6       P   0 ? 2112 29.28                              68   -0.0110 23.4 2594
 N6       S   0   2112 33.56                              68   -0.0010 23.4 2594
 N19      P   0 ? 2112 29.31                              68   -0.0110 23.6 2774
 N19      S   0   2112 33.62                              68    0.0010 23.6 2774
 N3       P   0 ? 2112 29.43                              68   -0.0010 24.3 2484
 N15      P   0 ? 2112 29.44                              68   -0.0010 24.4 2694
 N15      S   0   2112 33.85                              68    0.0010 24.4 2694
 N10      P   0 ? 2112 29.53                              68   -0.0110 25.0 2634
 N10      S   0   2112 34.02                              68    0.0010 25.0 2634
 N7       P   0 ? 2112 29.58                              68   -0.0010 25.2 2604
 N7       S   0   2112 34.10                              68   -0.0010 25.2 2604
 N4       P   0 ? 2112 29.62                              68   -0.0010 25.5 2544
 N4       S   0   2112 34.18                              68    0.0010 25.5 2544
 KOLO     P   0 ? 2112 29.72                              68    0.0010 26.1 1504
 N14      P   0 ? 2112 29.76                              68    0.0010 26.3 2704
 N14      S   0   2112 34.42                              68   -0.0010 26.3 2704
 N20      P   0 ? 2112 29.83                              68   -0.0010 26.8 2814
 N20      S   0   2112 34.55                              68   -0.0010 26.8 2814
 N18      P   0 ? 2112 29.82                              68   -0.0010 26.8 2734
 N18      S   0   2112 34.54                              68    0.0010 26.8 2734
 N11      P   0 ? 2112 29.91                              68    0.0010 27.3 2664
 N11      S   0   2112 34.69                              68   -0.0010 27.3 2664
 N17      P   0 ? 2112 30.00                              68   -0.0010 27.9 2754
 N17      S   0   2112 34.86                              68   -0.0010 27.9 2754
 N13      P   0 ? 2112 30.03                              68    0.0010 28.0 2674
 N13      S   0   2112 34.91                              68   -0.0010 28.0 2674
 SHIF     P   0 ? 2112 30.02                              68   -0.0010 28.0 3064
 NOKA     P   0 ? 2112 30.40                              68    0.0010 30.3 3474
 ABAS     P   0 ? 2112 33.03                              68    0.0010 46.6 1574
                                                                                
 2021  2 2 2132 22.1 L  28.919  51.106 10.2  SLT 10 0.0                        1
 GAP= 82        0.18       0.3     0.3  0.7 -0.1258E-01  0.4597E-01  0.5037E-01E
 STAT SP IPHASW D HRMN SECON CODA AMPLIT PERI AZIMU VELO AIN AR TRES W  DIS CAZ7
 TOLS     P   0 ? 2132 24.78                             138   -0.0010 6.74   94
 TOLS     S   0   2132 26.95                             138    0.0010 6.74   94
 P5       P   0 ? 2132 24.79                             137   -0.0110 6.90 3454
 P5       S   0   2132 26.98                             137    0.0010 6.90 3454
 P4       P   0 ? 2132 24.89                             134   -0.0010 7.68 3144
 P4       S   0   2132 27.14                             134   -0.0110 7.68 3144
 KHIA     P   0 ? 2132 24.90                             133   -0.0110 7.77 1314
 KHIA     S   0   2132 27.18                             133   -0.0010 7.77 1314
 P9       P   0 ? 2132 25.77                             114    0.0010 13.6  464
 P9       S   0   2132 28.74                             114    0.0110 13.6  464
 JNAK     P   0 ? 2132 25.98                             111    0.0010 15.0 1924
 JNAK     S   0   2132 29.12                             111    0.0110 15.0 1924
 ABAD     P   0 ? 2132 26.60                             106    0.0010 18.7  494
 P1       P   0 ? 2132 26.66                             105   -0.0010 19.1 2734
 P1       S   0   2132 30.36                             105    0.0110 19.1 2734
 ABTL     P   0 ? 2132 26.85                             104   -0.0010 20.2   34
 N6       P   0 ? 2132 27.38                             101   -0.0010 23.3 2594
 N6       S   0   2132 31.65                             101   -0.0110 23.3 2594
                                                                                
 2021  2 2 2218 38.9 L  28.917  51.109 10.8  SLT 31 0.0                        1
 GAP= 83        0.10       0.2     0.2  0.2  0.1083E-02  0.1675E-01  0.8677E-02E
 STAT SP IPHASW D HRMN SECON CODA AMPLIT PERI AZIMU VELO AIN AR TRES W  DIS CAZ7
 TOLS     P   0 ? 2218 41.67                             140    0.0010 6.91   64
 TOLS     S   0   2218 43.91                             140   -0.0010 6.91   64
 P5       P   0 ? 2218 41.69                             139   -0.0110 7.20 3434
 P5       S   0   2218 43.96                             139   -0.0110 7.20 3434
 KHIA     P   0 ? 2218 41.72                             138   -0.0110 7.39 1314
 KHIA     S   0   2218 44.01                             138   -0.0110 7.39 1314
 P4       P   0 ? 2218 41.79                             135   -0.0110 8.06 3134
 P4       S   0   2218 44.13                             135   -0.0210 8.06 3134
 P3       P   0 ? 2218 42.57                             117    0.0110 13.4 2854
 P3       S   0   2218 45.54                             117    0.0110 13.4 2854
 P9       P   0 ? 2218 42.59                             117    0.0010 13.6  444
 P9       S   0   2218 45.59                             117    0.0110 13.6  444
 JNAK     P   0 ? 2218 42.79                             114    0.0110 14.8 1944
 JNAK     S   0   2218 45.94                             114    0.0110 14.8 1944
 P2       P   0 ? 2218 42.99                             112    0.0010 16.1 2774
 P2       S   0   2218 46.31                             112    0.0110 16.1 2774
 ABAD     P   0 ? 2218 43.41                             108    0.0110 18.6  484
 P1       P   0 ? 2218 43.53                             107   -0.0010 19.4 2744
 P1       S   0   2218 47.29                             107    0.0010 19.4 2744
 ABTL     P   0 ? 2218 43.70                             106   -0.0010 20.4   24
 CAMP     P   0 ? 2218 43.86                              68   -0.0010 21.4 2464
 CAMP     S   0   2218 47.87                              68   -0.0110 21.4 2464
 N9       P   0 ? 2218 44.01                              68   -0.0110 22.4 2644
 N9       S   0   2218 48.15                              68   -0.0110 22.4 2644
 N2       P   0 ? 2218 44.09                              68    0.0010 22.9 2474
 N2       S   0   2218 48.29                              68   -0.0110 22.9 2474
 N1       P   0 ? 2218 44.12                              68   -0.0010 23.0 2434
 N1       S   0   2218 48.35                              68   -0.0110 23.0 2434
 N5       P   0 ? 2218 44.17                              68   -0.0010 23.3 2494
 N5       S   0   2218 48.44                              68   -0.0110 23.3 2494
 N6       P   0 ? 2218 44.22                              68   -0.0010 23.6 2604
 N6       S   0   2218 48.53                              68   -0.0110 23.6 2604
 N19      P   0 ? 2218 44.27                              68    0.0010 23.9 2784
 N19      S   0   2218 48.61                              68   -0.0110 23.9 2784
 N3       P   0 ? 2218 44.36                              68    0.0010 24.5 2494
 N3       S   0   2218 48.78                              68   -0.0010 24.5 2494
 N15      P   0 ? 2218 44.39                              68   -0.0010 24.7 2704
 N15      S   0   2218 48.84                              68   -0.0010 24.7 2704
 N10      P   0 ? 2218 44.48                              68    0.0010 25.2 2644
 N10      S   0   2218 48.99                              68   -0.0110 25.2 2644
 N7       P   0 ? 2218 44.52                              68   -0.0010 25.5 2614
 N7       S   0   2218 49.08                              68    0.0010 25.5 2614
 KOLO     P   0 ? 2218 44.55                              68    0.0010 25.6 1504
 N4       P   0 ? 2218 44.56                              68    0.0010 25.7 2554
 N4       S   0   2218 49.14                              68   -0.0010 25.7 2554
 N14      P   0 ? 2218 44.71                              68    0.0010 26.6 2714
 N14      S   0   2218 49.41                              68   -0.0010 26.6 2714
 N18      P   0 ? 2218 44.78                              68    0.0110 27.1 2744
 N18      S   0   2218 49.54                              68    0.0110 27.1 2744
 N20      P   0 ? 2218 44.79                              68    0.0010 27.2 2824
 N20      S   0   2218 49.57                              68    0.0110 27.2 2824
 N11      P   0 ? 2218 44.86                              68    0.0110 27.5 2674
 N11      S   0   2218 49.68                              68    0.0010 27.5 2674
 N17      P   0 ? 2218 44.96                              68    0.0010 28.2 2754
 N17      S   0   2218 49.87                              68    0.0110 28.2 2754
 N13      P   0 ? 2218 44.98                              68    0.0110 28.3 2684
 N13      S   0   2218 49.91                              68    0.0110 28.3 2684
 SHIF     P   0 ? 2218 45.00                              68    0.0110 28.4 3064
 SHIF     S   0   2218 49.94                              68    0.0110 28.4 3064
                                                                                
 2021  2 2 2232 36.9 L  28.917  51.109 10.5  SLT 15 0.0                        1
 GAP= 83        0.16       0.3     0.3  0.5 -0.1382E-01  0.5145E-01  0.3393E-01E
 STAT SP IPHASW D HRMN SECON CODA AMPLIT PERI AZIMU VELO AIN AR TRES W  DIS CAZ7
 TOLS     P   0 ? 2232 39.62                             139   -0.0110 6.91   74
 TOLS     S   0   2232 41.83                             139   -0.0010 6.91   74
 P5       P   0 ? 2232 39.65                             137   -0.0010 7.18 3434
 P5       S   0   2232 41.89                             137    0.0010 7.18 3434
 KHIA     P   0 ? 2232 39.69                             136   -0.0010 7.42 1314
 KHIA     S   0   2232 41.94                             136   -0.0110 7.42 1314
 P4       P   0 ? 2232 39.75                             133   -0.0110 8.04 3134
 P4       S   0   2232 42.07                             133   -0.0010 8.04 3134
 P9       P   0 ? 2232 40.57                             115    0.0010 13.6  444
 P9       S   0   2232 43.55                             115    0.0110 13.6  444
 JNAK     P   0 ? 2232 40.77                             112    0.0110 14.8 1944
 JNAK     S   0   2232 43.90                             112    0.0110 14.8 1944
 ABAD     P   0 ? 2232 41.39                             107    0.0010 18.6  484
 P1       P   0 ? 2232 41.52                             106    0.0110 19.4 2744
 P1       S   0   2232 45.27                             106    0.0210 19.4 2744
 ABTL     P   0 ? 2232 41.69                             105    0.0010 20.4   24
 CAMP     P   0 ? 2232 41.85                             104    0.0010 21.4 2464
 N2       P   0 ? 2232 42.08                             103   -0.0110 22.8 2474
 N1       P   0 ? 2232 42.12                             102   -0.0010 23.0 2434
 N5       P   0 ? 2232 42.17                             102   -0.0110 23.3 2494
 N6       P   0 ? 2232 42.22                             102   -0.0010 23.6 2594
 N6       S   0   2232 46.53                             102   -0.0110 23.6 2594
 N18      P   0 ? 2232 42.79                              68   -0.0110 27.0 2744
                                                                                
 2021  2 2 0107 12.5 L  28.922  51.086 11.7  SLT  6 0.0                        1
 GAP=139        0.23       0.7     1.4  1.6 -0.5864E+00 -0.1594E+01  0.6906E+00E
 STAT SP IPHASW D HRMN SECON CODA AMPLIT PERI AZIMU VELO AIN AR TRES W  DIS CAZ7
 P4       P   0 ? 0107 15.30                             144   -0.0110 6.17 3244
 P4       S   0   0107 17.58                             144    0.0110 6.17 3244
 TOLS     P   0 ? 0107 15.39                             139   -0.0110 7.02  264
 TOLS     S   0   0107 17.73                             139   -0.0010 7.02  264
 KHIA     P   0 ? 0107 15.68                             128   -0.0110 9.50 1254
 P9       P   0 ? 0107 16.45                             110   -0.0010 14.9  524
 JNAK     P   0 ? 0107 16.46                             109   -0.0010 15.0 1854
 JNAK     S   0   0107 19.67                             109    0.0110 15.0 1854
 ABAD     P   0 ? 0107 17.26                              99    0.0010 20.0  544
 ABAD     S   0   0107 21.11                              99    0.0110 20.0  544
                                                                                
 2021  2 2 0654 53.2 L  28.869  50.842  7.2  SLT 13 0.0                        1
 GAP=201        0.16       0.3     0.6  0.5  0.1503E+00  0.7938E-01  0.1985E-01E
 STAT SP IPHASW D HRMN SECON CODA AMPLIT PERI AZIMU VELO AIN AR TRES W  DIS CAZ7
 N7       P   0 ? 0654 54.95                             162    0.0010 1.67  324
 N7       S   0   0654 56.38                             162   -0.0010 1.67  324
 N4       P   0 ? 0654 54.95                             161    0.0110 1.72 1374
 N4       S   0   0654 56.36                             161   -0.0110 1.72 1374
 N10      P   0 ? 0654 55.03                             150    0.0110 2.81  214
 N10      S   0   0654 56.51                             150   -0.0110 2.81  214
 N6       P   0 ? 0654 55.05                             148    0.0110 3.00  714
 N6       S   0   0654 56.55                             148   -0.0010 3.00  714
 N11      P   0 ? 0654 55.14                             139   -0.0010 4.01 3394
 N11      S   0   0654 56.72                             139   -0.0110 4.01 3394
 N9       P   0 ? 0654 55.24                             132    0.0110 4.76  534
 N9       S   0   0654 56.90                             132    0.0010 4.76  534
 N3       P   0 ? 0654 55.24                             131    0.0010 4.82 1384
 N3       S   0   0654 56.90                             131   -0.0110 4.82 1384
 N5       P   0 ? 0654 55.29                             129    0.0110 5.12 1254
 N5       S   0   0654 56.98                             129   -0.0110 5.12 1254
 N15      P   0 ? 0654 55.34                             126    0.0110 5.46  154
 N15      S   0   0654 57.07                             126   -0.0110 5.46  154
 N14      P   0 ? 0654 55.34                             125   -0.0010 5.54 3544
 N14      S   0   0654 57.09                             125   -0.0110 5.54 3544
 N2       P   0 ? 0654 55.43                             120    0.0110 6.14 1264
 N2       S   0   0654 57.23                             120   -0.0110 6.14 1264
 N18      P   0 ? 0654 55.59                             111    0.0110 7.13 3524
 N18      S   0   0654 57.52                             111   -0.0110 7.13 3524
 N17      P   0 ? 0654 55.77                             103    0.0110 8.20 3464
                                                                                
 2021  2 2 2101 36.3 L  29.252  51.374  8.7  SLT  8 0.0                        1
 GAP=308        0.19       0.7     0.9  0.9  0.1908E-01 -0.1200E+00  0.1934E+00E
 STAT SP IPHASW D HRMN SECON CODA AMPLIT PERI AZIMU VELO AIN AR TRES W  DIS CAZ7
 ABAD     P   0 ? 2101 42.25                              95    0.0010 27.4 2064
 ABAD     S   0   2101 47.06                              95    0.0010 27.4 2064
 ABTL     P   0 ? 2101 42.70                              94    0.0010 30.0 2364
 ABTL     S   0   2101 47.88                              94    0.0010 30.0 2364
 P9       P   0 ? 2101 43.01                              94    0.0010 31.8 2114
 P9       S   0   2101 48.44                              94    0.0010 31.8 2114
 NOKA     P   0 ? 2101 43.34                              94   -0.0010 33.8 2584
 NOKA     S   0   2101 49.05                              94    0.0010 33.8 2584
 TOLS     P   0 ? 2101 44.27                              68   -0.0110 39.2 2204
 TOLS     S   0   2101 50.72                              68   -0.0310 39.2 2204
 P4       P   0 ? 2101 45.16                              68    0.0010 44.6 2254
 P4       S   0   2101 52.33                              68    0.0010 44.6 2254
 KHIA     P   0 ? 2101 45.48                              68    0.0010 46.6 2064
 KHIA     S   0   2101 52.91                              68    0.0010 46.6 2064
 JNAK     P   0 ? 2101 47.52                              68    0.0110 59.2 2104
 JNAK     S   0   2101 56.59                              68    0.0010 59.2 2104
                                                                                
