 2021  2 2 1550 48.5 L  28.807  50.850  7.4  SLT  8 0.1                        1
 GAP=292        0.45       1.7     2.6  2.7  0.1805E+01  0.4486E+01  0.6342E+00E
 STAT SP IPHASW D HRMN SECON CODA AMPLIT PERI AZIMU VELO AIN AR TRES W  DIS CAZ7
 N3       P   0 ? 1550 50.51                             139    0.0410 4.13  364
 N1       P   0 ? 1550 50.70                             131    0.1110 5.05  704
 N1       S   0   1550 51.91                             131   -0.3910 5.05  704
 N5       P   0 ? 1550 50.56                             130   -0.0510 5.26  404
 N5       S   0   1550 52.66                             130    0.3110 5.26  404
 N2       P   0 ? 1550 50.74                             129    0.1210 5.36  514
 N2       S   0   1550 52.53                             129    0.1710 5.36  514
 N4       P   0 ? 1550 50.66                             126   -0.0110 5.69   44
 N4       S   0   1550 52.33                             126   -0.1310 5.69   44
 CAMP     P   0 ? 1550 50.79                             118   -0.0210 6.68  584
 CAMP     S   0   1550 52.68                             118   -0.0410 6.68  584
 N6       P   0 ? 1550 50.99                             108   -0.0710 8.15  144
 N6       S   0   1550 53.17                             108    0.0110 8.15  144
 N15      P   0 ? 1550 51.77                              96    0.0210 12.2   34
 N15      S   0   1550 54.35                              96   -0.0610 12.2   34
                                                                                
 2021  2 2 1642 55.3 L  28.823  50.843  7.2  SLT 10 0.1                        1
 GAP=259        0.40       1.1     1.6  1.6  0.9054E+00  0.1138E+01 -0.1186E+00E
 STAT SP IPHASW D HRMN SECON CODA AMPLIT PERI AZIMU VELO AIN AR TRES W  DIS CAZ7
 N3       P   0 ? 1642 57.17                             144   -0.0410 3.49  634
 N3       S   0   1642 58.85                             144    0.0910 3.49  634
 N4       P   0 ? 1642 57.22                             138   -0.0510 4.05  154
 N4       S   0   1642 58.61                             138   -0.2610 4.05  154
 N5       P   0 ? 1642 57.38                             133    0.0310 4.67  614
 N5       S   0   1642 59.10                             133    0.0910 4.67  614
 N2       P   0 ? 1642 57.30                             128   -0.1010 5.12  724
 N2       S   0   1642 59.33                             128    0.2310 5.12  724
 N1       P   0 ? 1642 57.38                             126   -0.0810 5.46  914
 N1       S   0   1642 59.29                             126    0.0910 5.46  914
 CAMP     P   0 ? 1642 57.44                             116   -0.1810 6.59  744
 CAMP     S   0   1642 59.53                             116    0.0310 6.59  744
 N6       P   0 ? 1642 57.58                             115   -0.0710 6.70  244
 N6       S   0   1642 59.46                             115   -0.0910 6.70  244
 N10      P   0 ? 1642 57.86                             106    0.0310 7.83   64
 N10      S   0   1642 59.86                             106   -0.0210 7.83   64
 N9       P   0 ? 1642 58.14                             100    0.1410 8.82  254
 N9       S   0   1642 59.98                             100   -0.2010 8.82  254
 N11      P   0 ? 1642 58.16                              99    0.1310 9.03 3504
 N11      S   0   1643  0.49                              99    0.2510 9.03 3504
                                                                                
 2021  2 2 1654 51.7 L  28.827  50.867  8.3  SLT 12 0.1                        1
 GAP=239        0.39       1.3     1.7  1.0  0.1251E+01 -0.2600E+00 -0.2722E+00E
 STAT SP IPHASW D HRMN SECON CODA AMPLIT PERI AZIMU VELO AIN AR TRES W  DIS CAZ7
 N3       P   0 ? 1654 53.56                             168   -0.0810 1.32  354
 N3       S   0   1654 55.20                             168    0.0110 1.32  354
 N5       P   0 ? 1654 53.59                             158   -0.1110 2.46  454
 N5       S   0   1654 55.54                             158    0.2410 2.46  454
 N2       P   0 ? 1654 53.77                             156    0.0610 2.74  674
 N2       S   0   1654 55.49                             156    0.1710 2.74  674
 N1       P   0 ? 1654 53.75                             152    0.0010 3.16 1014
 N1       S   0   1654 55.27                             152   -0.1210 3.16 1014
 N4       P   0 ? 1654 53.69                             148   -0.1010 3.64 3394
 N4       S   0   1654 55.51                             148    0.0410 3.64 3394
 CAMP     P   0 ? 1654 53.78                             144   -0.0610 4.19  724
 CAMP     S   0   1654 55.52                             144   -0.0410 4.19  724
 N6       P   0 ? 1654 53.95                             134   -0.0610 5.64   44
 N6       S   0   1654 55.67                             134   -0.2010 5.64   44
 N10      P   0 ? 1654 54.26                             123    0.0010 7.44 3494
 N10      S   0   1654 56.42                             123    0.1010 7.44 3494
 N9       P   0 ? 1654 54.49                             122    0.2110 7.63  104
 N9       S   0   1654 56.13                             122   -0.2310 7.63  104
 P2       P   0 ? 1654 55.54                             101    0.1910 14.1  324
 P3       P   0 ? 1654 55.95                              98    0.0810 17.2  384
 KHIA     P   0 ? 1654 57.91                              93   -0.1210 29.6  804
                                                                                
 2021  2 2 1714 27.7 L  29.259  51.349  6.3  SLT 13 0.1                        1
 GAP=305        0.38       2.2     3.0  4.8  0.5376E+01  0.1275E+02  0.9164E+01E
 STAT SP IPHASW D HRMN SECON CODA AMPLIT PERI AZIMU VELO AIN AR TRES W  DIS CAZ7
 ABAD     P   0 ? 1714 33.63                              59   -0.0010 27.2 2004
 ABAD     S   0   1714 38.74                              59    0.2810 27.2 2004
 ABTL     P   0 ? 1714 33.77                              59   -0.0910 28.5 2324
 ABTL     S   0   1714 39.02                              59    0.1410 28.5 2324
 P9       P   0 ? 1714 34.34                              59   -0.0110 31.4 2064
 P9       S   0   1714 39.67                              59   -0.1010 31.4 2064
 NOKA     P   0 ? 1714 34.43                              59    0.0310 31.6 2554
 NOKA     S   0   1714 39.90                              59    0.0610 31.6 2554
 TOLS     P   0 ? 1714 35.59                              59    0.0210 38.3 2164
 TOLS     S   0   1714 41.89                              59   -0.0710 38.3 2164
 KHIA     P   0 ? 1714 36.90                              59   -0.0610 46.3 2034
 KHIA     S   0   1714 44.30                              59   -0.1810 46.3 2034
 SHIF     P   0 ? 1714 37.62                              53   -0.0810 50.7 2464
 SHIF     S   0   1714 45.87                              53    0.0510 50.7 2464
 P2       P   0 ? 1714 38.12                              53    0.0210 53.2 2284
 N19      P   0 ? 1714 39.13                              53    0.1910 58.4 2344
 JNAK     P   0 ? 1714 39.13                              53    0.1310 58.8 2074
 N18      P   0 ? 1714 39.49                              53   -0.0110 61.9 2344
 N18      S   0   1714 48.77                              53   -0.3110 61.9 2344
 N6       P   0 ? 1714 39.44                              53   -0.21 9 62.8 2284
 N6       S   0   1714 49.49                              53    0.14 9 62.8 2284
 DLRM     P   0 ? 1714 41.00                              53    0.04 9 70.9 2024
 DLRM     S   0   1714 51.73                              53    0.01 9 70.9 2024
                                                                                
 2021  2 2 1919 18.7 L  28.825  50.860  7.7  SLT 29 0.2                        1
 GAP=207        0.45       0.7     0.9  0.8  0.4033E+00 -0.5331E-01 -0.8142E-01E
 STAT SP IPHASW D HRMN SECON CODA AMPLIT PERI AZIMU VELO AIN AR TRES W  DIS CAZ7
 N3       P   0 ? 1919 20.52                             160   -0.0010 2.00  484
 N3       S   0   1919 22.00                             160   -0.0210 2.00  484
 N5       P   0 ? 1919 20.56                             149   -0.0610 3.17  514
 N5       S   0   1919 22.05                             149   -0.1410 3.17  514
 N2       P   0 ? 1919 20.63                             146   -0.0110 3.51  684
 N2       S   0   1919 22.11                             146   -0.1210 3.51  684
 N4       P   0 ? 1919 20.74                             144    0.0810 3.71 3514
 N4       S   0   1919 22.42                             144    0.1410 3.71 3514
 N1       P   0 ? 1919 20.72                             143    0.0410 3.84  954
 N1       S   0   1919 22.45                             143    0.1510 3.84  954
 CAMP     P   0 ? 1919 20.76                             134   -0.0410 4.96  724
 CAMP     S   0   1919 22.42                             134   -0.1110 4.96  724
 N6       P   0 ? 1919 20.91                             126   -0.0410 5.98  114
 N6       S   0   1919 23.03                             126    0.2410 5.98  114
 N10      P   0 ? 1919 21.21                             115    0.0210 7.58 3544
 N10      S   0   1919 23.28                             115    0.0610 7.58 3544
 N9       P   0 ? 1919 21.46                             112    0.2010 8.04  154
 N9       S   0   1919 23.00                             112   -0.3510 8.04  154
 N11      P   0 ? 1919 21.53                             106    0.0810 9.23 3404
 N11      S   0   1919 23.69                             106   -0.0110 9.23 3404
 N13      P   0 ? 1919 21.53                             104   -0.0410 9.93 3364
 N13      S   0   1919 24.12                             104    0.2110 9.93 3364
 N15      P   0 ? 1919 21.39                             103   -0.2310 10.2 3584
 N15      S   0   1919 23.51                             103   -0.4910 10.2 3584
 N14      P   0 ? 1919 21.69                             101   -0.0110 10.7 3474
 N14      S   0   1919 24.53                             101    0.3810 10.7 3474
 N16      P   0 ? 1919 21.93                              99    0.1010 11.5   54
 N16      S   0   1919 24.23                              99   -0.1510 11.5   54
 N18      P   0 ? 1919 22.01                              98    0.0410 12.3 3474
 N18      S   0   1919 24.67                              98    0.0310 12.3 3474
 P1       P   0 ? 1919 22.07                              98    0.0610 12.5  234
 P1       S   0   1919 24.59                              98   -0.1210 12.5  234
 N17      P   0 ? 1919 22.05                              96   -0.1110 13.4 3444
 N19      P   0 ? 1919 22.11                              96   -0.0610 13.4   34
 N19      S   0   1919 24.85                              96   -0.1610 13.4   34
 P2       P   0 ? 1919 22.31                              95   -0.0910 14.8  344
 P2       S   0   1919 25.36                              95   -0.0510 14.8  344
 N20      P   0 ? 1919 22.61                              95    0.0310 15.8 3524
 N20      S   0   1919 25.88                              95    0.1410 15.8 3524
 P3       P   0 ? 1919 22.80                              94   -0.1310 17.8  394
 P3       S   0   1919 26.84                              94    0.4610 17.8  394
 JNAK     P   0 ? 1919 23.59                              93    0.0710 21.2 1014
 JNAK     S   0   1919 27.55                              93    0.1010 21.2 1014
 P4       P   0 ? 1919 24.05                              92    0.0010 24.3  494
 DLRM     P   0 ? 1919 24.46                              92   -0.1810 27.6 1304
 TOLS     P   0 ? 1919 25.15                              92    0.0410 30.3  564
 KHIA     P   0 ? 1919 25.19                              92    0.0810 30.3  804
 KHIA     S   0   1919 30.50                              92    0.1710 30.3  804
 KOLO     P   0 ? 1919 26.60                              91   -0.0310 39.1 1084
 P9       P   0 ? 1919 26.59                              91   -0.0610 39.2  594
 ABTL     P   0 ? 1919 26.62                              91   -0.1010 39.5  394
                                                                                
 2021  2 2 2330 26.0 L  29.084  51.393  7.6  SLT 32 0.2                        1
 GAP=272        0.43       0.9     1.0  1.2  0.4813E-01  0.3391E+00  0.2235E+00E
 STAT SP IPHASW D HRMN SECON CODA AMPLIT PERI AZIMU VELO AIN AR TRES W  DIS CAZ7
 ABAD     P   0 ? 2330 29.79                              94    0.0210 15.1 2464
 P9       P   0 ? 2330 30.60                              93   -0.0410 20.2 2444
 P9       S   0   2330 34.32                              93   -0.1010 20.2 2444
 ABTL     P   0 ? 2330 31.97                              92    0.1510 26.9 2744
 ABTL     S   0   2330 36.78                              92    0.2310 26.9 2744
 TOLS     P   0 ? 2330 32.22                              92   -0.0010 29.2 2474
 TOLS     S   0   2330 37.19                              92   -0.0910 29.2 2474
 P5       P   0 ? 2330 32.66                              91   -0.0310 31.9 2494
 P5       S   0   2330 38.29                              91    0.1610 31.9 2494
 KHIA     P   0 ? 2330 32.72                              91   -0.0110 32.1 2234
 KHIA     S   0   2330 38.40                              91    0.2010 32.1 2234
 P4       P   0 ? 2330 33.37                              91   -0.0010 35.9 2494
 P4       S   0   2330 39.09                              91   -0.2710 35.9 2494
 NOKA     P   0 ? 2330 33.63                              91    0.1110 36.7 2884
 NOKA     S   0   2330 39.81                              91    0.1910 36.7 2884
 P3       S   0   2330 41.22                              91   -0.4610 43.2 2504
 KOLO     S   0   2330 41.75                              91    0.0710 43.2 2004
 P3       P   0 ? 2330 34.78                              91    0.1310 43.2 2504
 KOLO     P   0 ? 2330 34.75                              91    0.0910 43.2 2004
 JNAK     P   0 ? 2330 34.94                              68   -0.0710 45.3 2244
 JNAK     S   0   2330 42.62                              68    0.3010 45.3 2244
 P2       P   0 ? 2330 34.99                              68   -0.2310 46.6 2494
 P2       S   0   2330 42.54                              68   -0.1710 46.6 2494
 P1       P   0 ? 2330 35.79                              68    0.0210 50.0 2504
 P1       S   0   2330 43.77                              68    0.0610 50.0 2504
 SHIF     P   0 ? 2330 35.98                              68    0.1310 50.5 2684
 N19      P   0 ? 2330 36.41                              68    0.0710 53.5 2544
 N19      S   0   2330 44.59                              68   -0.1410 53.5 2544
 N9       P   0 ? 2330 36.47                              68    0.0510 54.1 2474
 N9       S   0   2330 44.73                              68   -0.1510 54.1 2474
 CAMP     P   0 ? 2330 36.39                              68   -0.0910 54.5 2404
 CAMP     S   0   2330 44.88                              68   -0.1110 54.5 2404
 N15      P   0 ? 2330 36.55                              68   -0.1010 55.5 2514
 N15      S   0   2330 45.73                              68    0.4410 55.5 2514
 DLRM     P   0 ? 2330 36.55                              68   -0.1310 55.7 2144
 DLRM     S   0   2330 45.39                              68    0.0310 55.7 2144
 N6       P   0 ? 2330 36.75                              68    0.0610 55.7 2464
 N6       S   0   2330 45.47                              68    0.1010 55.7 2464
 N20      P   0 ? 2330 36.79                              68    0.0910 55.8 2574
 N2       P   0 ? 2330 36.55                              68   -0.1510 55.8 2414
 N20      S   0   2330 45.23                              68   -0.1510 55.8 2574
 N2       S   0   2330 45.52                              68    0.1310 55.8 2414
 N1       P   0 ? 2330 36.74                              68   -0.0210 56.2 2394
 N5       S   0   2330 45.76                              68    0.2510 56.2 2424
 N1       S   0   2330 45.70                              68    0.2010 56.2 2394
 N5       P   0 ? 2330 36.62                              68   -0.1510 56.2 2424
 N10      P   0 ? 2330 36.94                              68    0.0810 56.8 2484
 N10      S   0   2330 45.59                              68   -0.0810 56.8 2484
 N18      P   0 ? 2330 36.95                              68    0.0410 57.1 2534
 N18      S   0   2330 45.64                              68   -0.1310 57.1 2534
 N14      P   0 ? 2330 36.93                              68   -0.0110 57.2 2524
 N14      S   0   2330 45.75                              68   -0.0610 57.2 2524
 N3       P   0 ? 2330 36.88                              68   -0.0810 57.4 2424
 N3       S   0   2330 45.66                              68   -0.1910 57.4 2424
 N17      P   0 ? 2330 36.96                              68   -0.0810 57.9 2544
 N17      S   0   2330 45.83                              68   -0.1710 57.9 2544
 N4       P   0 ? 2330 36.98                              68   -0.1010 58.1 2454
 N4       S   0   2330 46.35                              68    0.2810 58.1 2454
 N11      P   0 ? 2330 37.01                              68   -0.1510 58.6 2504
 N11      S   0   2330 46.34                              68    0.1210 58.6 2504
 N13      P   0 ? 2330 37.27                              68    0.0110 59.2 2514
 N13      S   0   2330 46.30                              68   -0.0910 59.2 2514
                                                                                
 2021  3 3 0020 41.7 L  28.831  50.877  8.6  SLT  6 0.1                        1
 GAP=208        0.43       4.2     3.3  2.0  0.1020E+02  0.2443E+01  0.2914E+01E
 STAT SP IPHASW D HRMN SECON CODA AMPLIT PERI AZIMU VELO AIN AR TRES W  DIS CAZ7
 N3       P   0 ? 0020 43.57                             174   -0.0810 0.64 3464
 N3       S   0   0020 44.98                             174   -0.2610 0.64 3464
 N5       P   0 ? 0020 43.61                             167   -0.0710 1.53  334
 N5       S   0   0020 45.33                             167    0.0410 1.53  334
 N2       P   0 ? 0020 43.70                             165    0.0210 1.72  694
 N2       S   0   0020 45.56                             165    0.2710 1.72  694
 N1       P   0 ? 0020 43.81                             159    0.0810 2.42 1154
 N1       S   0   0020 45.43                             159    0.0610 2.42 1154
 CAMP     P   0 ? 0020 43.85                             153    0.0810 3.18  754
 CAMP     S   0   0020 45.23                             153   -0.2310 3.18  754
 N4       P   0 ? 0020 43.77                             149   -0.0510 3.68 3234
 N4       S   0   0020 45.66                             149    0.1210 3.68 3234
                                                                                
