 2021  2 2 0301 32.5 L  28.967  51.131 13.2  SLT 22 0.0                        1
 GAP= 78        0.13       0.3     0.2  0.5 -0.1924E-01  0.6195E-01  0.6380E-02E
 STAT SP IPHASW D HRMN SECON CODA AMPLIT PERI AZIMU VELO AIN AR TRES W  DIS CAZ7
 TOLS     P   0 ? 0301 35.26                             170   -0.0110 1.90 3154
 P5       P   0 ? 0301 35.38                             156   -0.0010 4.48 2874
 P4       P   0 ? 0301 35.67                             141   -0.0110 7.98 2704
 P9       P   0 ? 0301 35.73                             139   -0.0010 8.45  604
 P9       S   0   0301 38.36                             139    0.0110 8.45  604
 KHIA     P   0 ? 0301 36.02                             130   -0.0110 10.9 1624
 KHIA     S   0   0301 38.87                             130   -0.0110 10.9 1624
 ABAD     P   0 ? 0301 36.37                             122   -0.0010 13.6  604
 ABAD     S   0   0301 39.51                             122    0.0110 13.6  604
 ABTL     P   0 ? 0301 36.55                             118   -0.0110 14.9 3554
 ABTL     S   0   0301 39.83                             118   -0.0110 14.9 3554
 P3       P   0 ? 0301 36.58                             118   -0.0110 15.2 2634
 P3       S   0   0301 39.88                             118   -0.0210 15.2 2634
 P2       P   0 ? 0301 37.06                             111   -0.0110 18.5 2594
 P2       S   0   0301 40.75                             111   -0.0110 18.5 2594
 AHRM     P   0 ? 0301 37.28                             109    0.0210 19.6 1254
 N9       P   0 ? 0301 38.18                             102   -0.0010 25.6 2524
 N19      P   0 ? 0301 38.23                             101   -0.0010 25.9 2654
 N19      S   0   0301 42.87                             101    0.0010 25.9 2654
 NOKA     P   0 ? 0301 38.26                             101    0.0110 26.0 3394
 N12      P   0 ? 0301 38.37                             101    0.0010 26.8 2564
 N12      S   0   0301 43.12                             101    0.0110 26.8 2564
 N15      P   0 ? 0301 38.46                             100    0.0010 27.4 2584
 N15      S   0   0301 43.28                             100    0.0010 27.4 2584
 N5       P   0 ? 0301 38.50                             100    0.0010 27.6 2404
 N5       S   0   0301 43.36                             100    0.0110 27.6 2404
 N20      P   0 ? 0301 38.67                              99   -0.0010 28.7 2704
 N20      S   0   0301 43.67                              99    0.0010 28.7 2704
 N7       P   0 ? 0301 38.70                              99    0.0010 28.9 2514
 N7       S   0   0301 43.72                              99    0.0010 28.9 2514
 N18      P   0 ? 0301 38.78                              99    0.0110 29.4 2634
 N18      S   0   0301 43.85                              99   -0.0010 29.4 2634
 N4       P   0 ? 0301 38.81                              99    0.0010 29.6 2464
 N4       S   0   0301 43.91                              99    0.0010 29.6 2464
 N17      P   0 ? 0301 38.93                              98    0.0010 30.3 2654
 N11      P   0 ? 0301 38.95                              98    0.0010 30.5 2574
 N11      S   0   0301 44.17                              98    0.0010 30.5 2574
                                                                                
 2021  2 2 0348  0.8 L  28.972  51.135 15.4  SLT 19 0.0                        1
 GAP= 67        0.14       0.3     0.2  0.5 -0.8451E-02  0.5191E-01  0.4206E-01E
 STAT SP IPHASW D HRMN SECON CODA AMPLIT PERI AZIMU VELO AIN AR TRES W  DIS CAZ7
 TOLS     P   0 ? 0348  3.93                             172   -0.0010 1.90 2964
 P5       P   0 ? 0348  4.05                             160    0.0110 4.71 2804
 P9       P   0 ? 0348  4.29                             147    0.0110 7.89  624
 P9       S   0   0348  7.11                             147    0.0310 7.89  624
 P4       P   0 ? 0348  4.31                             146   -0.0010 8.35 2674
 KHIA     P   0 ? 0348  4.61                             136   -0.0210 11.3 1644
 KHIA     S   0   0348  7.70                             136   -0.0110 11.3 1644
 ABAD     P   0 ? 0348  4.82                             131   -0.0010 13.0  614
 ABAD     S   0   0348  8.07                             131   -0.0010 13.0  614
 ABTL     P   0 ? 0348  4.99                             128   -0.0110 14.4 3534
 ABTL     S   0   0348  8.39                             128   -0.0010 14.4 3534
 P3       P   0 ? 0348  5.13                             125   -0.0210 15.6 2614
 P3       S   0   0348  8.63                             125   -0.0310 15.6 2614
 P2       P   0 ? 0348  5.58                             118   -0.0110 18.9 2584
 P2       S   0   0348  9.45                             118   -0.0110 18.9 2584
 AHRM     P   0 ? 0348  5.72                             117   -0.0010 19.7 1274
 N9       P   0 ? 0348  6.66                             109   -0.0110 26.1 2514
 N9       S   0   0348 11.41                             109    0.0110 26.1 2514
 CAMP     P   0 ? 0348  6.72                             108   -0.0010 26.5 2364
 CAMP     S   0   0348 11.51                             108    0.0010 26.5 2364
 N12      P   0 ? 0348  6.84                             108   -0.0010 27.3 2554
 N12      S   0   0348 11.73                             108    0.0110 27.3 2554
 N20      P   0 ? 0348  7.12                             106   -0.0010 29.1 2694
 N20      S   0   0348 12.24                             106    0.0110 29.1 2694
 N18      P   0 ? 0348  7.23                             106    0.0010 29.8 2624
 N18      S   0   0348 12.43                             106    0.0110 29.8 2624
 N4       P   0 ? 0348  7.28                             105    0.0010 30.1 2454
 N4       S   0   0348 12.52                             105    0.0110 30.1 2454
 N11      P   0 ? 0348  7.41                             105    0.0010 30.9 2564
 N11      S   0   0348 12.75                             105    0.0010 30.9 2564
 N13      P   0 ? 0348  7.51                             104    0.0010 31.6 2574
 N13      S   0   0348 12.94                             104    0.0110 31.6 2574
 DLRM     P   0 ? 0348  7.96                             103    0.0010 34.4 1894
 DLRM     S   0   0348 13.75                             103    0.0110 34.4 1894
                                                                                
 2021  2 2 0411 34.3 L  28.964  51.129 11.9  SLT 11 0.0                        1
 GAP=101        0.17       0.4     0.3  0.5 -0.3838E-01  0.3467E-01  0.1477E-01E
 STAT SP IPHASW D HRMN SECON CODA AMPLIT PERI AZIMU VELO AIN AR TRES W  DIS CAZ7
 TOLS     P   0 ? 0411 36.86                             167   -0.0010 2.04 3274
 TOLS     S   0   0411 38.94                             167    0.0110 2.04 3274
 P5       P   0 ? 0411 36.99                             154    0.0110 4.39 2934
 P5       S   0   0411 39.17                             154    0.0210 4.39 2934
 P4       P   0 ? 0411 37.28                             137   -0.0110 7.76 2734
 P4       S   0   0411 39.70                             137   -0.0110 7.76 2734
 P9       P   0 ? 0411 37.42                             132   -0.0010 8.83  594
 P9       S   0   0411 39.94                             132   -0.0110 8.83  594
 KHIA     P   0 ? 0411 37.66                             125   -0.0010 10.7 1604
 KHIA     S   0   0411 40.38                             125   -0.0010 10.7 1604
 ABAD     P   0 ? 0411 38.13                             114    0.0010 13.9  594
 ABAD     S   0   0411 41.23                             114    0.0110 13.9  594
 P3       P   0 ? 0411 38.26                             111   -0.0010 14.9 2644
 P3       S   0   0411 41.46                             111   -0.0110 14.9 2644
 ABTL     P   0 ? 0411 38.31                             110   -0.0110 15.3 3564
 ABTL     S   0   0411 41.57                             110    0.0010 15.3 3564
 P2       P   0 ? 0411 38.76                             104    0.0010 18.2 2604
 P2       S   0   0411 42.37                             104    0.0110 18.2 2604
 N12      P   0 ? 0411 40.09                              95    0.0010 26.5 2574
 N12      S   0   0411 44.78                              95    0.0110 26.5 2574
 N4       P   0 ? 0411 40.53                              94    0.0110 29.2 2464
                                                                                
 2021  2 2 0520 33.0 L  28.966  51.122 11.4  SLT  7 0.0                        1
 GAP=114        0.20       0.5     0.6  0.8 -0.1550E-02 -0.1975E+00 -0.6363E-01E
 STAT SP IPHASW D HRMN SECON CODA AMPLIT PERI AZIMU VELO AIN AR TRES W  DIS CAZ7
 TOLS     P   0 ? 0520 35.47                             170    0.0010 1.56 3414
 TOLS     S   0   0520 37.47                             170    0.0010 1.56 3414
 P5       P   0 ? 0520 35.57                             156    0.0010 3.74 2934
 P5       S   0   0520 37.66                             156    0.0110 3.74 2934
 P4       P   0 ? 0520 35.86                             138   -0.0110 7.14 2714
 P4       S   0   0520 38.18                             138   -0.0110 7.14 2714
 P9       P   0 ? 0520 36.11                             128   -0.0110 9.26  624
 P9       S   0   0520 38.64                             128   -0.0110 9.26  624
 KHIA     P   0 ? 0520 36.38                             120    0.0010 11.1 1574
 KHIA     S   0   0520 39.11                             120   -0.0010 11.1 1574
 ABAD     P   0 ? 0520 36.86                             109    0.0110 14.4  614
 ABAD     S   0   0520 39.99                             109    0.0110 14.4  614
 ABTL     P   0 ? 0520 36.95                             107    0.0010 15.0 3584
 ABTL     S   0   0520 40.15                             107   -0.0010 15.0 3584
                                                                                
 2021  2 2 1610 59.4 L  28.985  51.011 12.7  SLT 25 0.0                        1
 GAP= 83        0.12       0.2     0.2  0.3 -0.1685E-01  0.1685E-01 -0.1350E-01E
 STAT SP IPHASW D HRMN SECON CODA AMPLIT PERI AZIMU VELO AIN AR TRES W  DIS CAZ7
 P4       P   0 ? 1611  2.20                             157    0.0110 4.19 1184
 P4       S   0   1611  4.46                             157    0.0210 4.19 1184
 P3       P   0 ? 1611  2.27                             151    0.0010 5.26 2214
 P3       S   0   1611  4.59                             151    0.0110 5.26 2214
 P5       P   0 ? 1611  2.46                             141   -0.0010 7.41  954
 P5       S   0   1611  4.94                             141    0.0110 7.41  954
 P2       P   0 ? 1611  2.56                             137   -0.0210 8.51 2294
 P2       S   0   1611  5.12                             137   -0.0210 8.51 2294
 TOLS     P   0 ? 1611  2.78                             130   -0.0210 10.3  944
 TOLS     S   0   1611  5.52                             130   -0.0110 10.3  944
 P1       P   0 ? 1611  2.94                             125   -0.0210 11.6 2384
 P1       S   0   1611  5.81                             125   -0.0210 11.6 2384
 N19      P   0 ? 1611  3.39                             116   -0.0110 14.8 2534
 N19      S   0   1611  6.63                             116   -0.0110 14.8 2534
 N9       P   0 ? 1611  3.59                             113   -0.0110 16.1 2324
 N9       S   0   1611  6.98                             113   -0.0110 16.1 2324
 SHIF     P   0 ? 1611  3.61                             112   -0.0110 16.3 3054
 SHIF     S   0   1611  7.02                             112   -0.0010 16.3 3054
 ABTL     P   0 ? 1611  3.65                             112   -0.0110 16.5  394
 ABTL     S   0   1611  7.10                             112    0.0110 16.5  394
 N12      P   0 ? 1611  3.67                             112   -0.0010 16.6 2404
 N12      S   0   1611  7.12                             112   -0.0010 16.6 2404
 N15      P   0 ? 1611  3.71                             111   -0.0010 16.9 2444
 N15      S   0   1611  7.20                             111    0.0010 16.9 2444
 N20      P   0 ? 1611  3.75                             111   -0.0010 17.2 2634
 N20      S   0   1611  7.27                             111   -0.0010 17.2 2634
 N6       P   0 ? 1611  3.89                             109   -0.0110 18.1 2294
 N6       S   0   1611  7.53                             109    0.0010 18.1 2294
 N18      P   0 ? 1611  3.93                             108   -0.0110 18.4 2524
 N18      S   0   1611  7.61                             108    0.0110 18.4 2524
 N14      P   0 ? 1611  3.97                             108    0.0010 18.6 2474
 N14      S   0   1611  7.67                             108    0.0110 18.6 2474
 CAMP     P   0 ? 1611  4.03                             107   -0.0010 19.0 2124
 CAMP     S   0   1611  7.79                             107    0.0110 19.0 2124
 P9       P   0 ? 1611  4.06                             107    0.0110 19.1  834
 N17      P   0 ? 1611  4.05                             107   -0.0010 19.2 2554
 N17      S   0   1611  7.82                             107    0.0110 19.2 2554
 KHIA     P   0 ? 1611  4.13                             106    0.0110 19.5 1294
 N5       P   0 ? 1611  4.18                             106   -0.0010 20.0 2184
 N5       S   0   1611  8.06                             106    0.0110 20.0 2184
 N11      P   0 ? 1611  4.21                             105    0.0010 20.1 2434
 N11      S   0   1611  8.10                             105    0.0110 20.1 2434
 N13      P   0 ? 1611  4.29                             105    0.0010 20.6 2454
 N13      S   0   1611  8.24                             105    0.0110 20.6 2454
 N4       P   0 ? 1611  4.31                             104   -0.0010 20.8 2274
 N4       S   0   1611  8.29                             104    0.0110 20.8 2274
 NOKA     P   0 ? 1611  4.56                             102   -0.0010 22.4   64
 NOKA     S   0   1611  8.75                             102    0.0210 22.4   64
                                                                                
 2021  2 2 1611 36.3 L  28.997  51.004 14.4  SLT  7 0.0                        1
 GAP=213        0.20       1.3     0.4  1.2 -0.1400E+00  0.8124E-03 -0.4180E+00E
 STAT SP IPHASW D HRMN SECON CODA AMPLIT PERI AZIMU VELO AIN AR TRES W  DIS CAZ7
 P2       P   0 ? 1611 39.72                             141    0.0110 8.92 2204
 P2       S   0   1611 42.49                             141    0.0110 8.92 2204
 TOLS     P   0 ? 1611 39.97                             133   -0.0010 11.2 1004
 TOLS     S   0   1611 42.95                             133    0.0010 11.2 1004
 P1       P   0 ? 1611 40.03                             131   -0.0110 11.8 2314
 P1       S   0   1611 43.06                             131   -0.0110 11.8 2314
 N12      P   0 ? 1611 40.69                             119   -0.0010 16.7 2354
 N12      S   0   1611 44.25                             119   -0.0010 16.7 2354
 N15      P   0 ? 1611 40.72                             119    0.0010 16.9 2394
 N15      S   0   1611 44.29                             119   -0.0110 16.9 2394
 N18      P   0 ? 1611 40.90                             116    0.0010 18.2 2474
 N18      S   0   1611 44.63                             116    0.0110 18.2 2474
 KHIA     P   0 ? 1611 41.31                             112    0.0010 20.9 1314
 KHIA     S   0   1611 45.37                             112    0.0010 20.9 1314
                                                                                
