 2021  2 2 1614 49.3 L  28.997  51.005 13.3  SLT 26 0.1                        1
 GAP=145        0.30       0.7     0.4  0.8 -0.1506E+00  0.8306E-01 -0.9389E-01E
 STAT SP IPHASW D HRMN SECON CODA AMPLIT PERI AZIMU VELO AIN AR TRES W  DIS CAZ7
 P4       P   0 ? 1614 52.28                             152    0.0010 5.42 1274
 P4       S   0   1614 54.78                             152    0.1010 5.42 1274
 P3       P   0 ? 1614 52.27                             150   -0.0510 5.97 2084
 P3       S   0   1614 54.81                             150    0.0610 5.97 2084
 P5       P   0 ? 1614 52.62                             140    0.0910 8.25 1044
 P5       S   0   1614 55.12                             140   -0.0210 8.25 1044
 P2       P   0 ? 1614 52.59                             137   -0.0210 8.97 2204
 P2       S   0   1614 55.26                             137   -0.0110 8.97 2204
 TOLS     P   0 ? 1614 52.86                             130   -0.0010 11.1 1004
 TOLS     S   0   1614 55.60                             130   -0.1410 11.1 1004
 P1       P   0 ? 1614 52.88                             127   -0.0810 11.9 2314
 P1       S   0   1614 55.95                             127    0.0510 11.9 2314
 N19      P   0 ? 1614 53.29                             120   -0.0410 14.6 2484
 N19      S   0   1614 56.49                             120   -0.1010 14.6 2484
 N16      P   0 ? 1614 53.44                             118    0.0410 15.2 2404
 N16      S   0   1614 56.74                             118    0.0310 15.2 2404
 ABTL     P   0 ? 1614 53.73                             117    0.2110 15.9  434
 N9       P   0 ? 1614 53.71                             115    0.1110 16.5 2274
 N9       S   0   1614 56.95                             115   -0.1110 16.5 2274
 N12      S   0   1614 57.24                             115    0.1010 16.8 2354
 N20      P   0 ? 1614 53.44                             115   -0.2010 16.8 2584
 N20      S   0   1614 57.18                             115    0.0410 16.8 2584
 N12      P   0 ? 1614 53.64                             115   -0.0010 16.8 2354
 N15      P   0 ? 1614 53.69                             114    0.0210 17.0 2394
 N15      S   0   1614 57.00                             114   -0.1910 17.0 2394
 N18      P   0 ? 1614 53.98                             112    0.1310 18.2 2474
 N18      S   0   1614 57.55                             112    0.0210 18.2 2474
 N6       S   0   1614 57.72                             111    0.1110 18.5 2254
 N14      S   0   1614 57.38                             111   -0.2410 18.5 2424
 N6       P   0 ? 1614 53.97                             111    0.0710 18.5 2254
 N14      P   0 ? 1614 53.97                             111    0.0710 18.5 2424
 N10      P   0 ? 1614 53.87                             111   -0.0710 18.8 2324
 N10      S   0   1614 57.88                             111    0.2010 18.8 2324
 N17      P   0 ? 1614 53.92                             111   -0.0410 18.9 2514
 N17      S   0   1614 57.65                             111   -0.0610 18.9 2514
 P9       P   0 ? 1614 53.96                             109   -0.1110 19.6  874
 N7       P   0 ? 1614 54.14                             109    0.0710 19.6 2304
 N7       S   0   1614 57.95                             109    0.0310 19.6 2304
 CAMP     P   0 ? 1614 53.95                             109   -0.1410 19.8 2084
 CAMP     S   0   1614 57.86                             109   -0.1010 19.8 2084
 N11      P   0 ? 1614 54.24                             109    0.0910 20.2 2394
 N11      S   0   1614 58.00                             109   -0.0710 20.2 2394
 N5       P   0 ? 1614 54.22                             108    0.0010 20.6 2144
 N5       S   0   1614 58.13                             108   -0.0610 20.6 2144
 N2       P   0 ? 1614 54.31                             108    0.0810 20.8 2124
 KHIA     P   0 ? 1614 54.10                             108   -0.1610 20.8 1314
 KHIA     S   0   1614 58.29                             108    0.0310 20.8 1314
 N2       S   0   1614 58.41                             108    0.2010 20.8 2124
 N4       P   0 ? 1614 54.35                             107    0.0410 21.2 2244
 N4       S   0   1614 58.40                             107    0.0410 21.2 2244
                                                                                
 2021  2 2 1615  7.9 L  28.976  51.018 13.4  SLT  5 0.0                        1
 GAP=151        0.27       1.5     1.2  1.7 -0.1444E+01  0.1122E+01 -0.1427E+01E
 STAT SP IPHASW D HRMN SECON CODA AMPLIT PERI AZIMU VELO AIN AR TRES W  DIS CAZ7
 P4       P   0 ? 1615 10.78                             164    0.0210 3.15 1094
 P4       S   0   1615 13.03                             164   -0.0310 3.15 1094
 TOLS     P   0 ? 1615 11.28                             135   -0.0210 9.61  884
 TOLS     S   0   1615 14.07                             135    0.0310 9.61  884
 P1       P   0 ? 1615 11.60                             128    0.0410 11.8 2444
 P1       S   0   1615 14.44                             128   -0.0610 11.8 2444
 ABTL     S   0   1615 15.84                             115    0.0610 16.8  354
 N12      P   0 ? 1615 12.25                             115   -0.0010 16.8 2444
 ABTL     P   0 ? 1615 12.17                             115   -0.0910 16.8  354
 N12      S   0   1615 15.81                             115    0.0510 16.8 2444
                                                                                
 2021  2 2 1619 40.9 L  28.990  51.007 11.4  SLT  9 0.1                        1
 GAP=150        0.31       1.2     0.7  1.4 -0.5735E+00  0.3767E+00 -0.6583E+00E
 STAT SP IPHASW D HRMN SECON CODA AMPLIT PERI AZIMU VELO AIN AR TRES W  DIS CAZ7
 P4       P   0 ? 1619 43.50                             150   -0.0110 4.77 1224
 P4       S   0   1619 45.79                             150    0.1510 4.77 1224
 P5       P   0 ? 1619 43.71                             134   -0.1010 7.85  994
 TOLS     P   0 ? 1619 44.21                             122    0.0210 10.7  964
 TOLS     S   0   1619 46.77                             122   -0.1010 10.7  964
 P1       P   0 ? 1619 44.28                             118   -0.0210 11.6 2354
 P1       S   0   1619 46.89                             118   -0.1910 11.6 2354
 N19      P   0 ? 1619 44.79                             108    0.0410 14.6 2514
 N19      S   0   1619 47.96                             108    0.0710 14.6 2514
 ABTL     P   0 ? 1619 44.94                             103   -0.0810 16.3  414
 ABTL     S   0   1619 48.47                             103    0.0810 16.3  414
 N15      P   0 ? 1619 45.07                             102   -0.0210 16.8 2414
 N15      S   0   1619 48.60                             102    0.0910 16.8 2414
 P9       P   0 ? 1619 45.48                              97   -0.0310 19.4  854
 KHIA     P   0 ? 1619 45.75                              96    0.1210 20.1 1304
                                                                                
 2021  2 2 1618 55.2 L  28.702  51.176  6.5  SLT  6 0.0                        1
 GAP= 98        0.25       0.7     0.6  0.8 -0.1442E+00  0.2083E+00 -0.3584E+00E
 STAT SP IPHASW D HRMN SECON CODA AMPLIT PERI AZIMU VELO AIN AR TRES W  DIS CAZ7
 KOLO     P   0 ? 1618 57.55                             122    0.0510 6.59  754
 KOLO     S   0   1618 59.31                             122   -0.0110 6.59  754
 DLRM     P   0 ? 1618 58.17                             105   -0.0510 10.5 2474
 DLRM     S   0   1619  0.63                             105    0.0010 10.5 2474
 JNAK     P   0 ? 1618 58.88                              59    0.0410 13.8 3134
 JNAK     S   0   1619  1.79                              59    0.0410 13.8 3134
 KHIA     P   0 ? 1618 59.70                              59   -0.0510 19.0 3574
 KHIA     S   0   1619  3.38                              59   -0.0310 19.0 3574
 AHRM     P   0 ? 1619  0.19                              59    0.0110 21.4  334
 ABAS     P   0 ? 1619  0.26                              59    0.0010 21.9 1494
                                                                                
 2021  2 2 0017 52.7 L  29.002  51.254 10.2  SLT 22 0.1                        1
 GAP=171        0.32       0.5     0.7  0.5  0.4369E-01  0.1595E+00  0.8108E-01E
 STAT SP IPHASW D HRMN SECON CODA AMPLIT PERI AZIMU VELO AIN AR TRES W  DIS CAZ7
 ABAD     P   0 ? 0017 55.02                             160    0.0110 2.98 3544
 ABAD     S   0   0017 56.98                             160    0.0810 2.98 3544
 P9       P   0 ? 0017 55.09                             149   -0.0410 4.71 2744
 P9       S   0   0017 57.08                             149   -0.0410 4.71 2744
 TOLS     P   0 ? 0017 56.40                             114    0.0810 13.6 2594
 TOLS     S   0   0017 59.37                             114    0.0910 13.6 2594
 AHRM     P   0 ? 0017 56.63                             109   -0.0610 15.8 1654
 KHIA     P   0 ? 0017 56.83                             108    0.0010 16.7 2114
 KHIA     S   0   0018  0.22                             108    0.0310 16.7 2114
 ABTL     P   0 ? 0017 56.83                             107   -0.0910 17.3 3094
 ABTL     S   0   0018  0.33                             107   -0.0310 17.3 3094
 P4       P   0 ? 0017 57.38                             104   -0.0510 20.4 2594
 P4       S   0   0018  1.21                             104   -0.0810 20.4 2594
 P3       P   0 ? 0017 58.69                              99    0.0010 27.7 2584
 P3       S   0   0018  3.41                              99   -0.1610 27.7 2584
 NOKA     P   0 ? 0017 59.15                              68    0.1610 29.6 3144
 NOKA     S   0   0018  3.92                              68   -0.1910 29.6 3144
 JNAK     P   0 ? 0017 59.10                              68    0.0910 29.7 2174
 JNAK     S   0   0018  3.93                              68   -0.2110 29.7 2174
 P2       P   0 ? 0017 59.21                              68   -0.0210 31.0 2564
 P2       S   0   0018  4.51                              68   -0.0310 31.0 2564
 KOLO     P   0 ? 0017 59.09                              68   -0.2410 31.6 1824
 SHIF     P   0 ? 0018  0.35                              68    0.0410 37.8 2814
 SHIF     S   0   0018  6.38                              68   -0.1210 37.8 2814
 CAMP     P   0 ? 0018  0.54                              68    0.1410 38.3 2424
 N2       P   0 ? 0018  0.73                              68    0.1110 39.7 2434
 N1       P   0 ? 0018  0.77                              68    0.1010 40.0 2404
 N1       S   0   0018  7.21                              68    0.0610 40.0 2404
 N5       P   0 ? 0018  0.66                              68   -0.0310 40.1 2444
 N5       S   0   0018  7.12                              68   -0.0710 40.1 2444
 N10      P   0 ? 0018  0.84                              68   -0.0010 41.0 2534
 N10      S   0   0018  7.60                              68    0.1410 41.0 2534
 N3       P   0 ? 0018  0.83                              68   -0.0510 41.3 2444
 N3       S   0   0018  7.59                              68    0.0710 41.3 2444
 N14      P   0 ? 0018  1.08                              68    0.1110 41.8 2574
 N14      S   0   0018  7.54                              68   -0.1510 41.8 2574
 N17      P   0 ? 0018  1.04                              68   -0.0810 42.8 2614
 N17      S   0   0018  8.03                              68    0.0710 42.8 2614
 N13      P   0 ? 0018  1.42                              68    0.1510 43.7 2564
 N13      S   0   0018  8.44                              68    0.2010 43.7 2564
                                                                                
 2021  2 2 0107 51.0 L  29.004  51.254 10.5  SLT 13 0.1                        1
 GAP=172        0.31       0.7     0.8  0.7  0.9205E-01  0.2656E-01  0.2977E+00E
 STAT SP IPHASW D HRMN SECON CODA AMPLIT PERI AZIMU VELO AIN AR TRES W  DIS CAZ7
 ABAD     P   0 ? 0107 53.30                             161   -0.0610 2.84 3544
 ABAD     S   0   0107 55.35                             161    0.0710 2.84 3544
 P9       P   0 ? 0107 53.40                             150   -0.0910 4.70 2724
 P9       S   0   0107 55.60                             150    0.0910 4.70 2724
 TOLS     P   0 ? 0107 54.74                             115    0.0810 13.6 2594
 TOLS     S   0   0107 57.72                             115    0.0810 13.6 2594
 AHRM     P   0 ? 0107 54.93                             110   -0.1210 16.0 1664
 P5       P   0 ? 0107 55.14                             109    0.0210 16.5 2614
 P5       S   0   0107 58.42                             109   -0.0510 16.5 2614
 KHIA     P   0 ? 0107 55.09                             109   -0.0910 16.8 2114
 KHIA     S   0   0107 58.50                             109   -0.0810 16.8 2114
 ABTL     P   0 ? 0107 55.19                             108   -0.0510 17.2 3094
 ABTL     S   0   0107 58.57                             108   -0.1110 17.2 3094
 P4       P   0 ? 0107 55.81                             105    0.0410 20.4 2594
 P4       S   0   0107 59.72                             105    0.0810 20.4 2594
 JNAK     P   0 ? 0107 57.52                              68    0.1910 29.8 2164
 JNAK     S   0   0108  2.32                              68   -0.1510 29.8 2164
 KOLO     P   0 ? 0107 57.74                              68    0.0810 31.8 1824
 N18      P   0 ? 0107 59.37                              68    0.0910 41.9 2594
 N4       P   0 ? 0107 59.21                              68   -0.1210 42.2 2484
 ABAS     P   0 ? 0108  1.09                              68    0.1110 52.4 1764
                                                                                
 2021  2 2 1025 25.2 L  28.982  51.348  6.2  SLT  7 0.1                        1
 GAP=291        0.31       0.9     1.6  1.3  0.5802E+00  0.8265E+00  0.6863E+00E
 STAT SP IPHASW D HRMN SECON CODA AMPLIT PERI AZIMU VELO AIN AR TRES W  DIS CAZ7
 ABAD     P   0 ? 1025 28.21                             101   -0.0210 10.8 2994
 ABAD     S   0   1025 30.69                             101    0.0010 10.8 2994
 P9       P   0 ? 1025 28.78                              96   -0.1010 14.0 2814
 P9       S   0   1025 31.99                              96    0.1310 14.0 2814
 KHIA     P   0 ? 1025 30.26                              59    0.0910 21.4 2364
 KHIA     S   0   1025 34.29                              59    0.0910 21.4 2364
 ABTL     P   0 ? 1025 31.00                              59    0.0210 26.0 3004
 ABTL     S   0   1025 35.69                              59    0.0410 26.0 3004
 P4       P   0 ? 1025 31.56                              59    0.0510 29.1 2674
 P4       S   0   1025 36.41                              59   -0.2010 29.1 2674
 JNAK     P   0 ? 1025 32.36                              59   -0.0610 34.4 2314
 JNAK     S   0   1025 38.24                              59   -0.0310 34.4 2314
 P3       P   0 ? 1025 32.77                              59   -0.0010 36.4 2644
                                                                                
 2021  2 2 2045 31.4 L  28.699  51.199 10.2  SLT  9 0.1                        1
 GAP= 98        0.37       1.1     1.0  1.2 -0.8071E-01  0.2640E+00 -0.3697E+00E
 STAT SP IPHASW D HRMN SECON CODA AMPLIT PERI AZIMU VELO AIN AR TRES W  DIS CAZ7
 KOLO     P   0 ? 2045 33.81                             150   -0.0110 4.53  644
 KOLO     S   0   2045 35.95                             150    0.1510 4.53  644
 DLRM     P   0 ? 2045 34.78                             116   -0.0810 12.5 2534
 DLRM     S   0   2045 37.70                             116    0.0310 12.5 2534
 JNAK     P   0 ? 2045 35.47                             109    0.1010 15.7 3084
 JNAK     S   0   2045 38.44                             109   -0.1610 15.7 3084
 KHIA     P   0 ? 2045 35.97                             104   -0.0410 19.6 3504
 AHRM     P   0 ? 2045 36.07                             103   -0.1110 20.5  274
 ABAS     P   0 ? 2045 36.07                             103   -0.1010 20.5 1544
 TOLS     P   0 ? 2045 38.05                              68   -0.0610 32.1 3454
 P5       P   0 ? 2045 38.28                              68    0.0410 32.9 3414
 N6       P   0 ? 2045 39.27                              68    0.2510 37.7 3024
                                                                                
 2021  2 2 2219 20.6 L  29.260  51.315  5.0  SLT  9 0.1                        1
 GAP=293        0.31       3.0     2.8  3.3  0.7174E+01  0.8223E+01  0.9271E+01E
 STAT SP IPHASW D HRMN SECON CODA AMPLIT PERI AZIMU VELO AIN AR TRES W  DIS CAZ7
 ABTL     P   0 ? 2219 26.48                              43   -0.0510 26.1 2284
 ABTL     S   0   2219 31.42                              43    0.0810 26.1 2284
 ABAD     P   0 ? 2219 26.48                              43   -0.0910 26.3 1944
 ABAD     S   0   2219 31.43                              43    0.0110 26.3 1944
 NOKA     P   0 ? 2219 27.05                              43    0.1010 28.5 2534
 NOKA     S   0   2219 31.95                              43   -0.1510 28.5 2534
 P9       P   0 ? 2219 27.16                              43   -0.0710 30.1 2014
 P9       S   0   2219 32.58                              43   -0.0410 30.1 2014
 TOLS     P   0 ? 2219 28.36                              43    0.0110 36.6 2124
 TOLS     S   0   2219 34.76                              43    0.1210 36.6 2124
 KHIA     P   0 ? 2219 29.73                              43   -0.1310 45.2 1994
 KHIA     S   0   2219 37.34                              43   -0.0310 45.2 1994
 JNAK     P   0 ? 2219 31.86                              40   -0.0310 57.4 2044
 N18      P   0 ? 2219 32.33                              40    0.1310 59.3 2334
 KOLO     P   0 ? 2219 32.57                              40    0.1710 60.6 1874
 KOLO     S   0   2219 41.96                              40   -0.0110 60.6 1874
                                                                                
