 2021  2 2 0357 10.6 L  28.961  50.933 10.7  SLT 18 0.1                        1
 GAP=108        0.37       0.9     0.8  0.9 -0.1367E+00 -0.1081E-01 -0.2223E+00E
 STAT SP IPHASW D HRMN SECON CODA AMPLIT PERI AZIMU VELO AIN AR TRES W  DIS CAZ7
 P2       P   0 ? 0357 13.02                             160    0.0210 3.11 1574
 P2       S   0   0357 14.87                             160   -0.0810 3.11 1574
 P1       P   0 ? 0357 13.02                             154   -0.0610 4.17 2124
 P1       S   0   0357 15.31                             154    0.2310 4.17 2124
 P3       P   0 ? 0357 13.21                             152    0.1110 4.42 1074
 P3       S   0   0357 14.96                             152   -0.1710 4.42 1074
 N19      P   0 ? 0357 13.27                             140   -0.0510 6.71 2564
 N19      S   0   0357 15.71                             140    0.1710 6.71 2564
 N16      P   0 ? 0357 13.38                             138    0.0210 7.12 2394
 N16      S   0   0357 15.65                             138    0.0410 7.12 2394
 N9       P   0 ? 0357 13.66                             131    0.0810 8.88 2154
 N9       S   0   0357 16.17                             131    0.1610 8.88 2154
 N15      P   0 ? 0357 13.53                             131   -0.0610 8.92 2374
 N15      S   0   0357 15.80                             131   -0.2210 8.92 2374
 N20      P   0 ? 0357 13.57                             129   -0.0910 9.45 2734
 N20      S   0   0357 16.25                             129    0.1110 9.45 2734
 N18      P   0 ? 0357 13.97                             125    0.1910 10.3 2534
 N18      S   0   0357 16.35                             125   -0.0110 10.3 2534
 N14      P   0 ? 0357 13.94                             125    0.1310 10.5 2444
 N14      S   0   0357 16.33                             125   -0.0910 10.5 2444
 N6       P   0 ? 0357 13.72                             123   -0.1610 11.0 2134
 N6       S   0   0357 16.48                             123   -0.0710 11.0 2134
 N17      P   0 ? 0357 13.88                             123   -0.0110 11.1 2594
 N17      S   0   0357 16.38                             123   -0.1910 11.1 2594
 N7       P   0 ? 0357 14.08                             121    0.0710 11.8 2224
 N7       S   0   0357 16.57                             121   -0.2110 11.8 2224
 N11      P   0 ? 0357 14.19                             120    0.1410 12.1 2384
 N11      S   0   0357 16.93                             120    0.0810 12.1 2384
 N13      P   0 ? 0357 14.21                             119    0.0910 12.6 2424
 N13      S   0   0357 16.74                             119   -0.2410 12.6 2424
 CAMP     P   0 ? 0357 14.31                             116    0.0210 13.7 1904
 N4       P   0 ? 0357 14.42                             116    0.1210 13.7 2144
 N4       S   0   0357 17.42                             116    0.1310 13.7 2144
 CAMP     S   0   0357 17.21                             116   -0.0710 13.7 1904
 NOKA     P   0 ? 0357 16.33                              68   -0.1110 26.8  224
                                                                                
 2021  2 2 0623  1.3 L  29.047  51.372  6.2  SLT  7 0.2                        1
 GAP=290        0.51       1.5     2.1  1.9  0.2593E+00  0.5047E+00  0.5839E+00E
 STAT SP IPHASW D HRMN SECON CODA AMPLIT PERI AZIMU VELO AIN AR TRES W  DIS CAZ7
 ABAD     P   0 ? 0623  4.58                              98    0.0010 11.9 2614
 ABAD     S   0   0623  7.22                              98    0.0110 11.9 2614
 P9       P   0 ? 0623  5.41                              59   -0.0810 16.8 2544
 P9       S   0   0623  9.17                              59    0.3110 16.8 2544
 TOLS     P   0 ? 0623  7.17                              59    0.0910 25.9 2534
 TOLS     S   0   0623 11.88                              59    0.1510 25.9 2534
 KHIA     P   0 ? 0623  7.38                              59   -0.0310 27.8 2264
 KHIA     S   0   0623 12.24                              59   -0.0910 27.8 2264
 P4       P   0 ? 0623  8.27                              59    0.0310 32.7 2544
 P4       S   0   0623 13.33                              59   -0.5210 32.7 2544
 NOKA     P   0 ? 0623  8.87                              59   -0.0110 36.3 2954
 NOKA     S   0   0623 15.03                              59    0.0310 36.3 2954
 JNAK     P   0 ? 0623  9.66                              59   -0.0210 40.9 2254
 JNAK     S   0   0623 16.59                              59    0.1410 40.9 2254
                                                                                
 2021  2 2 0030 58.2 L  28.902  51.348  3.6  SLT  9 0.1                        1
 GAP=233        0.43       0.8     1.3  0.8  0.3596E+00 -0.1809E+00  0.1397E+00E
 STAT SP IPHASW D HRMN SECON CODA AMPLIT PERI AZIMU VELO AIN AR TRES W  DIS CAZ7
 P9       P   0 ? 0031  2.77                             101   -0.0910 17.9 3104
 P9       S   0   0031  6.70                             101    0.1010 17.9 3104
 KHIA     P   0 ? 0031  2.81                             101   -0.0710 18.0 2604
 KHIA     S   0   0031  6.65                             101    0.0010 18.0 2604
 KOLO     P   0 ? 0031  4.01                              43    0.1110 23.0 2074
 KOLO     S   0   0031  8.11                              43   -0.3710 23.0 2074
 TOLS     P   0 ? 0031  3.99                              43   -0.0810 24.0 2914
 TOLS     S   0   0031  8.74                              43   -0.0610 24.0 2914
 P5       P   0 ? 0031  4.52                              43   -0.0310 26.8 2894
 P5       S   0   0031  9.80                              43    0.1310 26.8 2894
 P4       P   0 ? 0031  5.00                              43   -0.1010 30.0 2844
 P4       S   0   0031 10.73                              43    0.0610 30.0 2844
 ABTL     P   0 ? 0031  5.27                              43   -0.1010 31.5 3154
 DLRM     P   0 ? 0031  6.45                              43    0.0810 37.3 2254
 DLRM     S   0   0031 13.12                              43    0.1610 37.3 2254
 ABAS     P   0 ? 0031  7.36                              43    0.2610 41.4 1884
                                                                                
 2021  2 2 0131  5.2 L  28.961  50.925 11.4  SLT 19 0.1                        1
 GAP=127        0.37       1.0     0.9  1.1 -0.2300E+00  0.1540E+00 -0.2778E+00E
 STAT SP IPHASW D HRMN SECON CODA AMPLIT PERI AZIMU VELO AIN AR TRES W  DIS CAZ7
 P2       P   0 ? 0131  7.63                             158   -0.0710 3.45 1454
 P2       S   0   0131  9.90                             158    0.1310 3.45 1454
 P1       P   0 ? 0131  7.62                             156   -0.1010 3.80 2034
 P1       S   0   0131  9.58                             156   -0.2210 3.80 2034
 P3       P   0 ? 0131  7.83                             148    0.0010 5.14 1054
 P3       S   0   0131 10.11                             148    0.1110 5.14 1054
 N19      P   0 ? 0131  7.86                             144   -0.0510 5.97 2544
 N19      S   0   0131 10.21                             144    0.0710 5.97 2544
 N16      P   0 ? 0131  7.96                             141    0.0110 6.46 2364
 N16      S   0   0131 10.03                             141   -0.1810 6.46 2364
 N12      P   0 ? 0131  8.08                             132   -0.0710 8.25 2264
 N12      S   0   0131 10.82                             132    0.2410 8.25 2264
 N15      P   0 ? 0131  8.12                             132   -0.0410 8.28 2344
 N15      S   0   0131 10.74                             132    0.1510 8.28 2344
 N9       P   0 ? 0131  8.21                             131    0.0410 8.44 2104
 N9       S   0   0131 10.69                             131    0.0710 8.44 2104
 N20      P   0 ? 0131  8.39                             130    0.1910 8.69 2744
 N20      S   0   0131 10.60                             130   -0.0710 8.69 2744
 N18      P   0 ? 0131  8.44                             126    0.1310 9.56 2514
 N18      S   0   0131 10.78                             126   -0.0910 9.56 2514
 N14      P   0 ? 0131  8.36                             125    0.0110 9.82 2424
 N14      S   0   0131 10.85                             125   -0.0910 9.82 2424
 N10      P   0 ? 0131  8.22                             123   -0.2010 10.3 2244
 N10      S   0   0131 10.86                             123   -0.2010 10.3 2244
 N17      P   0 ? 0131  8.45                             123    0.0310 10.4 2584
 N17      S   0   0131 11.17                             123    0.1110 10.4 2584
 N6       P   0 ? 0131  8.58                             122    0.1310 10.6 2104
 N6       S   0   0131 10.94                             122   -0.1810 10.6 2104
 N7       P   0 ? 0131  8.65                             120    0.0910 11.3 2204
 N7       S   0   0131 11.42                             120    0.1110 11.3 2204
 N11      P   0 ? 0131  8.66                             119    0.0810 11.5 2364
 N11      S   0   0131 11.20                             119   -0.1510 11.5 2364
 N13      P   0 ? 0131  8.59                             117   -0.0510 11.9 2404
 N13      S   0   0131 11.70                             117    0.2410 11.9 2404
 SHIF     P   0 ? 0131  8.67                             114   -0.1210 13.0 3384
 N4       P   0 ? 0131  8.78                             112   -0.0610 13.3 2114
                                                                                
 2021  2 2 0810 54.9 L  28.830  51.324 14.8  SLT  7 0.2                        1
 GAP=263        0.46       1.2     3.3  6.9 -0.1815E+01 -0.1413E+02  0.3417E+01E
 STAT SP IPHASW D HRMN SECON CODA AMPLIT PERI AZIMU VELO AIN AR TRES W  DIS CAZ7
 P9       P   0 ? 0811  0.09                             111   -0.0810 22.6 3304
 P9       S   0   0811  4.36                             111   -0.0810 22.6 3304
 JNAK     P   0 ? 0811  0.37                             108   -0.1510 24.9 2594
 JNAK     S   0   0811  5.30                             108    0.2310 24.9 2594
 TOLS     P   0 ? 0811  0.77                             107    0.0710 26.1 3094
 TOLS     S   0   0811  5.57                             107    0.1610 26.1 3094
 DLRM     P   0 ? 0811  1.32                             104   -0.0210 30.2 2334
 DLRM     S   0   0811  6.53                             104   -0.0410 30.2 2334
 P4       P   0 ? 0811  1.50                             103    0.0710 30.8 3004
 P4       S   0   0811  6.33                             103   -0.4010 30.8 3004
 ABTL     P   0 ? 0811  2.33                             100    0.0410 36.2 3264
 ABTL     S   0   0811  8.46                             100    0.1710 36.2 3264
 N7       P   0 ? 0811  3.97                              97    0.0410 46.5 2774
                                                                                
 2021  2 2 0106  0.8 L  29.049  51.322  7.8  SLT  6 0.1                        1
 GAP=261        0.33       1.5     1.6  2.5  0.9932E+00 -0.1448E+01 -0.7534E+00E
 STAT SP IPHASW D HRMN SECON CODA AMPLIT PERI AZIMU VELO AIN AR TRES W  DIS CAZ7
 ABAD     P   0 ? 0106  3.34                             119    0.0410 7.28 2534
 ABAD     S   0   0106  5.30                             119   -0.0110 7.28 2534
 P9       P   0 ? 0106  4.01                             100   -0.1110 12.3 2474
 P9       S   0   0106  6.78                             100   -0.0310 12.3 2474
 AHRM     P   0 ? 0106  5.73                              94    0.1610 20.6 1874
 ABTL     P   0 ? 0106  5.54                              94   -0.0610 20.8 2864
 ABTL     S   0   0106  9.60                              94    0.1310 20.8 2864
 TOLS     P   0 ? 0106  5.59                              93   -0.1110 21.4 2494
 TOLS     S   0   0106  9.71                              93    0.0510 21.4 2494
 KHIA     P   0 ? 0106  6.22                              93   -0.0510 24.7 2184
                                                                                
 2021  2 2 0351  7.2 L  28.631  51.128  5.3  SLT  6 0.1                        1
 GAP=183        0.36       0.9     1.4  1.0  0.4817E+00 -0.1201E+01 -0.2027E+00E
 STAT SP IPHASW D HRMN SECON CODA AMPLIT PERI AZIMU VELO AIN AR TRES W  DIS CAZ7
 DLRM     P   0 ? 0351  9.30                             130    0.0510 6.22 3074
 DLRM     S   0   0351 10.99                             130    0.0710 6.22 3074
 KOLO     P   0 ? 0351 10.88                              53   -0.1310 14.6  494
 KOLO     S   0   0351 14.12                              53    0.0110 14.6  494
 ABAS     P   0 ? 0351 11.83                              43   -0.0710 19.3 1254
 ABAS     S   0   0351 15.87                              43    0.1610 19.3 1254
 KHIA     P   0 ? 0351 13.17                              43   -0.0910 27.1   84
 KHIA     S   0   0351 18.33                              43    0.1610 27.1   84
 AHRM     P   0 ? 0351 13.82                              43   -0.0510 30.6  324
 N12      P   0 ? 0351 15.40                              43   -0.1210 40.1 3204
                                                                                
 2021  2 2 1713 43.7 L  28.751  51.314 14.8  SLT  4 0.1                        1
 GAP=194        0.32       1.1     1.7  2.1 -0.4689E-01 -0.6821E+00  0.3226E+00E
 STAT SP IPHASW D HRMN SECON CODA AMPLIT PERI AZIMU VELO AIN AR TRES W  DIS CAZ7
 KOLO     P   0 ? 1713 47.14                             145   -0.0010 8.11 2424
 KOLO     S   0   1713 49.93                             145    0.0410 8.11 2424
 AHRM     P   0 ? 1713 47.59                             130   -0.0510 12.6 3514
 ABAS     P   0 ? 1713 49.43                             109    0.1210 24.4 1864
 ABAS     S   0   1713 53.72                             109   -0.1010 24.4 1864
 DLRM     P   0 ? 1713 49.42                             108    0.0210 25.1 2484
 DLRM     S   0   1713 53.96                             108   -0.0310 25.1 2484
                                                                                
 2021  2 2 0202 32.5 L  28.966  51.126 11.4  SLT 18 0.1                        1
 GAP= 87        0.38       0.8     0.6  0.9 -0.1428E+00  0.1807E+00  0.8621E-01E
 STAT SP IPHASW D HRMN SECON CODA AMPLIT PERI AZIMU VELO AIN AR TRES W  DIS CAZ7
 TOLS     P   0 ? 0202 34.96                             169   -0.0210 1.64 3294
 TOLS     S   0   0202 36.85                             169   -0.1310 1.64 3294
 P5       P   0 ? 0202 35.03                             155   -0.0710 4.02 2914
 P5       S   0   0202 37.40                             155    0.2110 4.02 2914
 P4       P   0 ? 0202 35.50                             136    0.0910 7.47 2714
 P4       S   0   0202 37.55                             136   -0.2110 7.47 2714
 P9       P   0 ? 0202 35.53                             129   -0.0610 8.94  614
 P9       S   0   0202 38.26                             129    0.1710 8.94  614
 KHIA     P   0 ? 0202 35.87                             121   -0.0110 11.1 1594
 KHIA     S   0   0202 38.61                             121    0.0010 11.1 1594
 ABAD     P   0 ? 0202 36.23                             110   -0.0910 14.1  604
 ABAD     S   0   0202 39.14                             110   -0.2610 14.1  604
 P3       P   0 ? 0202 36.38                             108   -0.0310 14.7 2634
 P3       S   0   0202 39.80                             108    0.2410 14.7 2634
 ABTL     P   0 ? 0202 36.50                             107    0.0510 14.9 3574
 ABTL     S   0   0202 39.77                             107    0.1210 14.9 3574
 P2       P   0 ? 0202 37.14                             100    0.2310 17.9 2594
 P2       S   0   0202 40.55                             100    0.0710 17.9 2594
 AHRM     P   0 ? 0202 37.37                              96    0.1110 20.0 1244
 NOKA     P   0 ? 0202 38.21                              93    0.0110 25.9 3404
 N12      P   0 ? 0202 38.07                              93   -0.1810 26.3 2564
 N12      S   0   0202 42.86                              93   -0.0410 26.3 2564
 N6       P   0 ? 0202 38.37                              92    0.0510 26.7 2494
 N6       S   0   0202 42.92                              92   -0.1110 26.7 2494
 N15      P   0 ? 0202 38.49                              92    0.1510 26.8 2584
 N15      S   0   0202 42.96                              92   -0.1110 26.8 2584
 N18      P   0 ? 0202 38.77                              92    0.1010 28.8 2634
 N18      S   0   0202 43.42                              92   -0.2310 28.8 2634
 N4       P   0 ? 0202 38.78                              92    0.0810 29.1 2464
 N4       S   0   0202 43.81                              92    0.0910 29.1 2464
 N17      P   0 ? 0202 38.78                              92   -0.0410 29.8 2654
 N17      S   0   0202 43.72                              92   -0.2110 29.8 2654
 N11      P   0 ? 0202 38.82                              92   -0.0210 29.9 2574
 N11      S   0   0202 44.04                              92    0.0710 29.9 2574
                                                                                
 2021  2 2 0229 58.3 L  28.963  51.121 10.3  SLT 11 0.1                        1
 GAP= 96        0.37       0.8     0.8  1.2 -0.1179E+00  0.1412E+00 -0.4419E-01E
 STAT SP IPHASW D HRMN SECON CODA AMPLIT PERI AZIMU VELO AIN AR TRES W  DIS CAZ7
 TOLS     P   0 ? 0230  0.61                             168    0.0010 1.83 3474
 TOLS     S   0   0230  2.21                             168   -0.2510 1.83 3474
 P5       P   0 ? 0230  0.66                             155   -0.0510 3.79 2984
 P4       P   0 ? 0230  1.11                             137    0.0810 7.06 2744
 P4       S   0   0230  3.41                             137    0.1810 7.06 2744
 P9       P   0 ? 0230  1.26                             127   -0.0910 9.48  614
 P9       S   0   0230  4.07                             127    0.2610 9.48  614
 KHIA     P   0 ? 0230  1.44                             122   -0.1110 10.9 1564
 KHIA     S   0   0230  4.21                             122    0.0310 10.9 1564
 ABAD     P   0 ? 0230  2.00                             112   -0.1310 14.6  604
 ABAD     S   0   0230  5.35                             112    0.1210 14.6  604
 ABTL     P   0 ? 0230  2.21                             111   -0.0410 15.3 3584
 ABTL     S   0   0230  5.41                             111   -0.0310 15.3 3584
 P2       P   0 ? 0230  2.59                             107    0.0010 17.5 2604
 N12      P   0 ? 0230  4.10                             100    0.1010 25.8 2574
 NOKA     P   0 ? 0230  4.01                             100   -0.0510 26.1 3414
 N6       P   0 ? 0230  4.06                             100   -0.0110 26.1 2494
                                                                                
