 2021  2 2 2112 23.9 L  28.920  51.104 10.6  SLT 34 0.1                        1
 GAP= 81        0.30       0.4     0.4  0.4 -0.1163E-01  0.5045E-01  0.2425E-01E
 STAT SP IPHASW D HRMN SECON CODA AMPLIT PERI AZIMU VELO AIN AR TRES W  DIS CAZ7
 TOLS     P   0 ? 2112 26.65                             140   -0.0010 6.69  114
 TOLS     S   0   2112 28.76                             140   -0.0910 6.69  114
 P5       P   0 ? 2112 26.61                             140   -0.0510 6.77 3464
 P5       S   0   2112 28.97                             140    0.1110 6.77 3464
 P4       P   0 ? 2112 26.85                             136    0.1110 7.48 3144
 P4       S   0   2112 29.06                             136    0.0510 7.48 3144
 KHIA     P   0 ? 2112 26.78                             134   -0.0310 7.98 1304
 KHIA     S   0   2112 28.91                             134   -0.2310 7.98 1304
 P3       P   0 ? 2112 27.54                             117    0.0510 12.9 2854
 P3       S   0   2112 30.40                             117    0.0210 12.9 2854
 P9       P   0 ? 2112 27.54                             115   -0.0910 13.7  464
 JNAK     P   0 ? 2112 27.80                             113   -0.0310 15.0 1924
 JNAK     S   0   2112 31.08                             113    0.0910 15.0 1924
 P2       P   0 ? 2112 27.99                             112    0.0710 15.6 2764
 P2       S   0   2112 30.90                             112   -0.2510 15.6 2764
 ABAD     P   0 ? 2112 28.63                             107    0.1710 18.8  504
 P1       P   0 ? 2112 28.62                             107    0.1510 18.9 2734
 P1       S   0   2112 32.34                             107    0.2010 18.9 2734
 ABTL     P   0 ? 2112 28.67                             105   -0.0110 20.1   44
 CAMP     P   0 ? 2112 28.65                             104   -0.1810 21.1 2454
 CAMP     S   0   2112 32.70                             104   -0.1010 21.1 2454
 N9       P   0 ? 2112 29.02                             104    0.0510 21.9 2634
 N9       S   0   2112 33.06                             104    0.0110 21.9 2634
 N2       P   0 ? 2112 29.21                             103    0.1410 22.5 2464
 N2       S   0   2112 33.13                             103   -0.1010 22.5 2464
 N1       P   0 ? 2112 29.21                             103    0.1010 22.7 2424
 N1       S   0   2112 33.20                             103   -0.1110 22.7 2424
 N16      P   0 ? 2112 29.21                             103    0.0910 22.8 2724
 N16      S   0   2112 33.26                             103   -0.0710 22.8 2724
 N5       P   0 ? 2112 29.10                             103   -0.0510 23.0 2484
 N5       S   0   2112 33.44                             103    0.0610 23.0 2484
 N6       P   0 ? 2112 29.17                             103   -0.0210 23.2 2594
 N6       S   0   2112 33.63                             103    0.1810 23.2 2594
 N19      P   0 ? 2112 29.15                             103   -0.0710 23.4 2774
 N19      S   0   2112 33.53                             103    0.0210 23.4 2774
 N3       P   0 ? 2112 29.43                             102    0.0810 24.1 2484
 N15      P   0 ? 2112 29.24                             102   -0.1210 24.2 2694
 N15      S   0   2112 33.79                             102    0.0410 24.2 2694
 N10      P   0 ? 2112 29.56                              68    0.1110 24.7 2634
 N10      S   0   2112 33.80                              68   -0.1210 24.7 2634
 N7       P   0 ? 2112 29.53                              68    0.0310 25.0 2604
 N7       S   0   2112 34.09                              68    0.0810 25.0 2604
 N4       P   0 ? 2112 29.44                              68   -0.1010 25.3 2544
 N4       S   0   2112 34.19                              68    0.1110 25.3 2544
 N14      P   0 ? 2112 29.74                              68    0.0610 26.1 2704
 N14      S   0   2112 34.26                              68   -0.0710 26.1 2704
 KOLO     P   0 ? 2112 29.75                              68    0.0710 26.1 1494
 N18      P   0 ? 2112 29.77                              68    0.0310 26.5 2734
 N18      S   0   2112 34.36                              68   -0.0810 26.5 2734
 N20      P   0 ? 2112 29.73                              68   -0.0210 26.6 2814
 N20      S   0   2112 34.41                              68   -0.0510 26.6 2814
 N11      P   0 ? 2112 29.78                              68   -0.0510 27.0 2664
 N11      S   0   2112 34.51                              68   -0.0910 27.0 2664
 N17      P   0 ? 2112 29.87                              68   -0.0510 27.7 2754
 N17      S   0   2112 34.67                              68   -0.1010 27.7 2754
 N13      P   0 ? 2112 29.84                              68   -0.1110 27.8 2674
 N13      S   0   2112 34.96                              68    0.1410 27.8 2674
 SHIF     P   0 ? 2112 30.00                              68    0.0510 27.8 3074
 NOKA     P   0 ? 2112 30.23                              68   -0.1210 30.3 3474
 ABAS     P   0 ? 2112 33.10                              68    0.1110 46.7 1574
                                                                                
 2021  2 2 2132 22.1 L  28.919  51.104  9.7  SLT 10 0.1                        1
 GAP= 80        0.29       0.5     0.6  1.1 -0.2709E-01  0.1182E+00  0.1537E+00E
 STAT SP IPHASW D HRMN SECON CODA AMPLIT PERI AZIMU VELO AIN AR TRES W  DIS CAZ7
 TOLS     P   0 ? 2132 24.67                             135   -0.0110 6.75  114
 TOLS     S   0   2132 26.83                             135    0.0410 6.75  114
 P5       P   0 ? 2132 24.63                             135   -0.0610 6.82 3464
 P5       S   0   2132 26.64                             135   -0.1610 6.82 3464
 P4       P   0 ? 2132 24.88                             132    0.1110 7.51 3154
 P4       S   0   2132 27.04                             132    0.0910 7.51 3154
 KHIA     P   0 ? 2132 24.79                             130   -0.0510 7.96 1304
 KHIA     S   0   2132 27.17                             130    0.0910 7.96 1304
 P9       P   0 ? 2132 25.69                             110   -0.0310 13.8  464
 P9       S   0   2132 28.66                             110   -0.0110 13.8  464
 JNAK     P   0 ? 2132 25.82                             108   -0.0910 14.9 1924
 JNAK     S   0   2132 29.03                             108    0.0210 14.9 1924
 ABAD     P   0 ? 2132 26.46                             103   -0.1110 18.8  504
 P1       P   0 ? 2132 26.61                             103    0.0410 18.9 2734
 P1       S   0   2132 30.14                             103   -0.0710 18.9 2734
 ABTL     P   0 ? 2132 26.97                             102    0.1710 20.2   44
 N6       P   0 ? 2132 27.41                             100    0.1110 23.1 2594
 N6       S   0   2132 31.45                             100   -0.0810 23.1 2594
                                                                                
 2021  2 2 2218 38.8 L  28.916  51.107 10.5  SLT 31 0.1                        1
 GAP= 81        0.29       0.4     0.4  0.4 -0.3051E-01  0.6231E-01  0.6656E-02E
 STAT SP IPHASW D HRMN SECON CODA AMPLIT PERI AZIMU VELO AIN AR TRES W  DIS CAZ7
 TOLS     P   0 ? 2218 41.55                             138   -0.0110 7.07   84
 TOLS     S   0   2218 43.80                             138    0.0110 7.07   84
 P5       P   0 ? 2218 41.52                             137   -0.0610 7.27 3444
 P5       S   0   2218 43.70                             137   -0.1310 7.27 3444
 KHIA     P   0 ? 2218 41.71                             136    0.1010 7.44 1304
 KHIA     S   0   2218 43.89                             136    0.0110 7.44 1304
 P4       P   0 ? 2218 41.67                             133   -0.0010 8.02 3154
 P4       S   0   2218 43.88                             133   -0.1110 8.02 3154
 P3       P   0 ? 2218 42.48                             116    0.0510 13.3 2864
 P3       S   0   2218 45.46                             116    0.0910 13.3 2864
 P9       P   0 ? 2218 42.43                             115   -0.0910 13.8  444
 P9       S   0   2218 45.44                             115   -0.0810 13.8  444
 JNAK     P   0 ? 2218 42.65                             113    0.0010 14.7 1934
 JNAK     S   0   2218 45.57                             113   -0.1810 14.7 1934
 P2       P   0 ? 2218 42.94                             111    0.0910 15.9 2784
 P2       S   0   2218 46.14                             111    0.0110 15.9 2784
 ABAD     P   0 ? 2218 43.52                             107    0.1810 18.8  484
 P1       P   0 ? 2218 43.56                             106    0.1610 19.3 2744
 P1       S   0   2218 47.24                             106    0.1210 19.3 2744
 ABTL     P   0 ? 2218 43.61                             105   -0.0210 20.5   34
 CAMP     P   0 ? 2218 43.56                             104   -0.1710 21.2 2464
 CAMP     S   0   2218 47.46                             104   -0.2510 21.2 2464
 N9       P   0 ? 2218 43.96                             103    0.0710 22.2 2644
 N9       S   0   2218 48.20                             103    0.1910 22.2 2644
 N2       P   0 ? 2218 44.13                             103    0.1610 22.6 2474
 N2       S   0   2218 48.05                             103   -0.0910 22.6 2474
 N1       P   0 ? 2218 44.12                             103    0.1210 22.8 2434
 N1       S   0   2218 48.23                             103    0.0210 22.8 2434
 N5       P   0 ? 2218 44.16                             102    0.1010 23.1 2504
 N5       S   0   2218 48.21                             102   -0.0910 23.1 2504
 N6       P   0 ? 2218 44.07                             102   -0.0410 23.4 2604
 N6       S   0   2218 48.30                             102   -0.1010 23.4 2604
 N19      P   0 ? 2218 44.15                             102   -0.0110 23.7 2784
 N19      S   0   2218 48.42                             102   -0.0810 23.7 2784
 N3       P   0 ? 2218 44.19                             102   -0.0610 24.3 2494
 N3       S   0   2218 48.72                             102    0.0710 24.3 2494
 N15      P   0 ? 2218 44.39                             102    0.1010 24.5 2704
 N15      S   0   2218 48.91                             102    0.1810 24.5 2704
 N10      P   0 ? 2218 44.28                             101   -0.1010 25.0 2644
 N10      S   0   2218 48.91                             101    0.0210 25.0 2644
 N7       P   0 ? 2218 44.54                             101    0.1210 25.3 2624
 N7       S   0   2218 49.02                             101    0.0510 25.3 2624
 N4       P   0 ? 2218 44.37                              68   -0.0910 25.5 2564
 N4       S   0   2218 48.92                              68   -0.1110 25.5 2564
 KOLO     P   0 ? 2218 44.49                              68    0.0110 25.6 1494
 N14      P   0 ? 2218 44.73                              68    0.1210 26.4 2714
 N14      S   0   2218 49.40                              68    0.0910 26.4 2714
 N18      P   0 ? 2218 44.76                              68    0.0810 26.9 2744
 N18      S   0   2218 49.55                              68    0.1110 26.9 2744
 N20      P   0 ? 2218 44.74                              68    0.0410 27.0 2824
 N20      S   0   2218 49.40                              68   -0.0710 27.0 2824
 N11      P   0 ? 2218 44.75                              68   -0.0110 27.4 2674
 N11      S   0   2218 49.49                              68   -0.0910 27.4 2674
 N17      P   0 ? 2218 44.83                              68   -0.0310 28.0 2764
 N17      S   0   2218 49.72                              68   -0.0510 28.0 2764
 N13      P   0 ? 2218 44.84                              68   -0.0410 28.1 2684
 N13      S   0   2218 49.71                              68   -0.0910 28.1 2684
 SHIF     P   0 ? 2218 44.80                              68   -0.1210 28.4 3074
 SHIF     S   0   2218 49.73                              68   -0.1310 28.4 3074
                                                                                
 2021  2 2 2232 36.9 L  28.915  51.108  9.7  SLT 15 0.1                        1
 GAP= 81        0.27       0.4     0.5  1.0 -0.2875E-01  0.1646E+00  0.1256E+00E
 STAT SP IPHASW D HRMN SECON CODA AMPLIT PERI AZIMU VELO AIN AR TRES W  DIS CAZ7
 TOLS     P   0 ? 2232 39.51                             133   -0.0210 7.19   74
 TOLS     S   0   2232 41.77                             133    0.0810 7.19   74
 KHIA     P   0 ? 2232 39.68                             133    0.1310 7.31 1294
 KHIA     S   0   2232 41.77                             133    0.0510 7.31 1294
 P5       P   0 ? 2232 39.48                             132   -0.0810 7.42 3444
 P5       S   0   2232 41.69                             132   -0.0410 7.42 3444
 P4       P   0 ? 2232 39.64                             129   -0.0210 8.16 3154
 P4       S   0   2232 41.85                             129   -0.0610 8.16 3154
 P9       P   0 ? 2232 40.49                             110   -0.0410 13.8  444
 P9       S   0   2232 43.47                             110   -0.0210 13.8  444
 JNAK     P   0 ? 2232 40.60                             109   -0.0410 14.5 1944
 JNAK     S   0   2232 43.62                             109   -0.0610 14.5 1944
 ABAD     P   0 ? 2232 41.26                             103   -0.1110 18.8  484
 P1       P   0 ? 2232 41.47                             102    0.0310 19.3 2754
 P1       S   0   2232 45.20                             102    0.0610 19.3 2754
 ABTL     P   0 ? 2232 41.81                             101    0.1310 20.7   24
 CAMP     P   0 ? 2232 41.88                             101    0.1210 21.2 2474
 N2       P   0 ? 2232 42.00                             100   -0.0010 22.6 2484
 N1       P   0 ? 2232 41.83                             100   -0.2110 22.8 2434
 N5       P   0 ? 2232 42.11                             100    0.0210 23.1 2504
 N6       P   0 ? 2232 42.25                              99    0.1010 23.4 2604
 N6       S   0   2232 46.39                              99   -0.0310 23.4 2604
 N18      P   0 ? 2232 42.78                              98    0.0310 27.0 2744
                                                                                
 2021  2 2 0107 12.3 L  28.927  51.079 12.3  SLT  6 0.0                        1
 GAP=144        0.26       0.8     1.5  1.7 -0.8009E+00 -0.1849E+01  0.8588E+00E
 STAT SP IPHASW D HRMN SECON CODA AMPLIT PERI AZIMU VELO AIN AR TRES W  DIS CAZ7
 P4       P   0 ? 0107 15.20                             150    0.0610 5.28 3264
 P4       S   0   0107 17.41                             150    0.0110 5.28 3264
 TOLS     P   0 ? 0107 15.22                             142   -0.0610 6.83  334
 TOLS     S   0   0107 17.64                             142   -0.0210 6.83  334
 KHIA     P   0 ? 0107 15.67                             128   -0.0310 10.4 1254
 P9       P   0 ? 0107 16.32                             113   -0.0210 15.1  554
 JNAK     P   0 ? 0107 16.39                             112   -0.0210 15.5 1824
 JNAK     S   0   0107 19.74                             112    0.0310 15.5 1824
 ABAD     P   0 ? 0107 17.11                             103   -0.0310 20.2  564
 ABAD     S   0   0107 21.10                             103    0.0810 20.2  564
                                                                                
 2021  2 2 0654 53.1 L  28.867  50.843  7.2  SLT 13 0.1                        1
 GAP=201        0.29       0.6     1.2  0.9  0.5165E+00  0.2798E+00  0.4656E-01E
 STAT SP IPHASW D HRMN SECON CODA AMPLIT PERI AZIMU VELO AIN AR TRES W  DIS CAZ7
 N4       P   0 ? 0654 54.79                             164   -0.0410 1.47 1344
 N4       S   0   0654 56.33                             164    0.0910 1.47 1344
 N7       P   0 ? 0654 54.85                             160   -0.0010 1.82  254
 N7       S   0   0654 56.39                             160    0.1010 1.82  254
 N6       P   0 ? 0654 54.94                             148    0.0010 2.98  664
 N6       S   0   0654 56.37                             148   -0.0710 2.98  664
 N10      P   0 ? 0654 55.03                             148    0.0910 2.99  174
 N10      S   0   0654 56.47                             148    0.0310 2.99  174
 N11      P   0 ? 0654 55.08                             136    0.0110 4.27 3384
 N11      S   0   0654 56.56                             136   -0.1310 4.27 3384
 N3       P   0 ? 0654 55.10                             133   -0.0110 4.57 1374
 N3       S   0   0654 56.69                             133   -0.0610 4.57 1374
 N9       P   0 ? 0654 55.13                             131   -0.0110 4.82  504
 N9       S   0   0654 56.85                             131    0.0410 4.82  504
 N5       P   0 ? 0654 55.25                             130    0.1010 4.89 1234
 N5       S   0   0654 56.73                             130   -0.1010 4.89 1234
 N15      P   0 ? 0654 55.47                             123    0.2110 5.66  134
 N15      S   0   0654 57.04                             123    0.0110 5.66  134
 N14      P   0 ? 0654 55.39                             122    0.1110 5.78 3534
 N14      S   0   0654 56.97                             122   -0.0910 5.78 3534
 N2       P   0 ? 0654 55.36                             121    0.0710 5.91 1244
 N2       S   0   0654 56.98                             121   -0.1010 5.91 1244
 N18      P   0 ? 0654 55.30                             108   -0.2310 7.37 3524
 N18      S   0   0654 57.48                             108   -0.0310 7.37 3524
 N17      P   0 ? 0654 55.72                             100    0.0110 8.46 3454
                                                                                
 2021  2 2 2101 36.2 L  29.255  51.366  6.6  SLT  8 0.1                        1
 GAP=307        0.28       2.4     2.8  5.0  0.5479E+01  0.1262E+02  0.1090E+02E
 STAT SP IPHASW D HRMN SECON CODA AMPLIT PERI AZIMU VELO AIN AR TRES W  DIS CAZ7
 ABAD     P   0 ? 2101 42.12                              59   -0.0310 27.5 2044
 ABAD     S   0   2101 47.10                              59    0.1110 27.5 2044
 ABTL     P   0 ? 2101 42.51                              59   -0.0210 29.7 2354
 ABTL     S   0   2101 47.83                              59    0.1510 29.7 2354
 P9       P   0 ? 2101 42.98                              59    0.0810 31.8 2094
 P9       S   0   2101 48.27                              59   -0.0810 31.8 2094
 NOKA     P   0 ? 2101 43.20                              59    0.0610 33.2 2574
 NOKA     S   0   2101 48.67                              59   -0.1110 33.2 2574
 TOLS     P   0 ? 2101 44.18                              59    0.0210 39.1 2184
 TOLS     S   0   2101 50.59                              59   -0.0410 39.1 2184
 P4       P   0 ? 2101 45.03                              59   -0.0610 44.4 2244
 P4       S   0   2101 52.35                              59    0.0410 44.4 2244
 KHIA     P   0 ? 2101 45.39                              59   -0.0910 46.6 2054
 KHIA     S   0   2101 52.92                              59   -0.1010 46.6 2054
 JNAK     P   0 ? 2101 47.60                              53    0.0710 59.2 2094
 JNAK     S   0   2101 56.75                              53    0.0210 59.2 2094
                                                                                
