 2021  2 2 1550 48.5 L  28.816  50.855  7.4  SLT  8 0.1                        1
 GAP=278        0.30       1.1     1.7  1.5  0.8960E+00  0.1396E+01  0.1183E+00E
 STAT SP IPHASW D HRMN SECON CODA AMPLIT PERI AZIMU VELO AIN AR TRES W  DIS CAZ7
 N3       P   0 ? 1550 50.45                             148    0.0210 3.07  404
 N5       P   0 ? 1550 50.50                             138   -0.0610 4.22  454
 N5       S   0   1550 52.34                             138    0.1610 4.22  454
 N1       P   0 ? 1550 50.64                             136    0.0710 4.39  814
 N1       S   0   1550 52.00                             136   -0.2210 4.39  814
 N2       P   0 ? 1550 50.68                             136    0.1110 4.42  584
 N2       S   0   1550 52.30                             136    0.0910 4.42  584
 N4       P   0 ? 1550 50.59                             134   -0.0210 4.67 3594
 N4       S   0   1550 52.21                             134   -0.0710 4.67 3594
 CAMP     P   0 ? 1550 50.73                             124   -0.0310 5.81  644
 CAMP     S   0   1550 52.53                             124   -0.0210 5.81  644
 N6       P   0 ? 1550 50.92                             115   -0.0410 7.07  134
 N6       S   0   1550 52.92                             115    0.0110 7.07  134
 N15      P   0 ? 1550 51.69                              96    0.0410 11.2   14
 N15      S   0   1550 54.13                              96   -0.0410 11.2   14
                                                                                
 2021  2 2 1642 55.3 L  28.824  50.848  7.4  SLT 10 0.1                        1
 GAP=255        0.28       0.8     1.2  1.1  0.5689E+00  0.6993E+00  0.4235E-01E
 STAT SP IPHASW D HRMN SECON CODA AMPLIT PERI AZIMU VELO AIN AR TRES W  DIS CAZ7
 N3       P   0 ? 1642 57.11                             149   -0.0310 3.02  614
 N3       S   0   1642 58.74                             149    0.0710 3.02  614
 N4       P   0 ? 1642 57.15                             142   -0.0710 3.83   94
 N4       S   0   1642 58.71                             142   -0.1110 3.83   94
 N5       P   0 ? 1642 57.32                             138    0.0510 4.20  604
 N5       S   0   1642 58.96                             138    0.0610 4.20  604
 N2       P   0 ? 1642 57.24                             134   -0.0710 4.64  724
 N2       S   0   1642 59.10                             134    0.1210 4.64  724
 N1       P   0 ? 1642 57.32                             131   -0.0510 4.99  924
 N1       S   0   1642 59.10                             131    0.0310 4.99  924
 CAMP     P   0 ? 1642 57.38                             122   -0.1410 6.10  744
 CAMP     S   0   1642 59.35                             122    0.0010 6.10  744
 N6       P   0 ? 1642 57.51                             120   -0.0610 6.41  214
 N6       S   0   1642 59.40                             120   -0.0410 6.41  214
 N10      P   0 ? 1642 57.78                             111    0.0110 7.67   34
 N10      S   0   1642 59.78                             111   -0.0210 7.67   34
 N9       P   0 ? 1642 58.07                             105    0.1710 8.52  224
 N9       S   0   1642 59.94                             105   -0.1110 8.52  224
 N11      P   0 ? 1642 58.09                             103    0.1010 9.00 3474
 N11      S   0   1643  0.28                             103    0.0810 9.00 3474
                                                                                
 2021  2 2 1654 51.7 L  28.828  50.867  8.0  SLT 12 0.1                        1
 GAP=238        0.31       1.0     1.4  0.8  0.7785E+00 -0.1479E+00 -0.1785E+00E
 STAT SP IPHASW D HRMN SECON CODA AMPLIT PERI AZIMU VELO AIN AR TRES W  DIS CAZ7
 N3       P   0 ? 1654 53.51                             168   -0.0410 1.29  394
 N3       S   0   1654 55.07                             168    0.0010 1.29  394
 N5       P   0 ? 1654 53.53                             157   -0.0810 2.45  474
 N5       S   0   1654 55.31                             157    0.1310 2.45  474
 N2       P   0 ? 1654 53.71                             154    0.0810 2.76  694
 N2       S   0   1654 55.31                             154    0.1010 2.76  694
 N1       P   0 ? 1654 53.69                             150    0.0210 3.23 1024
 N1       S   0   1654 55.23                             150   -0.0610 3.23 1024
 N4       P   0 ? 1654 53.63                             148   -0.0710 3.55 3404
 N4       S   0   1654 55.34                             148    0.0010 3.55 3404
 CAMP     P   0 ? 1654 53.72                             142   -0.0410 4.22  734
 CAMP     S   0   1654 55.45                             142   -0.0110 4.22  734
 N6       P   0 ? 1654 53.88                             132   -0.0510 5.56   44
 N6       S   0   1654 55.64                             132   -0.1210 5.56   44
 N10      P   0 ? 1654 54.19                             121    0.0110 7.35 3494
 N10      S   0   1654 56.22                             121    0.0110 7.35 3494
 N9       P   0 ? 1654 54.42                             119    0.2110 7.56  114
 N9       S   0   1654 56.13                             119   -0.1310 7.56  114
 P2       P   0 ? 1654 55.46                              99    0.1710 14.1  334
 P3       P   0 ? 1654 55.87                              96    0.0510 17.1  384
 KHIA     P   0 ? 1654 57.82                              93   -0.1710 29.6  804
                                                                                
 2021  2 2 1714 27.7 L  29.232  51.314  2.4  SLT 13 0.1                        1
 GAP=296        0.31       0.7     1.3  0.7  0.2009E+00  0.5176E+00 -0.1304E-02E
 STAT SP IPHASW D HRMN SECON CODA AMPLIT PERI AZIMU VELO AIN AR TRES W  DIS CAZ7
 ABAD     P   0 ? 1714 33.54                              96   -0.0710 23.3 1954
 ABAD     S   0   1714 38.46                              96    0.0410 23.3 1954
 ABTL     P   0 ? 1714 33.68                              43   -0.0510 24.1 2334
 ABTL     S   0   1714 38.78                              43    0.1310 24.1 2334
 P9       P   0 ? 1714 34.25                              43   -0.0410 27.3 2034
 P9       S   0   1714 39.57                              43   -0.0910 27.3 2034
 NOKA     P   0 ? 1714 34.34                              43   -0.0210 27.7 2594
 NOKA     S   0   1714 39.67                              43   -0.1110 27.7 2594
 TOLS     P   0 ? 1714 35.50                              43    0.0410 34.0 2144
 TOLS     S   0   1714 41.76                              43   -0.0010 34.0 2144
 KHIA     P   0 ? 1714 36.81                              43   -0.1010 42.3 2004
 KHIA     S   0   1714 44.24                              43   -0.1610 42.3 2004
 SHIF     P   0 ? 1714 37.55                              43   -0.0710 46.5 2474
 SHIF     S   0   1714 45.68                              43   -0.0110 46.5 2474
 P2       P   0 ? 1714 38.08                              43    0.0610 48.7 2284
 N19      P   0 ? 1714 39.13                              40    0.2110 53.9 2344
 JNAK     P   0 ? 1714 39.14                              40    0.1210 54.6 2064
 N18      P   0 ? 1714 39.52                              40    0.0410 57.5 2354
 N18      S   0   1714 48.97                              40   -0.0810 57.5 2354
 N6       P   0 ? 1714 39.47                              40   -0.1610 58.3 2284
 N6       S   0   1714 49.49                              40    0.1810 58.3 2284
 DLRM     P   0 ? 1714 41.10                              40    0.08 9 67.0 2004
 DLRM     S   0   1714 51.92                              40    0.09 9 67.0 2004
                                                                                
 2021  2 2 1919 18.6 L  28.826  50.860  7.9  SLT 29 0.1                        1
 GAP=206        0.29       0.5     0.6  0.5  0.1645E+00 -0.3507E-01 -0.3535E-01E
 STAT SP IPHASW D HRMN SECON CODA AMPLIT PERI AZIMU VELO AIN AR TRES W  DIS CAZ7
 N3       P   0 ? 1919 20.47                             162    0.0010 1.86  504
 N3       S   0   1919 21.97                             162   -0.0210 1.86  504
 N5       P   0 ? 1919 20.50                             151   -0.0510 3.03  524
 N5       S   0   1919 22.08                             151   -0.0610 3.03  524
 N2       P   0 ? 1919 20.57                             148   -0.0010 3.40  694
 N2       S   0   1919 22.13                             148   -0.0510 3.40  694
 N4       P   0 ? 1919 20.68                             147    0.0810 3.58 3504
 N4       S   0   1919 22.29                             147    0.0710 3.58 3504
 N1       P   0 ? 1919 20.65                             145    0.0310 3.79  974
 N1       S   0   1919 22.33                             145    0.0710 3.79  974
 CAMP     P   0 ? 1919 20.70                             136   -0.0310 4.85  734
 CAMP     S   0   1919 22.42                             136   -0.0510 4.85  734
 N6       P   0 ? 1919 20.85                             129   -0.0210 5.83  104
 N6       S   0   1919 22.83                             129    0.1210 5.83  104
 N10      P   0 ? 1919 21.14                             119    0.0410 7.45 3544
 N10      S   0   1919 23.14                             119    0.0110 7.45 3544
 N9       P   0 ? 1919 21.39                             116    0.2310 7.88  154
 N9       S   0   1919 23.08                             116   -0.1610 7.88  154
 N11      P   0 ? 1919 21.46                             110    0.1010 9.11 3394
 N11      S   0   1919 23.56                             110   -0.0410 9.11 3394
 N13      P   0 ? 1919 21.45                             107   -0.0310 9.82 3364
 N13      S   0   1919 23.87                             107    0.0510 9.82 3364
 N15      P   0 ? 1919 21.31                             106   -0.2110 10.1 3584
 N15      S   0   1919 23.63                             106   -0.2610 10.1 3584
 N14      P   0 ? 1919 21.62                             104    0.0210 10.5 3474
 N14      S   0   1919 24.20                             104    0.1610 10.5 3474
 N16      P   0 ? 1919 21.85                             102    0.1210 11.3   54
 N16      S   0   1919 24.18                             102   -0.0910 11.3   54
 N18      P   0 ? 1919 21.93                             100    0.0610 12.1 3474
 N18      S   0   1919 24.51                             100   -0.0210 12.1 3474
 P1       P   0 ? 1919 21.99                             100    0.0810 12.4  234
 P1       S   0   1919 24.54                             100   -0.0510 12.4  234
 N17      P   0 ? 1919 21.97                              99   -0.0910 13.3 3434
 N19      P   0 ? 1919 22.03                              99   -0.0410 13.3   24
 N19      S   0   1919 24.80                              99   -0.0910 13.3   24
 P2       P   0 ? 1919 22.23                              97   -0.0610 14.6  344
 P2       S   0   1919 25.27                              97   -0.0210 14.6  344
 N20      P   0 ? 1919 22.53                              96    0.0510 15.7 3514
 N20      S   0   1919 25.66                              96    0.0410 15.7 3514
 P3       P   0 ? 1919 22.72                              95   -0.1010 17.7  404
 P3       S   0   1919 26.49                              95    0.2410 17.7  404
 JNAK     P   0 ? 1919 23.51                              94    0.0810 21.2 1024
 JNAK     S   0   1919 27.36                              94    0.0010 21.2 1024
 P4       P   0 ? 1919 23.97                              93    0.0310 24.1  504
 DLRM     P   0 ? 1919 24.37                              93   -0.1910 27.7 1304
 TOLS     P   0 ? 1919 25.06                              92    0.0610 30.2  564
 KHIA     P   0 ? 1919 25.10                              92    0.0810 30.3  804
 KHIA     S   0   1919 30.27                              92    0.0510 30.3  804
 P9       P   0 ? 1919 26.50                              92   -0.0510 39.1  594
 KOLO     P   0 ? 1919 26.51                              92   -0.0410 39.1 1084
 ABTL     P   0 ? 1919 26.53                              92   -0.0810 39.4  394
                                                                                
 2021  2 2 2330 25.9 L  29.077  51.384  5.4  SLT 32 0.1                        1
 GAP=270        0.27       0.9     1.7  1.4  0.1074E+01  0.2121E+01  0.9474E+00E
 STAT SP IPHASW D HRMN SECON CODA AMPLIT PERI AZIMU VELO AIN AR TRES W  DIS CAZ7
 ABAD     P   0 ? 2330 29.71                              53    0.1210 14.0 2484
 P9       P   0 ? 2330 30.51                              43   -0.0510 19.1 2464
 P9       S   0   2330 34.30                              43   -0.0310 19.1 2464
 ABTL     P   0 ? 2330 31.88                              43    0.0910 26.2 2764
 ABTL     S   0   2330 36.61                              43    0.0510 26.2 2764
 TOLS     P   0 ? 2330 32.13                              43   -0.0110 28.2 2484
 TOLS     S   0   2330 37.15                              43   -0.0410 28.2 2484
 P5       P   0 ? 2330 32.57                              43   -0.0410 30.9 2504
 P5       S   0   2330 38.12                              43    0.0810 30.9 2504
 KHIA     P   0 ? 2330 32.63                              43   -0.0010 31.0 2234
 KHIA     S   0   2330 38.16                              43    0.0810 31.0 2234
 P4       P   0 ? 2330 33.28                              43   -0.0110 34.8 2504
 P4       S   0   2330 39.13                              43   -0.1510 34.8 2504
 NOKA     P   0 ? 2330 33.54                              43    0.0110 36.2 2904
 NOKA     S   0   2330 39.65                              43   -0.0510 36.2 2904
 P3       S   0   2330 41.36                              43   -0.2410 42.2 2514
 KOLO     S   0   2330 41.52                              43   -0.0910 42.2 1994
 P3       P   0 ? 2330 34.71                              43    0.1410 42.2 2514
 KOLO     P   0 ? 2330 34.67                              43    0.0910 42.2 1994
 JNAK     P   0 ? 2330 34.88                              43   -0.0310 44.2 2234
 JNAK     S   0   2330 42.34                              43    0.1310 44.2 2234
 P2       P   0 ? 2330 34.95                              43   -0.2110 45.6 2504
 P2       S   0   2330 42.57                              43   -0.0810 45.6 2504
 P1       P   0 ? 2330 35.77                              43    0.0210 49.0 2514
 P1       S   0   2330 43.73                              43   -0.0010 49.0 2514
 SHIF     P   0 ? 2330 35.96                              43    0.0910 49.7 2694
 N19      P   0 ? 2330 36.41                              40    0.0610 52.5 2544
 N19      S   0   2330 44.71                              40   -0.1010 52.5 2544
 N9       P   0 ? 2330 36.48                              40    0.0610 53.0 2484
 N9       S   0   2330 44.85                              40   -0.0910 53.0 2484
 CAMP     P   0 ? 2330 36.40                              40   -0.0810 53.4 2414
 CAMP     S   0   2330 44.97                              40   -0.0710 53.4 2414
 N15      P   0 ? 2330 36.56                              40   -0.0910 54.4 2514
 N15      S   0   2330 45.58                              40    0.2210 54.4 2514
 DLRM     P   0 ? 2330 36.57                              40   -0.1110 54.6 2134
 DLRM     S   0   2330 45.37                              40   -0.0310 54.6 2134
 N6       P   0 ? 2330 36.77                              40    0.0810 54.6 2464
 N6       S   0   2330 45.48                              40    0.0510 54.6 2464
 N2       P   0 ? 2330 36.57                              40   -0.1310 54.7 2414
 N2       S   0   2330 45.52                              40    0.0810 54.7 2414
 N20      P   0 ? 2330 36.81                              40    0.1010 54.8 2574
 N20      S   0   2330 45.39                              40   -0.0710 54.8 2574
 N1       P   0 ? 2330 36.77                              40    0.0110 55.1 2394
 N5       S   0   2330 45.70                              40    0.1410 55.1 2424
 N1       S   0   2330 45.66                              40    0.1110 55.1 2394
 N5       P   0 ? 2330 36.64                              40   -0.1210 55.1 2424
 N10      P   0 ? 2330 36.97                              40    0.1110 55.7 2494
 N10      S   0   2330 45.72                              40   -0.0210 55.7 2494
 N18      P   0 ? 2330 36.98                              40    0.0610 56.1 2544
 N18      S   0   2330 45.80                              40   -0.0510 56.1 2544
 N14      P   0 ? 2330 36.96                              40    0.0210 56.2 2524
 N14      S   0   2330 45.87                              40   -0.0110 56.2 2524
 N3       P   0 ? 2330 36.91                              40   -0.0410 56.3 2424
 N3       S   0   2330 45.84                              40   -0.0610 56.3 2424
 N17      P   0 ? 2330 36.99                              40   -0.0610 56.9 2554
 N17      S   0   2330 46.02                              40   -0.0510 56.9 2554
 N4       P   0 ? 2330 37.02                              40   -0.0610 57.1 2454
 N4       S   0   2330 46.31                              40    0.1810 57.1 2454
 N11      P   0 ? 2330 37.05                              40   -0.1110 57.6 2514
 N11      S   0   2330 46.39                              40    0.1010 57.6 2514
 N13      P   0 ? 2330 37.32                              40    0.0610 58.2 2514
 N13      S   0   2330 46.46                              40    0.0010 58.2 2514
                                                                                
 2021  3 3 0020 41.7 L  28.830  50.867  7.9  SLT  6 0.1                        1
 GAP=232        0.29       2.6     2.0  1.5  0.3657E+01  0.1371E+01  0.1781E+01E
 STAT SP IPHASW D HRMN SECON CODA AMPLIT PERI AZIMU VELO AIN AR TRES W  DIS CAZ7
 N3       P   0 ? 0020 43.51                             169   -0.0410 1.09  454
 N3       S   0   0020 44.92                             169   -0.1310 1.09  454
 N5       P   0 ? 0020 43.55                             158   -0.0610 2.26  514
 N5       S   0   0020 45.18                             158    0.0210 2.26  514
 N2       P   0 ? 0020 43.64                             155    0.0110 2.64  734
 N2       S   0   0020 45.33                             155    0.1410 2.64  734
 N1       P   0 ? 0020 43.74                             150    0.0510 3.24 1064
 N1       S   0   0020 45.32                             150    0.0310 3.24 1064
 N4       P   0 ? 0020 43.71                             149    0.0110 3.35 3384
 N4       S   0   0020 45.35                             149    0.0510 3.35 3384
 CAMP     P   0 ? 0020 43.79                             142    0.0210 4.11  764
 CAMP     S   0   0020 45.33                             142   -0.1110 4.11  764
                                                                                
