 2021  2 2 0357 10.6 L  28.966  50.929 10.8  SLT 18 0.0                        1
 GAP=113        0.13       0.3     0.3  0.3 -0.1730E-01 -0.2312E-02 -0.3349E-01E
 STAT SP IPHASW D HRMN SECON CODA AMPLIT PERI AZIMU VELO AIN AR TRES W  DIS CAZ7
 P2       P   0 ? 0357 13.06                             156    0.0010 3.79 1564
 P2       S   0   0357 15.06                             156    0.0110 3.79 1564
 P1       P   0 ? 0357 13.12                             152    0.0010 4.55 2054
 P1       S   0   0357 15.16                             152    0.0010 4.55 2054
 P3       P   0 ? 0357 13.15                             150   -0.0010 4.93 1134
 P3       S   0   0357 15.22                             150   -0.0010 4.93 1134
 N19      P   0 ? 0357 13.32                             141   -0.0010 6.58 2504
 N19      S   0   0357 15.53                             141    0.0010 6.58 2504
 N16      P   0 ? 0357 13.38                             138   -0.0010 7.18 2344
 N16      S   0   0357 15.63                             138   -0.0110 7.18 2344
 N15      P   0 ? 0357 13.61                             131   -0.0010 9.01 2334
 N15      S   0   0357 16.04                             131   -0.0210 9.01 2334
 N20      P   0 ? 0357 13.62                             130   -0.0010 9.11 2704
 N20      S   0   0357 16.07                             130   -0.0010 9.11 2704
 N9       P   0 ? 0357 13.63                             130   -0.0110 9.21 2114
 N9       S   0   0357 16.08                             130   -0.0210 9.21 2114
 N18      P   0 ? 0357 13.77                             126   -0.0010 10.2 2494
 N18      S   0   0357 16.34                             126   -0.0010 10.2 2494
 N14      P   0 ? 0357 13.82                             125   -0.0010 10.5 2404
 N14      S   0   0357 16.43                             125   -0.0010 10.5 2404
 N17      P   0 ? 0357 13.88                             124    0.0010 10.9 2554
 N17      S   0   0357 16.54                             124    0.0110 10.9 2554
 N6       P   0 ? 0357 13.94                             123    0.0010 11.3 2104
 N6       S   0   0357 16.64                             123   -0.0110 11.3 2104
 N7       P   0 ? 0357 14.05                             120   -0.0010 12.1 2194
 N7       S   0   0357 16.85                             120   -0.0010 12.1 2194
 N11      P   0 ? 0357 14.07                             120    0.0010 12.2 2354
 N11      S   0   0357 16.89                             120    0.0110 12.2 2354
 N13      P   0 ? 0357 14.13                             119    0.0010 12.6 2394
 N13      S   0   0357 17.00                             119    0.0110 12.6 2394
 N4       P   0 ? 0357 14.36                             115    0.0110 14.1 2124
 N4       S   0   0357 17.41                             115    0.0110 14.1 2124
 CAMP     P   0 ? 0357 14.38                             115   -0.0010 14.3 1884
 CAMP     S   0   0357 17.45                             115    0.0010 14.3 1884
 NOKA     P   0 ? 0357 16.37                              68   -0.0010 26.4  234
                                                                                
 2021  2 2 0623  1.5 L  29.044  51.366  6.4  SLT  7 0.0                        1
 GAP=289        0.20       0.6     0.9  0.7  0.4275E-01  0.5365E-01  0.8518E-01E
 STAT SP IPHASW D HRMN SECON CODA AMPLIT PERI AZIMU VELO AIN AR TRES W  DIS CAZ7
 ABAD     P   0 ? 0623  4.62                             102   -0.0010 11.3 2624
 ABAD     S   0   0623  7.16                             102   -0.0010 11.3 2624
 P9       P   0 ? 0623  5.51                              59   -0.0010 16.1 2554
 P9       S   0   0623  8.77                              59    0.0010 16.1 2554
 TOLS     P   0 ? 0623  7.10                              59    0.0010 25.3 2544
 TOLS     S   0   0623 11.65                              59    0.0110 25.3 2544
 KHIA     P   0 ? 0623  7.43                              59    0.0010 27.1 2264
 KHIA     S   0   0623 12.24                              59   -0.0010 27.1 2264
 P4       P   0 ? 0623  8.27                              59    0.0010 32.0 2554
 P4       S   0   0623 13.76                              59    0.0010 32.0 2554
 NOKA     P   0 ? 0623  8.95                              59    0.0010 35.9 2964
 NOKA     S   0   0623 14.98                              59   -0.0110 35.9 2964
 JNAK     P   0 ? 0623  9.71                              59    0.0010 40.3 2254
 JNAK     S   0   0623 16.36                              59   -0.0110 40.3 2254
                                                                                
 2021  2 2 0030 58.3 L  28.905  51.346  3.8  SLT  9 0.0                        1
 GAP=233        0.19       0.4     0.6  0.3  0.7184E-01 -0.3683E-01  0.2659E-01E
 STAT SP IPHASW D HRMN SECON CODA AMPLIT PERI AZIMU VELO AIN AR TRES W  DIS CAZ7
 P9       P   0 ? 0031  2.81                             102   -0.0010 17.5 3094
 P9       S   0   0031  6.47                             102   -0.0210 17.5 3094
 KHIA     P   0 ? 0031  2.91                             102    0.0110 17.9 2584
 KHIA     S   0   0031  6.65                             102    0.0010 17.9 2584
 KOLO     P   0 ? 0031  3.95                              43    0.0010 23.2 2064
 KOLO     S   0   0031  8.53                              43   -0.0210 23.2 2064
 TOLS     P   0 ? 0031  4.04                              43    0.0110 23.7 2904
 TOLS     S   0   0031  8.69                              43   -0.0110 23.7 2904
 P5       P   0 ? 0031  4.52                              43    0.0110 26.5 2884
 P5       S   0   0031  9.57                              43    0.0110 26.5 2884
 P4       P   0 ? 0031  5.08                              43    0.0110 29.7 2834
 P4       S   0   0031 10.58                              43    0.0110 29.7 2834
 ABTL     P   0 ? 0031  5.31                              43   -0.0110 31.1 3144
 DLRM     P   0 ? 0031  6.42                              43    0.0110 37.4 2254
 DLRM     S   0   0031 12.99                              43   -0.0010 37.4 2254
 ABAS     P   0 ? 0031  7.16                              43   -0.0110 41.7 1874
                                                                                
 2021  2 2 0131  5.1 L  28.964  50.928 11.6  SLT 19 0.0                        1
 GAP=134        0.13       0.4     0.3  0.4 -0.3004E-01  0.2128E-01 -0.3747E-01E
 STAT SP IPHASW D HRMN SECON CODA AMPLIT PERI AZIMU VELO AIN AR TRES W  DIS CAZ7
 P2       P   0 ? 0131  7.67                             158   -0.0010 3.60 1534
 P2       S   0   0131  9.76                             158    0.0010 3.60 1534
 P1       P   0 ? 0131  7.72                             154    0.0010 4.27 2054
 P1       S   0   0131  9.85                             154    0.0110 4.27 2054
 P3       P   0 ? 0131  7.77                             150   -0.0010 4.93 1104
 P3       S   0   0131  9.93                             150   -0.0110 4.93 1104
 N19      P   0 ? 0131  7.91                             142    0.0010 6.39 2524
 N19      S   0   0131 10.19                             142    0.0110 6.39 2524
 N16      P   0 ? 0131  7.96                             139    0.0010 6.94 2354
 N16      S   0   0131 10.28                             139    0.0110 6.94 2354
 N12      P   0 ? 0131  8.16                             131   -0.0110 8.74 2264
 N12      S   0   0131 10.64                             131   -0.0110 8.74 2264
 N15      P   0 ? 0131  8.17                             131    0.0010 8.76 2344
 N15      S   0   0131 10.65                             131   -0.0110 8.76 2344
 N9       P   0 ? 0131  8.18                             130   -0.0110 8.93 2114
 N9       S   0   0131 10.68                             130   -0.0110 8.93 2114
 N20      P   0 ? 0131  8.19                             130   -0.0010 9.00 2714
 N20      S   0   0131 10.70                             130   -0.0010 9.00 2714
 N18      P   0 ? 0131  8.32                             125   -0.001010.00 2504
 N18      S   0   0131 10.93                             125   -0.011010.00 2504
 N14      P   0 ? 0131  8.36                             124   -0.0110 10.3 2414
 N14      S   0   0131 11.01                             124   -0.0010 10.3 2414
 N10      S   0   0131 11.14                             122   -0.0010 10.8 2234
 N17      S   0   0131 11.12                             122    0.0010 10.8 2564
 N10      P   0 ? 0131  8.44                             122    0.0010 10.8 2234
 N17      P   0 ? 0131  8.43                             122    0.0110 10.8 2564
 N6       P   0 ? 0131  8.47                             121    0.0010 11.0 2104
 N6       S   0   0131 11.20                             121   -0.0010 11.0 2104
 N7       P   0 ? 0131  8.58                             119    0.0010 11.8 2204
 N7       S   0   0131 11.40                             119    0.0010 11.8 2204
 N11      P   0 ? 0131  8.60                             118    0.0010 12.0 2364
 N11      S   0   0131 11.44                             118    0.0110 12.0 2364
 N13      P   0 ? 0131  8.66                             117    0.0010 12.4 2394
 N13      S   0   0131 11.55                             117    0.0110 12.4 2394
 SHIF     P   0 ? 0131  8.71                             115   -0.0010 12.8 3364
 N4       P   0 ? 0131  8.87                             112    0.0110 13.8 2124
                                                                                
 2021  2 2 0810 55.0 L  28.828  51.320 10.0  SLT  7 0.0                        1
 GAP=262        0.21       0.5     1.1  1.0 -0.1521E+00 -0.6332E-01 -0.1216E+00E
 STAT SP IPHASW D HRMN SECON CODA AMPLIT PERI AZIMU VELO AIN AR TRES W  DIS CAZ7
 P9       P   0 ? 0811  0.14                             101    0.0110 22.6 3304
 P9       S   0   0811  4.30                             101    0.0110 22.6 3304
 JNAK     P   0 ? 0811  0.47                             100    0.0110 24.5 2594
 JNAK     S   0   0811  4.90                             100    0.0110 24.5 2594
 TOLS     P   0 ? 0811  0.71                              99    0.0010 25.9 3104
 TOLS     S   0   0811  5.34                              99    0.0110 25.9 3104
 DLRM     P   0 ? 0811  1.37                              98   -0.0010 29.8 2334
 DLRM     S   0   0811  6.53                              98   -0.0110 29.8 2334
 P4       P   0 ? 0811  1.50                              68   -0.0110 30.6 3004
 P4       S   0   0811  6.76                              68   -0.0210 30.6 3004
 ABTL     P   0 ? 0811  2.41                              68   -0.0010 36.2 3274
 ABTL     S   0   0811  8.41                              68   -0.0110 36.2 3274
 N7       P   0 ? 0811  4.02                              68    0.0010 46.2 2784
                                                                                
 2021  2 2 0106  0.9 L  29.052  51.309  9.2  SLT  6 0.0                        1
 GAP=258        0.23       1.1     1.1  1.3  0.5411E+00 -0.4523E+00 -0.2735E+00E
 STAT SP IPHASW D HRMN SECON CODA AMPLIT PERI AZIMU VELO AIN AR TRES W  DIS CAZ7
 ABAD     P   0 ? 0106  3.38                             136   -0.0010 6.24 2464
 ABAD     S   0   0106  5.39                             136   -0.0210 6.24 2464
 P9       P   0 ? 0106  4.11                             114   -0.0010 11.3 2434
 P9       S   0   0106  6.72                             114   -0.0010 11.3 2434
 ABTL     P   0 ? 0106  5.48                             100    0.0010 19.5 2864
 ABTL     S   0   0106  9.20                             100    0.0110 19.5 2864
 TOLS     P   0 ? 0106  5.64                             100    0.0110 20.4 2474
 TOLS     S   0   0106  9.47                             100   -0.0010 20.4 2474
 AHRM     P   0 ? 0106  5.73                              99    0.0110 20.9 1844
 KHIA     P   0 ? 0106  6.30                              98    0.0010 24.3 2154
                                                                                
 2021  2 2 0351  7.2 L  28.628  51.129  5.8  SLT  6 0.0                        1
 GAP=185        0.23       0.6     0.6  0.8  0.8635E-01 -0.2374E+00  0.7477E-01E
 STAT SP IPHASW D HRMN SECON CODA AMPLIT PERI AZIMU VELO AIN AR TRES W  DIS CAZ7
 DLRM     P   0 ? 0351  9.34                             113    0.0010 6.51 3094
 DLRM     S   0   0351 11.09                             113   -0.0110 6.51 3094
 KOLO     P   0 ? 0351 10.98                              92    0.0010 14.7  484
 KOLO     S   0   0351 14.05                              92   -0.0110 14.7  484
 ABAS     P   0 ? 0351 11.77                              59    0.0110 19.0 1244
 ABAS     S   0   0351 15.47                              59   -0.0110 19.0 1244
 KHIA     P   0 ? 0351 13.22                              59    0.0110 27.3   84
 KHIA     S   0   0351 18.10                              59   -0.0110 27.3   84
 AHRM     P   0 ? 0351 13.82                              59    0.0110 30.7  324
 N12      P   0 ? 0351 15.48                              59   -0.0110 40.5 3204
                                                                                
 2021  2 2 1713 43.8 L  28.752  51.315 14.6  SLT  4 0.0                        1
 GAP=194        0.27       0.9     1.4  1.8 -0.3690E-01 -0.5039E+00  0.2437E+00E
 STAT SP IPHASW D HRMN SECON CODA AMPLIT PERI AZIMU VELO AIN AR TRES W  DIS CAZ7
 KOLO     P   0 ? 1713 47.19                             144   -0.0010 8.17 2424
 KOLO     S   0   1713 49.93                             144    0.0010 8.17 2424
 AHRM     P   0 ? 1713 47.69                             130    0.0010 12.6 3514
 ABAS     P   0 ? 1713 49.37                             108   -0.0010 24.5 1864
 ABAS     S   0   1713 53.88                             108    0.0010 24.5 1864
 DLRM     P   0 ? 1713 49.47                             107    0.0010 25.1 2484
 DLRM     S   0   1713 54.05                             107   -0.0010 25.1 2484
                                                                                
 2021  2 2 0202 32.5 L  28.966  51.127 11.6  SLT 18 0.0                        1
 GAP= 86        0.13       0.3     0.2  0.3 -0.1749E-01  0.2282E-01  0.1094E-01E
 STAT SP IPHASW D HRMN SECON CODA AMPLIT PERI AZIMU VELO AIN AR TRES W  DIS CAZ7
 TOLS     P   0 ? 0202 35.01                             169    0.0010 1.77 3254
 TOLS     S   0   0202 37.04                             169    0.0110 1.77 3254
 P5       P   0 ? 0202 35.13                             154    0.0010 4.20 2904
 P5       S   0   0202 37.26                             154    0.0110 4.20 2904
 P4       P   0 ? 0202 35.44                             136   -0.0110 7.64 2714
 P4       S   0   0202 37.82                             136   -0.0110 7.64 2714
 P9       P   0 ? 0202 35.58                             131   -0.0110 8.80  604
 P9       S   0   0202 38.08                             131   -0.0110 8.80  604
 KHIA     P   0 ? 0202 35.87                             122   -0.0110 11.0 1604
 KHIA     S   0   0202 38.60                             122   -0.0010 11.0 1604
 ABAD     P   0 ? 0202 36.31                             112    0.0010 13.9  604
 ABAD     S   0   0202 39.39                             112    0.0110 13.9  604
 P3       P   0 ? 0202 36.43                             109   -0.0110 14.9 2634
 P3       S   0   0202 39.62                             109   -0.0010 14.9 2634
 ABTL     P   0 ? 0202 36.46                             109   -0.0110 15.0 3564
 ABTL     S   0   0202 39.68                             109    0.0110 15.0 3564
 P2       P   0 ? 0202 36.94                             101    0.0010 18.1 2594
 P2       S   0   0202 40.54                             101    0.0110 18.1 2594
 AHRM     P   0 ? 0202 37.25                              98    0.0110 19.9 1254
 NOKA     P   0 ? 0202 38.21                              93   -0.0010 26.0 3404
 N12      P   0 ? 0202 38.28                              93    0.0010 26.4 2564
 N12      S   0   0202 42.96                              93    0.0110 26.4 2564
 N6       P   0 ? 0202 38.34                              93   -0.0010 26.8 2494
 N6       S   0   0202 43.08                              93    0.0110 26.8 2494
 N15      P   0 ? 0202 38.37                              93   -0.0010 27.0 2584
 N15      S   0   0202 43.12                              93    0.0010 27.0 2584
 N18      P   0 ? 0202 38.69                              93   -0.0010 29.0 2634
 N18      S   0   0202 43.70                              93   -0.0010 29.0 2634
 N4       P   0 ? 0202 38.72                              93   -0.0010 29.2 2464
 N4       S   0   0202 43.76                              93    0.0010 29.2 2464
 N17      P   0 ? 0202 38.85                              92    0.0010 30.0 2654
 N17      S   0   0202 43.98                              92   -0.0010 30.0 2654
 N11      P   0 ? 0202 38.87                              92    0.0010 30.1 2574
 N11      S   0   0202 44.02                              92   -0.0010 30.1 2574
                                                                                
 2021  2 2 0229 58.2 L  28.959  51.123 11.0  SLT 11 0.0                        1
 GAP= 98        0.19       0.4     0.4  0.4 -0.3247E-01  0.6752E-01 -0.5031E-03E
 STAT SP IPHASW D HRMN SECON CODA AMPLIT PERI AZIMU VELO AIN AR TRES W  DIS CAZ7
 TOLS     P   0 ? 0230  0.65                             165    0.0110 2.33 3454
 TOLS     S   0   0230  2.64                             165    0.0310 2.33 3454
 P5       P   0 ? 0230  0.76                             154    0.0110 4.20 3024
 P4       P   0 ? 0230  1.05                             139    0.0010 7.31 2774
 P4       S   0   0230  3.36                             139    0.0210 7.31 2774
 P9       P   0 ? 0230  1.31                             130   -0.0210 9.55  574
 P9       S   0   0230  3.84                             130   -0.0210 9.55  574
 KHIA     P   0 ? 0230  1.44                             127   -0.0110 10.4 1564
 KHIA     S   0   0230  4.06                             127   -0.0110 10.4 1564
 ABAD     P   0 ? 0230  2.08                             115   -0.0110 14.7  584
 ABAD     S   0   0230  5.23                             115   -0.0110 14.7  584
 ABTL     P   0 ? 0230  2.26                             113   -0.0110 15.8 3584
 ABTL     S   0   0230  5.55                             113   -0.0010 15.8 3584
 P2       P   0 ? 0230  2.56                              68    0.0110 17.6 2614
 N12      P   0 ? 0230  3.90                              68    0.0110 25.9 2584
 N6       P   0 ? 0230  3.95                              68    0.0110 26.2 2504
 NOKA     P   0 ? 0230  4.01                              68   -0.0010 26.6 3414
                                                                                
