 2021  2 2 0658  2.0 L  29.032  51.447  1.3  SLT 14 0.1                        1
 GAP=272        0.24       0.8     0.8  0.6  0.1501E+00 -0.7353E-01  0.1767E+00E
 STAT SP IPHASW D HRMN SECON CODA AMPLIT PERI AZIMU VELO AIN AR TRES W  DIS CAZ7
 ABAD     P   0 ? 0658  6.75                              94   -0.0410 19.0 2694
 ABAD     S   0   0658 10.80                              94    0.0910 19.0 2694
 P9       P   0 ? 0658  7.82                              93   -0.1210 23.6 2634
 KHIA     P   0 ? 0658  9.71                              43    0.0110 32.5 2374
 KHIA     S   0   0658 15.97                              43    0.0010 32.5 2374
 TOLS     P   0 ? 0658  9.69                              43   -0.0210 32.6 2604
 ABTL     P   0 ? 0658  9.75                              43   -0.0310 33.0 2844
 ABTL     S   0   0658 16.11                              43   -0.0110 33.0 2844
 P5       P   0 ? 0658 10.17                              43   -0.0410 35.5 2614
 P4       P   0 ? 0658 10.86                              43   -0.0310 39.4 2604
 KOLO     P   0 ? 0658 11.03                              43   -0.0110 40.2 2104
 KOLO     S   0   0658 18.35                              43   -0.0410 40.2 2104
 JNAK     P   0 ? 0658 12.04                              43    0.1110 45.4 2334
 JNAK     S   0   0658 19.97                              43   -0.0410 45.4 2334
 ABAS     P   0 ? 0658 14.02                              40    0.0310 57.4 1954
 N2       P   0 ? 0658 14.13                              40    0.0410 58.1 2484
 N5       P   0 ? 0658 14.12                              40   -0.0510 58.6 2494
 N15      P   0 ? 0658 14.28                              40    0.0510 58.9 2584
 N3       P   0 ? 0658 14.48                              40    0.1210 59.7 2494
                                                                                
 2021  2 2 1947  1.3 L  29.051  51.218 12.7  SLT 10 0.1                        1
 GAP=188        0.24       0.6     0.8  0.9  0.6056E-01  0.2854E+00  0.1610E+00E
 STAT SP IPHASW D HRMN SECON CODA AMPLIT PERI AZIMU VELO AIN AR TRES W  DIS CAZ7
 ABAD     P   0 ? 1947  4.13                             157    0.0210 4.06 1274
 ABAD     S   0   1947  6.46                             157    0.1010 4.06 1274
 P9       P   0 ? 1947  4.17                             151   -0.0210 5.24 1934
 P9       S   0   1947  6.38                             151   -0.1210 5.24 1934
 ABTL     P   0 ? 1947  4.82                             126   -0.0210 11.3 2994
 ABTL     S   0   1947  7.64                             126   -0.0310 11.3 2994
 TOLS     P   0 ? 1947  4.97                             122   -0.0510 12.6 2314
 TOLS     S   0   1947  8.11                             122    0.1110 12.6 2314
 P5       P   0 ? 1947  5.32                             115   -0.0310 15.0 2384
 P5       S   0   1947  8.66                             115    0.0510 15.0 2384
 P4       P   0 ? 1947  5.86                             107   -0.0710 18.9 2404
 P4       S   0   1947  9.69                             107    0.0310 18.9 2404
 KHIA     P   0 ? 1947  6.14                             105   -0.0310 20.4 1944
 KHIA     S   0   1947 10.03                             105   -0.0510 20.4 1944
 P3       P   0 ? 1947  7.07                              99    0.0010 26.1 2444
 P3       S   0   1947 11.67                              99   -0.0510 26.1 2444
 P2       P   0 ? 1947  7.70                              97    0.0910 29.5 2444
 JNAK     P   0 ? 1947  8.17                              96    0.0810 32.5 2064
 JNAK     S   0   1947 13.54                              96   -0.0210 32.5 2064
                                                                                
 2021  2 2 2121 39.7 L  29.204  51.392  6.7  SLT 20 0.1                        1
 GAP=300        0.24       1.0     1.4  2.2  0.8042E+00  0.2551E+01  0.1649E+01E
 STAT SP IPHASW D HRMN SECON CODA AMPLIT PERI AZIMU VELO AIN AR TRES W  DIS CAZ7
 ABAD     P   0 ? 2121 44.96                              59   -0.0210 23.7 2154
 ABAD     S   0   2121 49.21                              59   -0.0810 23.7 2154
 P9       P   0 ? 2121 45.75                              59   -0.0610 28.5 2194
 P9       S   0   2121 50.91                              59    0.1310 28.5 2194
 ABTL     P   0 ? 2121 45.91                              59    0.0010 29.0 2474
 ABTL     S   0   2121 50.96                              59   -0.0110 29.0 2474
 TOLS     P   0 ? 2121 47.16                              59   -0.0410 36.5 2274
 TOLS     S   0   2121 53.20                              59   -0.1110 36.5 2274
 P5       P   0 ? 2121 47.56                              59   -0.0210 38.7 2304
 P5       S   0   2121 54.09                              59    0.0910 38.7 2304
 AHRM     P   0 ? 2121 47.54                              59   -0.0710 38.8 1944
 P4       P   0 ? 2121 48.17                              59   -0.0610 42.4 2324
 P4       S   0   2121 55.19                              59    0.0310 42.4 2324
 KHIA     P   0 ? 2121 48.27                              59   -0.0210 42.7 2114
 KHIA     S   0   2121 55.27                              59   -0.0010 42.7 2114
 P3       P   0 ? 2121 49.47                              53    0.0510 49.3 2354
 P3       S   0   2121 57.22                              53   -0.1110 49.3 2354
 SHIF     P   0 ? 2121 49.94                              53    0.0010 52.5 2544
 SHIF     S   0   2121 58.13                              53   -0.1310 52.5 2544
 JNAK     P   0 ? 2121 50.43                              53   -0.0110 55.6 2144
 JNAK     S   0   2121 59.13                              53   -0.0310 55.6 2144
 KOLO     P   0 ? 2121 50.37                              53   -0.1110 55.9 1954
 N18      P   0 ? 2121 51.53                              53    0.0310 62.2 2414
 N18      S   0   2122  1.05                              53   -0.0310 62.2 2414
 N2       P   0 ? 2121 51.77                              53    0.10 9 63.3 2304
 N5       P   0 ? 2121 51.79                              53    0.08 9 63.5 2314
 N1       P   0 ? 2121 51.86                              53    0.08 9 64.0 2294
 N11      P   0 ? 2121 51.84                              53    0.00 9 64.3 2394
 N13      P   0 ? 2121 51.93                              53    0.02 9 64.7 2404
 N4       P   0 ? 2121 51.93                              53    0.00 9 64.9 2344
 N4       S   0   2122  2.04                              53    0.18 9 64.9 2344
 DLRM     P   0 ? 2121 52.40                              53    0.11 9 67.1 2074
 DLRM     S   0   2122  2.57                              53    0.05 9 67.1 2074
                                                                                
 2021  2 2 0035 45.3 L  28.628  51.187  7.8  SLT  8 0.1                        1
 GAP=154        0.27       0.7     0.7  3.9 -0.4302E-01 -0.1362E+00  0.2579E+00E
 STAT SP IPHASW D HRMN SECON CODA AMPLIT PERI AZIMU VELO AIN AR TRES W  DIS CAZ7
 KOLO     P   0 ? 0035 48.41                             102   -0.0410 11.2  284
 KOLO     S   0   0035 51.06                             102    0.0810 11.2  284
 DLRM     P   0 ? 0035 48.42                             101   -0.0910 11.5 2914
 DLRM     S   0   0035 51.10                             101    0.0210 11.5 2914
 ABAS     P   0 ? 0035 49.05                              96    0.0010 14.6 1374
 JNAK     P   0 ? 0035 50.14                              93    0.0210 20.9 3284
 JNAK     S   0   0035 54.02                              93    0.0210 20.9 3284
 AHRM     P   0 ? 0035 51.49                              92    0.0810 28.2  224
 AHRM     S   0   0035 56.20                              92   -0.1310 28.2  224
 P9       P   0 ? 0035 53.81                              91    0.0410 41.8   34
 N9       P   0 ? 0035 53.79                              91   -0.0210 42.1 3154
 N10      P   0 ? 0035 54.17                              91    0.0310 44.0 3124
                                                                                
 2021  2 2 0628 35.6 L  28.829  50.860  8.0  SLT  8 0.1                        1
 GAP=248        0.29       1.0     1.6  1.2  0.7517E+00  0.5544E+00  0.4032E-01E
 STAT SP IPHASW D HRMN SECON CODA AMPLIT PERI AZIMU VELO AIN AR TRES W  DIS CAZ7
 N3       P   0 ? 0628 37.49                             164   -0.0110 1.72  604
 N3       S   0   0628 39.19                             164    0.1510 1.72  604
 N5       P   0 ? 0628 37.55                             153   -0.0310 2.90  584
 N5       S   0   0628 39.26                             153    0.0810 2.90  584
 N4       P   0 ? 0628 37.63                             151    0.0310 3.23 3504
 N4       S   0   0628 39.15                             151   -0.0710 3.23 3504
 N2       P   0 ? 0628 37.61                             149    0.0010 3.36  754
 N2       S   0   0628 38.99                             149   -0.2410 3.36  754
 N1       P   0 ? 0628 37.69                             145    0.0210 3.92 1024
 N1       S   0   0628 39.34                             145   -0.0110 3.92 1024
 CAMP     P   0 ? 0628 37.75                             138   -0.0210 4.84  774
 CAMP     S   0   0628 39.60                             138    0.0810 4.84  774
 N6       P   0 ? 0628 37.84                             133   -0.0210 5.51  124
 N6       S   0   0628 39.69                             133    0.0110 5.51  124
 N9       P   0 ? 0628 38.17                             120    0.0310 7.57  164
 N9       S   0   0628 40.20                             120    0.0010 7.57  164
                                                                                
 2021  2 2 1902 56.0 L  29.064  51.356  7.9  SLT 20 0.1                        1
 GAP=278        0.20       0.5     0.7  0.8  0.4315E-01  0.2867E-01  0.1191E+00E
 STAT SP IPHASW D HRMN SECON CODA AMPLIT PERI AZIMU VELO AIN AR TRES W  DIS CAZ7
 ABAD     P   0 ? 1902 59.16                             103    0.0310 10.9 2494
 P9       P   0 ? 1902 59.97                              96   -0.0210 16.0 2464
 ABTL     P   0 ? 1903  1.34                              93    0.0210 23.6 2804
 ABTL     S   0   1903  5.48                              93   -0.1110 23.6 2804
 TOLS     P   0 ? 1903  1.55                              93   -0.0210 25.1 2484
 TOLS     S   0   1903  6.18                              93    0.1410 25.1 2484
 P5       P   0 ? 1903  2.05                              92    0.0110 27.8 2504
 P5       S   0   1903  6.95                              92    0.0510 27.8 2504
 KHIA     P   0 ? 1903  2.04                              92   -0.0610 28.1 2214
 KHIA     S   0   1903  6.88                              92   -0.1110 28.1 2214
 P4       P   0 ? 1903  2.70                              92   -0.0310 31.8 2504
 NOKA     P   0 ? 1903  3.11                              92   -0.0310 34.1 2934
 NOKA     S   0   1903  8.93                              92    0.0410 34.1 2934
 P3       P   0 ? 1903  4.09                              92    0.0810 39.1 2514
 JNAK     P   0 ? 1903  4.39                              91    0.0210 41.2 2224
 JNAK     S   0   1903 11.12                              91    0.0010 41.2 2224
 P2       P   0 ? 1903  4.55                              91   -0.0410 42.5 2514
 N6       P   0 ? 1903  5.97                              68   -0.1010 51.5 2474
 N2       P   0 ? 1903  6.10                              68    0.0210 51.6 2414
 DLRM     P   0 ? 1903  6.17                              68    0.0510 51.9 2124
 DLRM     S   0   1903 14.31                              68    0.0310 51.9 2124
 N1       P   0 ? 1903  6.18                              68    0.0410 52.0 2394
 N5       P   0 ? 1903  6.18                              68    0.0410 52.0 2424
 N5       S   0   1903 14.31                              68   -0.0110 52.0 2424
 N1       S   0   1903 14.32                              68    0.0110 52.0 2394
 N18      P   0 ? 1903  6.29                              68   -0.0210 53.1 2544
 N18      S   0   1903 14.62                              68   -0.0010 53.1 2544
 N3       P   0 ? 1903  6.33                              68    0.0010 53.2 2424
 N3       S   0   1903 14.60                              68   -0.0610 53.2 2424
 N4       P   0 ? 1903  6.43                              68   -0.0310 54.0 2454
 N11      P   0 ? 1903  6.61                              68    0.0610 54.5 2514
                                                                                
 2021  2 2 0550 40.9 L  29.054  51.343  5.7  SLT  9 0.1                        1
 GAP=285        0.26       0.7     1.6  1.3  0.3715E+00  0.1321E+01  0.2380E+00E
 STAT SP IPHASW D HRMN SECON CODA AMPLIT PERI AZIMU VELO AIN AR TRES W  DIS CAZ7
 ABAD     P   0 ? 0550 43.62                              95    0.0110 9.36 2534
 P9       P   0 ? 0550 44.59                              91   -0.0310 14.4 2484
 ABTL     P   0 ? 0550 46.10                              59   -0.0110 22.6 2834
 ABTL     S   0   0550 50.38                              59    0.0410 22.6 2834
 TOLS     P   0 ? 0550 46.25                              59   -0.0110 23.5 2494
 TOLS     S   0   0550 50.63                              59    0.0110 23.5 2494
 P5       P   0 ? 0550 46.75                              59    0.0110 26.3 2524
 KHIA     P   0 ? 0550 46.77                              59   -0.0110 26.4 2214
 KHIA     S   0   0550 51.37                              59   -0.1810 26.4 2214
 P4       P   0 ? 0550 47.41                              59   -0.0110 30.2 2514
 P4       S   0   0550 52.75                              59    0.0310 30.2 2514
 NOKA     P   0 ? 0550 47.93                              59   -0.0510 33.4 2964
 NOKA     S   0   0550 53.71                              59   -0.0210 33.4 2964
 JNAK     P   0 ? 0550 49.18                              59    0.1210 39.6 2224
 JNAK     S   0   0550 55.77                              59    0.0910 39.6 2224
                                                                                
 2021  2 2 0149  7.5 L  28.832  50.864  7.3  SLT 10 0.1                        1
 GAP=229        0.26       0.7     1.1  0.8  0.4344E+00  0.3084E+00 -0.1479E+00E
 STAT SP IPHASW D HRMN SECON CODA AMPLIT PERI AZIMU VELO AIN AR TRES W  DIS CAZ7
 N3       P   0 ? 0149  9.25                             166   -0.0310 1.26  624
 N3       S   0   0149 10.71                             166    0.0210 1.26  624
 N5       P   0 ? 0149  9.30                             154   -0.0510 2.44  594
 N5       S   0   0149 10.64                             154   -0.1810 2.44  594
 N2       P   0 ? 0149  9.41                             149    0.0310 2.93  784
 N2       S   0   0149 10.92                             149    0.0410 2.93  784
 N4       P   0 ? 0149  9.38                             148   -0.0210 3.07 3424
 N4       S   0   0149 11.06                             148    0.1510 3.07 3424
 N1       P   0 ? 0149  9.43                             143   -0.0210 3.61 1074
 N1       S   0   0149 11.06                             143    0.0410 3.61 1074
 CAMP     P   0 ? 0149  9.49                             135   -0.0510 4.41  794
 CAMP     S   0   0149 11.24                             135    0.0710 4.41  794
 N6       P   0 ? 0149  9.63                             129   -0.0210 5.19   84
 N6       S   0   0149 11.34                             129   -0.0310 5.19   84
 N9       P   0 ? 0149  9.97                             111    0.0210 7.22  144
 N9       S   0   0149 11.90                             111   -0.0210 7.22  144
 N11      P   0 ? 0149 10.26                             101    0.0610 8.68 3364
 N11      S   0   0149 12.23                             101   -0.1310 8.68 3364
 N15      P   0 ? 0149 10.38                              98    0.0410 9.49 3564
 N15      S   0   0149 12.68                              98    0.0710 9.49 3564
                                                                                
 2021  2 2 1442 27.9 L  28.831  50.860  7.5  SLT 10 0.1                        1
 GAP=233        0.25       0.7     1.1  0.9  0.4972E+00  0.3922E+00 -0.1948E-01E
 STAT SP IPHASW D HRMN SECON CODA AMPLIT PERI AZIMU VELO AIN AR TRES W  DIS CAZ7
 N3       P   0 ? 1442 29.71                             163   -0.0310 1.61  674
 N3       S   0   1442 31.21                             163    0.0110 1.61  674
 N5       P   0 ? 1442 29.77                             152   -0.0510 2.78  624
 N5       S   0   1442 31.17                             152   -0.1710 2.78  624
 N4       P   0 ? 1442 29.86                             149    0.0210 3.02 3494
 N4       S   0   1442 31.43                             149    0.0510 3.02 3494
 N2       P   0 ? 1442 29.83                             147   -0.0310 3.30  794
 N2       S   0   1442 31.55                             147    0.1410 3.30  794
 N1       P   0 ? 1442 29.90                             141   -0.0410 3.96 1054
 N1       S   0   1442 31.59                             141    0.0410 3.96 1054
 CAMP     P   0 ? 1442 29.98                             134   -0.0510 4.78  804
 CAMP     S   0   1442 31.79                             134    0.0710 4.78  804
 N6       P   0 ? 1442 30.08                             130   -0.0210 5.29  124
 N6       S   0   1442 31.82                             130   -0.0310 5.29  124
 N10      P   0 ? 1442 30.34                             117    0.0110 6.88 3544
 N10      S   0   1442 32.24                             117   -0.0310 6.88 3544
 N9       P   0 ? 1442 30.51                             114    0.1010 7.36  164
 N9       S   0   1442 32.35                             114   -0.0510 7.36  164
 N11      P   0 ? 1442 30.62                             106    0.0110 8.57 3384
 N11      S   0   1442 32.80                             106    0.0410 8.57 3384
                                                                                
 2021  2 2 1536 41.5 L  28.831  50.852  8.1  SLT  9 0.1                        1
 GAP=257        0.25       0.8     1.3  1.0  0.6346E+00  0.5557E+00  0.1153E+00E
 STAT SP IPHASW D HRMN SECON CODA AMPLIT PERI AZIMU VELO AIN AR TRES W  DIS CAZ7
 N3       P   0 ? 1536 43.42                             159   -0.0110 2.30  734
 N3       S   0   1536 45.13                             159    0.1310 2.30  734
 N4       P   0 ? 1536 43.55                             153    0.0710 2.99   34
 N4       S   0   1536 44.95                             153   -0.1410 2.99   34
 N5       P   0 ? 1536 43.47                             149   -0.0510 3.45  674
 N5       S   0   1536 45.16                             149   -0.0010 3.45  674
 N2       P   0 ? 1536 43.53                             144   -0.0310 4.02  814
 N2       S   0   1536 45.24                             144   -0.0110 4.02  814
 N1       P   0 ? 1536 43.60                             140   -0.0410 4.66 1024
 N1       S   0   1536 45.42                             140    0.0310 4.66 1024
 CAMP     P   0 ? 1536 43.66                             133   -0.0810 5.50  814
 CAMP     S   0   1536 45.55                             133   -0.0110 5.50  814
 N6       P   0 ? 1536 43.74                             133   -0.0110 5.51  194
 N6       S   0   1536 45.66                             133    0.0810 5.51  194
 N10      P   0 ? 1536 43.97                             125    0.0410 6.87 3604
 N10      S   0   1536 45.87                             125   -0.0410 6.87 3604
 N9       P   0 ? 1536 44.14                             120    0.1010 7.62  214
 N9       S   0   1536 46.05                             120   -0.0510 7.62  214
                                                                                
