 2021  2 2 2345 29.0 L  28.976  51.011 13.8  SLT 23 0.1                        1
 GAP= 99        0.37       1.1     0.7  1.1 -0.5020E+00  0.1251E+00 -0.3027E+00E
 STAT SP IPHASW D HRMN SECON CODA AMPLIT PERI AZIMU VELO AIN AR TRES W  DIS CAZ7
 P4       P   0 ? 2345 31.85                             161   -0.0210 3.81 1064
 P3       P   0 ? 2345 31.86                             157   -0.0610 4.58 2294
 P3       S   0   2345 34.19                             157   -0.1310 4.58 2294
 P5       P   0 ? 2345 32.19                             145    0.0510 7.38  884
 P5       S   0   2345 34.93                             145    0.2110 7.38  884
 P2       P   0 ? 2345 32.17                             143   -0.0110 7.92 2354
 P2       S   0   2345 34.99                             143    0.1910 7.92 2354
 TOLS     P   0 ? 2345 32.41                             134   -0.0410 10.3  884
 TOLS     S   0   2345 35.26                             134   -0.0210 10.3  884
 P1       P   0 ? 2345 32.49                             131   -0.0510 11.2 2424
 P1       S   0   2345 35.43                             131   -0.0210 11.2 2424
 N19      P   0 ? 2345 32.98                             122   -0.0110 14.5 2574
 N19      S   0   2345 36.22                             122   -0.0410 14.5 2574
 N16      P   0 ? 2345 33.07                             121    0.0510 14.8 2494
 N16      S   0   2345 36.23                             121   -0.0810 14.8 2494
 N9       P   0 ? 2345 33.33                             119    0.2010 15.6 2354
 N9       S   0   2345 36.28                             119   -0.2310 15.6 2354
 N12      P   0 ? 2345 33.35                             118    0.1310 16.2 2434
 N12      S   0   2345 36.79                             118    0.1210 16.2 2434
 N15      P   0 ? 2345 33.28                             117    0.0210 16.5 2474
 N15      S   0   2345 36.58                             117   -0.1810 16.5 2474
 N20      P   0 ? 2345 33.52                             116    0.1710 17.1 2664
 ABTL     P   0 ? 2345 33.42                             116    0.0410 17.2  374
 ABTL     S   0   2345 36.81                             116   -0.1510 17.2  374
 N6       P   0 ? 2345 33.19                             115   -0.2210 17.5 2324
 N6       S   0   2345 37.07                             115    0.0510 17.5 2324
 N18      P   0 ? 2345 33.46                             114   -0.0410 18.1 2554
 N10      P   0 ? 2345 33.58                             114    0.0910 18.1 2394
 N10      S   0   2345 37.38                             114    0.2110 18.1 2394
 N18      S   0   2345 37.30                             114    0.1210 18.1 2554
 N14      P   0 ? 2345 33.50                             114   -0.0210 18.2 2504
 N14      S   0   2345 36.89                             114   -0.3210 18.2 2504
 N17      P   0 ? 2345 33.53                             112   -0.0910 18.9 2584
 KHIA     P   0 ? 2345 33.57                             112   -0.0610 18.9 1274
 N17      S   0   2345 37.51                             112    0.1110 18.9 2584
 P9       P   0 ? 2345 33.52                             112   -0.1510 19.2  804
 N2       P   0 ? 2345 33.70                             112    0.0410 19.3 2174
 NOKA     P   0 ? 2345 34.38                             106    0.0910 23.3   54
 ABAD     P   0 ? 2345 34.45                             105    0.0410 24.1  764
                                                                                
 2021  2 2 2348 45.1 L  28.978  51.016 13.0  SLT 14 0.1                        1
 GAP=139        0.38       1.6     0.9  1.3 -0.1113E+01  0.4076E+00 -0.7482E+00E
 STAT SP IPHASW D HRMN SECON CODA AMPLIT PERI AZIMU VELO AIN AR TRES W  DIS CAZ7
 P4       P   0 ? 2348 47.86                             161   -0.0510 3.43 1104
 P4       S   0   2348 50.33                             161    0.1610 3.43 1104
 P3       P   0 ? 2348 47.91                             153   -0.1010 5.01 2314
 P3       S   0   2348 50.50                             153    0.1510 5.01 2314
 P2       P   0 ? 2348 48.37                             139    0.0610 8.37 2364
 P2       S   0   2348 50.77                             139   -0.1210 8.37 2364
 TOLS     P   0 ? 2348 48.40                             133   -0.0810 9.85  894
 TOLS     S   0   2348 51.08                             133   -0.1210 9.85  894
 P1       P   0 ? 2348 48.69                             127   -0.0110 11.6 2434
 P1       S   0   2348 51.42                             127   -0.1710 11.6 2434
 N19      P   0 ? 2348 49.08                             117   -0.0910 15.0 2574
 N19      S   0   2348 52.59                             117    0.1510 15.0 2574
 N16      P   0 ? 2348 49.15                             117   -0.0410 15.2 2494
 N16      S   0   2348 52.25                             117   -0.2410 15.2 2494
 N12      P   0 ? 2348 49.61                             114    0.2110 16.6 2434
 N12      S   0   2348 52.92                             114    0.0510 16.6 2434
 ABTL     P   0 ? 2348 49.41                             113   -0.0310 16.8  364
 ABTL     S   0   2348 53.03                             113    0.0910 16.8  364
 N15      P   0 ? 2348 49.58                             113    0.1310 17.0 2474
 N15      S   0   2348 52.74                             113   -0.2210 17.0 2474
 N6       P   0 ? 2348 49.62                             111    0.0310 17.9 2324
 N6       S   0   2348 53.46                             111    0.2410 17.9 2324
 N18      P   0 ? 2348 49.49                             110   -0.2010 18.6 2554
 N18      S   0   2348 53.51                             110    0.1210 18.6 2554
 N14      P   0 ? 2348 49.84                             110    0.1310 18.7 2504
 N14      S   0   2348 53.37                             110   -0.0610 18.7 2504
 P9       P   0 ? 2348 49.73                             109    0.0110 18.8  814
 P9       S   0   2348 53.44                             109   -0.0110 18.8  814
                                                                                
 2021  2 2 0213  0.2 L  28.645  51.113 10.6  SLT  9 0.2                        1
 GAP=176        0.45       1.2     1.3  1.2  0.6814E+00 -0.2679E+00 -0.4739E+00E
 STAT SP IPHASW D HRMN SECON CODA AMPLIT PERI AZIMU VELO AIN AR TRES W  DIS CAZ7
 DLRM     P   0 ? 0213  2.57                             153   -0.0610 4.15 3024
 DLRM     S   0   0213  4.87                             153    0.2410 4.15 3024
 KOLO     P   0 ? 0213  3.96                             113   -0.0710 14.8  584
 KOLO     S   0   0213  7.27                             113    0.1010 14.8  584
 JNAK     P   0 ? 0213  4.31                             110    0.0610 16.2 3464
 JNAK     S   0   0213  7.19                             110   -0.3710 16.2 3464
 ABAS     P   0 ? 0213  5.02                             104   -0.1010 21.4 1264
 ABAS     S   0   0213  9.14                             104    0.0110 21.4 1264
 KHIA     P   0 ? 0213  5.84                              68   -0.0210 25.8  124
 KHIA     S   0   0213 10.72                              68    0.2510 25.8  124
 AHRM     P   0 ? 0213  6.48                              68   -0.0810 30.0  364
 P4       P   0 ? 0213  7.46                              68   -0.0710 36.2 3504
 N14      P   0 ? 0213  8.22                              68   -0.0310 40.6 3184
 N19      P   0 ? 0213  8.48                              68    0.1510 41.1 3244
                                                                                
 2021  2 2 1400  5.4 L  29.262  51.370  8.4  SLT  8 0.1                        1
 GAP=294        0.38       1.4     1.6  1.9  0.7925E-01 -0.7681E+00  0.7426E+00E
 STAT SP IPHASW D HRMN SECON CODA AMPLIT PERI AZIMU VELO AIN AR TRES W  DIS CAZ7
 ABAD     P   0 ? 1400 11.38                              94   -0.0910 28.3 2044
 ABAD     S   0   1400 16.54                              94    0.1410 28.3 2044
 ABTL     P   0 ? 1400 11.83                              94   -0.0110 30.4 2344
 ABTL     S   0   1400 17.29                              94    0.2210 30.4 2344
 P9       P   0 ? 1400 12.25                              93    0.0310 32.6 2094
 P9       S   0   1400 17.53                              93   -0.2310 32.6 2094
 NOKA     P   0 ? 1400 12.58                              93    0.1710 33.8 2564
 NOKA     S   0   1400 17.89                              93   -0.2210 33.8 2564
 AHRM     P   0 ? 1400 14.21                              68   -0.0610 44.7 1894
 P4       P   0 ? 1400 14.33                              68   -0.0110 45.2 2244
 P4       S   0   1400 21.59                              68   -0.0110 45.2 2244
 KHIA     P   0 ? 1400 14.66                              68   -0.0510 47.4 2054
 KHIA     S   0   1400 22.31                              68    0.0510 47.4 2054
 JNAK     P   0 ? 1400 16.78                              68    0.0510 60.0 2094
 JNAK     S   0   1400 25.92                              68   -0.0010 60.0 2094
                                                                                
 2021  2 2 1834 28.6 L  29.259  51.376  8.0  SLT  8 0.1                        1
 GAP=307        0.39       1.4     1.8  2.1  0.3921E-01 -0.8441E+00  0.7708E+00E
 STAT SP IPHASW D HRMN SECON CODA AMPLIT PERI AZIMU VELO AIN AR TRES W  DIS CAZ7
 ABAD     P   0 ? 1834 34.60                              93   -0.0710 28.2 2064
 ABAD     S   0   1834 39.78                              93    0.1910 28.2 2064
 ABTL     P   0 ? 1834 35.09                              93   -0.0110 30.7 2354
 ABTL     S   0   1834 40.60                              93    0.2410 30.7 2354
 P9       P   0 ? 1834 35.48                              92    0.0510 32.6 2114
 P9       S   0   1834 40.78                              92   -0.1910 32.6 2114
 NOKA     P   0 ? 1834 35.86                              92    0.1510 34.2 2574
 NOKA     S   0   1834 41.23                              92   -0.2410 34.2 2574
 TOLS     P   0 ? 1834 36.72                              92    0.0110 39.9 2194
 TOLS     S   0   1834 43.18                              92   -0.0910 39.9 2194
 P4       P   0 ? 1834 37.58                              68   -0.0310 45.4 2254
 P4       S   0   1834 45.06                              68    0.1510 45.4 2254
 KHIA     P   0 ? 1834 37.89                              68   -0.0510 47.4 2064
 KHIA     S   0   1834 45.47                              68   -0.0410 47.4 2064
 DLRM     P   0 ? 1834 41.92                              68    0.02 9 71.9 2044
 DLRM     S   0   1834 52.60                              68   -0.08 9 71.9 2044
                                                                                
 2021  2 2 2251 43.3 L  29.255  51.388 10.9  SLT  7 0.2                        1
 GAP=310        0.49       1.8     2.4  4.0 -0.3818E-01 -0.2902E+01  0.1767E+01E
 STAT SP IPHASW D HRMN SECON CODA AMPLIT PERI AZIMU VELO AIN AR TRES W  DIS CAZ7
 ABAD     P   0 ? 2251 49.38                              68   -0.0610 28.4 2084
 ABAD     S   0   2251 54.20                              68   -0.1810 28.4 2084
 ABTL     P   0 ? 2251 49.83                              68   -0.1010 31.4 2374
 ABTL     S   0   2251 55.46                              68    0.2010 31.4 2374
 P9       P   0 ? 2251 50.25                              68    0.0910 32.9 2134
 P9       S   0   2251 55.75                              68    0.0610 32.9 2134
 NOKA     P   0 ? 2251 50.58                              68    0.0410 35.3 2584
 NOKA     S   0   2251 56.32                              68   -0.0510 35.3 2584
 TOLS     P   0 ? 2251 51.46                              68    0.0910 40.4 2214
 TOLS     S   0   2251 57.41                              68   -0.4710 40.4 2214
 P5       P   0 ? 2251 51.71                              68    0.0310 42.4 2244
 P5       S   0   2251 58.46                              68    0.0210 42.4 2244
 KHIA     P   0 ? 2251 52.61                              68    0.0810 47.6 2074
 KHIA     S   0   2252  0.21                              68    0.2410 47.6 2074
                                                                                
 2021  2 2 0233 44.9 L  29.249  51.384  8.6  SLT  9 0.1                        1
 GAP=309        0.44       1.5     2.0  2.0 -0.1165E+00 -0.5825E+00  0.4999E+00E
 STAT SP IPHASW D HRMN SECON CODA AMPLIT PERI AZIMU VELO AIN AR TRES W  DIS CAZ7
 ABAD     P   0 ? 0233 50.93                              94    0.0010 27.6 2084
 ABAD     S   0   0233 56.05                              94    0.2810 27.6 2084
 ABTL     P   0 ? 0233 51.38                              94   -0.0910 30.7 2384
 ABTL     S   0   0233 56.73                              94   -0.0210 30.7 2384
 P9       P   0 ? 0233 51.80                              94    0.1010 32.1 2134
 P9       S   0   0233 56.78                              94   -0.4010 32.1 2134
 NOKA     P   0 ? 0233 52.10                              93   -0.0610 34.8 2584
 NOKA     S   0   0233 57.99                              93   -0.0110 34.8 2584
 TOLS     P   0 ? 0233 53.00                              93   -0.0110 39.7 2214
 TOLS     S   0   0233 59.70                              93    0.1610 39.7 2214
 P5       P   0 ? 0233 53.24                              68   -0.0810 41.6 2244
 P5       S   0   0234  0.19                              68    0.0810 41.6 2244
 P4       P   0 ? 0233 53.84                              68   -0.0610 45.2 2264
 P4       S   0   0234  1.20                              68    0.0510 45.2 2264
 KHIA     P   0 ? 0233 54.20                              68    0.0410 46.8 2074
 KHIA     S   0   0234  1.45                              68   -0.1810 46.8 2074
 P3       P   0 ? 0233 55.15                              68    0.1810 51.8 2304
                                                                                
 2021  2 2 0724 56.8 L  29.254  51.375  9.6  SLT  6 0.2                        1
 GAP=308        0.46       1.8     2.4  2.2  0.7026E+00  0.3755E+00 -0.5787E+00E
 STAT SP IPHASW D HRMN SECON CODA AMPLIT PERI AZIMU VELO AIN AR TRES W  DIS CAZ7
 ABAD     P   0 ? 0725  2.76                              97   -0.0410 27.7 2064
 ABAD     S   0   0725  7.49                              97   -0.1710 27.7 2064
 ABTL     P   0 ? 0725  3.12                              97   -0.1310 30.3 2364
 ABTL     S   0   0725  8.41                              97   -0.0710 30.3 2364
 P9       P   0 ? 0725  3.62                              96    0.0610 32.1 2114
 P9       S   0   0725  9.35                              96    0.3110 32.1 2114
 NOKA     P   0 ? 0725  3.81                              68   -0.0610 34.0 2574
 NOKA     S   0   0725  9.72                              68    0.1110 34.0 2574
 KHIA     P   0 ? 0725  6.07                              68    0.1210 46.8 2064
 KHIA     S   0   0725 13.48                              68    0.1210 46.8 2064
 JNAK     P   0 ? 0725  8.02                              68    0.0410 59.5 2104
 JNAK     S   0   0725 16.73                              68   -0.3110 59.5 2104
                                                                                
 2021  2 2 0100  6.0 L  28.982  51.335  6.1  SLT  4 0.1                        1
 GAP=254        0.31       1.0     1.9  1.7  0.1256E+01 -0.5801E+00 -0.8188E+00E
 STAT SP IPHASW D HRMN SECON CODA AMPLIT PERI AZIMU VELO AIN AR TRES W  DIS CAZ7
 ABAD     P   0 ? 0100  8.76                             101   -0.0310 9.71 3024
 P9       P   0 ? 0100  9.35                              96   -0.0610 12.8 2814
 P9       S   0   0100 12.25                              96    0.0510 12.8 2814
 AHRM     P   0 ? 0100  9.70                              95    0.1110 13.7 1974
 AHRM     S   0   0100 12.45                              95   -0.0710 13.7 1974
 ABTL     P   0 ? 0100 11.59                              59    0.0010 25.0 3024
 ABTL     S   0   0100 16.12                              59   -0.0110 25.0 3024
                                                                                
