 2021  2 2 2345 28.9 L  28.971  51.016 14.3  SLT 23 0.0                        1
 GAP= 96        0.13       0.4     0.2  0.4 -0.6149E-01  0.1044E-01 -0.2759E-01E
 STAT SP IPHASW D HRMN SECON CODA AMPLIT PERI AZIMU VELO AIN AR TRES W  DIS CAZ7
 P4       P   0 ? 2345 31.89                             164    0.0110 3.23  974
 P3       P   0 ? 2345 31.96                             158    0.0110 4.60 2384
 P3       S   0   2345 34.44                             158    0.0110 4.60 2384
 P5       P   0 ? 2345 32.13                             148    0.0010 6.97  824
 P5       S   0   2345 34.75                             148    0.0110 6.97  824
 P2       P   0 ? 2345 32.22                             144    0.0010 7.99 2404
 P2       S   0   2345 34.90                             144   -0.0010 7.99 2404
 TOLS     P   0 ? 2345 32.41                             137   -0.0110 9.87  854
 TOLS     S   0   2345 35.25                             137   -0.0110 9.87  854
 P1       P   0 ? 2345 32.56                             133   -0.0210 11.3 2464
 P1       S   0   2345 35.53                             133   -0.0210 11.3 2464
 N19      P   0 ? 2345 33.03                             123   -0.0110 14.9 2594
 N19      S   0   2345 36.38                             123   -0.0110 14.9 2594
 N16      P   0 ? 2345 33.04                             123   -0.0110 15.0 2524
 N16      S   0   2345 36.40                             123   -0.0110 15.0 2524
 N9       P   0 ? 2345 33.13                             121   -0.0010 15.6 2384
 N9       S   0   2345 36.56                             121   -0.0010 15.6 2384
 N12      P   0 ? 2345 33.23                             120   -0.0010 16.3 2454
 N12      S   0   2345 36.74                             120   -0.0010 16.3 2454
 N15      P   0 ? 2345 33.29                             119    0.0010 16.7 2494
 N15      S   0   2345 36.84                             119    0.0010 16.7 2494
 N6       S   0   2345 37.05                             117    0.0010 17.5 2344
 ABTL     S   0   2345 37.04                             117   -0.0110 17.5  344
 N6       P   0 ? 2345 33.40                             117   -0.0010 17.5 2344
 ABTL     P   0 ? 2345 33.40                             117   -0.0010 17.5  344
 N20      P   0 ? 2345 33.40                             117   -0.0110 17.6 2684
 N10      P   0 ? 2345 33.50                             116    0.0010 18.2 2424
 N10      S   0   2345 37.23                             116    0.0110 18.2 2424
 KHIA     P   0 ? 2345 33.51                             116    0.0010 18.2 1274
 N18      P   0 ? 2345 33.53                             116   -0.0010 18.4 2574
 N18      S   0   2345 37.29                             116    0.0110 18.4 2574
 N14      P   0 ? 2345 33.54                             115   -0.0010 18.5 2524
 N14      S   0   2345 37.31                             115    0.0110 18.5 2524
 P9       P   0 ? 2345 33.61                             115    0.0010 18.9  784
 N2       P   0 ? 2345 33.63                             114    0.0110 19.1 2194
 N17      P   0 ? 2345 33.66                             114    0.0010 19.3 2604
 N17      S   0   2345 37.52                             114    0.0110 19.3 2604
 ABAD     P   0 ? 2345 34.36                             108    0.0110 23.8  744
 NOKA     P   0 ? 2345 34.37                             108    0.0110 23.9   44
                                                                                
 2021  2 2 2348 45.1 L  28.980  51.017 13.1  SLT 14 0.0                        1
 GAP=141        0.15       0.6     0.3  0.5 -0.1656E+00  0.6575E-01 -0.1180E+00E
 STAT SP IPHASW D HRMN SECON CODA AMPLIT PERI AZIMU VELO AIN AR TRES W  DIS CAZ7
 P4       P   0 ? 2348 47.90                             161    0.0010 3.50 1154
 P4       S   0   2348 50.18                             161    0.0210 3.50 1154
 P3       P   0 ? 2348 48.01                             152    0.0010 5.26 2294
 P3       S   0   2348 50.37                             152    0.0010 5.26 2294
 P2       P   0 ? 2348 48.31                             138   -0.0110 8.60 2344
 P2       S   0   2348 50.91                             138   -0.0110 8.60 2344
 TOLS     P   0 ? 2348 48.45                             133   -0.0110 9.79  914
 TOLS     S   0   2348 51.17                             133   -0.0110 9.79  914
 P1       P   0 ? 2348 48.69                             126   -0.0210 11.8 2414
 P1       S   0   2348 51.60                             126   -0.0310 11.8 2414
 N19      P   0 ? 2348 49.16                             117   -0.0110 15.1 2554
 N19      S   0   2348 52.45                             117   -0.0110 15.1 2554
 N16      P   0 ? 2348 49.20                             116    0.0010 15.4 2484
 N16      S   0   2348 52.52                             116   -0.0010 15.4 2484
 ABTL     P   0 ? 2348 49.38                             114    0.0010 16.6  364
 ABTL     S   0   2348 52.84                             114   -0.0110 16.6  364
 N12      P   0 ? 2348 49.41                             113   -0.0010 16.8 2424
 N12      S   0   2348 52.91                             113    0.0110 16.8 2424
 N15      P   0 ? 2348 49.46                             113    0.0010 17.1 2464
 N15      S   0   2348 52.99                             113    0.0010 17.1 2464
 N6       P   0 ? 2348 49.62                             111    0.0110 18.2 2314
 N6       S   0   2348 53.28                             111    0.0110 18.2 2314
 N18      S   0   2348 53.42                             110    0.0010 18.7 2544
 P9       P   0 ? 2348 49.70                             110    0.0110 18.7  824
 P9       S   0   2348 53.43                             110    0.0210 18.7  824
 N18      P   0 ? 2348 49.70                             110    0.0110 18.7 2544
 N14      P   0 ? 2348 49.72                             109    0.0010 18.9 2494
 N14      S   0   2348 53.47                             109    0.0110 18.9 2494
                                                                                
 2021  2 2 0213  0.1 L  28.642  51.110 10.9  SLT  9 0.0                        1
 GAP=184        0.20       0.5     0.6  0.5  0.1235E+00 -0.7029E-01  0.4072E-02E
 STAT SP IPHASW D HRMN SECON CODA AMPLIT PERI AZIMU VELO AIN AR TRES W  DIS CAZ7
 DLRM     P   0 ? 0213  2.61                             154   -0.0010 4.14 3094
 DLRM     S   0   0213  4.64                             154   -0.0110 4.14 3094
 KOLO     P   0 ? 0213  4.06                             113   -0.0010 15.3  574
 KOLO     S   0   0213  7.28                             113    0.0110 15.3  574
 JNAK     P   0 ? 0213  4.25                             111   -0.0010 16.5 3474
 JNAK     S   0   0213  7.62                             111    0.0010 16.5 3474
 ABAS     P   0 ? 0213  5.06                              68   -0.0110 21.4 1254
 ABAS     S   0   0213  9.09                              68    0.0010 21.4 1254
 KHIA     P   0 ? 0213  5.84                              68   -0.0110 26.2  124
 KHIA     S   0   0213 10.49                              68   -0.0110 26.2  124
 AHRM     P   0 ? 0213  6.56                              68    0.0110 30.5  364
 P4       P   0 ? 0213  7.51                              68    0.0110 36.5 3514
 N14      P   0 ? 0213  8.19                              68    0.0010 40.7 3194
 N19      P   0 ? 0213  8.28                              68    0.0110 41.3 3254
                                                                                
 2021  2 2 1400  5.6 L  29.245  51.374  8.2  SLT  8 0.0                        1
 GAP=291        0.20       0.7     0.8  1.0  0.3417E-01 -0.2042E+00  0.2254E+00E
 STAT SP IPHASW D HRMN SECON CODA AMPLIT PERI AZIMU VELO AIN AR TRES W  DIS CAZ7
 ABAD     P   0 ? 1400 11.42                              93   -0.0010 26.8 2074
 ABAD     S   0   1400 16.14                              93   -0.0010 26.8 2074
 ABTL     P   0 ? 1400 11.93                              93    0.0010 29.7 2384
 ABTL     S   0   1400 17.06                              93    0.0010 29.7 2384
 P9       P   0 ? 1400 12.19                              93   -0.0010 31.2 2124
 P9       S   0   1400 17.53                              93   -0.0010 31.2 2124
 NOKA     P   0 ? 1400 12.63                              93    0.0110 33.7 2594
 NOKA     S   0   1400 18.31                              93   -0.0110 33.7 2594
 AHRM     P   0 ? 1400 14.21                              68   -0.0110 42.9 1904
 P4       P   0 ? 1400 14.41                              68   -0.0010 44.2 2264
 P4       S   0   1400 21.54                              68   -0.0110 44.2 2264
 KHIA     P   0 ? 1400 14.71                              68    0.0110 45.9 2064
 KHIA     S   0   1400 22.08                              68    0.0010 45.9 2064
 JNAK     P   0 ? 1400 16.75                              68    0.0110 58.6 2104
 JNAK     S   0   1400 25.77                              68    0.0110 58.6 2104
                                                                                
 2021  2 2 1834 28.8 L  29.244  51.379  8.0  SLT  8 0.0                        1
 GAP=305        0.19       0.7     0.9  1.0  0.1810E-01 -0.2022E+00  0.1900E+00E
 STAT SP IPHASW D HRMN SECON CODA AMPLIT PERI AZIMU VELO AIN AR TRES W  DIS CAZ7
 ABAD     P   0 ? 1834 34.64                              93   -0.0010 26.8 2084
 ABAD     S   0   1834 39.37                              93   -0.0010 26.8 2084
 ABTL     P   0 ? 1834 35.19                              93    0.0010 30.0 2384
 ABTL     S   0   1834 40.36                              93    0.0010 30.0 2384
 P9       P   0 ? 1834 35.42                              92    0.0010 31.3 2134
 P9       S   0   1834 40.78                              92    0.0010 31.3 2134
 NOKA     P   0 ? 1834 35.90                              92   -0.0010 34.1 2594
 NOKA     S   0   1834 41.65                              92    0.0010 34.1 2594
 TOLS     P   0 ? 1834 36.72                              92   -0.0010 38.9 2214
 TOLS     S   0   1834 43.13                              92   -0.0110 38.9 2214
 P4       P   0 ? 1834 37.66                              68   -0.0010 44.4 2264
 P4       S   0   1834 44.83                              68   -0.0010 44.4 2264
 KHIA     P   0 ? 1834 37.93                              68    0.0010 46.0 2074
 KHIA     S   0   1834 45.32                              68   -0.0010 46.0 2074
 DLRM     P   0 ? 1834 41.89                              68    0.01 9 70.6 2054
 DLRM     S   0   1834 52.48                              68    0.00 9 70.6 2054
                                                                                
 2021  2 2 2251 43.6 L  29.244  51.374  8.8  SLT  7 0.0                        1
 GAP=307        0.20       0.8     1.0  1.0  0.5815E-01 -0.1325E+00  0.1976E+00E
 STAT SP IPHASW D HRMN SECON CODA AMPLIT PERI AZIMU VELO AIN AR TRES W  DIS CAZ7
 ABAD     P   0 ? 2251 49.42                              95    0.0010 26.6 2074
 ABAD     S   0   2251 54.13                              95    0.0110 26.6 2074
 ABTL     P   0 ? 2251 49.93                              95    0.0010 29.6 2384
 ABTL     S   0   2251 55.06                              95    0.0110 29.6 2384
 P9       P   0 ? 2251 50.19                              94    0.0010 31.1 2124
 P9       S   0   2251 55.52                              94    0.0010 31.1 2124
 NOKA     P   0 ? 2251 50.63                              94   -0.0010 33.7 2594
 NOKA     S   0   2251 56.32                              94    0.0010 33.7 2594
 TOLS     P   0 ? 2251 51.46                              68   -0.0210 38.5 2214
 TOLS     S   0   2251 57.83                              68   -0.0210 38.5 2214
 P5       P   0 ? 2251 51.79                              68   -0.0010 40.5 2244
 P5       S   0   2251 58.41                              68   -0.0110 40.5 2244
 KHIA     P   0 ? 2251 52.66                              68    0.0110 45.8 2064
 KHIA     S   0   2251 59.98                              68    0.0010 45.8 2064
                                                                                
 2021  2 2 0233 45.0 L  29.250  51.380  9.1  SLT  9 0.0                        1
 GAP=308        0.18       0.7     0.8  0.8 -0.1133E-01 -0.7706E-01  0.1237E+00E
 STAT SP IPHASW D HRMN SECON CODA AMPLIT PERI AZIMU VELO AIN AR TRES W  DIS CAZ7
 ABAD     P   0 ? 0233 50.98                              96    0.0010 27.5 2074
 ABAD     S   0   0233 55.82                              96    0.0110 27.5 2074
 ABTL     P   0 ? 0233 51.48                              95   -0.0010 30.5 2374
 ABTL     S   0   0233 56.73                              95    0.0010 30.5 2374
 P9       P   0 ? 0233 51.74                              95   -0.0110 32.0 2124
 P9       S   0   0233 57.20                              95   -0.0110 32.0 2124
 NOKA     P   0 ? 0233 52.15                              95   -0.0010 34.4 2584
 NOKA     S   0   0233 57.94                              95   -0.0010 34.4 2584
 TOLS     P   0 ? 0233 53.00                              68    0.0010 39.5 2204
 TOLS     S   0   0233 59.47                              68   -0.0110 39.5 2204
 P5       P   0 ? 0233 53.31                              68   -0.0010 41.4 2244
 P5       S   0   0234  0.04                              68   -0.0010 41.4 2244
 P4       P   0 ? 0233 53.89                              68    0.0110 45.0 2264
 P4       S   0   0234  1.08                              68    0.0110 45.0 2264
 KHIA     P   0 ? 0233 54.17                              68    0.0010 46.7 2074
 KHIA     S   0   0234  1.59                              68   -0.0010 46.7 2074
 P3       P   0 ? 0233 54.95                              68    0.0010 51.6 2304
                                                                                
 2021  2 2 0724 56.9 L  29.252  51.368  8.3  SLT  6 0.0                        1
 GAP=307        0.22       0.9     1.1  1.3  0.1206E+00 -0.4427E+00  0.3233E+00E
 STAT SP IPHASW D HRMN SECON CODA AMPLIT PERI AZIMU VELO AIN AR TRES W  DIS CAZ7
 ABAD     P   0 ? 0725  2.80                              94   -0.0110 27.2 2054
 ABAD     S   0   0725  7.59                              94    0.0010 27.2 2054
 ABTL     P   0 ? 0725  3.22                              93   -0.0010 29.6 2364
 ABTL     S   0   0725  8.34                              93   -0.0010 29.6 2364
 P9       P   0 ? 0725  3.56                              93   -0.0010 31.6 2104
 P9       S   0   0725  8.95                              93   -0.0010 31.6 2104
 NOKA     P   0 ? 0725  3.86                              93    0.0010 33.3 2574
 NOKA     S   0   0725  9.49                              93   -0.0010 33.3 2574
 KHIA     P   0 ? 0725  6.07                              68    0.0010 46.4 2054
 KHIA     S   0   0725 13.49                              68   -0.0010 46.4 2054
 JNAK     P   0 ? 0725  8.10                              68    0.0010 59.0 2094
 JNAK     S   0   0725 17.16                              68   -0.0010 59.0 2094
                                                                                
 2021  2 2 0100  6.0 L  28.984  51.337  5.8  SLT  4 0.0                        1
 GAP=256        0.27       0.9     1.7  1.6  0.9336E+00 -0.4223E+00 -0.6844E+00E
 STAT SP IPHASW D HRMN SECON CODA AMPLIT PERI AZIMU VELO AIN AR TRES W  DIS CAZ7
 ABAD     P   0 ? 0100  8.80                              96   -0.0010 9.78 3014
 P9       P   0 ? 0100  9.45                              93    0.0010 13.0 2804
 P9       S   0   0100 12.25                              93   -0.0010 13.0 2804
 AHRM     P   0 ? 0100  9.64                              92   -0.0010 13.9 1974
 AHRM     S   0   0100 12.60                              92   -0.0010 13.9 1974
 ABTL     P   0 ? 0100 11.64                              59    0.0010 25.1 3014
 ABTL     S   0   0100 16.21                              59    0.0010 25.1 3014
                                                                                
