 2021  2 2 1550 48.7 L  28.818  50.855  7.4  SLT  8 0.0                        1
 GAP=274        0.20       0.7     1.1  0.9  0.4039E+00  0.5535E+00  0.4701E-01E
 STAT SP IPHASW D HRMN SECON CODA AMPLIT PERI AZIMU VELO AIN AR TRES W  DIS CAZ7
 N3       P   0 ? 1550 50.55                             151    0.0110 2.83  434
 N5       P   0 ? 1550 50.66                             140    0.0010 3.99  474
 N5       S   0   1550 52.26                             140   -0.0110 3.99  474
 N2       P   0 ? 1550 50.68                             138    0.0010 4.23  614
 N2       S   0   1550 52.30                             138   -0.0010 4.23  614
 N1       P   0 ? 1550 50.70                             137    0.0110 4.31  854
 N1       S   0   1550 52.33                             137   -0.0010 4.31  854
 N4       P   0 ? 1550 50.70                             137    0.0010 4.38 3594
 N4       S   0   1550 52.33                             137   -0.0110 4.38 3594
 CAMP     P   0 ? 1550 50.87                             126    0.0110 5.65  664
 CAMP     S   0   1550 52.63                             126   -0.0110 5.65  664
 N6       P   0 ? 1550 51.04                             117    0.0010 6.78  134
 N6       S   0   1550 52.94                             117   -0.0210 6.78  134
 N15      P   0 ? 1550 51.74                              97    0.0110 10.9   04
 N15      S   0   1550 54.20                              97   -0.0010 10.9   04
                                                                                
 2021  2 2 1642 55.2 L  28.820  50.851  8.4  SLT 10 0.0                        1
 GAP=258        0.17       0.6     0.9  0.8  0.3400E+00  0.4142E+00  0.1200E+00E
 STAT SP IPHASW D HRMN SECON CODA AMPLIT PERI AZIMU VELO AIN AR TRES W  DIS CAZ7
 N3       P   0 ? 1642 57.21                             154    0.0010 2.97  514
 N3       S   0   1642 58.85                             154   -0.0110 2.97  514
 N5       P   0 ? 1642 57.32                             145    0.0010 4.15  534
 N5       S   0   1642 59.05                             145   -0.0010 4.15  534
 N4       P   0 ? 1642 57.32                             145    0.0010 4.19   44
 N4       S   0   1642 59.04                             145   -0.0110 4.19   44
 N2       P   0 ? 1642 57.35                             143    0.0110 4.48  654
 N2       S   0   1642 59.09                             143   -0.0110 4.48  654
 N1       P   0 ? 1642 57.38                             141    0.0110 4.67  884
 N1       S   0   1642 59.14                             141   -0.0110 4.67  884
 CAMP     P   0 ? 1642 57.52                             133    0.0110 5.92  694
 CAMP     S   0   1642 59.40                             133   -0.0110 5.92  694
 N6       P   0 ? 1642 57.63                             128    0.0110 6.69  174
 N6       S   0   1642 59.60                             128   -0.0110 6.69  174
 N10      P   0 ? 1642 57.82                             120   -0.0010 8.06   14
 N10      S   0   1642 59.95                             120   -0.0110 8.06   14
 N9       P   0 ? 1642 57.94                             117    0.0110 8.78  194
 N9       S   0   1643  0.17                             117    0.0110 8.78  194
 N11      P   0 ? 1642 58.04                             114    0.0010 9.47 3464
 N11      S   0   1643  0.35                             114   -0.0010 9.47 3464
                                                                                
 2021  2 2 1654 51.7 L  28.825  50.860  8.1  SLT 12 0.0                        1
 GAP=256        0.17       0.5     0.8  0.4  0.2372E+00  0.5265E-02 -0.2224E-01E
 STAT SP IPHASW D HRMN SECON CODA AMPLIT PERI AZIMU VELO AIN AR TRES W  DIS CAZ7
 N3       P   0 ? 1654 53.60                             162   -0.0010 1.96  484
 N3       S   0   1654 55.15                             162   -0.0010 1.96  484
 N5       P   0 ? 1654 53.69                             152    0.0010 3.14  514
 N5       S   0   1654 55.31                             152    0.0110 3.14  514
 N2       P   0 ? 1654 53.71                             149    0.0010 3.47  684
 N2       S   0   1654 55.34                             149   -0.0010 3.47  684
 N4       P   0 ? 1654 53.74                             147    0.0110 3.68 3514
 N4       S   0   1654 55.39                             147    0.0010 3.68 3514
 N1       P   0 ? 1654 53.75                             146    0.0010 3.82  954
 N1       S   0   1654 55.41                             146   -0.0110 3.82  954
 CAMP     P   0 ? 1654 53.86                             137   -0.0010 4.93  724
 CAMP     S   0   1654 55.61                             137   -0.0110 4.93  724
 N6       P   0 ? 1654 54.00                             130   -0.0010 5.95  104
 N6       S   0   1654 55.86                             130   -0.0110 5.95  104
 N10      P   0 ? 1654 54.23                             120    0.0010 7.56 3544
 N10      S   0   1654 56.28                             120   -0.0010 7.56 3544
 N9       P   0 ? 1654 54.29                             117   -0.0010 8.00  154
 N9       S   0   1654 56.40                             117   -0.0010 8.00  154
 P2       P   0 ? 1654 55.42                              98    0.0110 14.7  344
 P3       P   0 ? 1654 55.95                              96    0.0110 17.8  394
 KHIA     P   0 ? 1654 58.13                              93    0.0110 30.3  804
                                                                                
 2021  2 2 1714 27.7 L  29.263  51.349  7.1  SLT 13 0.0                        1
 GAP=306        0.16       0.5     0.6  0.8  0.2856E-01  0.9020E-01 -0.5005E-01E
 STAT SP IPHASW D HRMN SECON CODA AMPLIT PERI AZIMU VELO AIN AR TRES W  DIS CAZ7
 ABAD     P   0 ? 1714 33.67                              90    0.0010 27.7 2004
 ABAD     S   0   1714 38.51                              90    0.0010 27.7 2004
 ABTL     P   0 ? 1714 33.87                              90   -0.0010 28.8 2314
 ABTL     S   0   1714 38.87                              90   -0.0010 28.8 2314
 P9       S   0   1714 39.81                              90    0.0010 31.8 2064
 NOKA     S   0   1714 39.77                              90   -0.0110 31.8 2544
 P9       P   0 ? 1714 34.39                              90    0.0010 31.8 2064
 NOKA     P   0 ? 1714 34.37                              90   -0.0010 31.8 2544
 TOLS     P   0 ? 1714 35.59                              90   -0.0010 38.7 2164
 TOLS     S   0   1714 41.98                              90   -0.0010 38.7 2164
 KHIA     P   0 ? 1714 36.98                              90   -0.0110 46.8 2024
 KHIA     S   0   1714 44.49                              90   -0.0310 46.8 2024
 SHIF     P   0 ? 1714 37.67                              68    0.0110 50.9 2454
 SHIF     S   0   1714 45.73                              68   -0.0110 50.9 2454
 P2       P   0 ? 1714 38.09                              68    0.0110 53.5 2274
 N19      P   0 ? 1714 38.93                              68    0.0110 58.7 2334
 JNAK     P   0 ? 1714 39.01                              68    0.0110 59.2 2074
 N18      P   0 ? 1714 39.49                              68    0.0110 62.2 2344
 N18      S   0   1714 49.03                              68    0.0010 62.2 2344
 N6       P   0 ? 1714 39.65                              68    0.01 9 63.1 2284
 N6       S   0   1714 49.31                              68    0.00 9 63.1 2284
 DLRM     P   0 ? 1714 40.98                              68    0.01 9 71.4 2024
 DLRM     S   0   1714 51.72                              68    0.00 9 71.4 2024
                                                                                
 2021  2 2 1919 18.6 L  28.823  50.856  8.3  SLT 29 0.0                        1
 GAP=210        0.11       0.2     0.2  0.2  0.2521E-01 -0.3393E-02 -0.1991E-02E
 STAT SP IPHASW D HRMN SECON CODA AMPLIT PERI AZIMU VELO AIN AR TRES W  DIS CAZ7
 N3       P   0 ? 1919 20.57                             158    0.0110 2.42  494
 N3       S   0   1919 22.16                             158   -0.0010 2.42  494
 N5       P   0 ? 1919 20.66                             149    0.0010 3.60  514
 N5       S   0   1919 22.33                             149   -0.0010 3.60  514
 N4       P   0 ? 1919 20.68                             146   -0.0010 3.91 3574
 N4       S   0   1919 22.37                             146   -0.0110 3.91 3574
 N2       P   0 ? 1919 20.68                             146    0.0010 3.93  664
 N2       S   0   1919 22.37                             146   -0.0010 3.93  664
 N1       P   0 ? 1919 20.72                             144    0.0110 4.19  914
 N1       S   0   1919 22.43                             144   -0.0010 4.19  914
 CAMP     P   0 ? 1919 20.84                             135   -0.0010 5.37  704
 CAMP     S   0   1919 22.66                             135   -0.0110 5.37  704
 N6       P   0 ? 1919 20.96                             129   -0.0110 6.29  134
 N6       S   0   1919 22.88                             129   -0.0210 6.29  134
 N10      P   0 ? 1919 21.17                             121   -0.0110 7.79 3574
 N10      S   0   1919 23.26                             121   -0.0210 7.79 3574
 N9       P   0 ? 1919 21.26                             118   -0.0010 8.36  174
 N9       S   0   1919 23.42                             118   -0.0110 8.36  174
 N11      P   0 ? 1919 21.42                             113    0.0010 9.33 3424
 N11      S   0   1919 23.70                             113   -0.0110 9.33 3424
 N13      P   0 ? 1919 21.53                             110    0.0010 10.0 3394
 N13      S   0   1919 23.90                             110   -0.0110 10.0 3394
 N15      P   0 ? 1919 21.60                             109    0.0010 10.4 3604
 N15      S   0   1919 24.04                             109    0.0010 10.4 3604
 N14      P   0 ? 1919 21.67                             108    0.0010 10.8 3504
 N14      S   0   1919 24.16                             108    0.0010 10.8 3504
 N16      P   0 ? 1919 21.82                             105    0.0110 11.7   74
 N16      S   0   1919 24.42                             105   -0.0010 11.7   74
 N18      P   0 ? 1919 21.93                             104    0.0010 12.4 3494
 N18      S   0   1919 24.64                             104    0.0010 12.4 3494
 P1       P   0 ? 1919 22.01                             103    0.0110 12.9  244
 P1       S   0   1919 24.78                             103    0.0110 12.9  244
 N17      P   0 ? 1919 22.12                             101    0.0010 13.5 3454
 N19      P   0 ? 1919 22.15                             101    0.0010 13.7   44
 N19      S   0   1919 25.03                             101   -0.0010 13.7   44
 P2       P   0 ? 1919 22.40                              99    0.0110 15.2  354
 P2       S   0   1919 25.48                              99    0.0110 15.2  354
 N20      P   0 ? 1919 22.54                              98    0.0010 16.0 3534
 N20      S   0   1919 25.74                              98    0.0010 16.0 3534
 P3       P   0 ? 1919 22.93                              97    0.0110 18.2  404
 P3       S   0   1919 26.44                              97    0.0010 18.2  404
 JNAK     P   0 ? 1919 23.50                              95    0.0110 21.5 1014
 JNAK     S   0   1919 27.48                              95    0.0110 21.5 1014
 P4       P   0 ? 1919 24.04                              94    0.0010 24.7  504
 DLRM     P   0 ? 1919 24.59                              94    0.0110 27.8 1294
 KHIA     P   0 ? 1919 25.10                              93   -0.0010 30.7  794
 KHIA     S   0   1919 30.37                              93   -0.0110 30.7  794
 TOLS     P   0 ? 1919 25.10                              93   -0.0010 30.8  564
 KOLO     P   0 ? 1919 26.60                              92    0.0010 39.4 1074
 P9       P   0 ? 1919 26.64                              92   -0.0010 39.6  594
 ABTL     P   0 ? 1919 26.70                              92   -0.0010 40.0  394
                                                                                
 2021  2 2 2330 25.9 L  29.081  51.401  8.4  SLT 32 0.0                        1
 GAP=273        0.10       0.2     0.2  0.3  0.3046E-02  0.1237E-01  0.2395E-01E
 STAT SP IPHASW D HRMN SECON CODA AMPLIT PERI AZIMU VELO AIN AR TRES W  DIS CAZ7
 ABAD     P   0 ? 2330 29.83                             100    0.0010 15.7 2494
 P9       P   0 ? 2330 30.70                              96    0.0010 20.8 2464
 P9       S   0   2330 34.59                              96    0.0210 20.8 2464
 ABTL     P   0 ? 2330 31.90                              94   -0.0110 27.8 2754
 ABTL     S   0   2330 36.77                              94   -0.0010 27.8 2754
 TOLS     P   0 ? 2330 32.27                              94   -0.0010 29.9 2484
 TOLS     S   0   2330 37.43                              94   -0.0010 29.9 2484
 KHIA     P   0 ? 2330 32.72                              93   -0.0110 32.5 2254
 KHIA     S   0   2330 38.25                              93   -0.0010 32.5 2254
 P5       P   0 ? 2330 32.74                              93   -0.0010 32.6 2504
 P5       S   0   2330 38.28                              93   -0.0010 32.6 2504
 P4       P   0 ? 2330 33.42                              93   -0.0110 36.6 2504
 P4       S   0   2330 39.51                              93   -0.0110 36.6 2504
 NOKA     P   0 ? 2330 33.59                              93   -0.0210 37.6 2884
 NOKA     S   0   2330 39.82                              93   -0.0210 37.6 2884
 KOLO     P   0 ? 2330 34.55                              68   -0.0110 43.2 2014
 KOLO     S   0   2330 41.54                              68   -0.0210 43.2 2014
 P3       P   0 ? 2330 34.66                              68   -0.0010 43.9 2514
 P3       S   0   2330 41.75                              68   -0.0010 43.9 2514
 JNAK     P   0 ? 2330 34.94                              68    0.0010 45.7 2254
 JNAK     S   0   2330 42.25                              68   -0.0110 45.7 2254
 P2       P   0 ? 2330 35.21                              68    0.0110 47.3 2504
 P2       S   0   2330 42.73                              68   -0.0010 47.3 2504
 P1       P   0 ? 2330 35.76                              68    0.0010 50.7 2514
 P1       S   0   2330 43.74                              68    0.0010 50.7 2514
 SHIF     P   0 ? 2330 35.86                              68    0.0010 51.4 2694
 N19      P   0 ? 2330 36.33                              68   -0.0010 54.3 2544
 N19      S   0   2330 44.77                              68   -0.0010 54.3 2544
 N9       P   0 ? 2330 36.41                              68    0.0110 54.7 2484
 N9       S   0   2330 44.91                              68    0.0110 54.7 2484
 CAMP     P   0 ? 2330 36.46                              68    0.0110 55.0 2414
 CAMP     S   0   2330 44.99                              68   -0.0010 55.0 2414
 DLRM     P   0 ? 2330 36.60                              68    0.0110 55.9 2154
 DLRM     S   0   2330 45.25                              68    0.0010 55.9 2154
 N15      P   0 ? 2330 36.64                              68    0.0010 56.2 2514
 N15      S   0   2330 45.33                              68    0.0010 56.2 2514
 N6       S   0   2330 45.39                              68    0.0010 56.4 2474
 N2       S   0   2330 45.39                              68   -0.0010 56.4 2424
 N6       P   0 ? 2330 36.68                              68    0.0110 56.4 2474
 N2       P   0 ? 2330 36.68                              68    0.0110 56.4 2424
 N20      P   0 ? 2330 36.70                              68    0.0110 56.5 2574
 N20      S   0   2330 45.43                              68    0.0010 56.5 2574
 N1       P   0 ? 2330 36.73                              68   -0.0010 56.7 2404
 N1       S   0   2330 45.50                              68    0.0010 56.7 2404
 N5       P   0 ? 2330 36.74                              68   -0.0010 56.8 2424
 N5       S   0   2330 45.52                              68    0.0010 56.8 2424
 N10      P   0 ? 2330 36.85                              68    0.0110 57.4 2494
 N10      S   0   2330 45.70                              68   -0.0010 57.4 2494
 N18      P   0 ? 2330 36.91                              68    0.0110 57.8 2544
 N18      S   0   2330 45.81                              68   -0.0010 57.8 2544
 N14      P   0 ? 2330 36.93                              68    0.0110 57.9 2524
 N14      S   0   2330 45.85                              68    0.0010 57.9 2524
 N3       P   0 ? 2330 36.93                              68    0.0010 58.0 2424
 N3       S   0   2330 45.85                              68   -0.0010 58.0 2424
 N17      P   0 ? 2330 37.03                              68    0.0010 58.6 2554
 N17      S   0   2330 46.04                              68    0.0010 58.6 2554
 N4       P   0 ? 2330 37.06                              68    0.0010 58.8 2454
 N4       S   0   2330 46.09                              68    0.0010 58.8 2454
 N11      P   0 ? 2330 37.15                              68    0.0010 59.3 2514
 N11      S   0   2330 46.25                              68   -0.0010 59.3 2514
 N13      P   0 ? 2330 37.25                              68    0.0110 59.9 2514
 N13      S   0   2330 46.42                              68   -0.0010 59.9 2514
                                                                                
 2021  3 3 0020 41.8 L  28.828  50.856  7.5  SLT  6 0.0                        1
 GAP=257        0.22       1.9     1.4  1.3  0.1828E+01  0.9651E+00  0.1438E+01E
 STAT SP IPHASW D HRMN SECON CODA AMPLIT PERI AZIMU VELO AIN AR TRES W  DIS CAZ7
 N3       P   0 ? 0020 43.61                             159    0.0010 2.10  624
 N3       S   0   0020 45.08                             159   -0.0110 2.10  624
 N5       P   0 ? 0020 43.71                             147    0.0110 3.27  604
 N5       S   0   0020 45.26                             147   -0.0110 3.27  604
 N4       P   0 ? 0020 43.71                             147    0.0110 3.30 3574
 N4       S   0   0020 45.26                             147   -0.0110 3.30 3574
 N2       P   0 ? 0020 43.75                             143    0.0110 3.75  754
 N2       S   0   0020 45.33                             143   -0.0010 3.75  754
 N1       P   0 ? 0020 43.81                             139    0.0010 4.26  994
 N1       S   0   0020 45.44                             139   -0.0110 4.26  994
 CAMP     P   0 ? 0020 43.93                             130    0.0110 5.22  774
 CAMP     S   0   0020 45.66                             130    0.0010 5.22  774
                                                                                
