# EQEVENT: Label: SYNEQ_14 Loc: X 1.07 Y -1.66 Z 12.70 OT 1612788059.400000
P4        ?    ?    ?    P      ? 20210202 1611   02.174000 GAU 0.00e+00  0.00e+00  0.00e+00  0.00e+00  1.0000   
P3        ?    ?    ?    P      ? 20210202 1611   02.217700 GAU 0.00e+00  0.00e+00  0.00e+00  0.00e+00  1.0000   
P5        ?    ?    ?    P      ? 20210202 1611   02.489100 GAU 0.00e+00  0.00e+00  0.00e+00  0.00e+00  1.0000   
P2        ?    ?    ?    P      ? 20210202 1611   02.537600 GAU 0.00e+00  0.00e+00  0.00e+00  0.00e+00  1.0000   
TOLS      ?    ?    ?    P      ? 20210202 1611   02.781100 GAU 0.00e+00  0.00e+00  0.00e+00  0.00e+00  1.0000   
P1        ?    ?    ?    P      ? 20210202 1611   02.901400 GAU 0.00e+00  0.00e+00  0.00e+00  0.00e+00  1.0000   
N19       ?    ?    ?    P      ? 20210202 1611   03.368100 GAU 0.00e+00  0.00e+00  0.00e+00  0.00e+00  1.0000   
N9        ?    ?    ?    P      ? 20210202 1611   03.605000 GAU 0.00e+00  0.00e+00  0.00e+00  0.00e+00  1.0000   
SHIF      ?    ?    ?    P      ? 20210202 1611   03.710100 GAU 0.00e+00  0.00e+00  0.00e+00  0.00e+00  1.0000   
ABTL      ?    ?    ?    P      ? 20210202 1611   03.711500 GAU 0.00e+00  0.00e+00  0.00e+00  0.00e+00  1.0000   
N12       ?    ?    ?    P      ? 20210202 1611   03.665200 GAU 0.00e+00  0.00e+00  0.00e+00  0.00e+00  1.0000   
N15       ?    ?    ?    P      ? 20210202 1611   03.600600 GAU 0.00e+00  0.00e+00  0.00e+00  0.00e+00  1.0000   
N20       ?    ?    ?    P      ? 20210202 1611   03.761500 GAU 0.00e+00  0.00e+00  0.00e+00  0.00e+00  1.0000   
N6        ?    ?    ?    P      ? 20210202 1611   03.951000 GAU 0.00e+00  0.00e+00  0.00e+00  0.00e+00  1.0000   
N18       ?    ?    ?    P      ? 20210202 1611   03.970800 GAU 0.00e+00  0.00e+00  0.00e+00  0.00e+00  1.0000   
N14       ?    ?    ?    P      ? 20210202 1611   03.996700 GAU 0.00e+00  0.00e+00  0.00e+00  0.00e+00  1.0000   
CAMP      ?    ?    ?    P      ? 20210202 1611   03.999700 GAU 0.00e+00  0.00e+00  0.00e+00  0.00e+00  1.0000   
P9        ?    ?    ?    P      ? 20210202 1611   04.034300 GAU 0.00e+00  0.00e+00  0.00e+00  0.00e+00  1.0000   
N17       ?    ?    ?    P      ? 20210202 1611   04.005600 GAU 0.00e+00  0.00e+00  0.00e+00  0.00e+00  1.0000   
KHIA      ?    ?    ?    P      ? 20210202 1611   04.161600 GAU 0.00e+00  0.00e+00  0.00e+00  0.00e+00  1.0000   
N5        ?    ?    ?    P      ? 20210202 1611   04.117900 GAU 0.00e+00  0.00e+00  0.00e+00  0.00e+00  1.0000   
N11       ?    ?    ?    P      ? 20210202 1611   04.251300 GAU 0.00e+00  0.00e+00  0.00e+00  0.00e+00  1.0000   
N13       ?    ?    ?    P      ? 20210202 1611   04.289100 GAU 0.00e+00  0.00e+00  0.00e+00  0.00e+00  1.0000   
N4        ?    ?    ?    P      ? 20210202 1611   04.249400 GAU 0.00e+00  0.00e+00  0.00e+00  0.00e+00  1.0000   
NOKA      ?    ?    ?    P      ? 20210202 1611   04.610400 GAU 0.00e+00  0.00e+00  0.00e+00  0.00e+00  1.0000   
P4        ?    ?    ?    S      ? 20210202 1611   04.492400 GAU 0.00e+00  0.00e+00  0.00e+00  0.00e+00  1.0000   
P3        ?    ?    ?    S      ? 20210202 1611   04.597300 GAU 0.00e+00  0.00e+00  0.00e+00  0.00e+00  1.0000   
P5        ?    ?    ?    S      ? 20210202 1611   04.903000 GAU 0.00e+00  0.00e+00  0.00e+00  0.00e+00  1.0000   
P2        ?    ?    ?    S      ? 20210202 1611   05.069800 GAU 0.00e+00  0.00e+00  0.00e+00  0.00e+00  1.0000   
TOLS      ?    ?    ?    S      ? 20210202 1611   05.463600 GAU 0.00e+00  0.00e+00  0.00e+00  0.00e+00  1.0000   
P1        ?    ?    ?    S      ? 20210202 1611   05.711600 GAU 0.00e+00  0.00e+00  0.00e+00  0.00e+00  1.0000   
N19       ?    ?    ?    S      ? 20210202 1611   06.643500 GAU 0.00e+00  0.00e+00  0.00e+00  0.00e+00  1.0000   
N9        ?    ?    ?    S      ? 20210202 1611   06.891200 GAU 0.00e+00  0.00e+00  0.00e+00  0.00e+00  1.0000   
SHIF      ?    ?    ?    S      ? 20210202 1611   07.026300 GAU 0.00e+00  0.00e+00  0.00e+00  0.00e+00  1.0000   
ABTL      ?    ?    ?    S      ? 20210202 1611   07.016500 GAU 0.00e+00  0.00e+00  0.00e+00  0.00e+00  1.0000   
N12       ?    ?    ?    S      ? 20210202 1611   07.173800 GAU 0.00e+00  0.00e+00  0.00e+00  0.00e+00  1.0000   
N15       ?    ?    ?    S      ? 20210202 1611   07.200200 GAU 0.00e+00  0.00e+00  0.00e+00  0.00e+00  1.0000   
N20       ?    ?    ?    S      ? 20210202 1611   07.126000 GAU 0.00e+00  0.00e+00  0.00e+00  0.00e+00  1.0000   
N6        ?    ?    ?    S      ? 20210202 1611   07.528900 GAU 0.00e+00  0.00e+00  0.00e+00  0.00e+00  1.0000   
N18       ?    ?    ?    S      ? 20210202 1611   07.680000 GAU 0.00e+00  0.00e+00  0.00e+00  0.00e+00  1.0000   
N14       ?    ?    ?    S      ? 20210202 1611   07.480000 GAU 0.00e+00  0.00e+00  0.00e+00  0.00e+00  1.0000   
CAMP      ?    ?    ?    S      ? 20210202 1611   07.919400 GAU 0.00e+00  0.00e+00  0.00e+00  0.00e+00  1.0000   
N17       ?    ?    ?    S      ? 20210202 1611   07.752700 GAU 0.00e+00  0.00e+00  0.00e+00  0.00e+00  1.0000   
N5        ?    ?    ?    S      ? 20210202 1611   08.068100 GAU 0.00e+00  0.00e+00  0.00e+00  0.00e+00  1.0000   
N11       ?    ?    ?    S      ? 20210202 1611   08.034800 GAU 0.00e+00  0.00e+00  0.00e+00  0.00e+00  1.0000   
N13       ?    ?    ?    S      ? 20210202 1611   08.179600 GAU 0.00e+00  0.00e+00  0.00e+00  0.00e+00  1.0000   
N4        ?    ?    ?    S      ? 20210202 1611   08.248800 GAU 0.00e+00  0.00e+00  0.00e+00  0.00e+00  1.0000   
NOKA      ?    ?    ?    S      ? 20210202 1611   08.797300 GAU 0.00e+00  0.00e+00  0.00e+00  0.00e+00  1.0000   
# EQEVENT: Label: SYNEQ_15 Loc: X 0.39 Y -0.55 Z 14.50 OT 1612788096.300000
P2        ?    ?    ?    P      ? 20210202 1611   39.697700 GAU 0.00e+00  0.00e+00  0.00e+00  0.00e+00  1.0000   
TOLS      ?    ?    ?    P      ? 20210202 1611   39.921900 GAU 0.00e+00  0.00e+00  0.00e+00  0.00e+00  1.0000   
P1        ?    ?    ?    P      ? 20210202 1611   40.062200 GAU 0.00e+00  0.00e+00  0.00e+00  0.00e+00  1.0000   
N12       ?    ?    ?    P      ? 20210202 1611   40.667400 GAU 0.00e+00  0.00e+00  0.00e+00  0.00e+00  1.0000   
N15       ?    ?    ?    P      ? 20210202 1611   40.717200 GAU 0.00e+00  0.00e+00  0.00e+00  0.00e+00  1.0000   
N18       ?    ?    ?    P      ? 20210202 1611   40.863500 GAU 0.00e+00  0.00e+00  0.00e+00  0.00e+00  1.0000   
KHIA      ?    ?    ?    P      ? 20210202 1611   41.286200 GAU 0.00e+00  0.00e+00  0.00e+00  0.00e+00  1.0000   
P2        ?    ?    ?    S      ? 20210202 1611   42.511400 GAU 0.00e+00  0.00e+00  0.00e+00  0.00e+00  1.0000   
TOLS      ?    ?    ?    S      ? 20210202 1611   43.088500 GAU 0.00e+00  0.00e+00  0.00e+00  0.00e+00  1.0000   
P1        ?    ?    ?    S      ? 20210202 1611   43.137100 GAU 0.00e+00  0.00e+00  0.00e+00  0.00e+00  1.0000   
N12       ?    ?    ?    S      ? 20210202 1611   44.247700 GAU 0.00e+00  0.00e+00  0.00e+00  0.00e+00  1.0000   
N15       ?    ?    ?    S      ? 20210202 1611   44.146200 GAU 0.00e+00  0.00e+00  0.00e+00  0.00e+00  1.0000   
N18       ?    ?    ?    S      ? 20210202 1611   44.647300 GAU 0.00e+00  0.00e+00  0.00e+00  0.00e+00  1.0000   
KHIA      ?    ?    ?    S      ? 20210202 1611   45.448000 GAU 0.00e+00  0.00e+00  0.00e+00  0.00e+00  1.0000   
# EQEVENT: Label: SYNEQ_16 Loc: X 0.58 Y -0.55 Z 14.10 OT 1612788289.300000
P4        ?    ?    ?    P      ? 20210202 1614   52.348100 GAU 0.00e+00  0.00e+00  0.00e+00  0.00e+00  1.0000   
P3        ?    ?    ?    P      ? 20210202 1614   52.365900 GAU 0.00e+00  0.00e+00  0.00e+00  0.00e+00  1.0000   
P5        ?    ?    ?    P      ? 20210202 1614   52.633700 GAU 0.00e+00  0.00e+00  0.00e+00  0.00e+00  1.0000   
P2        ?    ?    ?    P      ? 20210202 1614   52.655500 GAU 0.00e+00  0.00e+00  0.00e+00  0.00e+00  1.0000   
TOLS      ?    ?    ?    P      ? 20210202 1614   52.904000 GAU 0.00e+00  0.00e+00  0.00e+00  0.00e+00  1.0000   
P1        ?    ?    ?    P      ? 20210202 1614   52.968100 GAU 0.00e+00  0.00e+00  0.00e+00  0.00e+00  1.0000   
N19       ?    ?    ?    P      ? 20210202 1614   53.361700 GAU 0.00e+00  0.00e+00  0.00e+00  0.00e+00  1.0000   
N16       ?    ?    ?    P      ? 20210202 1614   53.465900 GAU 0.00e+00  0.00e+00  0.00e+00  0.00e+00  1.0000   
ABTL      ?    ?    ?    P      ? 20210202 1614   53.670600 GAU 0.00e+00  0.00e+00  0.00e+00  0.00e+00  1.0000   
N9        ?    ?    ?    P      ? 20210202 1614   53.692200 GAU 0.00e+00  0.00e+00  0.00e+00  0.00e+00  1.0000   
N12       ?    ?    ?    P      ? 20210202 1614   53.683200 GAU 0.00e+00  0.00e+00  0.00e+00  0.00e+00  1.0000   
N20       ?    ?    ?    P      ? 20210202 1614   53.585300 GAU 0.00e+00  0.00e+00  0.00e+00  0.00e+00  1.0000   
N15       ?    ?    ?    P      ? 20210202 1614   53.723000 GAU 0.00e+00  0.00e+00  0.00e+00  0.00e+00  1.0000   
N18       ?    ?    ?    P      ? 20210202 1614   53.959200 GAU 0.00e+00  0.00e+00  0.00e+00  0.00e+00  1.0000   
N6        ?    ?    ?    P      ? 20210202 1614   53.970500 GAU 0.00e+00  0.00e+00  0.00e+00  0.00e+00  1.0000   
N14       ?    ?    ?    P      ? 20210202 1614   53.979000 GAU 0.00e+00  0.00e+00  0.00e+00  0.00e+00  1.0000   
N10       ?    ?    ?    P      ? 20210202 1614   53.943300 GAU 0.00e+00  0.00e+00  0.00e+00  0.00e+00  1.0000   
N17       ?    ?    ?    P      ? 20210202 1614   53.981700 GAU 0.00e+00  0.00e+00  0.00e+00  0.00e+00  1.0000   
P9        ?    ?    ?    P      ? 20210202 1614   54.043300 GAU 0.00e+00  0.00e+00  0.00e+00  0.00e+00  1.0000   
N7        ?    ?    ?    P      ? 20210202 1614   54.142700 GAU 0.00e+00  0.00e+00  0.00e+00  0.00e+00  1.0000   
CAMP      ?    ?    ?    P      ? 20210202 1614   54.051600 GAU 0.00e+00  0.00e+00  0.00e+00  0.00e+00  1.0000   
N11       ?    ?    ?    P      ? 20210202 1614   54.236400 GAU 0.00e+00  0.00e+00  0.00e+00  0.00e+00  1.0000   
N5        ?    ?    ?    P      ? 20210202 1614   54.248800 GAU 0.00e+00  0.00e+00  0.00e+00  0.00e+00  1.0000   
KHIA      ?    ?    ?    P      ? 20210202 1614   54.201700 GAU 0.00e+00  0.00e+00  0.00e+00  0.00e+00  1.0000   
N2        ?    ?    ?    P      ? 20210202 1614   54.301600 GAU 0.00e+00  0.00e+00  0.00e+00  0.00e+00  1.0000   
N4        ?    ?    ?    P      ? 20210202 1614   54.364600 GAU 0.00e+00  0.00e+00  0.00e+00  0.00e+00  1.0000   
P4        ?    ?    ?    S      ? 20210202 1614   54.860400 GAU 0.00e+00  0.00e+00  0.00e+00  0.00e+00  1.0000   
P3        ?    ?    ?    S      ? 20210202 1614   54.906700 GAU 0.00e+00  0.00e+00  0.00e+00  0.00e+00  1.0000   
P5        ?    ?    ?    S      ? 20210202 1614   55.226300 GAU 0.00e+00  0.00e+00  0.00e+00  0.00e+00  1.0000   
P2        ?    ?    ?    S      ? 20210202 1614   55.360300 GAU 0.00e+00  0.00e+00  0.00e+00  0.00e+00  1.0000   
TOLS      ?    ?    ?    S      ? 20210202 1614   55.725600 GAU 0.00e+00  0.00e+00  0.00e+00  0.00e+00  1.0000   
P1        ?    ?    ?    S      ? 20210202 1614   56.027500 GAU 0.00e+00  0.00e+00  0.00e+00  0.00e+00  1.0000   
N19       ?    ?    ?    S      ? 20210202 1614   56.602900 GAU 0.00e+00  0.00e+00  0.00e+00  0.00e+00  1.0000   
N16       ?    ?    ?    S      ? 20210202 1614   56.817700 GAU 0.00e+00  0.00e+00  0.00e+00  0.00e+00  1.0000   
N9        ?    ?    ?    S      ? 20210202 1614   57.061900 GAU 0.00e+00  0.00e+00  0.00e+00  0.00e+00  1.0000   
N12       ?    ?    ?    S      ? 20210202 1614   57.286600 GAU 0.00e+00  0.00e+00  0.00e+00  0.00e+00  1.0000   
N20       ?    ?    ?    S      ? 20210202 1614   57.252700 GAU 0.00e+00  0.00e+00  0.00e+00  0.00e+00  1.0000   
N15       ?    ?    ?    S      ? 20210202 1614   57.136700 GAU 0.00e+00  0.00e+00  0.00e+00  0.00e+00  1.0000   
N18       ?    ?    ?    S      ? 20210202 1614   57.624100 GAU 0.00e+00  0.00e+00  0.00e+00  0.00e+00  1.0000   
N6        ?    ?    ?    S      ? 20210202 1614   57.759800 GAU 0.00e+00  0.00e+00  0.00e+00  0.00e+00  1.0000   
N14       ?    ?    ?    S      ? 20210202 1614   57.528400 GAU 0.00e+00  0.00e+00  0.00e+00  0.00e+00  1.0000   
N10       ?    ?    ?    S      ? 20210202 1614   57.897700 GAU 0.00e+00  0.00e+00  0.00e+00  0.00e+00  1.0000   
N17       ?    ?    ?    S      ? 20210202 1614   57.745600 GAU 0.00e+00  0.00e+00  0.00e+00  0.00e+00  1.0000   
N7        ?    ?    ?    S      ? 20210202 1614   58.011100 GAU 0.00e+00  0.00e+00  0.00e+00  0.00e+00  1.0000   
CAMP      ?    ?    ?    S      ? 20210202 1614   57.954500 GAU 0.00e+00  0.00e+00  0.00e+00  0.00e+00  1.0000   
N11       ?    ?    ?    S      ? 20210202 1614   58.089200 GAU 0.00e+00  0.00e+00  0.00e+00  0.00e+00  1.0000   
N5        ?    ?    ?    S      ? 20210202 1614   58.209100 GAU 0.00e+00  0.00e+00  0.00e+00  0.00e+00  1.0000   
KHIA      ?    ?    ?    S      ? 20210202 1614   58.333100 GAU 0.00e+00  0.00e+00  0.00e+00  0.00e+00  1.0000   
N2        ?    ?    ?    S      ? 20210202 1614   58.411000 GAU 0.00e+00  0.00e+00  0.00e+00  0.00e+00  1.0000   
N4        ?    ?    ?    S      ? 20210202 1614   58.452400 GAU 0.00e+00  0.00e+00  0.00e+00  0.00e+00  1.0000   
# EQEVENT: Label: SYNEQ_17 Loc: X 1.07 Y -1.55 Z 13.20 OT 1612788308.000000
P4        ?    ?    ?    P      ? 20210202 1615   10.852400 GAU 0.00e+00  0.00e+00  0.00e+00  0.00e+00  1.0000   
TOLS      ?    ?    ?    P      ? 20210202 1615   11.384100 GAU 0.00e+00  0.00e+00  0.00e+00  0.00e+00  1.0000   
P1        ?    ?    ?    P      ? 20210202 1615   11.624800 GAU 0.00e+00  0.00e+00  0.00e+00  0.00e+00  1.0000   
ABTL      ?    ?    ?    P      ? 20210202 1615   12.246700 GAU 0.00e+00  0.00e+00  0.00e+00  0.00e+00  1.0000   
N12       ?    ?    ?    P      ? 20210202 1615   12.304300 GAU 0.00e+00  0.00e+00  0.00e+00  0.00e+00  1.0000   
P4        ?    ?    ?    S      ? 20210202 1615   13.148600 GAU 0.00e+00  0.00e+00  0.00e+00  0.00e+00  1.0000   
TOLS      ?    ?    ?    S      ? 20210202 1615   14.185100 GAU 0.00e+00  0.00e+00  0.00e+00  0.00e+00  1.0000   
P1        ?    ?    ?    S      ? 20210202 1615   14.529900 GAU 0.00e+00  0.00e+00  0.00e+00  0.00e+00  1.0000   
ABTL      ?    ?    ?    S      ? 20210202 1615   15.871000 GAU 0.00e+00  0.00e+00  0.00e+00  0.00e+00  1.0000   
N12       ?    ?    ?    S      ? 20210202 1615   15.872500 GAU 0.00e+00  0.00e+00  0.00e+00  0.00e+00  1.0000   
# EQEVENT: Label: SYNEQ_18 Loc: X 1.07 Y -1.44 Z 12.00 OT 1612788580.900000
P4        ?    ?    ?    P      ? 20210202 1619   43.577300 GAU 0.00e+00  0.00e+00  0.00e+00  0.00e+00  1.0000   
P5        ?    ?    ?    P      ? 20210202 1619   43.820500 GAU 0.00e+00  0.00e+00  0.00e+00  0.00e+00  1.0000   
TOLS      ?    ?    ?    P      ? 20210202 1619   44.242200 GAU 0.00e+00  0.00e+00  0.00e+00  0.00e+00  1.0000   
P1        ?    ?    ?    P      ? 20210202 1619   44.370400 GAU 0.00e+00  0.00e+00  0.00e+00  0.00e+00  1.0000   
N19       ?    ?    ?    P      ? 20210202 1619   44.855900 GAU 0.00e+00  0.00e+00  0.00e+00  0.00e+00  1.0000   
ABTL      ?    ?    ?    P      ? 20210202 1619   45.048500 GAU 0.00e+00  0.00e+00  0.00e+00  0.00e+00  1.0000   
N15       ?    ?    ?    P      ? 20210202 1619   45.161300 GAU 0.00e+00  0.00e+00  0.00e+00  0.00e+00  1.0000   
P9        ?    ?    ?    P      ? 20210202 1619   45.538200 GAU 0.00e+00  0.00e+00  0.00e+00  0.00e+00  1.0000   
KHIA      ?    ?    ?    P      ? 20210202 1619   45.719800 GAU 0.00e+00  0.00e+00  0.00e+00  0.00e+00  1.0000   
P4        ?    ?    ?    S      ? 20210202 1619   45.868100 GAU 0.00e+00  0.00e+00  0.00e+00  0.00e+00  1.0000   
TOLS      ?    ?    ?    S      ? 20210202 1619   46.896200 GAU 0.00e+00  0.00e+00  0.00e+00  0.00e+00  1.0000   
P1        ?    ?    ?    S      ? 20210202 1619   47.078400 GAU 0.00e+00  0.00e+00  0.00e+00  0.00e+00  1.0000   
N19       ?    ?    ?    S      ? 20210202 1619   48.078600 GAU 0.00e+00  0.00e+00  0.00e+00  0.00e+00  1.0000   
ABTL      ?    ?    ?    S      ? 20210202 1619   48.561500 GAU 0.00e+00  0.00e+00  0.00e+00  0.00e+00  1.0000   
N15       ?    ?    ?    S      ? 20210202 1619   48.709200 GAU 0.00e+00  0.00e+00  0.00e+00  0.00e+00  1.0000   
# EQEVENT: Label: SYNEQ_19 Loc: X 17.10 Y -32.79 Z 6.60 OT 1613134135.400000
KOLO      ?    ?    ?    P      ? 20210202 1618   57.629300 GAU 0.00e+00  0.00e+00  0.00e+00  0.00e+00  1.0000   
DLRM      ?    ?    ?    P      ? 20210202 1618   58.298500 GAU 0.00e+00  0.00e+00  0.00e+00  0.00e+00  1.0000   
JNAK      ?    ?    ?    P      ? 20210202 1618   58.937900 GAU 0.00e+00  0.00e+00  0.00e+00  0.00e+00  1.0000   
KHIA      ?    ?    ?    P      ? 20210202 1618   59.818300 GAU 0.00e+00  0.00e+00  0.00e+00  0.00e+00  1.0000   
AHRM      ?    ?    ?    P      ? 20210202 1619   00.285100 GAU 0.00e+00  0.00e+00  0.00e+00  0.00e+00  1.0000   
ABAS      ?    ?    ?    P      ? 20210202 1619   00.391700 GAU 0.00e+00  0.00e+00  0.00e+00  0.00e+00  1.0000   
KOLO      ?    ?    ?    S      ? 20210202 1618   59.445400 GAU 0.00e+00  0.00e+00  0.00e+00  0.00e+00  1.0000   
DLRM      ?    ?    ?    S      ? 20210202 1619   00.765900 GAU 0.00e+00  0.00e+00  0.00e+00  0.00e+00  1.0000   
JNAK      ?    ?    ?    S      ? 20210202 1619   01.895300 GAU 0.00e+00  0.00e+00  0.00e+00  0.00e+00  1.0000   
KHIA      ?    ?    ?    S      ? 20210202 1619   03.525200 GAU 0.00e+00  0.00e+00  0.00e+00  0.00e+00  1.0000   
