# EQEVENT: Label: SYNEQ_35 Loc: X 35.67 Y 26.98 Z 7.70 OT 1613894048.200000
ABAD      ?    ?    ?    P      ? 20210202 1124   13.878100 GAU 1.00e-01  0.00e+00  0.00e+00  0.00e+00  1.0000   
ABTL      ?    ?    ?    P      ? 20210202 1124   14.286300 GAU 1.00e-01  0.00e+00  0.00e+00  0.00e+00  1.0000   
P9        ?    ?    ?    P      ? 20210202 1124   14.742100 GAU 1.00e-01  0.00e+00  0.00e+00  0.00e+00  1.0000   
NOKA      ?    ?    ?    P      ? 20210202 1124   15.031200 GAU 1.00e-01  0.00e+00  0.00e+00  0.00e+00  1.0000   
TOLS      ?    ?    ?    P      ? 20210202 1124   15.961500 GAU 1.00e-01  0.00e+00  0.00e+00  0.00e+00  1.0000   
P5        ?    ?    ?    P      ? 20210202 1124   16.216600 GAU 1.00e-01  0.00e+00  0.00e+00  0.00e+00  1.0000   
KHIA      ?    ?    ?    P      ? 20210202 1124   17.186500 GAU 1.00e-01  0.00e+00  0.00e+00  0.00e+00  1.0000   
JNAK      ?    ?    ?    P      ? 20210202 1124   19.321800 GAU 1.00e-01  0.00e+00  0.00e+00  0.00e+00  1.0000   
ABAD      ?    ?    ?    S      ? 20210202 1124   18.955700 GAU 2.00e-01  0.00e+00  0.00e+00  0.00e+00  1.0000   
ABTL      ?    ?    ?    S      ? 20210202 1124   19.632100 GAU 2.00e-01  0.00e+00  0.00e+00  0.00e+00  1.0000   
P9        ?    ?    ?    S      ? 20210202 1124   19.928700 GAU 2.00e-01  0.00e+00  0.00e+00  0.00e+00  1.0000   
NOKA      ?    ?    ?    S      ? 20210202 1124   20.224900 GAU 2.00e-01  0.00e+00  0.00e+00  0.00e+00  1.0000   
TOLS      ?    ?    ?    S      ? 20210202 1124   22.292900 GAU 2.00e-01  0.00e+00  0.00e+00  0.00e+00  1.0000   
P5        ?    ?    ?    S      ? 20210202 1124   23.077500 GAU 2.00e-01  0.00e+00  0.00e+00  0.00e+00  1.0000   
KHIA      ?    ?    ?    S      ? 20210202 1124   24.693000 GAU 2.00e-01  0.00e+00  0.00e+00  0.00e+00  1.0000   
JNAK      ?    ?    ?    S      ? 20210202 1124   28.381300 GAU 2.00e-01  0.00e+00  0.00e+00  0.00e+00  1.0000   
# EQEVENT: Label: SYNEQ_36 Loc: X -19.98 Y -6.19 Z 8.10 OT 1613940345.000000
N17       ?    ?    ?    P      ? 20210202 0015   46.916700 GAU 1.00e-01  0.00e+00  0.00e+00  0.00e+00  1.0000   
N18       ?    ?    ?    P      ? 20210202 0015   46.960400 GAU 1.00e-01  0.00e+00  0.00e+00  0.00e+00  1.0000   
N20       ?    ?    ?    P      ? 20210202 0015   47.209800 GAU 1.00e-01  0.00e+00  0.00e+00  0.00e+00  1.0000   
N13       ?    ?    ?    P      ? 20210202 0015   47.108300 GAU 1.00e-01  0.00e+00  0.00e+00  0.00e+00  1.0000   
N14       ?    ?    ?    P      ? 20210202 0015   47.174100 GAU 1.00e-01  0.00e+00  0.00e+00  0.00e+00  1.0000   
N11       ?    ?    ?    P      ? 20210202 0015   47.170900 GAU 1.00e-01  0.00e+00  0.00e+00  0.00e+00  1.0000   
N15       ?    ?    ?    P      ? 20210202 0015   47.353300 GAU 1.00e-01  0.00e+00  0.00e+00  0.00e+00  1.0000   
N19       ?    ?    ?    P      ? 20210202 0015   47.471300 GAU 1.00e-01  0.00e+00  0.00e+00  0.00e+00  1.0000   
N16       ?    ?    ?    P      ? 20210202 0015   47.724100 GAU 1.00e-01  0.00e+00  0.00e+00  0.00e+00  1.0000   
N10       ?    ?    ?    P      ? 20210202 0015   47.705500 GAU 1.00e-01  0.00e+00  0.00e+00  0.00e+00  1.0000   
N7        ?    ?    ?    P      ? 20210202 0015   47.727100 GAU 1.00e-01  0.00e+00  0.00e+00  0.00e+00  1.0000   
N9        ?    ?    ?    P      ? 20210202 0015   47.709300 GAU 1.00e-01  0.00e+00  0.00e+00  0.00e+00  1.0000   
N6        ?    ?    ?    P      ? 20210202 0015   48.021200 GAU 1.00e-01  0.00e+00  0.00e+00  0.00e+00  1.0000   
N17       ?    ?    ?    S      ? 20210202 0015   48.781100 GAU 2.00e-01  0.00e+00  0.00e+00  0.00e+00  1.0000   
N18       ?    ?    ?    S      ? 20210202 0015   48.884700 GAU 2.00e-01  0.00e+00  0.00e+00  0.00e+00  1.0000   
N20       ?    ?    ?    S      ? 20210202 0015   49.016200 GAU 2.00e-01  0.00e+00  0.00e+00  0.00e+00  1.0000   
N13       ?    ?    ?    S      ? 20210202 0015   48.765900 GAU 2.00e-01  0.00e+00  0.00e+00  0.00e+00  1.0000   
N14       ?    ?    ?    S      ? 20210202 0015   48.849000 GAU 2.00e-01  0.00e+00  0.00e+00  0.00e+00  1.0000   
N11       ?    ?    ?    S      ? 20210202 0015   48.886800 GAU 2.00e-01  0.00e+00  0.00e+00  0.00e+00  1.0000   
N15       ?    ?    ?    S      ? 20210202 0015   49.490600 GAU 2.00e-01  0.00e+00  0.00e+00  0.00e+00  1.0000   
N19       ?    ?    ?    S      ? 20210202 0015   49.158200 GAU 2.00e-01  0.00e+00  0.00e+00  0.00e+00  1.0000   
N16       ?    ?    ?    S      ? 20210202 0015   49.753500 GAU 2.00e-01  0.00e+00  0.00e+00  0.00e+00  1.0000   
N10       ?    ?    ?    S      ? 20210202 0015   49.705200 GAU 2.00e-01  0.00e+00  0.00e+00  0.00e+00  1.0000   
N7        ?    ?    ?    S      ? 20210202 0015   49.693900 GAU 2.00e-01  0.00e+00  0.00e+00  0.00e+00  1.0000   
N9        ?    ?    ?    S      ? 20210202 0015   50.473200 GAU 2.00e-01  0.00e+00  0.00e+00  0.00e+00  1.0000   
N6        ?    ?    ?    S      ? 20210202 0015   50.517600 GAU 2.00e-01  0.00e+00  0.00e+00  0.00e+00  1.0000   
# EQEVENT: Label: SYNEQ_37 Loc: X 10.43 Y -8.64 Z 10.90 OT 1614015725.500000
TOLS      ?    ?    ?    P      ? 20210202 2112   08.183100 GAU 1.00e-01  0.00e+00  0.00e+00  0.00e+00  1.0000   
P5        ?    ?    ?    P      ? 20210202 2112   08.144100 GAU 1.00e-01  0.00e+00  0.00e+00  0.00e+00  1.0000   
P4        ?    ?    ?    P      ? 20210202 2112   08.404200 GAU 1.00e-01  0.00e+00  0.00e+00  0.00e+00  1.0000   
KHIA      ?    ?    ?    P      ? 20210202 2112   08.347600 GAU 1.00e-01  0.00e+00  0.00e+00  0.00e+00  1.0000   
P3        ?    ?    ?    P      ? 20210202 2112   09.123300 GAU 1.00e-01  0.00e+00  0.00e+00  0.00e+00  1.0000   
P9        ?    ?    ?    P      ? 20210202 2112   09.083800 GAU 1.00e-01  0.00e+00  0.00e+00  0.00e+00  1.0000   
JNAK      ?    ?    ?    P      ? 20210202 2112   09.425000 GAU 1.00e-01  0.00e+00  0.00e+00  0.00e+00  1.0000   
P2        ?    ?    ?    P      ? 20210202 2112   09.589300 GAU 1.00e-01  0.00e+00  0.00e+00  0.00e+00  1.0000   
ABAD      ?    ?    ?    P      ? 20210202 2112   10.177400 GAU 1.00e-01  0.00e+00  0.00e+00  0.00e+00  1.0000   
P1        ?    ?    ?    P      ? 20210202 2112   10.218000 GAU 1.00e-01  0.00e+00  0.00e+00  0.00e+00  1.0000   
ABTL      ?    ?    ?    P      ? 20210202 2112   10.215500 GAU 1.00e-01  0.00e+00  0.00e+00  0.00e+00  1.0000   
CAMP      ?    ?    ?    P      ? 20210202 2112   10.254900 GAU 1.00e-01  0.00e+00  0.00e+00  0.00e+00  1.0000   
N9        ?    ?    ?    P      ? 20210202 2112   10.618000 GAU 1.00e-01  0.00e+00  0.00e+00  0.00e+00  1.0000   
N2        ?    ?    ?    P      ? 20210202 2112   10.810300 GAU 1.00e-01  0.00e+00  0.00e+00  0.00e+00  1.0000   
N1        ?    ?    ?    P      ? 20210202 2112   10.811400 GAU 1.00e-01  0.00e+00  0.00e+00  0.00e+00  1.0000   
N16       ?    ?    ?    P      ? 20210202 2112   10.794900 GAU 1.00e-01  0.00e+00  0.00e+00  0.00e+00  1.0000   
N5        ?    ?    ?    P      ? 20210202 2112   10.705400 GAU 1.00e-01  0.00e+00  0.00e+00  0.00e+00  1.0000   
N6        ?    ?    ?    P      ? 20210202 2112   10.761900 GAU 1.00e-01  0.00e+00  0.00e+00  0.00e+00  1.0000   
N19       ?    ?    ?    P      ? 20210202 2112   10.731700 GAU 1.00e-01  0.00e+00  0.00e+00  0.00e+00  1.0000   
N15       ?    ?    ?    P      ? 20210202 2112   11.029500 GAU 1.00e-01  0.00e+00  0.00e+00  0.00e+00  1.0000   
N3        ?    ?    ?    P      ? 20210202 2112   10.829500 GAU 1.00e-01  0.00e+00  0.00e+00  0.00e+00  1.0000   
N10       ?    ?    ?    P      ? 20210202 2112   11.146400 GAU 1.00e-01  0.00e+00  0.00e+00  0.00e+00  1.0000   
N7        ?    ?    ?    P      ? 20210202 2112   11.112200 GAU 1.00e-01  0.00e+00  0.00e+00  0.00e+00  1.0000   
N4        ?    ?    ?    P      ? 20210202 2112   11.025400 GAU 1.00e-01  0.00e+00  0.00e+00  0.00e+00  1.0000   
KOLO      ?    ?    ?    P      ? 20210202 2112   11.334400 GAU 1.00e-01  0.00e+00  0.00e+00  0.00e+00  1.0000   
N14       ?    ?    ?    P      ? 20210202 2112   11.320200 GAU 1.00e-01  0.00e+00  0.00e+00  0.00e+00  1.0000   
N18       ?    ?    ?    P      ? 20210202 2112   11.344300 GAU 1.00e-01  0.00e+00  0.00e+00  0.00e+00  1.0000   
N20       ?    ?    ?    P      ? 20210202 2112   11.291800 GAU 1.00e-01  0.00e+00  0.00e+00  0.00e+00  1.0000   
N11       ?    ?    ?    P      ? 20210202 2112   11.351900 GAU 1.00e-01  0.00e+00  0.00e+00  0.00e+00  1.0000   
N17       ?    ?    ?    P      ? 20210202 2112   11.437600 GAU 1.00e-01  0.00e+00  0.00e+00  0.00e+00  1.0000   
SHIF      ?    ?    ?    P      ? 20210202 2112   11.377500 GAU 1.00e-01  0.00e+00  0.00e+00  0.00e+00  1.0000   
N13       ?    ?    ?    P      ? 20210202 2112   11.574700 GAU 1.00e-01  0.00e+00  0.00e+00  0.00e+00  1.0000   
NOKA      ?    ?    ?    P      ? 20210202 2112   11.739100 GAU 1.00e-01  0.00e+00  0.00e+00  0.00e+00  1.0000   
ABAS      ?    ?    ?    P      ? 20210202 2112   14.573700 GAU 1.00e-01  0.00e+00  0.00e+00  0.00e+00  1.0000   
TOLS      ?    ?    ?    S      ? 20210202 2112   10.199800 GAU 2.00e-01  0.00e+00  0.00e+00  0.00e+00  1.0000   
P5        ?    ?    ?    S      ? 20210202 2112   10.620400 GAU 2.00e-01  0.00e+00  0.00e+00  0.00e+00  1.0000   
P4        ?    ?    ?    S      ? 20210202 2112   10.662600 GAU 2.00e-01  0.00e+00  0.00e+00  0.00e+00  1.0000   
KHIA      ?    ?    ?    S      ? 20210202 2112   10.324200 GAU 2.00e-01  0.00e+00  0.00e+00  0.00e+00  1.0000   
P3        ?    ?    ?    S      ? 20210202 2112   12.047600 GAU 2.00e-01  0.00e+00  0.00e+00  0.00e+00  1.0000   
JNAK      ?    ?    ?    S      ? 20210202 2112   12.903400 GAU 2.00e-01  0.00e+00  0.00e+00  0.00e+00  1.0000   
P2        ?    ?    ?    S      ? 20210202 2112   12.317200 GAU 2.00e-01  0.00e+00  0.00e+00  0.00e+00  1.0000   
P1        ?    ?    ?    S      ? 20210202 2112   14.201100 GAU 2.00e-01  0.00e+00  0.00e+00  0.00e+00  1.0000   
CAMP      ?    ?    ?    S      ? 20210202 2112   14.295300 GAU 2.00e-01  0.00e+00  0.00e+00  0.00e+00  1.0000   
N9        ?    ?    ?    S      ? 20210202 2112   14.747700 GAU 2.00e-01  0.00e+00  0.00e+00  0.00e+00  1.0000   
N2        ?    ?    ?    S      ? 20210202 2112   14.719200 GAU 2.00e-01  0.00e+00  0.00e+00  0.00e+00  1.0000   
N1        ?    ?    ?    S      ? 20210202 2112   14.798800 GAU 2.00e-01  0.00e+00  0.00e+00  0.00e+00  1.0000   
N16       ?    ?    ?    S      ? 20210202 2112   14.856100 GAU 2.00e-01  0.00e+00  0.00e+00  0.00e+00  1.0000   
N5        ?    ?    ?    S      ? 20210202 2112   15.189200 GAU 2.00e-01  0.00e+00  0.00e+00  0.00e+00  1.0000   
N6        ?    ?    ?    S      ? 20210202 2112   15.506200 GAU 2.00e-01  0.00e+00  0.00e+00  0.00e+00  1.0000   
N19       ?    ?    ?    S      ? 20210202 2112   15.214400 GAU 2.00e-01  0.00e+00  0.00e+00  0.00e+00  1.0000   
N15       ?    ?    ?    S      ? 20210202 2112   15.507100 GAU 2.00e-01  0.00e+00  0.00e+00  0.00e+00  1.0000   
N3        ?    ?    ?    S      ? 20210202 2112   15.188600 GAU 2.00e-01  0.00e+00  0.00e+00  0.00e+00  1.0000   
N10       ?    ?    ?    S      ? 20210202 2112   15.754100 GAU 2.00e-01  0.00e+00  0.00e+00  0.00e+00  1.0000   
N7        ?    ?    ?    S      ? 20210202 2112   15.882800 GAU 2.00e-01  0.00e+00  0.00e+00  0.00e+00  1.0000   
N4        ?    ?    ?    S      ? 20210202 2112   15.617300 GAU 2.00e-01  0.00e+00  0.00e+00  0.00e+00  1.0000   
KOLO      ?    ?    ?    S      ? 20210202 2112   15.727400 GAU 2.00e-01  0.00e+00  0.00e+00  0.00e+00  1.0000   
N14       ?    ?    ?    S      ? 20210202 2112   15.857500 GAU 2.00e-01  0.00e+00  0.00e+00  0.00e+00  1.0000   
N18       ?    ?    ?    S      ? 20210202 2112   15.878500 GAU 2.00e-01  0.00e+00  0.00e+00  0.00e+00  1.0000   
N20       ?    ?    ?    S      ? 20210202 2112   15.861400 GAU 2.00e-01  0.00e+00  0.00e+00  0.00e+00  1.0000   
N11       ?    ?    ?    S      ? 20210202 2112   16.492800 GAU 2.00e-01  0.00e+00  0.00e+00  0.00e+00  1.0000   
N17       ?    ?    ?    S      ? 20210202 2112   16.481900 GAU 2.00e-01  0.00e+00  0.00e+00  0.00e+00  1.0000   
N13       ?    ?    ?    S      ? 20210202 2112   16.325500 GAU 2.00e-01  0.00e+00  0.00e+00  0.00e+00  1.0000   
# EQEVENT: Label: SYNEQ_38 Loc: X 10.33 Y -8.86 Z 11.00 OT 1614015744.000000
TOLS      ?    ?    ?    P      ? 20210202 2112   26.720800 GAU 1.00e-01  0.00e+00  0.00e+00  0.00e+00  1.0000   
P5        ?    ?    ?    P      ? 20210202 2112   26.676600 GAU 1.00e-01  0.00e+00  0.00e+00  0.00e+00  1.0000   
P4        ?    ?    ?    P      ? 20210202 2112   26.925600 GAU 1.00e-01  0.00e+00  0.00e+00  0.00e+00  1.0000   
KHIA      ?    ?    ?    P      ? 20210202 2112   26.851300 GAU 1.00e-01  0.00e+00  0.00e+00  0.00e+00  1.0000   
P3        ?    ?    ?    P      ? 20210202 2112   27.624300 GAU 1.00e-01  0.00e+00  0.00e+00  0.00e+00  1.0000   
P9        ?    ?    ?    P      ? 20210202 2112   27.626200 GAU 1.00e-01  0.00e+00  0.00e+00  0.00e+00  1.0000   
JNAK      ?    ?    ?    P      ? 20210202 2112   27.893200 GAU 1.00e-01  0.00e+00  0.00e+00  0.00e+00  1.0000   
P2        ?    ?    ?    P      ? 20210202 2112   28.083300 GAU 1.00e-01  0.00e+00  0.00e+00  0.00e+00  1.0000   
ABAD      ?    ?    ?    P      ? 20210202 2112   28.717200 GAU 1.00e-01  0.00e+00  0.00e+00  0.00e+00  1.0000   
P1        ?    ?    ?    P      ? 20210202 2112   28.708100 GAU 1.00e-01  0.00e+00  0.00e+00  0.00e+00  1.0000   
ABTL      ?    ?    ?    P      ? 20210202 2112   28.755600 GAU 1.00e-01  0.00e+00  0.00e+00  0.00e+00  1.0000   
CAMP      ?    ?    ?    P      ? 20210202 2112   28.727700 GAU 1.00e-01  0.00e+00  0.00e+00  0.00e+00  1.0000   
N9        ?    ?    ?    P      ? 20210202 2112   29.099400 GAU 1.00e-01  0.00e+00  0.00e+00  0.00e+00  1.0000   
N2        ?    ?    ?    P      ? 20210202 2112   29.282400 GAU 1.00e-01  0.00e+00  0.00e+00  0.00e+00  1.0000   
N1        ?    ?    ?    P      ? 20210202 2112   29.281400 GAU 1.00e-01  0.00e+00  0.00e+00  0.00e+00  1.0000   
N16       ?    ?    ?    P      ? 20210202 2112   29.281200 GAU 1.00e-01  0.00e+00  0.00e+00  0.00e+00  1.0000   
N5        ?    ?    ?    P      ? 20210202 2112   29.178200 GAU 1.00e-01  0.00e+00  0.00e+00  0.00e+00  1.0000   
N6        ?    ?    ?    P      ? 20210202 2112   29.239800 GAU 1.00e-01  0.00e+00  0.00e+00  0.00e+00  1.0000   
N19       ?    ?    ?    P      ? 20210202 2112   29.220600 GAU 1.00e-01  0.00e+00  0.00e+00  0.00e+00  1.0000   
N3        ?    ?    ?    P      ? 20210202 2112   29.502400 GAU 1.00e-01  0.00e+00  0.00e+00  0.00e+00  1.0000   
N15       ?    ?    ?    P      ? 20210202 2112   29.311100 GAU 1.00e-01  0.00e+00  0.00e+00  0.00e+00  1.0000   
N10       ?    ?    ?    P      ? 20210202 2112   29.625300 GAU 1.00e-01  0.00e+00  0.00e+00  0.00e+00  1.0000   
N7        ?    ?    ?    P      ? 20210202 2112   29.589400 GAU 1.00e-01  0.00e+00  0.00e+00  0.00e+00  1.0000   
N4        ?    ?    ?    P      ? 20210202 2112   29.498900 GAU 1.00e-01  0.00e+00  0.00e+00  0.00e+00  1.0000   
KOLO      ?    ?    ?    P      ? 20210202 2112   29.809300 GAU 1.00e-01  0.00e+00  0.00e+00  0.00e+00  1.0000   
N14       ?    ?    ?    P      ? 20210202 2112   29.801800 GAU 1.00e-01  0.00e+00  0.00e+00  0.00e+00  1.0000   
N18       ?    ?    ?    P      ? 20210202 2112   29.827600 GAU 1.00e-01  0.00e+00  0.00e+00  0.00e+00  1.0000   
N20       ?    ?    ?    P      ? 20210202 2112   29.780200 GAU 1.00e-01  0.00e+00  0.00e+00  0.00e+00  1.0000   
N11       ?    ?    ?    P      ? 20210202 2112   29.830300 GAU 1.00e-01  0.00e+00  0.00e+00  0.00e+00  1.0000   
N17       ?    ?    ?    P      ? 20210202 2112   29.920900 GAU 1.00e-01  0.00e+00  0.00e+00  0.00e+00  1.0000   
N13       ?    ?    ?    P      ? 20210202 2112   29.888800 GAU 1.00e-01  0.00e+00  0.00e+00  0.00e+00  1.0000   
SHIF      ?    ?    ?    P      ? 20210202 2112   30.046100 GAU 1.00e-01  0.00e+00  0.00e+00  0.00e+00  1.0000   
NOKA      ?    ?    ?    P      ? 20210202 2112   30.264800 GAU 1.00e-01  0.00e+00  0.00e+00  0.00e+00  1.0000   
ABAS      ?    ?    ?    P      ? 20210202 2112   33.040200 GAU 1.00e-01  0.00e+00  0.00e+00  0.00e+00  1.0000   
TOLS      ?    ?    ?    S      ? 20210202 2112   28.767900 GAU 2.00e-01  0.00e+00  0.00e+00  0.00e+00  1.0000   
P5        ?    ?    ?    S      ? 20210202 2112   29.179200 GAU 2.00e-01  0.00e+00  0.00e+00  0.00e+00  1.0000   
P4        ?    ?    ?    S      ? 20210202 2112   29.201100 GAU 2.00e-01  0.00e+00  0.00e+00  0.00e+00  1.0000   
KHIA      ?    ?    ?    S      ? 20210202 2112   28.830800 GAU 2.00e-01  0.00e+00  0.00e+00  0.00e+00  1.0000   
P3        ?    ?    ?    S      ? 20210202 2112   30.549300 GAU 2.00e-01  0.00e+00  0.00e+00  0.00e+00  1.0000   
JNAK      ?    ?    ?    S      ? 20210202 2112   31.345700 GAU 2.00e-01  0.00e+00  0.00e+00  0.00e+00  1.0000   
P2        ?    ?    ?    S      ? 20210202 2112   30.806400 GAU 2.00e-01  0.00e+00  0.00e+00  0.00e+00  1.0000   
P1        ?    ?    ?    S      ? 20210202 2112   32.683000 GAU 2.00e-01  0.00e+00  0.00e+00  0.00e+00  1.0000   
CAMP      ?    ?    ?    S      ? 20210202 2112   32.746100 GAU 2.00e-01  0.00e+00  0.00e+00  0.00e+00  1.0000   
N9        ?    ?    ?    S      ? 20210202 2112   33.214000 GAU 2.00e-01  0.00e+00  0.00e+00  0.00e+00  1.0000   
N2        ?    ?    ?    S      ? 20210202 2112   33.168600 GAU 2.00e-01  0.00e+00  0.00e+00  0.00e+00  1.0000   
N1        ?    ?    ?    S      ? 20210202 2112   33.244400 GAU 2.00e-01  0.00e+00  0.00e+00  0.00e+00  1.0000   
N16       ?    ?    ?    S      ? 20210202 2112   33.331300 GAU 2.00e-01  0.00e+00  0.00e+00  0.00e+00  1.0000   
N5        ?    ?    ?    S      ? 20210202 2112   33.639800 GAU 2.00e-01  0.00e+00  0.00e+00  0.00e+00  1.0000   
N6        ?    ?    ?    S      ? 20210202 2112   33.966000 GAU 2.00e-01  0.00e+00  0.00e+00  0.00e+00  1.0000   
N19       ?    ?    ?    S      ? 20210202 2112   33.694300 GAU 2.00e-01  0.00e+00  0.00e+00  0.00e+00  1.0000   
N15       ?    ?    ?    S      ? 20210202 2112   33.976600 GAU 2.00e-01  0.00e+00  0.00e+00  0.00e+00  1.0000   
N10       ?    ?    ?    S      ? 20210202 2112   33.822300 GAU 2.00e-01  0.00e+00  0.00e+00  0.00e+00  1.0000   
N7        ?    ?    ?    S      ? 20210202 2112   34.301700 GAU 2.00e-01  0.00e+00  0.00e+00  0.00e+00  1.0000   
N4        ?    ?    ?    S      ? 20210202 2112   34.415800 GAU 2.00e-01  0.00e+00  0.00e+00  0.00e+00  1.0000   
N14       ?    ?    ?    S      ? 20210202 2112   34.311500 GAU 2.00e-01  0.00e+00  0.00e+00  0.00e+00  1.0000   
N18       ?    ?    ?    S      ? 20210202 2112   34.369100 GAU 2.00e-01  0.00e+00  0.00e+00  0.00e+00  1.0000   
N20       ?    ?    ?    S      ? 20210202 2112   34.457300 GAU 2.00e-01  0.00e+00  0.00e+00  0.00e+00  1.0000   
N11       ?    ?    ?    S      ? 20210202 2112   34.502700 GAU 2.00e-01  0.00e+00  0.00e+00  0.00e+00  1.0000   
N17       ?    ?    ?    S      ? 20210202 2112   34.651200 GAU 2.00e-01  0.00e+00  0.00e+00  0.00e+00  1.0000   
N13       ?    ?    ?    S      ? 20210202 2112   35.172000 GAU 2.00e-01  0.00e+00  0.00e+00  0.00e+00  1.0000   
