# EQEVENT: Label: SYNEQ_14 Loc: X 1.07 Y -1.66 Z 12.70 OT 1612788059.400000
P4        ?    ?    ?    P      ? 20210202 1611   02.098800 GAU 1.00e-01  0.00e+00  0.00e+00  0.00e+00  1.0000   
P3        ?    ?    ?    P      ? 20210202 1611   02.112300 GAU 1.00e-01  0.00e+00  0.00e+00  0.00e+00  1.0000   
P5        ?    ?    ?    P      ? 20210202 1611   02.463000 GAU 1.00e-01  0.00e+00  0.00e+00  0.00e+00  1.0000   
P2        ?    ?    ?    P      ? 20210202 1611   02.457100 GAU 1.00e-01  0.00e+00  0.00e+00  0.00e+00  1.0000   
TOLS      ?    ?    ?    P      ? 20210202 1611   02.722700 GAU 1.00e-01  0.00e+00  0.00e+00  0.00e+00  1.0000   
P1        ?    ?    ?    P      ? 20210202 1611   02.803600 GAU 1.00e-01  0.00e+00  0.00e+00  0.00e+00  1.0000   
N19       ?    ?    ?    P      ? 20210202 1611   03.284000 GAU 1.00e-01  0.00e+00  0.00e+00  0.00e+00  1.0000   
N9        ?    ?    ?    P      ? 20210202 1611   03.560900 GAU 1.00e-01  0.00e+00  0.00e+00  0.00e+00  1.0000   
SHIF      ?    ?    ?    P      ? 20210202 1611   03.750700 GAU 1.00e-01  0.00e+00  0.00e+00  0.00e+00  1.0000   
ABTL      ?    ?    ?    P      ? 20210202 1611   03.709100 GAU 1.00e-01  0.00e+00  0.00e+00  0.00e+00  1.0000   
N12       ?    ?    ?    P      ? 20210202 1611   03.604900 GAU 1.00e-01  0.00e+00  0.00e+00  0.00e+00  1.0000   
N15       ?    ?    ?    P      ? 20210202 1611   03.434800 GAU 1.00e-01  0.00e+00  0.00e+00  0.00e+00  1.0000   
N20       ?    ?    ?    P      ? 20210202 1611   03.714400 GAU 1.00e-01  0.00e+00  0.00e+00  0.00e+00  1.0000   
N6        ?    ?    ?    P      ? 20210202 1611   03.949400 GAU 1.00e-01  0.00e+00  0.00e+00  0.00e+00  1.0000   
N18       ?    ?    ?    P      ? 20210202 1611   03.949600 GAU 1.00e-01  0.00e+00  0.00e+00  0.00e+00  1.0000   
N14       ?    ?    ?    P      ? 20210202 1611   03.968500 GAU 1.00e-01  0.00e+00  0.00e+00  0.00e+00  1.0000   
CAMP      ?    ?    ?    P      ? 20210202 1611   03.907100 GAU 1.00e-01  0.00e+00  0.00e+00  0.00e+00  1.0000   
P9        ?    ?    ?    P      ? 20210202 1611   03.953900 GAU 1.00e-01  0.00e+00  0.00e+00  0.00e+00  1.0000   
N17       ?    ?    ?    P      ? 20210202 1611   03.901400 GAU 1.00e-01  0.00e+00  0.00e+00  0.00e+00  1.0000   
KHIA      ?    ?    ?    P      ? 20210202 1611   04.139100 GAU 1.00e-01  0.00e+00  0.00e+00  0.00e+00  1.0000   
N5        ?    ?    ?    P      ? 20210202 1611   03.995900 GAU 1.00e-01  0.00e+00  0.00e+00  0.00e+00  1.0000   
N11       ?    ?    ?    P      ? 20210202 1611   04.240500 GAU 1.00e-01  0.00e+00  0.00e+00  0.00e+00  1.0000   
N13       ?    ?    ?    P      ? 20210202 1611   04.237700 GAU 1.00e-01  0.00e+00  0.00e+00  0.00e+00  1.0000   
N4        ?    ?    ?    P      ? 20210202 1611   04.132700 GAU 1.00e-01  0.00e+00  0.00e+00  0.00e+00  1.0000   
NOKA      ?    ?    ?    P      ? 20210202 1611   04.605000 GAU 1.00e-01  0.00e+00  0.00e+00  0.00e+00  1.0000   
P4        ?    ?    ?    S      ? 20210202 1611   04.407500 GAU 1.00e-01  0.00e+00  0.00e+00  0.00e+00  1.0000   
P3        ?    ?    ?    S      ? 20210202 1611   04.498900 GAU 1.00e-01  0.00e+00  0.00e+00  0.00e+00  1.0000   
P5        ?    ?    ?    S      ? 20210202 1611   04.785200 GAU 1.00e-01  0.00e+00  0.00e+00  0.00e+00  1.0000   
P2        ?    ?    ?    S      ? 20210202 1611   04.943500 GAU 1.00e-01  0.00e+00  0.00e+00  0.00e+00  1.0000   
TOLS      ?    ?    ?    S      ? 20210202 1611   05.332300 GAU 1.00e-01  0.00e+00  0.00e+00  0.00e+00  1.0000   
P1        ?    ?    ?    S      ? 20210202 1611   05.562600 GAU 1.00e-01  0.00e+00  0.00e+00  0.00e+00  1.0000   
N19       ?    ?    ?    S      ? 20210202 1611   06.541600 GAU 1.00e-01  0.00e+00  0.00e+00  0.00e+00  1.0000   
N9        ?    ?    ?    S      ? 20210202 1611   06.743800 GAU 1.00e-01  0.00e+00  0.00e+00  0.00e+00  1.0000   
SHIF      ?    ?    ?    S      ? 20210202 1611   06.921200 GAU 1.00e-01  0.00e+00  0.00e+00  0.00e+00  1.0000   
ABTL      ?    ?    ?    S      ? 20210202 1611   06.871900 GAU 1.00e-01  0.00e+00  0.00e+00  0.00e+00  1.0000   
N12       ?    ?    ?    S      ? 20210202 1611   07.088400 GAU 1.00e-01  0.00e+00  0.00e+00  0.00e+00  1.0000   
N15       ?    ?    ?    S      ? 20210202 1611   07.094400 GAU 1.00e-01  0.00e+00  0.00e+00  0.00e+00  1.0000   
N20       ?    ?    ?    S      ? 20210202 1611   06.956400 GAU 1.00e-01  0.00e+00  0.00e+00  0.00e+00  1.0000   
N6        ?    ?    ?    S      ? 20210202 1611   07.420600 GAU 1.00e-01  0.00e+00  0.00e+00  0.00e+00  1.0000   
N18       ?    ?    ?    S      ? 20210202 1611   07.606800 GAU 1.00e-01  0.00e+00  0.00e+00  0.00e+00  1.0000   
N14       ?    ?    ?    S      ? 20210202 1611   07.295500 GAU 1.00e-01  0.00e+00  0.00e+00  0.00e+00  1.0000   
CAMP      ?    ?    ?    S      ? 20210202 1611   07.872400 GAU 1.00e-01  0.00e+00  0.00e+00  0.00e+00  1.0000   
N17       ?    ?    ?    S      ? 20210202 1611   07.620900 GAU 1.00e-01  0.00e+00  0.00e+00  0.00e+00  1.0000   
N5        ?    ?    ?    S      ? 20210202 1611   07.971800 GAU 1.00e-01  0.00e+00  0.00e+00  0.00e+00  1.0000   
N11       ?    ?    ?    S      ? 20210202 1611   07.907200 GAU 1.00e-01  0.00e+00  0.00e+00  0.00e+00  1.0000   
N13       ?    ?    ?    S      ? 20210202 1611   08.054800 GAU 1.00e-01  0.00e+00  0.00e+00  0.00e+00  1.0000   
N4        ?    ?    ?    S      ? 20210202 1611   08.134500 GAU 1.00e-01  0.00e+00  0.00e+00  0.00e+00  1.0000   
NOKA      ?    ?    ?    S      ? 20210202 1611   08.729300 GAU 1.00e-01  0.00e+00  0.00e+00  0.00e+00  1.0000   
# EQEVENT: Label: SYNEQ_15 Loc: X 0.39 Y -0.55 Z 14.50 OT 1612788096.300000
P2        ?    ?    ?    P      ? 20210202 1611   39.635100 GAU 1.00e-01  0.00e+00  0.00e+00  0.00e+00  1.0000   
TOLS      ?    ?    ?    P      ? 20210202 1611   39.829800 GAU 1.00e-01  0.00e+00  0.00e+00  0.00e+00  1.0000   
P1        ?    ?    ?    P      ? 20210202 1611   40.051400 GAU 1.00e-01  0.00e+00  0.00e+00  0.00e+00  1.0000   
N12       ?    ?    ?    P      ? 20210202 1611   40.605900 GAU 1.00e-01  0.00e+00  0.00e+00  0.00e+00  1.0000   
N15       ?    ?    ?    P      ? 20210202 1611   40.679900 GAU 1.00e-01  0.00e+00  0.00e+00  0.00e+00  1.0000   
N18       ?    ?    ?    P      ? 20210202 1611   40.789200 GAU 1.00e-01  0.00e+00  0.00e+00  0.00e+00  1.0000   
KHIA      ?    ?    ?    P      ? 20210202 1611   41.230700 GAU 1.00e-01  0.00e+00  0.00e+00  0.00e+00  1.0000   
P2        ?    ?    ?    S      ? 20210202 1611   42.446800 GAU 1.00e-01  0.00e+00  0.00e+00  0.00e+00  1.0000   
TOLS      ?    ?    ?    S      ? 20210202 1611   43.074900 GAU 1.00e-01  0.00e+00  0.00e+00  0.00e+00  1.0000   
P1        ?    ?    ?    S      ? 20210202 1611   43.099200 GAU 1.00e-01  0.00e+00  0.00e+00  0.00e+00  1.0000   
N12       ?    ?    ?    S      ? 20210202 1611   44.181600 GAU 1.00e-01  0.00e+00  0.00e+00  0.00e+00  1.0000   
N15       ?    ?    ?    S      ? 20210202 1611   44.017000 GAU 1.00e-01  0.00e+00  0.00e+00  0.00e+00  1.0000   
N18       ?    ?    ?    S      ? 20210202 1611   44.593100 GAU 1.00e-01  0.00e+00  0.00e+00  0.00e+00  1.0000   
KHIA      ?    ?    ?    S      ? 20210202 1611   45.428600 GAU 1.00e-01  0.00e+00  0.00e+00  0.00e+00  1.0000   
# EQEVENT: Label: SYNEQ_16 Loc: X 0.58 Y -0.55 Z 14.10 OT 1612788289.300000
P4        ?    ?    ?    P      ? 20210202 1614   52.282600 GAU 1.00e-01  0.00e+00  0.00e+00  0.00e+00  1.0000   
P3        ?    ?    ?    P      ? 20210202 1614   52.270700 GAU 1.00e-01  0.00e+00  0.00e+00  0.00e+00  1.0000   
P5        ?    ?    ?    P      ? 20210202 1614   52.619000 GAU 1.00e-01  0.00e+00  0.00e+00  0.00e+00  1.0000   
P2        ?    ?    ?    P      ? 20210202 1614   52.587000 GAU 1.00e-01  0.00e+00  0.00e+00  0.00e+00  1.0000   
TOLS      ?    ?    ?    P      ? 20210202 1614   52.859300 GAU 1.00e-01  0.00e+00  0.00e+00  0.00e+00  1.0000   
P1        ?    ?    ?    P      ? 20210202 1614   52.884400 GAU 1.00e-01  0.00e+00  0.00e+00  0.00e+00  1.0000   
N19       ?    ?    ?    P      ? 20210202 1614   53.294200 GAU 1.00e-01  0.00e+00  0.00e+00  0.00e+00  1.0000   
N16       ?    ?    ?    P      ? 20210202 1614   53.438800 GAU 1.00e-01  0.00e+00  0.00e+00  0.00e+00  1.0000   
ABTL      ?    ?    ?    P      ? 20210202 1614   53.727700 GAU 1.00e-01  0.00e+00  0.00e+00  0.00e+00  1.0000   
N9        ?    ?    ?    P      ? 20210202 1614   53.708600 GAU 1.00e-01  0.00e+00  0.00e+00  0.00e+00  1.0000   
N12       ?    ?    ?    P      ? 20210202 1614   53.641000 GAU 1.00e-01  0.00e+00  0.00e+00  0.00e+00  1.0000   
N20       ?    ?    ?    P      ? 20210202 1614   53.437900 GAU 1.00e-01  0.00e+00  0.00e+00  0.00e+00  1.0000   
N15       ?    ?    ?    P      ? 20210202 1614   53.693700 GAU 1.00e-01  0.00e+00  0.00e+00  0.00e+00  1.0000   
N18       ?    ?    ?    P      ? 20210202 1614   53.977400 GAU 1.00e-01  0.00e+00  0.00e+00  0.00e+00  1.0000   
N6        ?    ?    ?    P      ? 20210202 1614   53.967900 GAU 1.00e-01  0.00e+00  0.00e+00  0.00e+00  1.0000   
N14       ?    ?    ?    P      ? 20210202 1614   53.969900 GAU 1.00e-01  0.00e+00  0.00e+00  0.00e+00  1.0000   
N10       ?    ?    ?    P      ? 20210202 1614   53.868900 GAU 1.00e-01  0.00e+00  0.00e+00  0.00e+00  1.0000   
N17       ?    ?    ?    P      ? 20210202 1614   53.920900 GAU 1.00e-01  0.00e+00  0.00e+00  0.00e+00  1.0000   
P9        ?    ?    ?    P      ? 20210202 1614   53.958200 GAU 1.00e-01  0.00e+00  0.00e+00  0.00e+00  1.0000   
N7        ?    ?    ?    P      ? 20210202 1614   54.139700 GAU 1.00e-01  0.00e+00  0.00e+00  0.00e+00  1.0000   
CAMP      ?    ?    ?    P      ? 20210202 1614   53.949000 GAU 1.00e-01  0.00e+00  0.00e+00  0.00e+00  1.0000   
N11       ?    ?    ?    P      ? 20210202 1614   54.244900 GAU 1.00e-01  0.00e+00  0.00e+00  0.00e+00  1.0000   
N5        ?    ?    ?    P      ? 20210202 1614   54.216400 GAU 1.00e-01  0.00e+00  0.00e+00  0.00e+00  1.0000   
KHIA      ?    ?    ?    P      ? 20210202 1614   54.102800 GAU 1.00e-01  0.00e+00  0.00e+00  0.00e+00  1.0000   
N2        ?    ?    ?    P      ? 20210202 1614   54.311800 GAU 1.00e-01  0.00e+00  0.00e+00  0.00e+00  1.0000   
N4        ?    ?    ?    P      ? 20210202 1614   54.352300 GAU 1.00e-01  0.00e+00  0.00e+00  0.00e+00  1.0000   
P4        ?    ?    ?    S      ? 20210202 1614   54.782200 GAU 1.00e-01  0.00e+00  0.00e+00  0.00e+00  1.0000   
P3        ?    ?    ?    S      ? 20210202 1614   54.811300 GAU 1.00e-01  0.00e+00  0.00e+00  0.00e+00  1.0000   
P5        ?    ?    ?    S      ? 20210202 1614   55.122200 GAU 1.00e-01  0.00e+00  0.00e+00  0.00e+00  1.0000   
P2        ?    ?    ?    S      ? 20210202 1614   55.255600 GAU 1.00e-01  0.00e+00  0.00e+00  0.00e+00  1.0000   
TOLS      ?    ?    ?    S      ? 20210202 1614   55.603200 GAU 1.00e-01  0.00e+00  0.00e+00  0.00e+00  1.0000   
P1        ?    ?    ?    S      ? 20210202 1614   55.954600 GAU 1.00e-01  0.00e+00  0.00e+00  0.00e+00  1.0000   
N19       ?    ?    ?    S      ? 20210202 1614   56.485500 GAU 1.00e-01  0.00e+00  0.00e+00  0.00e+00  1.0000   
N16       ?    ?    ?    S      ? 20210202 1614   56.744100 GAU 1.00e-01  0.00e+00  0.00e+00  0.00e+00  1.0000   
N9        ?    ?    ?    S      ? 20210202 1614   56.952600 GAU 1.00e-01  0.00e+00  0.00e+00  0.00e+00  1.0000   
N12       ?    ?    ?    S      ? 20210202 1614   57.235400 GAU 1.00e-01  0.00e+00  0.00e+00  0.00e+00  1.0000   
N20       ?    ?    ?    S      ? 20210202 1614   57.181700 GAU 1.00e-01  0.00e+00  0.00e+00  0.00e+00  1.0000   
N15       ?    ?    ?    S      ? 20210202 1614   57.000500 GAU 1.00e-01  0.00e+00  0.00e+00  0.00e+00  1.0000   
N18       ?    ?    ?    S      ? 20210202 1614   57.552900 GAU 1.00e-01  0.00e+00  0.00e+00  0.00e+00  1.0000   
N6        ?    ?    ?    S      ? 20210202 1614   57.721600 GAU 1.00e-01  0.00e+00  0.00e+00  0.00e+00  1.0000   
N14       ?    ?    ?    S      ? 20210202 1614   57.379700 GAU 1.00e-01  0.00e+00  0.00e+00  0.00e+00  1.0000   
N10       ?    ?    ?    S      ? 20210202 1614   57.884900 GAU 1.00e-01  0.00e+00  0.00e+00  0.00e+00  1.0000   
N17       ?    ?    ?    S      ? 20210202 1614   57.649300 GAU 1.00e-01  0.00e+00  0.00e+00  0.00e+00  1.0000   
N7        ?    ?    ?    S      ? 20210202 1614   57.948900 GAU 1.00e-01  0.00e+00  0.00e+00  0.00e+00  1.0000   
CAMP      ?    ?    ?    S      ? 20210202 1614   57.862700 GAU 1.00e-01  0.00e+00  0.00e+00  0.00e+00  1.0000   
N11       ?    ?    ?    S      ? 20210202 1614   57.998600 GAU 1.00e-01  0.00e+00  0.00e+00  0.00e+00  1.0000   
N5        ?    ?    ?    S      ? 20210202 1614   58.129300 GAU 1.00e-01  0.00e+00  0.00e+00  0.00e+00  1.0000   
KHIA      ?    ?    ?    S      ? 20210202 1614   58.290900 GAU 1.00e-01  0.00e+00  0.00e+00  0.00e+00  1.0000   
N2        ?    ?    ?    S      ? 20210202 1614   58.410900 GAU 1.00e-01  0.00e+00  0.00e+00  0.00e+00  1.0000   
N4        ?    ?    ?    S      ? 20210202 1614   58.404600 GAU 1.00e-01  0.00e+00  0.00e+00  0.00e+00  1.0000   
# EQEVENT: Label: SYNEQ_17 Loc: X 1.07 Y -1.55 Z 13.20 OT 1612788308.000000
P4        ?    ?    ?    P      ? 20210202 1615   10.780900 GAU 1.00e-01  0.00e+00  0.00e+00  0.00e+00  1.0000   
TOLS      ?    ?    ?    P      ? 20210202 1615   11.279900 GAU 1.00e-01  0.00e+00  0.00e+00  0.00e+00  1.0000   
P1        ?    ?    ?    P      ? 20210202 1615   11.601400 GAU 1.00e-01  0.00e+00  0.00e+00  0.00e+00  1.0000   
ABTL      ?    ?    ?    P      ? 20210202 1615   12.169200 GAU 1.00e-01  0.00e+00  0.00e+00  0.00e+00  1.0000   
N12       ?    ?    ?    P      ? 20210202 1615   12.251800 GAU 1.00e-01  0.00e+00  0.00e+00  0.00e+00  1.0000   
P4        ?    ?    ?    S      ? 20210202 1615   13.033800 GAU 1.00e-01  0.00e+00  0.00e+00  0.00e+00  1.0000   
TOLS      ?    ?    ?    S      ? 20210202 1615   14.074100 GAU 1.00e-01  0.00e+00  0.00e+00  0.00e+00  1.0000   
P1        ?    ?    ?    S      ? 20210202 1615   14.442500 GAU 1.00e-01  0.00e+00  0.00e+00  0.00e+00  1.0000   
ABTL      ?    ?    ?    S      ? 20210202 1615   15.835100 GAU 1.00e-01  0.00e+00  0.00e+00  0.00e+00  1.0000   
N12       ?    ?    ?    S      ? 20210202 1615   15.813200 GAU 1.00e-01  0.00e+00  0.00e+00  0.00e+00  1.0000   
# EQEVENT: Label: SYNEQ_18 Loc: X 1.07 Y -1.44 Z 12.00 OT 1612788580.900000
P4        ?    ?    ?    P      ? 20210202 1619   43.496800 GAU 1.00e-01  0.00e+00  0.00e+00  0.00e+00  1.0000   
P5        ?    ?    ?    P      ? 20210202 1619   43.707400 GAU 1.00e-01  0.00e+00  0.00e+00  0.00e+00  1.0000   
TOLS      ?    ?    ?    P      ? 20210202 1619   44.206100 GAU 1.00e-01  0.00e+00  0.00e+00  0.00e+00  1.0000   
P1        ?    ?    ?    P      ? 20210202 1619   44.279500 GAU 1.00e-01  0.00e+00  0.00e+00  0.00e+00  1.0000   
N19       ?    ?    ?    P      ? 20210202 1619   44.785900 GAU 1.00e-01  0.00e+00  0.00e+00  0.00e+00  1.0000   
ABTL      ?    ?    ?    P      ? 20210202 1619   44.938300 GAU 1.00e-01  0.00e+00  0.00e+00  0.00e+00  1.0000   
N15       ?    ?    ?    P      ? 20210202 1619   45.066700 GAU 1.00e-01  0.00e+00  0.00e+00  0.00e+00  1.0000   
P9        ?    ?    ?    P      ? 20210202 1619   45.484500 GAU 1.00e-01  0.00e+00  0.00e+00  0.00e+00  1.0000   
KHIA      ?    ?    ?    P      ? 20210202 1619   45.751400 GAU 1.00e-01  0.00e+00  0.00e+00  0.00e+00  1.0000   
P4        ?    ?    ?    S      ? 20210202 1619   45.794600 GAU 1.00e-01  0.00e+00  0.00e+00  0.00e+00  1.0000   
TOLS      ?    ?    ?    S      ? 20210202 1619   46.774900 GAU 1.00e-01  0.00e+00  0.00e+00  0.00e+00  1.0000   
P1        ?    ?    ?    S      ? 20210202 1619   46.892500 GAU 1.00e-01  0.00e+00  0.00e+00  0.00e+00  1.0000   
N19       ?    ?    ?    S      ? 20210202 1619   47.958200 GAU 1.00e-01  0.00e+00  0.00e+00  0.00e+00  1.0000   
ABTL      ?    ?    ?    S      ? 20210202 1619   48.466800 GAU 1.00e-01  0.00e+00  0.00e+00  0.00e+00  1.0000   
N15       ?    ?    ?    S      ? 20210202 1619   48.603300 GAU 1.00e-01  0.00e+00  0.00e+00  0.00e+00  1.0000   
# EQEVENT: Label: SYNEQ_19 Loc: X 17.10 Y -32.79 Z 6.60 OT 1613134135.400000
KOLO      ?    ?    ?    P      ? 20210202 1618   57.545100 GAU 1.00e-01  0.00e+00  0.00e+00  0.00e+00  1.0000   
DLRM      ?    ?    ?    P      ? 20210202 1618   58.172200 GAU 1.00e-01  0.00e+00  0.00e+00  0.00e+00  1.0000   
JNAK      ?    ?    ?    P      ? 20210202 1618   58.879000 GAU 1.00e-01  0.00e+00  0.00e+00  0.00e+00  1.0000   
KHIA      ?    ?    ?    P      ? 20210202 1618   59.697100 GAU 1.00e-01  0.00e+00  0.00e+00  0.00e+00  1.0000   
AHRM      ?    ?    ?    P      ? 20210202 1619   00.187400 GAU 1.00e-01  0.00e+00  0.00e+00  0.00e+00  1.0000   
ABAS      ?    ?    ?    P      ? 20210202 1619   00.255400 GAU 1.00e-01  0.00e+00  0.00e+00  0.00e+00  1.0000   
KOLO      ?    ?    ?    S      ? 20210202 1618   59.313400 GAU 1.00e-01  0.00e+00  0.00e+00  0.00e+00  1.0000   
DLRM      ?    ?    ?    S      ? 20210202 1619   00.634200 GAU 1.00e-01  0.00e+00  0.00e+00  0.00e+00  1.0000   
JNAK      ?    ?    ?    S      ? 20210202 1619   01.789800 GAU 1.00e-01  0.00e+00  0.00e+00  0.00e+00  1.0000   
KHIA      ?    ?    ?    S      ? 20210202 1619   03.381100 GAU 1.00e-01  0.00e+00  0.00e+00  0.00e+00  1.0000   
