# EQEVENT: Label: SYNEQ_27 Loc: X 10.75 Y -39.67 Z 10.80 OT 1613601780.100000
DLRM      ?    ?    ?    P      ? 20210202 0213   02.607700 GAU 0.00e+00  0.00e+00  0.00e+00  0.00e+00  1.0000   
KOLO      ?    ?    ?    P      ? 20210202 0213   04.062900 GAU 0.00e+00  0.00e+00  0.00e+00  0.00e+00  1.0000   
JNAK      ?    ?    ?    P      ? 20210202 0213   04.251700 GAU 0.00e+00  0.00e+00  0.00e+00  0.00e+00  1.0000   
ABAS      ?    ?    ?    P      ? 20210202 0213   05.064700 GAU 0.00e+00  0.00e+00  0.00e+00  0.00e+00  1.0000   
KHIA      ?    ?    ?    P      ? 20210202 0213   05.842000 GAU 0.00e+00  0.00e+00  0.00e+00  0.00e+00  1.0000   
AHRM      ?    ?    ?    P      ? 20210202 0213   06.557100 GAU 0.00e+00  0.00e+00  0.00e+00  0.00e+00  1.0000   
P4        ?    ?    ?    P      ? 20210202 0213   07.508300 GAU 0.00e+00  0.00e+00  0.00e+00  0.00e+00  1.0000   
N14       ?    ?    ?    P      ? 20210202 0213   08.191300 GAU 0.00e+00  0.00e+00  0.00e+00  0.00e+00  1.0000   
N19       ?    ?    ?    P      ? 20210202 0213   08.279400 GAU 0.00e+00  0.00e+00  0.00e+00  0.00e+00  1.0000   
DLRM      ?    ?    ?    S      ? 20210202 0213   04.641500 GAU 0.00e+00  0.00e+00  0.00e+00  0.00e+00  1.0000   
KOLO      ?    ?    ?    S      ? 20210202 0213   07.275200 GAU 0.00e+00  0.00e+00  0.00e+00  0.00e+00  1.0000   
JNAK      ?    ?    ?    S      ? 20210202 0213   07.616700 GAU 0.00e+00  0.00e+00  0.00e+00  0.00e+00  1.0000   
ABAS      ?    ?    ?    S      ? 20210202 0213   09.086400 GAU 0.00e+00  0.00e+00  0.00e+00  0.00e+00  1.0000   
KHIA      ?    ?    ?    S      ? 20210202 0213   10.491600 GAU 0.00e+00  0.00e+00  0.00e+00  0.00e+00  1.0000   
# EQEVENT: Label: SYNEQ_28 Loc: X 36.45 Y 27.21 Z 8.20 OT 1613644205.600000
ABAD      ?    ?    ?    P      ? 20210202 1400   11.422800 GAU 0.00e+00  0.00e+00  0.00e+00  0.00e+00  1.0000   
ABTL      ?    ?    ?    P      ? 20210202 1400   11.929500 GAU 0.00e+00  0.00e+00  0.00e+00  0.00e+00  1.0000   
P9        ?    ?    ?    P      ? 20210202 1400   12.191700 GAU 0.00e+00  0.00e+00  0.00e+00  0.00e+00  1.0000   
NOKA      ?    ?    ?    P      ? 20210202 1400   12.625300 GAU 0.00e+00  0.00e+00  0.00e+00  0.00e+00  1.0000   
AHRM      ?    ?    ?    P      ? 20210202 1400   14.210100 GAU 0.00e+00  0.00e+00  0.00e+00  0.00e+00  1.0000   
P4        ?    ?    ?    P      ? 20210202 1400   14.410600 GAU 0.00e+00  0.00e+00  0.00e+00  0.00e+00  1.0000   
KHIA      ?    ?    ?    P      ? 20210202 1400   14.707400 GAU 0.00e+00  0.00e+00  0.00e+00  0.00e+00  1.0000   
JNAK      ?    ?    ?    P      ? 20210202 1400   16.751100 GAU 0.00e+00  0.00e+00  0.00e+00  0.00e+00  1.0000   
ABAD      ?    ?    ?    S      ? 20210202 1400   16.139100 GAU 0.00e+00  0.00e+00  0.00e+00  0.00e+00  1.0000   
ABTL      ?    ?    ?    S      ? 20210202 1400   17.055200 GAU 0.00e+00  0.00e+00  0.00e+00  0.00e+00  1.0000   
P9        ?    ?    ?    S      ? 20210202 1400   17.529300 GAU 0.00e+00  0.00e+00  0.00e+00  0.00e+00  1.0000   
NOKA      ?    ?    ?    S      ? 20210202 1400   18.313300 GAU 0.00e+00  0.00e+00  0.00e+00  0.00e+00  1.0000   
P4        ?    ?    ?    S      ? 20210202 1400   21.539600 GAU 0.00e+00  0.00e+00  0.00e+00  0.00e+00  1.0000   
KHIA      ?    ?    ?    S      ? 20210202 1400   22.075800 GAU 0.00e+00  0.00e+00  0.00e+00  0.00e+00  1.0000   
JNAK      ?    ?    ?    S      ? 20210202 1400   25.769400 GAU 0.00e+00  0.00e+00  0.00e+00  0.00e+00  1.0000   
# EQEVENT: Label: SYNEQ_29 Loc: X 36.93 Y 27.10 Z 8.10 OT 1613660668.800000
ABAD      ?    ?    ?    P      ? 20210202 1834   34.642200 GAU 0.00e+00  0.00e+00  0.00e+00  0.00e+00  1.0000   
ABTL      ?    ?    ?    P      ? 20210202 1834   35.188800 GAU 0.00e+00  0.00e+00  0.00e+00  0.00e+00  1.0000   
P9        ?    ?    ?    P      ? 20210202 1834   35.418500 GAU 0.00e+00  0.00e+00  0.00e+00  0.00e+00  1.0000   
NOKA      ?    ?    ?    P      ? 20210202 1834   35.902800 GAU 0.00e+00  0.00e+00  0.00e+00  0.00e+00  1.0000   
TOLS      ?    ?    ?    P      ? 20210202 1834   36.720300 GAU 0.00e+00  0.00e+00  0.00e+00  0.00e+00  1.0000   
P4        ?    ?    ?    P      ? 20210202 1834   37.661200 GAU 0.00e+00  0.00e+00  0.00e+00  0.00e+00  1.0000   
KHIA      ?    ?    ?    P      ? 20210202 1834   37.932700 GAU 0.00e+00  0.00e+00  0.00e+00  0.00e+00  1.0000   
DLRM      ?    ?    ?    P      ? 20210202 1834   41.891000 GAU 0.00e+00  0.00e+00  0.00e+00  0.00e+00  1.0000   
ABAD      ?    ?    ?    S      ? 20210202 1834   39.374200 GAU 0.00e+00  0.00e+00  0.00e+00  0.00e+00  1.0000   
ABTL      ?    ?    ?    S      ? 20210202 1834   40.362400 GAU 0.00e+00  0.00e+00  0.00e+00  0.00e+00  1.0000   
P9        ?    ?    ?    S      ? 20210202 1834   40.777800 GAU 0.00e+00  0.00e+00  0.00e+00  0.00e+00  1.0000   
NOKA      ?    ?    ?    S      ? 20210202 1834   41.653500 GAU 0.00e+00  0.00e+00  0.00e+00  0.00e+00  1.0000   
TOLS      ?    ?    ?    S      ? 20210202 1834   43.131400 GAU 0.00e+00  0.00e+00  0.00e+00  0.00e+00  1.0000   
P4        ?    ?    ?    S      ? 20210202 1834   44.831200 GAU 0.00e+00  0.00e+00  0.00e+00  0.00e+00  1.0000   
KHIA      ?    ?    ?    S      ? 20210202 1834   45.321500 GAU 0.00e+00  0.00e+00  0.00e+00  0.00e+00  1.0000   
DLRM      ?    ?    ?    S      ? 20210202 1834   52.475900 GAU 0.00e+00  0.00e+00  0.00e+00  0.00e+00  1.0000   
# EQEVENT: Label: SYNEQ_30 Loc: X 36.45 Y 27.10 Z 8.80 OT 1613676103.600000
ABAD      ?    ?    ?    P      ? 20210202 2251   49.418600 GAU 0.00e+00  0.00e+00  0.00e+00  0.00e+00  1.0000   
ABTL      ?    ?    ?    P      ? 20210202 2251   49.930800 GAU 0.00e+00  0.00e+00  0.00e+00  0.00e+00  1.0000   
P9        ?    ?    ?    P      ? 20210202 2251   50.186300 GAU 0.00e+00  0.00e+00  0.00e+00  0.00e+00  1.0000   
NOKA      ?    ?    ?    P      ? 20210202 2251   50.631700 GAU 0.00e+00  0.00e+00  0.00e+00  0.00e+00  1.0000   
TOLS      ?    ?    ?    P      ? 20210202 2251   51.464100 GAU 0.00e+00  0.00e+00  0.00e+00  0.00e+00  1.0000   
P5        ?    ?    ?    P      ? 20210202 2251   51.787200 GAU 0.00e+00  0.00e+00  0.00e+00  0.00e+00  1.0000   
KHIA      ?    ?    ?    P      ? 20210202 2251   52.656400 GAU 0.00e+00  0.00e+00  0.00e+00  0.00e+00  1.0000   
ABAD      ?    ?    ?    S      ? 20210202 2251   54.131400 GAU 0.00e+00  0.00e+00  0.00e+00  0.00e+00  1.0000   
ABTL      ?    ?    ?    S      ? 20210202 2251   55.057500 GAU 0.00e+00  0.00e+00  0.00e+00  0.00e+00  1.0000   
P9        ?    ?    ?    S      ? 20210202 2251   55.519600 GAU 0.00e+00  0.00e+00  0.00e+00  0.00e+00  1.0000   
NOKA      ?    ?    ?    S      ? 20210202 2251   56.324900 GAU 0.00e+00  0.00e+00  0.00e+00  0.00e+00  1.0000   
TOLS      ?    ?    ?    S      ? 20210202 2251   57.828800 GAU 0.00e+00  0.00e+00  0.00e+00  0.00e+00  1.0000   
P5        ?    ?    ?    S      ? 20210202 2251   58.412400 GAU 0.00e+00  0.00e+00  0.00e+00  0.00e+00  1.0000   
KHIA      ?    ?    ?    S      ? 20210202 2251   59.983100 GAU 0.00e+00  0.00e+00  0.00e+00  0.00e+00  1.0000   
# EQEVENT: Label: SYNEQ_31 Loc: X 37.03 Y 27.77 Z 9.20 OT 1613689425.000000
ABAD      ?    ?    ?    P      ? 20210202 0233   50.976500 GAU 0.00e+00  0.00e+00  0.00e+00  0.00e+00  1.0000   
ABTL      ?    ?    ?    P      ? 20210202 0233   51.484300 GAU 0.00e+00  0.00e+00  0.00e+00  0.00e+00  1.0000   
P9        ?    ?    ?    P      ? 20210202 0233   51.741300 GAU 0.00e+00  0.00e+00  0.00e+00  0.00e+00  1.0000   
NOKA      ?    ?    ?    P      ? 20210202 0233   52.151900 GAU 0.00e+00  0.00e+00  0.00e+00  0.00e+00  1.0000   
TOLS      ?    ?    ?    P      ? 20210202 0233   52.997800 GAU 0.00e+00  0.00e+00  0.00e+00  0.00e+00  1.0000   
P5        ?    ?    ?    P      ? 20210202 0233   53.314500 GAU 0.00e+00  0.00e+00  0.00e+00  0.00e+00  1.0000   
P4        ?    ?    ?    P      ? 20210202 0233   53.887100 GAU 0.00e+00  0.00e+00  0.00e+00  0.00e+00  1.0000   
KHIA      ?    ?    ?    P      ? 20210202 0233   54.170000 GAU 0.00e+00  0.00e+00  0.00e+00  0.00e+00  1.0000   
P3        ?    ?    ?    P      ? 20210202 0233   54.953900 GAU 0.00e+00  0.00e+00  0.00e+00  0.00e+00  1.0000   
ABAD      ?    ?    ?    S      ? 20210202 0233   55.816900 GAU 0.00e+00  0.00e+00  0.00e+00  0.00e+00  1.0000   
ABTL      ?    ?    ?    S      ? 20210202 0233   56.734900 GAU 0.00e+00  0.00e+00  0.00e+00  0.00e+00  1.0000   
P9        ?    ?    ?    S      ? 20210202 0233   57.199500 GAU 0.00e+00  0.00e+00  0.00e+00  0.00e+00  1.0000   
NOKA      ?    ?    ?    S      ? 20210202 0233   57.941700 GAU 0.00e+00  0.00e+00  0.00e+00  0.00e+00  1.0000   
TOLS      ?    ?    ?    S      ? 20210202 0233   59.469700 GAU 0.00e+00  0.00e+00  0.00e+00  0.00e+00  1.0000   
P5        ?    ?    ?    S      ? 20210202 0234   00.041800 GAU 0.00e+00  0.00e+00  0.00e+00  0.00e+00  1.0000   
P4        ?    ?    ?    S      ? 20210202 0234   01.076700 GAU 0.00e+00  0.00e+00  0.00e+00  0.00e+00  1.0000   
KHIA      ?    ?    ?    S      ? 20210202 0234   01.588100 GAU 0.00e+00  0.00e+00  0.00e+00  0.00e+00  1.0000   
# EQEVENT: Label: SYNEQ_32 Loc: X 35.86 Y 27.98 Z 8.40 OT 1613793296.900000
ABAD      ?    ?    ?    P      ? 20210202 0725   02.803900 GAU 0.00e+00  0.00e+00  0.00e+00  0.00e+00  1.0000   
ABTL      ?    ?    ?    P      ? 20210202 0725   03.222700 GAU 0.00e+00  0.00e+00  0.00e+00  0.00e+00  1.0000   
P9        ?    ?    ?    P      ? 20210202 0725   03.558700 GAU 0.00e+00  0.00e+00  0.00e+00  0.00e+00  1.0000   
NOKA      ?    ?    ?    P      ? 20210202 0725   03.857300 GAU 0.00e+00  0.00e+00  0.00e+00  0.00e+00  1.0000   
KHIA      ?    ?    ?    P      ? 20210202 0725   06.068300 GAU 0.00e+00  0.00e+00  0.00e+00  0.00e+00  1.0000   
JNAK      ?    ?    ?    P      ? 20210202 0725   08.100100 GAU 0.00e+00  0.00e+00  0.00e+00  0.00e+00  1.0000   
ABAD      ?    ?    ?    S      ? 20210202 0725   07.585700 GAU 0.00e+00  0.00e+00  0.00e+00  0.00e+00  1.0000   
ABTL      ?    ?    ?    S      ? 20210202 0725   08.343000 GAU 0.00e+00  0.00e+00  0.00e+00  0.00e+00  1.0000   
P9        ?    ?    ?    S      ? 20210202 0725   08.950400 GAU 0.00e+00  0.00e+00  0.00e+00  0.00e+00  1.0000   
NOKA      ?    ?    ?    S      ? 20210202 0725   09.490300 GAU 0.00e+00  0.00e+00  0.00e+00  0.00e+00  1.0000   
KHIA      ?    ?    ?    S      ? 20210202 0725   13.485600 GAU 0.00e+00  0.00e+00  0.00e+00  0.00e+00  1.0000   
JNAK      ?    ?    ?    S      ? 20210202 0725   17.157900 GAU 0.00e+00  0.00e+00  0.00e+00  0.00e+00  1.0000   
# EQEVENT: Label: SYNEQ_33 Loc: X 33.03 Y -1.61 Z 5.80 OT 1613856606.000000
ABAD      ?    ?    ?    P      ? 20210202 0100   08.800300 GAU 0.00e+00  0.00e+00  0.00e+00  0.00e+00  1.0000   
P9        ?    ?    ?    P      ? 20210202 0100   09.449500 GAU 0.00e+00  0.00e+00  0.00e+00  0.00e+00  1.0000   
AHRM      ?    ?    ?    P      ? 20210202 0100   09.643900 GAU 0.00e+00  0.00e+00  0.00e+00  0.00e+00  1.0000   
ABTL      ?    ?    ?    P      ? 20210202 0100   11.639400 GAU 0.00e+00  0.00e+00  0.00e+00  0.00e+00  1.0000   
P9        ?    ?    ?    S      ? 20210202 0100   12.252000 GAU 0.00e+00  0.00e+00  0.00e+00  0.00e+00  1.0000   
AHRM      ?    ?    ?    S      ? 20210202 0100   12.604300 GAU 0.00e+00  0.00e+00  0.00e+00  0.00e+00  1.0000   
ABTL      ?    ?    ?    S      ? 20210202 0100   16.209900 GAU 0.00e+00  0.00e+00  0.00e+00  0.00e+00  1.0000   
# EQEVENT: Label: SYNEQ_34 Loc: X 37.72 Y 25.33 Z 8.70 OT 1613893976.600000
ABAD      ?    ?    ?    P      ? 20210202 1123   02.254500 GAU 0.00e+00  0.00e+00  0.00e+00  0.00e+00  1.0000   
ABTL      ?    ?    ?    P      ? 20210202 1123   02.964000 GAU 0.00e+00  0.00e+00  0.00e+00  0.00e+00  1.0000   
P9        ?    ?    ?    P      ? 20210202 1123   03.050900 GAU 0.00e+00  0.00e+00  0.00e+00  0.00e+00  1.0000   
NOKA      ?    ?    ?    P      ? 20210202 1123   03.796700 GAU 0.00e+00  0.00e+00  0.00e+00  0.00e+00  1.0000   
TOLS      ?    ?    ?    P      ? 20210202 1123   04.386000 GAU 0.00e+00  0.00e+00  0.00e+00  0.00e+00  1.0000   
P5        ?    ?    ?    P      ? 20210202 1123   04.730900 GAU 0.00e+00  0.00e+00  0.00e+00  0.00e+00  1.0000   
P4        ?    ?    ?    P      ? 20210202 1123   05.328700 GAU 0.00e+00  0.00e+00  0.00e+00  0.00e+00  1.0000   
KHIA      ?    ?    ?    P      ? 20210202 1123   05.501900 GAU 0.00e+00  0.00e+00  0.00e+00  0.00e+00  1.0000   
P3        ?    ?    ?    P      ? 20210202 1123   06.425000 GAU 0.00e+00  0.00e+00  0.00e+00  0.00e+00  1.0000   
SHIF      ?    ?    ?    P      ? 20210202 1123   06.807500 GAU 0.00e+00  0.00e+00  0.00e+00  0.00e+00  1.0000   
P2        ?    ?    ?    P      ? 20210202 1123   06.962100 GAU 0.00e+00  0.00e+00  0.00e+00  0.00e+00  1.0000   
JNAK      ?    ?    ?    P      ? 20210202 1123   07.564200 GAU 0.00e+00  0.00e+00  0.00e+00  0.00e+00  1.0000   
KOLO      ?    ?    ?    P      ? 20210202 1123   07.684700 GAU 0.00e+00  0.00e+00  0.00e+00  0.00e+00  1.0000   
N19       ?    ?    ?    P      ? 20210202 1123   07.883000 GAU 0.00e+00  0.00e+00  0.00e+00  0.00e+00  1.0000   
N16       ?    ?    ?    P      ? 20210202 1123   07.997900 GAU 0.00e+00  0.00e+00  0.00e+00  0.00e+00  1.0000   
N9        ?    ?    ?    P      ? 20210202 1123   08.198300 GAU 0.00e+00  0.00e+00  0.00e+00  0.00e+00  1.0000   
N15       ?    ?    ?    P      ? 20210202 1123   08.294000 GAU 0.00e+00  0.00e+00  0.00e+00  0.00e+00  1.0000   
N18       ?    ?    ?    P      ? 20210202 1123   08.455800 GAU 0.00e+00  0.00e+00  0.00e+00  0.00e+00  1.0000   
N6        ?    ?    ?    P      ? 20210202 1123   08.512300 GAU 0.00e+00  0.00e+00  0.00e+00  0.00e+00  1.0000   
CAMP      ?    ?    ?    P      ? 20210202 1123   08.510900 GAU 0.00e+00  0.00e+00  0.00e+00  0.00e+00  1.0000   
N17       ?    ?    ?    P      ? 20210202 1123   08.529900 GAU 0.00e+00  0.00e+00  0.00e+00  0.00e+00  1.0000   
N14       ?    ?    ?    P      ? 20210202 1123   08.538600 GAU 0.00e+00  0.00e+00  0.00e+00  0.00e+00  1.0000   
N10       ?    ?    ?    P      ? 20210202 1123   08.590100 GAU 0.00e+00  0.00e+00  0.00e+00  0.00e+00  1.0000   
N2        ?    ?    ?    P      ? 20210202 1123   08.706600 GAU 0.00e+00  0.00e+00  0.00e+00  0.00e+00  1.0000   
N7        ?    ?    ?    P      ? 20210202 1123   08.721800 GAU 0.00e+00  0.00e+00  0.00e+00  0.00e+00  1.0000   
N5        ?    ?    ?    P      ? 20210202 1123   08.736600 GAU 0.00e+00  0.00e+00  0.00e+00  0.00e+00  1.0000   
N11       ?    ?    ?    P      ? 20210202 1123   08.811600 GAU 0.00e+00  0.00e+00  0.00e+00  0.00e+00  1.0000   
N1        ?    ?    ?    P      ? 20210202 1123   08.826100 GAU 0.00e+00  0.00e+00  0.00e+00  0.00e+00  1.0000   
N13       ?    ?    ?    P      ? 20210202 1123   08.877300 GAU 0.00e+00  0.00e+00  0.00e+00  0.00e+00  1.0000   
N3        ?    ?    ?    P      ? 20210202 1123   08.923000 GAU 0.00e+00  0.00e+00  0.00e+00  0.00e+00  1.0000   
N4        ?    ?    ?    P      ? 20210202 1123   08.937900 GAU 0.00e+00  0.00e+00  0.00e+00  0.00e+00  1.0000   
DLRM      ?    ?    ?    P      ? 20210202 1123   09.447300 GAU 0.00e+00  0.00e+00  0.00e+00  0.00e+00  1.0000   
ABAS      ?    ?    ?    P      ? 20210202 1123   10.800500 GAU 0.00e+00  0.00e+00  0.00e+00  0.00e+00  1.0000   
ABAD      ?    ?    ?    S      ? 20210202 1123   06.834700 GAU 0.00e+00  0.00e+00  0.00e+00  0.00e+00  1.0000   
ABTL      ?    ?    ?    S      ? 20210202 1123   08.117600 GAU 0.00e+00  0.00e+00  0.00e+00  0.00e+00  1.0000   
P9        ?    ?    ?    S      ? 20210202 1123   08.274700 GAU 0.00e+00  0.00e+00  0.00e+00  0.00e+00  1.0000   
NOKA      ?    ?    ?    S      ? 20210202 1123   09.623100 GAU 0.00e+00  0.00e+00  0.00e+00  0.00e+00  1.0000   
TOLS      ?    ?    ?    S      ? 20210202 1123   10.687900 GAU 0.00e+00  0.00e+00  0.00e+00  0.00e+00  1.0000   
P5        ?    ?    ?    S      ? 20210202 1123   11.310900 GAU 0.00e+00  0.00e+00  0.00e+00  0.00e+00  1.0000   
P4        ?    ?    ?    S      ? 20210202 1123   12.391100 GAU 0.00e+00  0.00e+00  0.00e+00  0.00e+00  1.0000   
KHIA      ?    ?    ?    S      ? 20210202 1123   12.704000 GAU 0.00e+00  0.00e+00  0.00e+00  0.00e+00  1.0000   
P3        ?    ?    ?    S      ? 20210202 1123   14.372200 GAU 0.00e+00  0.00e+00  0.00e+00  0.00e+00  1.0000   
SHIF      ?    ?    ?    S      ? 20210202 1123   15.063600 GAU 0.00e+00  0.00e+00  0.00e+00  0.00e+00  1.0000   
P2        ?    ?    ?    S      ? 20210202 1123   15.343000 GAU 0.00e+00  0.00e+00  0.00e+00  0.00e+00  1.0000   
JNAK      ?    ?    ?    S      ? 20210202 1123   16.431300 GAU 0.00e+00  0.00e+00  0.00e+00  0.00e+00  1.0000   
N19       ?    ?    ?    S      ? 20210202 1123   17.007700 GAU 0.00e+00  0.00e+00  0.00e+00  0.00e+00  1.0000   
N16       ?    ?    ?    S      ? 20210202 1123   17.215400 GAU 0.00e+00  0.00e+00  0.00e+00  0.00e+00  1.0000   
N9        ?    ?    ?    S      ? 20210202 1123   17.577600 GAU 0.00e+00  0.00e+00  0.00e+00  0.00e+00  1.0000   
N15       ?    ?    ?    S      ? 20210202 1123   17.750600 GAU 0.00e+00  0.00e+00  0.00e+00  0.00e+00  1.0000   
N18       ?    ?    ?    S      ? 20210202 1123   18.043100 GAU 0.00e+00  0.00e+00  0.00e+00  0.00e+00  1.0000   
CAMP      ?    ?    ?    S      ? 20210202 1123   18.142600 GAU 0.00e+00  0.00e+00  0.00e+00  0.00e+00  1.0000   
N17       ?    ?    ?    S      ? 20210202 1123   18.176900 GAU 0.00e+00  0.00e+00  0.00e+00  0.00e+00  1.0000   
N14       ?    ?    ?    S      ? 20210202 1123   18.192600 GAU 0.00e+00  0.00e+00  0.00e+00  0.00e+00  1.0000   
N10       ?    ?    ?    S      ? 20210202 1123   18.285900 GAU 0.00e+00  0.00e+00  0.00e+00  0.00e+00  1.0000   
N2        ?    ?    ?    S      ? 20210202 1123   18.496200 GAU 0.00e+00  0.00e+00  0.00e+00  0.00e+00  1.0000   
N7        ?    ?    ?    S      ? 20210202 1123   18.523900 GAU 0.00e+00  0.00e+00  0.00e+00  0.00e+00  1.0000   
N5        ?    ?    ?    S      ? 20210202 1123   18.550600 GAU 0.00e+00  0.00e+00  0.00e+00  0.00e+00  1.0000   
N11       ?    ?    ?    S      ? 20210202 1123   18.686100 GAU 0.00e+00  0.00e+00  0.00e+00  0.00e+00  1.0000   
N1        ?    ?    ?    S      ? 20210202 1123   18.712400 GAU 0.00e+00  0.00e+00  0.00e+00  0.00e+00  1.0000   
N13       ?    ?    ?    S      ? 20210202 1123   18.805000 GAU 0.00e+00  0.00e+00  0.00e+00  0.00e+00  1.0000   
N3        ?    ?    ?    S      ? 20210202 1123   18.887500 GAU 0.00e+00  0.00e+00  0.00e+00  0.00e+00  1.0000   
N4        ?    ?    ?    S      ? 20210202 1123   18.914400 GAU 0.00e+00  0.00e+00  0.00e+00  0.00e+00  1.0000   
DLRM      ?    ?    ?    S      ? 20210202 1123   19.835300 GAU 0.00e+00  0.00e+00  0.00e+00  0.00e+00  1.0000   
