# EQEVENT:  Label: SYNEQ_0  Loc:  X -5.17  Y -3.43  Z 14.00  OT 0.00
P2           ?    ?    ? P      ? 19000101 0000    2.9435 GAU  0.00e+00  0.00e+00  0.00e+00  0.00e+00    1.0000
P1           ?    ?    ? P      ? 19000101 0000    3.0362 GAU  0.00e+00  0.00e+00  0.00e+00  0.00e+00    1.0000
P3           ?    ?    ? P      ? 19000101 0000    2.9888 GAU  0.00e+00  0.00e+00  0.00e+00  0.00e+00    1.0000
N19          ?    ?    ? P      ? 19000101 0000    3.2896 GAU  0.00e+00  0.00e+00  0.00e+00  0.00e+00    1.0000
N16          ?    ?    ? P      ? 19000101 0000    3.3533 GAU  0.00e+00  0.00e+00  0.00e+00  0.00e+00    1.0000
N9           ?    ?    ? P      ? 19000101 0000    3.4894 GAU  0.00e+00  0.00e+00  0.00e+00  0.00e+00    1.0000
N20          ?    ?    ? P      ? 19000101 0000    3.5478 GAU  0.00e+00  0.00e+00  0.00e+00  0.00e+00    1.0000
N14          ?    ?    ? P      ? 19000101 0000    3.7541 GAU  0.00e+00  0.00e+00  0.00e+00  0.00e+00    1.0000
N17          ?    ?    ? P      ? 19000101 0000    3.8983 GAU  0.00e+00  0.00e+00  0.00e+00  0.00e+00    1.0000
N6           ?    ?    ? P      ? 19000101 0000    3.8442 GAU  0.00e+00  0.00e+00  0.00e+00  0.00e+00    1.0000
N7           ?    ?    ? P      ? 19000101 0000    3.9082 GAU  0.00e+00  0.00e+00  0.00e+00  0.00e+00    1.0000
N13          ?    ?    ? P      ? 19000101 0000    3.9065 GAU  0.00e+00  0.00e+00  0.00e+00  0.00e+00    1.0000
CAMP         ?    ?    ? P      ? 19000101 0000    4.1110 GAU  0.00e+00  0.00e+00  0.00e+00  0.00e+00    1.0000
N4           ?    ?    ? P      ? 19000101 0000    4.2129 GAU  0.00e+00  0.00e+00  0.00e+00  0.00e+00    1.0000
NOKA         ?    ?    ? P      ? 19000101 0000    5.7411 GAU  0.00e+00  0.00e+00  0.00e+00  0.00e+00    1.0000
N15          ?    ?    ? P      ? 19000101 0000    3.5786 GAU  0.00e+00  0.00e+00  0.00e+00  0.00e+00    1.0000
N11          ?    ?    ? P      ? 19000101 0000    3.9167 GAU  0.00e+00  0.00e+00  0.00e+00  0.00e+00    1.0000
N18          ?    ?    ? P      ? 19000101 0000    3.6793 GAU  0.00e+00  0.00e+00  0.00e+00  0.00e+00    1.0000
P2           ?    ?    ? S      ? 19000101 0000    5.3020 GAU  0.00e+00  0.00e+00  0.00e+00  0.00e+00    1.0000
P1           ?    ?    ? S      ? 19000101 0000    5.6380 GAU  0.00e+00  0.00e+00  0.00e+00  0.00e+00    1.0000
P3           ?    ?    ? S      ? 19000101 0000    5.2647 GAU  0.00e+00  0.00e+00  0.00e+00  0.00e+00    1.0000
N19          ?    ?    ? S      ? 19000101 0000    6.0621 GAU  0.00e+00  0.00e+00  0.00e+00  0.00e+00    1.0000
N16          ?    ?    ? S      ? 19000101 0000    6.0752 GAU  0.00e+00  0.00e+00  0.00e+00  0.00e+00    1.0000
N9           ?    ?    ? S      ? 19000101 0000    6.3000 GAU  0.00e+00  0.00e+00  0.00e+00  0.00e+00    1.0000
N20          ?    ?    ? S      ? 19000101 0000    6.5287 GAU  0.00e+00  0.00e+00  0.00e+00  0.00e+00    1.0000
N18          ?    ?    ? S      ? 19000101 0000    6.7320 GAU  0.00e+00  0.00e+00  0.00e+00  0.00e+00    1.0000
N14          ?    ?    ? S      ? 19000101 0000    6.7709 GAU  0.00e+00  0.00e+00  0.00e+00  0.00e+00    1.0000
N17          ?    ?    ? S      ? 19000101 0000    6.8397 GAU  0.00e+00  0.00e+00  0.00e+00  0.00e+00    1.0000
N6           ?    ?    ? S      ? 19000101 0000    6.7991 GAU  0.00e+00  0.00e+00  0.00e+00  0.00e+00    1.0000
N7           ?    ?    ? S      ? 19000101 0000    7.0182 GAU  0.00e+00  0.00e+00  0.00e+00  0.00e+00    1.0000
N13          ?    ?    ? S      ? 19000101 0000    7.1655 GAU  0.00e+00  0.00e+00  0.00e+00  0.00e+00    1.0000
CAMP         ?    ?    ? S      ? 19000101 0000    7.4362 GAU  0.00e+00  0.00e+00  0.00e+00  0.00e+00    1.0000
N4           ?    ?    ? S      ? 19000101 0000    7.4290 GAU  0.00e+00  0.00e+00  0.00e+00  0.00e+00    1.0000
N11          ?    ?    ? S      ? 19000101 0000    7.1592 GAU  0.00e+00  0.00e+00  0.00e+00  0.00e+00    1.0000
N15          ?    ?    ? S      ? 19000101 0000    6.3403 GAU  0.00e+00  0.00e+00  0.00e+00  0.00e+00    1.0000
TOLS         ?    ?    ? P      ? 19000101 0000    4.3862 GAU  0.00e+00  0.00e+00  0.00e+00  0.00e+00    1.0000
P4           ?    ?    ? P      ? 19000101 0000    3.4780 GAU  0.00e+00  0.00e+00  0.00e+00  0.00e+00    1.0000
JNAK         ?    ?    ? P      ? 19000101 0000    5.3035 GAU  0.00e+00  0.00e+00  0.00e+00  0.00e+00    1.0000
NOKA         ?    ?    ? P      ? 19000101 0000    5.7008 GAU  0.00e+00  0.00e+00  0.00e+00  0.00e+00    1.0000
P9           ?    ?    ? P      ? 19000101 0000    5.7689 GAU  0.00e+00  0.00e+00  0.00e+00  0.00e+00    1.0000
ABAD         ?    ?    ? P      ? 19000101 0000    6.3470 GAU  0.00e+00  0.00e+00  0.00e+00  0.00e+00    1.0000
KHIA         ?    ?    ? P      ? 19000101 0000    5.5472 GAU  0.00e+00  0.00e+00  0.00e+00  0.00e+00    1.0000
P4           ?    ?    ? S      ? 19000101 0000    6.2223 GAU  0.00e+00  0.00e+00  0.00e+00  0.00e+00    1.0000
JNAK         ?    ?    ? S      ? 19000101 0000    9.7976 GAU  0.00e+00  0.00e+00  0.00e+00  0.00e+00    1.0000
NOKA         ?    ?    ? S      ? 19000101 0000   10.2578 GAU  0.00e+00  0.00e+00  0.00e+00  0.00e+00    1.0000
KHIA         ?    ?    ? S      ? 19000101 0000    9.8079 GAU  0.00e+00  0.00e+00  0.00e+00  0.00e+00    1.0000
ABAD         ?    ?    ? S      ? 19000101 0000   11.6828 GAU  0.00e+00  0.00e+00  0.00e+00  0.00e+00    1.0000
TOLS         ?    ?    ? S      ? 19000101 0000    7.9215 GAU  0.00e+00  0.00e+00  0.00e+00  0.00e+00    1.0000
P9           ?    ?    ? S      ? 19000101 0000   10.4848 GAU  0.00e+00  0.00e+00  0.00e+00  0.00e+00    1.0000
#
# EQEVENT:  Label: SYNEQ_1  Loc:  X 43.62  Y 5.73  Z 10.00  OT 0.00
P2           ?    ?    ? P      ? 19000101 0000    9.7618 GAU  0.00e+00  0.00e+00  0.00e+00  0.00e+00    1.0000
P1           ?    ?    ? P      ? 19000101 0000   10.3335 GAU  0.00e+00  0.00e+00  0.00e+00  0.00e+00    1.0000
P3           ?    ?    ? P      ? 19000101 0000    9.1622 GAU  0.00e+00  0.00e+00  0.00e+00  0.00e+00    1.0000
N19          ?    ?    ? P      ? 19000101 0000   10.9629 GAU  0.00e+00  0.00e+00  0.00e+00  0.00e+00    1.0000
N16          ?    ?    ? P      ? 19000101 0000   10.9768 GAU  0.00e+00  0.00e+00  0.00e+00  0.00e+00    1.0000
N9           ?    ?    ? P      ? 19000101 0000   10.8840 GAU  0.00e+00  0.00e+00  0.00e+00  0.00e+00    1.0000
N20          ?    ?    ? P      ? 19000101 0000   11.2653 GAU  0.00e+00  0.00e+00  0.00e+00  0.00e+00    1.0000
N14          ?    ?    ? P      ? 19000101 0000   11.4558 GAU  0.00e+00  0.00e+00  0.00e+00  0.00e+00    1.0000
N17          ?    ?    ? P      ? 19000101 0000   11.5708 GAU  0.00e+00  0.00e+00  0.00e+00  0.00e+00    1.0000
N6           ?    ?    ? P      ? 19000101 0000   11.1071 GAU  0.00e+00  0.00e+00  0.00e+00  0.00e+00    1.0000
N7           ?    ?    ? P      ? 19000101 0000   11.5030 GAU  0.00e+00  0.00e+00  0.00e+00  0.00e+00    1.0000
N13          ?    ?    ? P      ? 19000101 0000   11.8117 GAU  0.00e+00  0.00e+00  0.00e+00  0.00e+00    1.0000
CAMP         ?    ?    ? P      ? 19000101 0000   10.8361 GAU  0.00e+00  0.00e+00  0.00e+00  0.00e+00    1.0000
N4           ?    ?    ? P      ? 19000101 0000   11.4898 GAU  0.00e+00  0.00e+00  0.00e+00  0.00e+00    1.0000
NOKA         ?    ?    ? P      ? 19000101 0000    8.4667 GAU  0.00e+00  0.00e+00  0.00e+00  0.00e+00    1.0000
N15          ?    ?    ? P      ? 19000101 0000   11.3481 GAU  0.00e+00  0.00e+00  0.00e+00  0.00e+00    1.0000
N11          ?    ?    ? P      ? 19000101 0000   11.6639 GAU  0.00e+00  0.00e+00  0.00e+00  0.00e+00    1.0000
N18          ?    ?    ? P      ? 19000101 0000   11.4209 GAU  0.00e+00  0.00e+00  0.00e+00  0.00e+00    1.0000
P2           ?    ?    ? S      ? 19000101 0000   17.6187 GAU  0.00e+00  0.00e+00  0.00e+00  0.00e+00    1.0000
P1           ?    ?    ? S      ? 19000101 0000   18.6364 GAU  0.00e+00  0.00e+00  0.00e+00  0.00e+00    1.0000
P3           ?    ?    ? S      ? 19000101 0000   16.5812 GAU  0.00e+00  0.00e+00  0.00e+00  0.00e+00    1.0000
N19          ?    ?    ? S      ? 19000101 0000   19.6887 GAU  0.00e+00  0.00e+00  0.00e+00  0.00e+00    1.0000
N16          ?    ?    ? S      ? 19000101 0000   19.7337 GAU  0.00e+00  0.00e+00  0.00e+00  0.00e+00    1.0000
N9           ?    ?    ? S      ? 19000101 0000   19.6910 GAU  0.00e+00  0.00e+00  0.00e+00  0.00e+00    1.0000
N20          ?    ?    ? S      ? 19000101 0000   20.4873 GAU  0.00e+00  0.00e+00  0.00e+00  0.00e+00    1.0000
N18          ?    ?    ? S      ? 19000101 0000   20.8270 GAU  0.00e+00  0.00e+00  0.00e+00  0.00e+00    1.0000
N14          ?    ?    ? S      ? 19000101 0000   20.8007 GAU  0.00e+00  0.00e+00  0.00e+00  0.00e+00    1.0000
N17          ?    ?    ? S      ? 19000101 0000   21.0448 GAU  0.00e+00  0.00e+00  0.00e+00  0.00e+00    1.0000
N6           ?    ?    ? S      ? 19000101 0000   20.1691 GAU  0.00e+00  0.00e+00  0.00e+00  0.00e+00    1.0000
N7           ?    ?    ? S      ? 19000101 0000   20.6636 GAU  0.00e+00  0.00e+00  0.00e+00  0.00e+00    1.0000
N13          ?    ?    ? S      ? 19000101 0000   21.3576 GAU  0.00e+00  0.00e+00  0.00e+00  0.00e+00    1.0000
CAMP         ?    ?    ? S      ? 19000101 0000   19.6477 GAU  0.00e+00  0.00e+00  0.00e+00  0.00e+00    1.0000
N4           ?    ?    ? S      ? 19000101 0000   20.9221 GAU  0.00e+00  0.00e+00  0.00e+00  0.00e+00    1.0000
N11          ?    ?    ? S      ? 19000101 0000   21.1826 GAU  0.00e+00  0.00e+00  0.00e+00  0.00e+00    1.0000
N15          ?    ?    ? S      ? 19000101 0000   20.3177 GAU  0.00e+00  0.00e+00  0.00e+00  0.00e+00    1.0000
TOLS         ?    ?    ? P      ? 19000101 0000    6.9047 GAU  0.00e+00  0.00e+00  0.00e+00  0.00e+00    1.0000
P4           ?    ?    ? P      ? 19000101 0000    8.0438 GAU  0.00e+00  0.00e+00  0.00e+00  0.00e+00    1.0000
JNAK         ?    ?    ? P      ? 19000101 0000    9.0774 GAU  0.00e+00  0.00e+00  0.00e+00  0.00e+00    1.0000
NOKA         ?    ?    ? P      ? 19000101 0000    8.4765 GAU  0.00e+00  0.00e+00  0.00e+00  0.00e+00    1.0000
P9           ?    ?    ? P      ? 19000101 0000    5.4558 GAU  0.00e+00  0.00e+00  0.00e+00  0.00e+00    1.0000
ABAD         ?    ?    ? P      ? 19000101 0000    4.5541 GAU  0.00e+00  0.00e+00  0.00e+00  0.00e+00    1.0000
KHIA         ?    ?    ? P      ? 19000101 0000    7.0110 GAU  0.00e+00  0.00e+00  0.00e+00  0.00e+00    1.0000
P4           ?    ?    ? S      ? 19000101 0000   14.4654 GAU  0.00e+00  0.00e+00  0.00e+00  0.00e+00    1.0000
JNAK         ?    ?    ? S      ? 19000101 0000   16.6043 GAU  0.00e+00  0.00e+00  0.00e+00  0.00e+00    1.0000
NOKA         ?    ?    ? S      ? 19000101 0000   15.5616 GAU  0.00e+00  0.00e+00  0.00e+00  0.00e+00    1.0000
KHIA         ?    ?    ? S      ? 19000101 0000   12.8089 GAU  0.00e+00  0.00e+00  0.00e+00  0.00e+00    1.0000
ABAD         ?    ?    ? S      ? 19000101 0000    8.3325 GAU  0.00e+00  0.00e+00  0.00e+00  0.00e+00    1.0000
TOLS         ?    ?    ? S      ? 19000101 0000   12.5799 GAU  0.00e+00  0.00e+00  0.00e+00  0.00e+00    1.0000
P9           ?    ?    ? S      ? 19000101 0000    9.8017 GAU  0.00e+00  0.00e+00  0.00e+00  0.00e+00    1.0000
#
