# EQEVENT: Label: SYNEQ_0 Loc: X -6.82 Y -3.77 Z 10.70 OT 1612139230.600000
P2        ?    ?    ?    P      ? 20210202 0357   13.060400 GAU 0.00e+00  0.00e+00  0.00e+00  0.00e+00  1.0000   
P1        ?    ?    ?    P      ? 20210202 0357   13.120300 GAU 0.00e+00  0.00e+00  0.00e+00  0.00e+00  1.0000   
P3        ?    ?    ?    P      ? 20210202 0357   13.149700 GAU 0.00e+00  0.00e+00  0.00e+00  0.00e+00  1.0000   
N19       ?    ?    ?    P      ? 20210202 0357   13.321900 GAU 0.00e+00  0.00e+00  0.00e+00  0.00e+00  1.0000   
N16       ?    ?    ?    P      ? 20210202 0357   13.378500 GAU 0.00e+00  0.00e+00  0.00e+00  0.00e+00  1.0000   
N15       ?    ?    ?    P      ? 20210202 0357   13.606000 GAU 0.00e+00  0.00e+00  0.00e+00  0.00e+00  1.0000   
N20       ?    ?    ?    P      ? 20210202 0357   13.620700 GAU 0.00e+00  0.00e+00  0.00e+00  0.00e+00  1.0000   
N9        ?    ?    ?    P      ? 20210202 0357   13.627800 GAU 0.00e+00  0.00e+00  0.00e+00  0.00e+00  1.0000   
N18       ?    ?    ?    P      ? 20210202 0357   13.770600 GAU 0.00e+00  0.00e+00  0.00e+00  0.00e+00  1.0000   
N14       ?    ?    ?    P      ? 20210202 0357   13.819800 GAU 0.00e+00  0.00e+00  0.00e+00  0.00e+00  1.0000   
N17       ?    ?    ?    P      ? 20210202 0357   13.877900 GAU 0.00e+00  0.00e+00  0.00e+00  0.00e+00  1.0000   
N6        ?    ?    ?    P      ? 20210202 0357   13.936600 GAU 0.00e+00  0.00e+00  0.00e+00  0.00e+00  1.0000   
N7        ?    ?    ?    P      ? 20210202 0357   14.053100 GAU 0.00e+00  0.00e+00  0.00e+00  0.00e+00  1.0000   
N11       ?    ?    ?    P      ? 20210202 0357   14.071200 GAU 0.00e+00  0.00e+00  0.00e+00  0.00e+00  1.0000   
N13       ?    ?    ?    P      ? 20210202 0357   14.134800 GAU 0.00e+00  0.00e+00  0.00e+00  0.00e+00  1.0000   
N4        ?    ?    ?    P      ? 20210202 0357   14.358700 GAU 0.00e+00  0.00e+00  0.00e+00  0.00e+00  1.0000   
CAMP      ?    ?    ?    P      ? 20210202 0357   14.382000 GAU 0.00e+00  0.00e+00  0.00e+00  0.00e+00  1.0000   
NOKA      ?    ?    ?    P      ? 20210202 0357   16.374100 GAU 0.00e+00  0.00e+00  0.00e+00  0.00e+00  1.0000   
P2        ?    ?    ?    S      ? 20210202 0357   15.055900 GAU 0.00e+00  0.00e+00  0.00e+00  0.00e+00  1.0000   
P1        ?    ?    ?    S      ? 20210202 0357   15.164400 GAU 0.00e+00  0.00e+00  0.00e+00  0.00e+00  1.0000   
P3        ?    ?    ?    S      ? 20210202 0357   15.217600 GAU 0.00e+00  0.00e+00  0.00e+00  0.00e+00  1.0000   
N19       ?    ?    ?    S      ? 20210202 0357   15.529300 GAU 0.00e+00  0.00e+00  0.00e+00  0.00e+00  1.0000   
N16       ?    ?    ?    S      ? 20210202 0357   15.631700 GAU 0.00e+00  0.00e+00  0.00e+00  0.00e+00  1.0000   
N15       ?    ?    ?    S      ? 20210202 0357   16.043900 GAU 0.00e+00  0.00e+00  0.00e+00  0.00e+00  1.0000   
N20       ?    ?    ?    S      ? 20210202 0357   16.070400 GAU 0.00e+00  0.00e+00  0.00e+00  0.00e+00  1.0000   
N9        ?    ?    ?    S      ? 20210202 0357   16.083300 GAU 0.00e+00  0.00e+00  0.00e+00  0.00e+00  1.0000   
N18       ?    ?    ?    S      ? 20210202 0357   16.341700 GAU 0.00e+00  0.00e+00  0.00e+00  0.00e+00  1.0000   
N14       ?    ?    ?    S      ? 20210202 0357   16.430700 GAU 0.00e+00  0.00e+00  0.00e+00  0.00e+00  1.0000   
N17       ?    ?    ?    S      ? 20210202 0357   16.535900 GAU 0.00e+00  0.00e+00  0.00e+00  0.00e+00  1.0000   
N6        ?    ?    ?    S      ? 20210202 0357   16.642200 GAU 0.00e+00  0.00e+00  0.00e+00  0.00e+00  1.0000   
N7        ?    ?    ?    S      ? 20210202 0357   16.853100 GAU 0.00e+00  0.00e+00  0.00e+00  0.00e+00  1.0000   
N11       ?    ?    ?    S      ? 20210202 0357   16.885700 GAU 0.00e+00  0.00e+00  0.00e+00  0.00e+00  1.0000   
N13       ?    ?    ?    S      ? 20210202 0357   17.000800 GAU 0.00e+00  0.00e+00  0.00e+00  0.00e+00  1.0000   
N4        ?    ?    ?    S      ? 20210202 0357   17.405900 GAU 0.00e+00  0.00e+00  0.00e+00  0.00e+00  1.0000   
CAMP      ?    ?    ?    S      ? 20210202 0357   17.448000 GAU 0.00e+00  0.00e+00  0.00e+00  0.00e+00  1.0000   
# EQEVENT: Label: SYNEQ_1 Loc: X 35.74 Y 4.93 Z 6.50 OT 1612147981.500000
ABAD      ?    ?    ?    P      ? 20210202 0623   04.622800 GAU 0.00e+00  0.00e+00  0.00e+00  0.00e+00  1.0000   
P9        ?    ?    ?    P      ? 20210202 0623   05.512400 GAU 0.00e+00  0.00e+00  0.00e+00  0.00e+00  1.0000   
TOLS      ?    ?    ?    P      ? 20210202 0623   07.104900 GAU 0.00e+00  0.00e+00  0.00e+00  0.00e+00  1.0000   
KHIA      ?    ?    ?    P      ? 20210202 0623   07.432600 GAU 0.00e+00  0.00e+00  0.00e+00  0.00e+00  1.0000   
P4        ?    ?    ?    P      ? 20210202 0623   08.273000 GAU 0.00e+00  0.00e+00  0.00e+00  0.00e+00  1.0000   
NOKA      ?    ?    ?    P      ? 20210202 0623   08.951400 GAU 0.00e+00  0.00e+00  0.00e+00  0.00e+00  1.0000   
JNAK      ?    ?    ?    P      ? 20210202 0623   09.711700 GAU 0.00e+00  0.00e+00  0.00e+00  0.00e+00  1.0000   
ABAD      ?    ?    ?    S      ? 20210202 0623   07.158400 GAU 0.00e+00  0.00e+00  0.00e+00  0.00e+00  1.0000   
P9        ?    ?    ?    S      ? 20210202 0623   08.767400 GAU 0.00e+00  0.00e+00  0.00e+00  0.00e+00  1.0000   
TOLS      ?    ?    ?    S      ? 20210202 0623   11.646000 GAU 0.00e+00  0.00e+00  0.00e+00  0.00e+00  1.0000   
KHIA      ?    ?    ?    S      ? 20210202 0623   12.238600 GAU 0.00e+00  0.00e+00  0.00e+00  0.00e+00  1.0000   
P4        ?    ?    ?    S      ? 20210202 0623   13.758200 GAU 0.00e+00  0.00e+00  0.00e+00  0.00e+00  1.0000   
NOKA      ?    ?    ?    S      ? 20210202 0623   14.984800 GAU 0.00e+00  0.00e+00  0.00e+00  0.00e+00  1.0000   
JNAK      ?    ?    ?    S      ? 20210202 0623   16.359700 GAU 0.00e+00  0.00e+00  0.00e+00  0.00e+00  1.0000   
# EQEVENT: Label: SYNEQ_2 Loc: X 33.93 Y -10.37 Z 3.70 OT 1612213258.300000
P9        ?    ?    ?    P      ? 20210202 0031   02.808400 GAU 0.00e+00  0.00e+00  0.00e+00  0.00e+00  1.0000   
KHIA      ?    ?    ?    P      ? 20210202 0031   02.909900 GAU 0.00e+00  0.00e+00  0.00e+00  0.00e+00  1.0000   
KOLO      ?    ?    ?    P      ? 20210202 0031   03.947600 GAU 0.00e+00  0.00e+00  0.00e+00  0.00e+00  1.0000   
TOLS      ?    ?    ?    P      ? 20210202 0031   04.038700 GAU 0.00e+00  0.00e+00  0.00e+00  0.00e+00  1.0000   
P5        ?    ?    ?    P      ? 20210202 0031   04.522100 GAU 0.00e+00  0.00e+00  0.00e+00  0.00e+00  1.0000   
P4        ?    ?    ?    P      ? 20210202 0031   05.081700 GAU 0.00e+00  0.00e+00  0.00e+00  0.00e+00  1.0000   
ABTL      ?    ?    ?    P      ? 20210202 0031   05.312600 GAU 0.00e+00  0.00e+00  0.00e+00  0.00e+00  1.0000   
DLRM      ?    ?    ?    P      ? 20210202 0031   06.417900 GAU 0.00e+00  0.00e+00  0.00e+00  0.00e+00  1.0000   
ABAS      ?    ?    ?    P      ? 20210202 0031   07.160400 GAU 0.00e+00  0.00e+00  0.00e+00  0.00e+00  1.0000   
P9        ?    ?    ?    S      ? 20210202 0031   06.470500 GAU 0.00e+00  0.00e+00  0.00e+00  0.00e+00  1.0000   
KHIA      ?    ?    ?    S      ? 20210202 0031   06.654700 GAU 0.00e+00  0.00e+00  0.00e+00  0.00e+00  1.0000   
KOLO      ?    ?    ?    S      ? 20210202 0031   08.529500 GAU 0.00e+00  0.00e+00  0.00e+00  0.00e+00  1.0000   
TOLS      ?    ?    ?    S      ? 20210202 0031   08.693700 GAU 0.00e+00  0.00e+00  0.00e+00  0.00e+00  1.0000   
P5        ?    ?    ?    S      ? 20210202 0031   09.566800 GAU 0.00e+00  0.00e+00  0.00e+00  0.00e+00  1.0000   
P4        ?    ?    ?    S      ? 20210202 0031   10.578600 GAU 0.00e+00  0.00e+00  0.00e+00  0.00e+00  1.0000   
DLRM      ?    ?    ?    S      ? 20210202 0031   12.994600 GAU 0.00e+00  0.00e+00  0.00e+00  0.00e+00  1.0000   
# EQEVENT: Label: SYNEQ_3 Loc: X -6.92 Y -3.99 Z 11.50 OT 1612216865.100000
P2        ?    ?    ?    P      ? 20210202 0131   07.673500 GAU 0.00e+00  0.00e+00  0.00e+00  0.00e+00  1.0000   
P1        ?    ?    ?    P      ? 20210202 0131   07.721100 GAU 0.00e+00  0.00e+00  0.00e+00  0.00e+00  1.0000   
P3        ?    ?    ?    P      ? 20210202 0131   07.767400 GAU 0.00e+00  0.00e+00  0.00e+00  0.00e+00  1.0000   
N19       ?    ?    ?    P      ? 20210202 0131   07.911900 GAU 0.00e+00  0.00e+00  0.00e+00  0.00e+00  1.0000   
N16       ?    ?    ?    P      ? 20210202 0131   07.957900 GAU 0.00e+00  0.00e+00  0.00e+00  0.00e+00  1.0000   
N12       ?    ?    ?    P      ? 20210202 0131   08.161300 GAU 0.00e+00  0.00e+00  0.00e+00  0.00e+00  1.0000   
N15       ?    ?    ?    P      ? 20210202 0131   08.165500 GAU 0.00e+00  0.00e+00  0.00e+00  0.00e+00  1.0000   
N9        ?    ?    ?    P      ? 20210202 0131   08.180000 GAU 0.00e+00  0.00e+00  0.00e+00  0.00e+00  1.0000   
N20       ?    ?    ?    P      ? 20210202 0131   08.191700 GAU 0.00e+00  0.00e+00  0.00e+00  0.00e+00  1.0000   
N18       ?    ?    ?    P      ? 20210202 0131   08.321300 GAU 0.00e+00  0.00e+00  0.00e+00  0.00e+00  1.0000   
N14       ?    ?    ?    P      ? 20210202 0131   08.364900 GAU 0.00e+00  0.00e+00  0.00e+00  0.00e+00  1.0000   
N10       ?    ?    ?    P      ? 20210202 0131   08.436900 GAU 0.00e+00  0.00e+00  0.00e+00  0.00e+00  1.0000   
N17       ?    ?    ?    P      ? 20210202 0131   08.425600 GAU 0.00e+00  0.00e+00  0.00e+00  0.00e+00  1.0000   
N6        ?    ?    ?    P      ? 20210202 0131   08.467900 GAU 0.00e+00  0.00e+00  0.00e+00  0.00e+00  1.0000   
N7        ?    ?    ?    P      ? 20210202 0131   08.579900 GAU 0.00e+00  0.00e+00  0.00e+00  0.00e+00  1.0000   
N11       ?    ?    ?    P      ? 20210202 0131   08.600100 GAU 0.00e+00  0.00e+00  0.00e+00  0.00e+00  1.0000   
N13       ?    ?    ?    P      ? 20210202 0131   08.662400 GAU 0.00e+00  0.00e+00  0.00e+00  0.00e+00  1.0000   
SHIF      ?    ?    ?    P      ? 20210202 0131   08.714100 GAU 0.00e+00  0.00e+00  0.00e+00  0.00e+00  1.0000   
N4        ?    ?    ?    P      ? 20210202 0131   08.870300 GAU 0.00e+00  0.00e+00  0.00e+00  0.00e+00  1.0000   
P2        ?    ?    ?    S      ? 20210202 0131   09.760300 GAU 0.00e+00  0.00e+00  0.00e+00  0.00e+00  1.0000   
P1        ?    ?    ?    S      ? 20210202 0131   09.846500 GAU 0.00e+00  0.00e+00  0.00e+00  0.00e+00  1.0000   
P3        ?    ?    ?    S      ? 20210202 0131   09.930300 GAU 0.00e+00  0.00e+00  0.00e+00  0.00e+00  1.0000   
N19       ?    ?    ?    S      ? 20210202 0131   10.191900 GAU 0.00e+00  0.00e+00  0.00e+00  0.00e+00  1.0000   
N16       ?    ?    ?    S      ? 20210202 0131   10.275100 GAU 0.00e+00  0.00e+00  0.00e+00  0.00e+00  1.0000   
N12       ?    ?    ?    S      ? 20210202 0131   10.643300 GAU 0.00e+00  0.00e+00  0.00e+00  0.00e+00  1.0000   
N15       ?    ?    ?    S      ? 20210202 0131   10.650900 GAU 0.00e+00  0.00e+00  0.00e+00  0.00e+00  1.0000   
N9        ?    ?    ?    S      ? 20210202 0131   10.677300 GAU 0.00e+00  0.00e+00  0.00e+00  0.00e+00  1.0000   
N20       ?    ?    ?    S      ? 20210202 0131   10.698300 GAU 0.00e+00  0.00e+00  0.00e+00  0.00e+00  1.0000   
N18       ?    ?    ?    S      ? 20210202 0131   10.933100 GAU 0.00e+00  0.00e+00  0.00e+00  0.00e+00  1.0000   
N14       ?    ?    ?    S      ? 20210202 0131   11.011900 GAU 0.00e+00  0.00e+00  0.00e+00  0.00e+00  1.0000   
N10       ?    ?    ?    S      ? 20210202 0131   11.142200 GAU 0.00e+00  0.00e+00  0.00e+00  0.00e+00  1.0000   
N17       ?    ?    ?    S      ? 20210202 0131   11.121800 GAU 0.00e+00  0.00e+00  0.00e+00  0.00e+00  1.0000   
N6        ?    ?    ?    S      ? 20210202 0131   11.198400 GAU 0.00e+00  0.00e+00  0.00e+00  0.00e+00  1.0000   
N7        ?    ?    ?    S      ? 20210202 0131   11.401000 GAU 0.00e+00  0.00e+00  0.00e+00  0.00e+00  1.0000   
N11       ?    ?    ?    S      ? 20210202 0131   11.437600 GAU 0.00e+00  0.00e+00  0.00e+00  0.00e+00  1.0000   
N13       ?    ?    ?    S      ? 20210202 0131   11.550200 GAU 0.00e+00  0.00e+00  0.00e+00  0.00e+00  1.0000   
# EQEVENT: Label: SYNEQ_4 Loc: X 31.23 Y -19.02 Z 10.00 OT 1612327255.000000
P9        ?    ?    ?    P      ? 20210202 0811   00.135800 GAU 0.00e+00  0.00e+00  0.00e+00  0.00e+00  1.0000   
JNAK      ?    ?    ?    P      ? 20210202 0811   00.469100 GAU 0.00e+00  0.00e+00  0.00e+00  0.00e+00  1.0000   
TOLS      ?    ?    ?    P      ? 20210202 0811   00.710500 GAU 0.00e+00  0.00e+00  0.00e+00  0.00e+00  1.0000   
DLRM      ?    ?    ?    P      ? 20210202 0811   01.372600 GAU 0.00e+00  0.00e+00  0.00e+00  0.00e+00  1.0000   
P4        ?    ?    ?    P      ? 20210202 0811   01.497500 GAU 0.00e+00  0.00e+00  0.00e+00  0.00e+00  1.0000   
ABTL      ?    ?    ?    P      ? 20210202 0811   02.411400 GAU 0.00e+00  0.00e+00  0.00e+00  0.00e+00  1.0000   
N7        ?    ?    ?    P      ? 20210202 0811   04.021800 GAU 0.00e+00  0.00e+00  0.00e+00  0.00e+00  1.0000   
P9        ?    ?    ?    S      ? 20210202 0811   04.296500 GAU 0.00e+00  0.00e+00  0.00e+00  0.00e+00  1.0000   
JNAK      ?    ?    ?    S      ? 20210202 0811   04.899300 GAU 0.00e+00  0.00e+00  0.00e+00  0.00e+00  1.0000   
TOLS      ?    ?    ?    S      ? 20210202 0811   05.335800 GAU 0.00e+00  0.00e+00  0.00e+00  0.00e+00  1.0000   
DLRM      ?    ?    ?    S      ? 20210202 0811   06.532100 GAU 0.00e+00  0.00e+00  0.00e+00  0.00e+00  1.0000   
P4        ?    ?    ?    S      ? 20210202 0811   06.757600 GAU 0.00e+00  0.00e+00  0.00e+00  0.00e+00  1.0000   
ABTL      ?    ?    ?    S      ? 20210202 0811   08.409200 GAU 0.00e+00  0.00e+00  0.00e+00  0.00e+00  1.0000   
# EQEVENT: Label: SYNEQ_5 Loc: X 30.09 Y 5.80 Z 9.20 OT 1612388160.900000
ABAD      ?    ?    ?    P      ? 20210202 0106   03.379400 GAU 0.00e+00  0.00e+00  0.00e+00  0.00e+00  1.0000   
P9        ?    ?    ?    P      ? 20210202 0106   04.113300 GAU 0.00e+00  0.00e+00  0.00e+00  0.00e+00  1.0000   
ABTL      ?    ?    ?    P      ? 20210202 0106   05.484300 GAU 0.00e+00  0.00e+00  0.00e+00  0.00e+00  1.0000   
TOLS      ?    ?    ?    P      ? 20210202 0106   05.635100 GAU 0.00e+00  0.00e+00  0.00e+00  0.00e+00  1.0000   
AHRM      ?    ?    ?    P      ? 20210202 0106   05.732000 GAU 0.00e+00  0.00e+00  0.00e+00  0.00e+00  1.0000   
KHIA      ?    ?    ?    P      ? 20210202 0106   06.302400 GAU 0.00e+00  0.00e+00  0.00e+00  0.00e+00  1.0000   
ABAD      ?    ?    ?    S      ? 20210202 0106   05.391100 GAU 0.00e+00  0.00e+00  0.00e+00  0.00e+00  1.0000   
P9        ?    ?    ?    S      ? 20210202 0106   06.719800 GAU 0.00e+00  0.00e+00  0.00e+00  0.00e+00  1.0000   
ABTL      ?    ?    ?    S      ? 20210202 0106   09.199500 GAU 0.00e+00  0.00e+00  0.00e+00  0.00e+00  1.0000   
TOLS      ?    ?    ?    S      ? 20210202 0106   09.472100 GAU 0.00e+00  0.00e+00  0.00e+00  0.00e+00  1.0000   
# EQEVENT: Label: SYNEQ_6 Loc: X 12.51 Y -41.22 Z 5.90 OT 1612484467.200000
DLRM      ?    ?    ?    P      ? 20210202 0351   09.344400 GAU 0.00e+00  0.00e+00  0.00e+00  0.00e+00  1.0000   
KOLO      ?    ?    ?    P      ? 20210202 0351   10.981600 GAU 0.00e+00  0.00e+00  0.00e+00  0.00e+00  1.0000   
ABAS      ?    ?    ?    P      ? 20210202 0351   11.767700 GAU 0.00e+00  0.00e+00  0.00e+00  0.00e+00  1.0000   
KHIA      ?    ?    ?    P      ? 20210202 0351   13.219800 GAU 0.00e+00  0.00e+00  0.00e+00  0.00e+00  1.0000   
AHRM      ?    ?    ?    P      ? 20210202 0351   13.821100 GAU 0.00e+00  0.00e+00  0.00e+00  0.00e+00  1.0000   
N12       ?    ?    ?    P      ? 20210202 0351   15.478100 GAU 0.00e+00  0.00e+00  0.00e+00  0.00e+00  1.0000   
DLRM      ?    ?    ?    S      ? 20210202 0351   11.085900 GAU 0.00e+00  0.00e+00  0.00e+00  0.00e+00  1.0000   
KOLO      ?    ?    ?    S      ? 20210202 0351   14.053200 GAU 0.00e+00  0.00e+00  0.00e+00  0.00e+00  1.0000   
ABAS      ?    ?    ?    S      ? 20210202 0351   15.472600 GAU 0.00e+00  0.00e+00  0.00e+00  0.00e+00  1.0000   
KHIA      ?    ?    ?    S      ? 20210202 0351   18.097400 GAU 0.00e+00  0.00e+00  0.00e+00  0.00e+00  1.0000   
# EQEVENT: Label: SYNEQ_7 Loc: X 30.66 Y -27.55 Z 14.70 OT 1612619023.800000
KOLO      ?    ?    ?    P      ? 20210202 1713   47.187300 GAU 0.00e+00  0.00e+00  0.00e+00  0.00e+00  1.0000   
AHRM      ?    ?    ?    P      ? 20210202 1713   47.687500 GAU 0.00e+00  0.00e+00  0.00e+00  0.00e+00  1.0000   
ABAS      ?    ?    ?    P      ? 20210202 1713   49.369500 GAU 0.00e+00  0.00e+00  0.00e+00  0.00e+00  1.0000   
DLRM      ?    ?    ?    P      ? 20210202 1713   49.465100 GAU 0.00e+00  0.00e+00  0.00e+00  0.00e+00  1.0000   
KOLO      ?    ?    ?    S      ? 20210202 1713   49.931800 GAU 0.00e+00  0.00e+00  0.00e+00  0.00e+00  1.0000   
ABAS      ?    ?    ?    S      ? 20210202 1713   53.878900 GAU 0.00e+00  0.00e+00  0.00e+00  0.00e+00  1.0000   
DLRM      ?    ?    ?    S      ? 20210202 1713   54.051600 GAU 0.00e+00  0.00e+00  0.00e+00  0.00e+00  1.0000   
