# EQEVENT: Label: SYNEQ_27 Loc: X 10.75 Y -39.67 Z 10.80 OT 1613601780.100000
DLRM      ?    ?    ?    P      ? 20210202 0213   02.565200 GAU 1.00e-01  0.00e+00  0.00e+00  0.00e+00  1.0000   
KOLO      ?    ?    ?    P      ? 20210202 0213   03.961600 GAU 1.00e-01  0.00e+00  0.00e+00  0.00e+00  1.0000   
JNAK      ?    ?    ?    P      ? 20210202 0213   04.312200 GAU 1.00e-01  0.00e+00  0.00e+00  0.00e+00  1.0000   
ABAS      ?    ?    ?    P      ? 20210202 0213   05.017000 GAU 1.00e-01  0.00e+00  0.00e+00  0.00e+00  1.0000   
KHIA      ?    ?    ?    P      ? 20210202 0213   05.842700 GAU 1.00e-01  0.00e+00  0.00e+00  0.00e+00  1.0000   
AHRM      ?    ?    ?    P      ? 20210202 0213   06.479500 GAU 1.00e-01  0.00e+00  0.00e+00  0.00e+00  1.0000   
P4        ?    ?    ?    P      ? 20210202 0213   07.461100 GAU 1.00e-01  0.00e+00  0.00e+00  0.00e+00  1.0000   
N14       ?    ?    ?    P      ? 20210202 0213   08.223100 GAU 1.00e-01  0.00e+00  0.00e+00  0.00e+00  1.0000   
N19       ?    ?    ?    P      ? 20210202 0213   08.480100 GAU 1.00e-01  0.00e+00  0.00e+00  0.00e+00  1.0000   
DLRM      ?    ?    ?    S      ? 20210202 0213   04.874900 GAU 2.00e-01  0.00e+00  0.00e+00  0.00e+00  1.0000   
KOLO      ?    ?    ?    S      ? 20210202 0213   07.273400 GAU 2.00e-01  0.00e+00  0.00e+00  0.00e+00  1.0000   
JNAK      ?    ?    ?    S      ? 20210202 0213   07.192900 GAU 2.00e-01  0.00e+00  0.00e+00  0.00e+00  1.0000   
ABAS      ?    ?    ?    S      ? 20210202 0213   09.135900 GAU 2.00e-01  0.00e+00  0.00e+00  0.00e+00  1.0000   
KHIA      ?    ?    ?    S      ? 20210202 0213   10.723000 GAU 2.00e-01  0.00e+00  0.00e+00  0.00e+00  1.0000   
# EQEVENT: Label: SYNEQ_28 Loc: X 36.45 Y 27.21 Z 8.20 OT 1613644205.600000
ABAD      ?    ?    ?    P      ? 20210202 1400   11.380400 GAU 1.00e-01  0.00e+00  0.00e+00  0.00e+00  1.0000   
ABTL      ?    ?    ?    P      ? 20210202 1400   11.828200 GAU 1.00e-01  0.00e+00  0.00e+00  0.00e+00  1.0000   
P9        ?    ?    ?    P      ? 20210202 1400   12.252100 GAU 1.00e-01  0.00e+00  0.00e+00  0.00e+00  1.0000   
NOKA      ?    ?    ?    P      ? 20210202 1400   12.577600 GAU 1.00e-01  0.00e+00  0.00e+00  0.00e+00  1.0000   
AHRM      ?    ?    ?    P      ? 20210202 1400   14.210700 GAU 1.00e-01  0.00e+00  0.00e+00  0.00e+00  1.0000   
P4        ?    ?    ?    P      ? 20210202 1400   14.333000 GAU 1.00e-01  0.00e+00  0.00e+00  0.00e+00  1.0000   
KHIA      ?    ?    ?    P      ? 20210202 1400   14.660100 GAU 1.00e-01  0.00e+00  0.00e+00  0.00e+00  1.0000   
JNAK      ?    ?    ?    P      ? 20210202 1400   16.782900 GAU 1.00e-01  0.00e+00  0.00e+00  0.00e+00  1.0000   
ABAD      ?    ?    ?    S      ? 20210202 1400   16.540500 GAU 2.00e-01  0.00e+00  0.00e+00  0.00e+00  1.0000   
ABTL      ?    ?    ?    S      ? 20210202 1400   17.288600 GAU 2.00e-01  0.00e+00  0.00e+00  0.00e+00  1.0000   
P9        ?    ?    ?    S      ? 20210202 1400   17.527600 GAU 2.00e-01  0.00e+00  0.00e+00  0.00e+00  1.0000   
NOKA      ?    ?    ?    S      ? 20210202 1400   17.889600 GAU 2.00e-01  0.00e+00  0.00e+00  0.00e+00  1.0000   
P4        ?    ?    ?    S      ? 20210202 1400   21.589100 GAU 2.00e-01  0.00e+00  0.00e+00  0.00e+00  1.0000   
KHIA      ?    ?    ?    S      ? 20210202 1400   22.307200 GAU 2.00e-01  0.00e+00  0.00e+00  0.00e+00  1.0000   
JNAK      ?    ?    ?    S      ? 20210202 1400   25.918800 GAU 2.00e-01  0.00e+00  0.00e+00  0.00e+00  1.0000   
# EQEVENT: Label: SYNEQ_29 Loc: X 36.93 Y 27.10 Z 8.10 OT 1613660668.800000
ABAD      ?    ?    ?    P      ? 20210202 1834   34.599800 GAU 1.00e-01  0.00e+00  0.00e+00  0.00e+00  1.0000   
ABTL      ?    ?    ?    P      ? 20210202 1834   35.087500 GAU 1.00e-01  0.00e+00  0.00e+00  0.00e+00  1.0000   
P9        ?    ?    ?    P      ? 20210202 1834   35.479000 GAU 1.00e-01  0.00e+00  0.00e+00  0.00e+00  1.0000   
NOKA      ?    ?    ?    P      ? 20210202 1834   35.855100 GAU 1.00e-01  0.00e+00  0.00e+00  0.00e+00  1.0000   
TOLS      ?    ?    ?    P      ? 20210202 1834   36.720900 GAU 1.00e-01  0.00e+00  0.00e+00  0.00e+00  1.0000   
P4        ?    ?    ?    P      ? 20210202 1834   37.583600 GAU 1.00e-01  0.00e+00  0.00e+00  0.00e+00  1.0000   
KHIA      ?    ?    ?    P      ? 20210202 1834   37.885400 GAU 1.00e-01  0.00e+00  0.00e+00  0.00e+00  1.0000   
DLRM      ?    ?    ?    P      ? 20210202 1834   41.922800 GAU 1.00e-01  0.00e+00  0.00e+00  0.00e+00  1.0000   
ABAD      ?    ?    ?    S      ? 20210202 1834   39.775600 GAU 2.00e-01  0.00e+00  0.00e+00  0.00e+00  1.0000   
ABTL      ?    ?    ?    S      ? 20210202 1834   40.595800 GAU 2.00e-01  0.00e+00  0.00e+00  0.00e+00  1.0000   
P9        ?    ?    ?    S      ? 20210202 1834   40.776100 GAU 2.00e-01  0.00e+00  0.00e+00  0.00e+00  1.0000   
NOKA      ?    ?    ?    S      ? 20210202 1834   41.229700 GAU 2.00e-01  0.00e+00  0.00e+00  0.00e+00  1.0000   
TOLS      ?    ?    ?    S      ? 20210202 1834   43.180900 GAU 2.00e-01  0.00e+00  0.00e+00  0.00e+00  1.0000   
P4        ?    ?    ?    S      ? 20210202 1834   45.062600 GAU 2.00e-01  0.00e+00  0.00e+00  0.00e+00  1.0000   
KHIA      ?    ?    ?    S      ? 20210202 1834   45.470900 GAU 2.00e-01  0.00e+00  0.00e+00  0.00e+00  1.0000   
DLRM      ?    ?    ?    S      ? 20210202 1834   52.598000 GAU 2.00e-01  0.00e+00  0.00e+00  0.00e+00  1.0000   
# EQEVENT: Label: SYNEQ_30 Loc: X 36.45 Y 27.10 Z 8.80 OT 1613676103.600000
ABAD      ?    ?    ?    P      ? 20210202 2251   49.376200 GAU 1.00e-01  0.00e+00  0.00e+00  0.00e+00  1.0000   
ABTL      ?    ?    ?    P      ? 20210202 2251   49.829500 GAU 1.00e-01  0.00e+00  0.00e+00  0.00e+00  1.0000   
P9        ?    ?    ?    P      ? 20210202 2251   50.246800 GAU 1.00e-01  0.00e+00  0.00e+00  0.00e+00  1.0000   
NOKA      ?    ?    ?    P      ? 20210202 2251   50.584000 GAU 1.00e-01  0.00e+00  0.00e+00  0.00e+00  1.0000   
TOLS      ?    ?    ?    P      ? 20210202 2251   51.464800 GAU 1.00e-01  0.00e+00  0.00e+00  0.00e+00  1.0000   
P5        ?    ?    ?    P      ? 20210202 2251   51.709600 GAU 1.00e-01  0.00e+00  0.00e+00  0.00e+00  1.0000   
KHIA      ?    ?    ?    P      ? 20210202 2251   52.609200 GAU 1.00e-01  0.00e+00  0.00e+00  0.00e+00  1.0000   
ABAD      ?    ?    ?    S      ? 20210202 2251   54.195000 GAU 2.00e-01  0.00e+00  0.00e+00  0.00e+00  1.0000   
ABTL      ?    ?    ?    S      ? 20210202 2251   55.459000 GAU 2.00e-01  0.00e+00  0.00e+00  0.00e+00  1.0000   
P9        ?    ?    ?    S      ? 20210202 2251   55.753000 GAU 2.00e-01  0.00e+00  0.00e+00  0.00e+00  1.0000   
NOKA      ?    ?    ?    S      ? 20210202 2251   56.323200 GAU 2.00e-01  0.00e+00  0.00e+00  0.00e+00  1.0000   
TOLS      ?    ?    ?    S      ? 20210202 2251   57.405000 GAU 2.00e-01  0.00e+00  0.00e+00  0.00e+00  1.0000   
P5        ?    ?    ?    S      ? 20210202 2251   58.461900 GAU 2.00e-01  0.00e+00  0.00e+00  0.00e+00  1.0000   
KHIA      ?    ?    ?    S      ? 20210202 2252   00.214600 GAU 2.00e-01  0.00e+00  0.00e+00  0.00e+00  1.0000   
# EQEVENT: Label: SYNEQ_31 Loc: X 37.03 Y 27.77 Z 9.20 OT 1613689425.000000
ABAD      ?    ?    ?    P      ? 20210202 0233   50.934100 GAU 1.00e-01  0.00e+00  0.00e+00  0.00e+00  1.0000   
ABTL      ?    ?    ?    P      ? 20210202 0233   51.383000 GAU 1.00e-01  0.00e+00  0.00e+00  0.00e+00  1.0000   
P9        ?    ?    ?    P      ? 20210202 0233   51.801800 GAU 1.00e-01  0.00e+00  0.00e+00  0.00e+00  1.0000   
NOKA      ?    ?    ?    P      ? 20210202 0233   52.104200 GAU 1.00e-01  0.00e+00  0.00e+00  0.00e+00  1.0000   
TOLS      ?    ?    ?    P      ? 20210202 0233   52.998400 GAU 1.00e-01  0.00e+00  0.00e+00  0.00e+00  1.0000   
P5        ?    ?    ?    P      ? 20210202 0233   53.236900 GAU 1.00e-01  0.00e+00  0.00e+00  0.00e+00  1.0000   
P4        ?    ?    ?    P      ? 20210202 0233   53.839800 GAU 1.00e-01  0.00e+00  0.00e+00  0.00e+00  1.0000   
KHIA      ?    ?    ?    P      ? 20210202 0233   54.201800 GAU 1.00e-01  0.00e+00  0.00e+00  0.00e+00  1.0000   
P3        ?    ?    ?    P      ? 20210202 0233   55.154600 GAU 1.00e-01  0.00e+00  0.00e+00  0.00e+00  1.0000   
ABAD      ?    ?    ?    S      ? 20210202 0233   56.050300 GAU 2.00e-01  0.00e+00  0.00e+00  0.00e+00  1.0000   
ABTL      ?    ?    ?    S      ? 20210202 0233   56.733100 GAU 2.00e-01  0.00e+00  0.00e+00  0.00e+00  1.0000   
P9        ?    ?    ?    S      ? 20210202 0233   56.775700 GAU 2.00e-01  0.00e+00  0.00e+00  0.00e+00  1.0000   
NOKA      ?    ?    ?    S      ? 20210202 0233   57.991200 GAU 2.00e-01  0.00e+00  0.00e+00  0.00e+00  1.0000   
TOLS      ?    ?    ?    S      ? 20210202 0233   59.701100 GAU 2.00e-01  0.00e+00  0.00e+00  0.00e+00  1.0000   
P5        ?    ?    ?    S      ? 20210202 0234   00.191200 GAU 2.00e-01  0.00e+00  0.00e+00  0.00e+00  1.0000   
P4        ?    ?    ?    S      ? 20210202 0234   01.198900 GAU 2.00e-01  0.00e+00  0.00e+00  0.00e+00  1.0000   
KHIA      ?    ?    ?    S      ? 20210202 0234   01.447900 GAU 2.00e-01  0.00e+00  0.00e+00  0.00e+00  1.0000   
# EQEVENT: Label: SYNEQ_32 Loc: X 35.86 Y 27.98 Z 8.40 OT 1613793296.900000
ABAD      ?    ?    ?    P      ? 20210202 0725   02.761500 GAU 1.00e-01  0.00e+00  0.00e+00  0.00e+00  1.0000   
ABTL      ?    ?    ?    P      ? 20210202 0725   03.121400 GAU 1.00e-01  0.00e+00  0.00e+00  0.00e+00  1.0000   
P9        ?    ?    ?    P      ? 20210202 0725   03.619100 GAU 1.00e-01  0.00e+00  0.00e+00  0.00e+00  1.0000   
NOKA      ?    ?    ?    P      ? 20210202 0725   03.809500 GAU 1.00e-01  0.00e+00  0.00e+00  0.00e+00  1.0000   
KHIA      ?    ?    ?    P      ? 20210202 0725   06.068900 GAU 1.00e-01  0.00e+00  0.00e+00  0.00e+00  1.0000   
JNAK      ?    ?    ?    P      ? 20210202 0725   08.022500 GAU 1.00e-01  0.00e+00  0.00e+00  0.00e+00  1.0000   
ABAD      ?    ?    ?    S      ? 20210202 0725   07.491200 GAU 2.00e-01  0.00e+00  0.00e+00  0.00e+00  1.0000   
ABTL      ?    ?    ?    S      ? 20210202 0725   08.406600 GAU 2.00e-01  0.00e+00  0.00e+00  0.00e+00  1.0000   
P9        ?    ?    ?    S      ? 20210202 0725   09.351900 GAU 2.00e-01  0.00e+00  0.00e+00  0.00e+00  1.0000   
NOKA      ?    ?    ?    S      ? 20210202 0725   09.723700 GAU 2.00e-01  0.00e+00  0.00e+00  0.00e+00  1.0000   
KHIA      ?    ?    ?    S      ? 20210202 0725   13.483800 GAU 2.00e-01  0.00e+00  0.00e+00  0.00e+00  1.0000   
JNAK      ?    ?    ?    S      ? 20210202 0725   16.734100 GAU 2.00e-01  0.00e+00  0.00e+00  0.00e+00  1.0000   
# EQEVENT: Label: SYNEQ_33 Loc: X 33.03 Y -1.61 Z 5.80 OT 1613856606.000000
ABAD      ?    ?    ?    P      ? 20210202 0100   08.757900 GAU 1.00e-01  0.00e+00  0.00e+00  0.00e+00  1.0000   
P9        ?    ?    ?    P      ? 20210202 0100   09.348200 GAU 1.00e-01  0.00e+00  0.00e+00  0.00e+00  1.0000   
AHRM      ?    ?    ?    P      ? 20210202 0100   09.704300 GAU 1.00e-01  0.00e+00  0.00e+00  0.00e+00  1.0000   
ABTL      ?    ?    ?    P      ? 20210202 0100   11.591700 GAU 1.00e-01  0.00e+00  0.00e+00  0.00e+00  1.0000   
P9        ?    ?    ?    S      ? 20210202 0100   12.253300 GAU 2.00e-01  0.00e+00  0.00e+00  0.00e+00  1.0000   
AHRM      ?    ?    ?    S      ? 20210202 0100   12.449100 GAU 2.00e-01  0.00e+00  0.00e+00  0.00e+00  1.0000   
ABTL      ?    ?    ?    S      ? 20210202 0100   16.115400 GAU 2.00e-01  0.00e+00  0.00e+00  0.00e+00  1.0000   
# EQEVENT: Label: SYNEQ_34 Loc: X 37.72 Y 25.33 Z 8.70 OT 1613893976.600000
ABAD      ?    ?    ?    P      ? 20210202 1123   02.212100 GAU 1.00e-01  0.00e+00  0.00e+00  0.00e+00  1.0000   
ABTL      ?    ?    ?    P      ? 20210202 1123   02.862700 GAU 1.00e-01  0.00e+00  0.00e+00  0.00e+00  1.0000   
P9        ?    ?    ?    P      ? 20210202 1123   03.111300 GAU 1.00e-01  0.00e+00  0.00e+00  0.00e+00  1.0000   
NOKA      ?    ?    ?    P      ? 20210202 1123   03.749000 GAU 1.00e-01  0.00e+00  0.00e+00  0.00e+00  1.0000   
TOLS      ?    ?    ?    P      ? 20210202 1123   04.386700 GAU 1.00e-01  0.00e+00  0.00e+00  0.00e+00  1.0000   
P5        ?    ?    ?    P      ? 20210202 1123   04.653300 GAU 1.00e-01  0.00e+00  0.00e+00  0.00e+00  1.0000   
P4        ?    ?    ?    P      ? 20210202 1123   05.281500 GAU 1.00e-01  0.00e+00  0.00e+00  0.00e+00  1.0000   
KHIA      ?    ?    ?    P      ? 20210202 1123   05.533700 GAU 1.00e-01  0.00e+00  0.00e+00  0.00e+00  1.0000   
P3        ?    ?    ?    P      ? 20210202 1123   06.625700 GAU 1.00e-01  0.00e+00  0.00e+00  0.00e+00  1.0000   
SHIF      ?    ?    ?    P      ? 20210202 1123   06.924200 GAU 1.00e-01  0.00e+00  0.00e+00  0.00e+00  1.0000   
P2        ?    ?    ?    P      ? 20210202 1123   06.961200 GAU 1.00e-01  0.00e+00  0.00e+00  0.00e+00  1.0000   
JNAK      ?    ?    ?    P      ? 20210202 1123   07.352300 GAU 1.00e-01  0.00e+00  0.00e+00  0.00e+00  1.0000   
KOLO      ?    ?    ?    P      ? 20210202 1123   07.709500 GAU 1.00e-01  0.00e+00  0.00e+00  0.00e+00  1.0000   
N19       ?    ?    ?    P      ? 20210202 1123   07.998800 GAU 1.00e-01  0.00e+00  0.00e+00  0.00e+00  1.0000   
N16       ?    ?    ?    P      ? 20210202 1123   08.072600 GAU 1.00e-01  0.00e+00  0.00e+00  0.00e+00  1.0000   
N9        ?    ?    ?    P      ? 20210202 1123   08.259400 GAU 1.00e-01  0.00e+00  0.00e+00  0.00e+00  1.0000   
N15       ?    ?    ?    P      ? 20210202 1123   08.223900 GAU 1.00e-01  0.00e+00  0.00e+00  0.00e+00  1.0000   
N18       ?    ?    ?    P      ? 20210202 1123   08.411400 GAU 1.00e-01  0.00e+00  0.00e+00  0.00e+00  1.0000   
N6        ?    ?    ?    P      ? 20210202 1123   08.418800 GAU 1.00e-01  0.00e+00  0.00e+00  0.00e+00  1.0000   
CAMP      ?    ?    ?    P      ? 20210202 1123   08.581600 GAU 1.00e-01  0.00e+00  0.00e+00  0.00e+00  1.0000   
N17       ?    ?    ?    P      ? 20210202 1123   08.399100 GAU 1.00e-01  0.00e+00  0.00e+00  0.00e+00  1.0000   
N14       ?    ?    ?    P      ? 20210202 1123   08.629500 GAU 1.00e-01  0.00e+00  0.00e+00  0.00e+00  1.0000   
N10       ?    ?    ?    P      ? 20210202 1123   08.597700 GAU 1.00e-01  0.00e+00  0.00e+00  0.00e+00  1.0000   
N2        ?    ?    ?    P      ? 20210202 1123   08.582400 GAU 1.00e-01  0.00e+00  0.00e+00  0.00e+00  1.0000   
N7        ?    ?    ?    P      ? 20210202 1123   08.812500 GAU 1.00e-01  0.00e+00  0.00e+00  0.00e+00  1.0000   
N5        ?    ?    ?    P      ? 20210202 1123   08.781300 GAU 1.00e-01  0.00e+00  0.00e+00  0.00e+00  1.0000   
N11       ?    ?    ?    P      ? 20210202 1123   08.816900 GAU 1.00e-01  0.00e+00  0.00e+00  0.00e+00  1.0000   
N1        ?    ?    ?    P      ? 20210202 1123   08.775600 GAU 1.00e-01  0.00e+00  0.00e+00  0.00e+00  1.0000   
N13       ?    ?    ?    P      ? 20210202 1123   08.799900 GAU 1.00e-01  0.00e+00  0.00e+00  0.00e+00  1.0000   
N3        ?    ?    ?    P      ? 20210202 1123   08.841100 GAU 1.00e-01  0.00e+00  0.00e+00  0.00e+00  1.0000   
N4        ?    ?    ?    P      ? 20210202 1123   08.798200 GAU 1.00e-01  0.00e+00  0.00e+00  0.00e+00  1.0000   
DLRM      ?    ?    ?    P      ? 20210202 1123   09.471900 GAU 1.00e-01  0.00e+00  0.00e+00  0.00e+00  1.0000   
ABAS      ?    ?    ?    P      ? 20210202 1123   10.668900 GAU 1.00e-01  0.00e+00  0.00e+00  0.00e+00  1.0000   
ABAD      ?    ?    ?    S      ? 20210202 1123   06.851200 GAU 2.00e-01  0.00e+00  0.00e+00  0.00e+00  1.0000   
ABTL      ?    ?    ?    S      ? 20210202 1123   07.881500 GAU 2.00e-01  0.00e+00  0.00e+00  0.00e+00  1.0000   
P9        ?    ?    ?    S      ? 20210202 1123   08.423400 GAU 2.00e-01  0.00e+00  0.00e+00  0.00e+00  1.0000   
NOKA      ?    ?    ?    S      ? 20210202 1123   09.635800 GAU 2.00e-01  0.00e+00  0.00e+00  0.00e+00  1.0000   
TOLS      ?    ?    ?    S      ? 20210202 1123   10.268800 GAU 2.00e-01  0.00e+00  0.00e+00  0.00e+00  1.0000   
P5        ?    ?    ?    S      ? 20210202 1123   11.298800 GAU 2.00e-01  0.00e+00  0.00e+00  0.00e+00  1.0000   
P4        ?    ?    ?    S      ? 20210202 1123   12.602300 GAU 2.00e-01  0.00e+00  0.00e+00  0.00e+00  1.0000   
KHIA      ?    ?    ?    S      ? 20210202 1123   12.174900 GAU 2.00e-01  0.00e+00  0.00e+00  0.00e+00  1.0000   
P3        ?    ?    ?    S      ? 20210202 1123   14.743900 GAU 2.00e-01  0.00e+00  0.00e+00  0.00e+00  1.0000   
SHIF      ?    ?    ?    S      ? 20210202 1123   14.868800 GAU 2.00e-01  0.00e+00  0.00e+00  0.00e+00  1.0000   
P2        ?    ?    ?    S      ? 20210202 1123   15.372100 GAU 2.00e-01  0.00e+00  0.00e+00  0.00e+00  1.0000   
JNAK      ?    ?    ?    S      ? 20210202 1123   16.248800 GAU 2.00e-01  0.00e+00  0.00e+00  0.00e+00  1.0000   
N19       ?    ?    ?    S      ? 20210202 1123   16.828600 GAU 2.00e-01  0.00e+00  0.00e+00  0.00e+00  1.0000   
N16       ?    ?    ?    S      ? 20210202 1123   17.098800 GAU 2.00e-01  0.00e+00  0.00e+00  0.00e+00  1.0000   
N9        ?    ?    ?    S      ? 20210202 1123   17.718600 GAU 2.00e-01  0.00e+00  0.00e+00  0.00e+00  1.0000   
N15       ?    ?    ?    S      ? 20210202 1123   18.152900 GAU 2.00e-01  0.00e+00  0.00e+00  0.00e+00  1.0000   
N18       ?    ?    ?    S      ? 20210202 1123   18.119800 GAU 2.00e-01  0.00e+00  0.00e+00  0.00e+00  1.0000   
CAMP      ?    ?    ?    S      ? 20210202 1123   18.270400 GAU 2.00e-01  0.00e+00  0.00e+00  0.00e+00  1.0000   
N17       ?    ?    ?    S      ? 20210202 1123   17.983400 GAU 2.00e-01  0.00e+00  0.00e+00  0.00e+00  1.0000   
N14       ?    ?    ?    S      ? 20210202 1123   18.392600 GAU 2.00e-01  0.00e+00  0.00e+00  0.00e+00  1.0000   
N10       ?    ?    ?    S      ? 20210202 1123   18.525400 GAU 2.00e-01  0.00e+00  0.00e+00  0.00e+00  1.0000   
N2        ?    ?    ?    S      ? 20210202 1123   18.389300 GAU 2.00e-01  0.00e+00  0.00e+00  0.00e+00  1.0000   
N7        ?    ?    ?    S      ? 20210202 1123   18.356800 GAU 2.00e-01  0.00e+00  0.00e+00  0.00e+00  1.0000   
N5        ?    ?    ?    S      ? 20210202 1123   18.456300 GAU 2.00e-01  0.00e+00  0.00e+00  0.00e+00  1.0000   
N11       ?    ?    ?    S      ? 20210202 1123   18.498100 GAU 2.00e-01  0.00e+00  0.00e+00  0.00e+00  1.0000   
N1        ?    ?    ?    S      ? 20210202 1123   18.501100 GAU 2.00e-01  0.00e+00  0.00e+00  0.00e+00  1.0000   
N13       ?    ?    ?    S      ? 20210202 1123   19.068000 GAU 2.00e-01  0.00e+00  0.00e+00  0.00e+00  1.0000   
N3        ?    ?    ?    S      ? 20210202 1123   18.976500 GAU 2.00e-01  0.00e+00  0.00e+00  0.00e+00  1.0000   
N4        ?    ?    ?    S      ? 20210202 1123   18.791500 GAU 2.00e-01  0.00e+00  0.00e+00  0.00e+00  1.0000   
DLRM      ?    ?    ?    S      ? 20210202 1123   19.687000 GAU 2.00e-01  0.00e+00  0.00e+00  0.00e+00  1.0000   
