# EQEVENT: Label: SYNEQ_0 Loc: X -6.82 Y -3.77 Z 10.70 OT 1612139230.600000
P2        ?    ?    ?    P      ? 20210202 0357   13.017900 GAU 1.00e-01  0.00e+00  0.00e+00  0.00e+00  1.0000   
P1        ?    ?    ?    P      ? 20210202 0357   13.019000 GAU 1.00e-01  0.00e+00  0.00e+00  0.00e+00  1.0000   
P3        ?    ?    ?    P      ? 20210202 0357   13.210100 GAU 1.00e-01  0.00e+00  0.00e+00  0.00e+00  1.0000   
N19       ?    ?    ?    P      ? 20210202 0357   13.274100 GAU 1.00e-01  0.00e+00  0.00e+00  0.00e+00  1.0000   
N16       ?    ?    ?    P      ? 20210202 0357   13.379100 GAU 1.00e-01  0.00e+00  0.00e+00  0.00e+00  1.0000   
N15       ?    ?    ?    P      ? 20210202 0357   13.528500 GAU 1.00e-01  0.00e+00  0.00e+00  0.00e+00  1.0000   
N20       ?    ?    ?    P      ? 20210202 0357   13.573400 GAU 1.00e-01  0.00e+00  0.00e+00  0.00e+00  1.0000   
N9        ?    ?    ?    P      ? 20210202 0357   13.659600 GAU 1.00e-01  0.00e+00  0.00e+00  0.00e+00  1.0000   
N18       ?    ?    ?    P      ? 20210202 0357   13.971300 GAU 1.00e-01  0.00e+00  0.00e+00  0.00e+00  1.0000   
N14       ?    ?    ?    P      ? 20210202 0357   13.936500 GAU 1.00e-01  0.00e+00  0.00e+00  0.00e+00  1.0000   
N17       ?    ?    ?    P      ? 20210202 0357   13.877000 GAU 1.00e-01  0.00e+00  0.00e+00  0.00e+00  1.0000   
N6        ?    ?    ?    P      ? 20210202 0357   13.724700 GAU 1.00e-01  0.00e+00  0.00e+00  0.00e+00  1.0000   
N7        ?    ?    ?    P      ? 20210202 0357   14.077900 GAU 1.00e-01  0.00e+00  0.00e+00  0.00e+00  1.0000   
N11       ?    ?    ?    P      ? 20210202 0357   14.186900 GAU 1.00e-01  0.00e+00  0.00e+00  0.00e+00  1.0000   
N13       ?    ?    ?    P      ? 20210202 0357   14.209500 GAU 1.00e-01  0.00e+00  0.00e+00  0.00e+00  1.0000   
N4        ?    ?    ?    P      ? 20210202 0357   14.419800 GAU 1.00e-01  0.00e+00  0.00e+00  0.00e+00  1.0000   
CAMP      ?    ?    ?    P      ? 20210202 0357   14.311900 GAU 1.00e-01  0.00e+00  0.00e+00  0.00e+00  1.0000   
NOKA      ?    ?    ?    P      ? 20210202 0357   16.329700 GAU 1.00e-01  0.00e+00  0.00e+00  0.00e+00  1.0000   
P2        ?    ?    ?    S      ? 20210202 0357   14.869000 GAU 2.00e-01  0.00e+00  0.00e+00  0.00e+00  1.0000   
P1        ?    ?    ?    S      ? 20210202 0357   15.305900 GAU 2.00e-01  0.00e+00  0.00e+00  0.00e+00  1.0000   
P3        ?    ?    ?    S      ? 20210202 0357   14.955900 GAU 2.00e-01  0.00e+00  0.00e+00  0.00e+00  1.0000   
N19       ?    ?    ?    S      ? 20210202 0357   15.711200 GAU 2.00e-01  0.00e+00  0.00e+00  0.00e+00  1.0000   
N16       ?    ?    ?    S      ? 20210202 0357   15.646700 GAU 2.00e-01  0.00e+00  0.00e+00  0.00e+00  1.0000   
N15       ?    ?    ?    S      ? 20210202 0357   15.795500 GAU 2.00e-01  0.00e+00  0.00e+00  0.00e+00  1.0000   
N20       ?    ?    ?    S      ? 20210202 0357   16.251700 GAU 2.00e-01  0.00e+00  0.00e+00  0.00e+00  1.0000   
N9        ?    ?    ?    S      ? 20210202 0357   16.172800 GAU 2.00e-01  0.00e+00  0.00e+00  0.00e+00  1.0000   
N18       ?    ?    ?    S      ? 20210202 0357   16.352300 GAU 2.00e-01  0.00e+00  0.00e+00  0.00e+00  1.0000   
N14       ?    ?    ?    S      ? 20210202 0357   16.329700 GAU 2.00e-01  0.00e+00  0.00e+00  0.00e+00  1.0000   
N17       ?    ?    ?    S      ? 20210202 0357   16.381100 GAU 2.00e-01  0.00e+00  0.00e+00  0.00e+00  1.0000   
N6        ?    ?    ?    S      ? 20210202 0357   16.478500 GAU 2.00e-01  0.00e+00  0.00e+00  0.00e+00  1.0000   
N7        ?    ?    ?    S      ? 20210202 0357   16.573700 GAU 2.00e-01  0.00e+00  0.00e+00  0.00e+00  1.0000   
N11       ?    ?    ?    S      ? 20210202 0357   16.934800 GAU 2.00e-01  0.00e+00  0.00e+00  0.00e+00  1.0000   
N13       ?    ?    ?    S      ? 20210202 0357   16.737700 GAU 2.00e-01  0.00e+00  0.00e+00  0.00e+00  1.0000   
N4        ?    ?    ?    S      ? 20210202 0357   17.422300 GAU 2.00e-01  0.00e+00  0.00e+00  0.00e+00  1.0000   
CAMP      ?    ?    ?    S      ? 20210202 0357   17.211900 GAU 2.00e-01  0.00e+00  0.00e+00  0.00e+00  1.0000   
# EQEVENT: Label: SYNEQ_1 Loc: X 35.74 Y 4.93 Z 6.50 OT 1612147981.500000
ABAD      ?    ?    ?    P      ? 20210202 0623   04.580400 GAU 1.00e-01  0.00e+00  0.00e+00  0.00e+00  1.0000   
P9        ?    ?    ?    P      ? 20210202 0623   05.411100 GAU 1.00e-01  0.00e+00  0.00e+00  0.00e+00  1.0000   
TOLS      ?    ?    ?    P      ? 20210202 0623   07.165300 GAU 1.00e-01  0.00e+00  0.00e+00  0.00e+00  1.0000   
KHIA      ?    ?    ?    P      ? 20210202 0623   07.384900 GAU 1.00e-01  0.00e+00  0.00e+00  0.00e+00  1.0000   
P4        ?    ?    ?    P      ? 20210202 0623   08.273700 GAU 1.00e-01  0.00e+00  0.00e+00  0.00e+00  1.0000   
NOKA      ?    ?    ?    P      ? 20210202 0623   08.873800 GAU 1.00e-01  0.00e+00  0.00e+00  0.00e+00  1.0000   
JNAK      ?    ?    ?    P      ? 20210202 0623   09.664500 GAU 1.00e-01  0.00e+00  0.00e+00  0.00e+00  1.0000   
ABAD      ?    ?    ?    S      ? 20210202 0623   07.222000 GAU 2.00e-01  0.00e+00  0.00e+00  0.00e+00  1.0000   
P9        ?    ?    ?    S      ? 20210202 0623   09.168800 GAU 2.00e-01  0.00e+00  0.00e+00  0.00e+00  1.0000   
TOLS      ?    ?    ?    S      ? 20210202 0623   11.879400 GAU 2.00e-01  0.00e+00  0.00e+00  0.00e+00  1.0000   
KHIA      ?    ?    ?    S      ? 20210202 0623   12.236900 GAU 2.00e-01  0.00e+00  0.00e+00  0.00e+00  1.0000   
P4        ?    ?    ?    S      ? 20210202 0623   13.334500 GAU 2.00e-01  0.00e+00  0.00e+00  0.00e+00  1.0000   
NOKA      ?    ?    ?    S      ? 20210202 0623   15.034300 GAU 2.00e-01  0.00e+00  0.00e+00  0.00e+00  1.0000   
JNAK      ?    ?    ?    S      ? 20210202 0623   16.591100 GAU 2.00e-01  0.00e+00  0.00e+00  0.00e+00  1.0000   
# EQEVENT: Label: SYNEQ_2 Loc: X 33.93 Y -10.37 Z 3.70 OT 1612213258.300000
P9        ?    ?    ?    P      ? 20210202 0031   02.765900 GAU 1.00e-01  0.00e+00  0.00e+00  0.00e+00  1.0000   
KHIA      ?    ?    ?    P      ? 20210202 0031   02.808600 GAU 1.00e-01  0.00e+00  0.00e+00  0.00e+00  1.0000   
KOLO      ?    ?    ?    P      ? 20210202 0031   04.008100 GAU 1.00e-01  0.00e+00  0.00e+00  0.00e+00  1.0000   
TOLS      ?    ?    ?    P      ? 20210202 0031   03.991000 GAU 1.00e-01  0.00e+00  0.00e+00  0.00e+00  1.0000   
P5        ?    ?    ?    P      ? 20210202 0031   04.522700 GAU 1.00e-01  0.00e+00  0.00e+00  0.00e+00  1.0000   
P4        ?    ?    ?    P      ? 20210202 0031   05.004100 GAU 1.00e-01  0.00e+00  0.00e+00  0.00e+00  1.0000   
ABTL      ?    ?    ?    P      ? 20210202 0031   05.265300 GAU 1.00e-01  0.00e+00  0.00e+00  0.00e+00  1.0000   
DLRM      ?    ?    ?    P      ? 20210202 0031   06.449600 GAU 1.00e-01  0.00e+00  0.00e+00  0.00e+00  1.0000   
ABAS      ?    ?    ?    P      ? 20210202 0031   07.361100 GAU 1.00e-01  0.00e+00  0.00e+00  0.00e+00  1.0000   
P9        ?    ?    ?    S      ? 20210202 0031   06.703900 GAU 2.00e-01  0.00e+00  0.00e+00  0.00e+00  1.0000   
KHIA      ?    ?    ?    S      ? 20210202 0031   06.653000 GAU 2.00e-01  0.00e+00  0.00e+00  0.00e+00  1.0000   
KOLO      ?    ?    ?    S      ? 20210202 0031   08.105700 GAU 2.00e-01  0.00e+00  0.00e+00  0.00e+00  1.0000   
TOLS      ?    ?    ?    S      ? 20210202 0031   08.743200 GAU 2.00e-01  0.00e+00  0.00e+00  0.00e+00  1.0000   
P5        ?    ?    ?    S      ? 20210202 0031   09.798200 GAU 2.00e-01  0.00e+00  0.00e+00  0.00e+00  1.0000   
P4        ?    ?    ?    S      ? 20210202 0031   10.728000 GAU 2.00e-01  0.00e+00  0.00e+00  0.00e+00  1.0000   
DLRM      ?    ?    ?    S      ? 20210202 0031   13.116700 GAU 2.00e-01  0.00e+00  0.00e+00  0.00e+00  1.0000   
# EQEVENT: Label: SYNEQ_3 Loc: X -6.92 Y -3.99 Z 11.50 OT 1612216865.100000
P2        ?    ?    ?    P      ? 20210202 0131   07.631000 GAU 1.00e-01  0.00e+00  0.00e+00  0.00e+00  1.0000   
P1        ?    ?    ?    P      ? 20210202 0131   07.619800 GAU 1.00e-01  0.00e+00  0.00e+00  0.00e+00  1.0000   
P3        ?    ?    ?    P      ? 20210202 0131   07.827800 GAU 1.00e-01  0.00e+00  0.00e+00  0.00e+00  1.0000   
N19       ?    ?    ?    P      ? 20210202 0131   07.864200 GAU 1.00e-01  0.00e+00  0.00e+00  0.00e+00  1.0000   
N16       ?    ?    ?    P      ? 20210202 0131   07.958500 GAU 1.00e-01  0.00e+00  0.00e+00  0.00e+00  1.0000   
N12       ?    ?    ?    P      ? 20210202 0131   08.083700 GAU 1.00e-01  0.00e+00  0.00e+00  0.00e+00  1.0000   
N15       ?    ?    ?    P      ? 20210202 0131   08.118200 GAU 1.00e-01  0.00e+00  0.00e+00  0.00e+00  1.0000   
N9        ?    ?    ?    P      ? 20210202 0131   08.211800 GAU 1.00e-01  0.00e+00  0.00e+00  0.00e+00  1.0000   
N20       ?    ?    ?    P      ? 20210202 0131   08.392400 GAU 1.00e-01  0.00e+00  0.00e+00  0.00e+00  1.0000   
N18       ?    ?    ?    P      ? 20210202 0131   08.438000 GAU 1.00e-01  0.00e+00  0.00e+00  0.00e+00  1.0000   
N14       ?    ?    ?    P      ? 20210202 0131   08.364000 GAU 1.00e-01  0.00e+00  0.00e+00  0.00e+00  1.0000   
N10       ?    ?    ?    P      ? 20210202 0131   08.225000 GAU 1.00e-01  0.00e+00  0.00e+00  0.00e+00  1.0000   
N17       ?    ?    ?    P      ? 20210202 0131   08.450300 GAU 1.00e-01  0.00e+00  0.00e+00  0.00e+00  1.0000   
N6        ?    ?    ?    P      ? 20210202 0131   08.583700 GAU 1.00e-01  0.00e+00  0.00e+00  0.00e+00  1.0000   
N7        ?    ?    ?    P      ? 20210202 0131   08.654600 GAU 1.00e-01  0.00e+00  0.00e+00  0.00e+00  1.0000   
N11       ?    ?    ?    P      ? 20210202 0131   08.661200 GAU 1.00e-01  0.00e+00  0.00e+00  0.00e+00  1.0000   
N13       ?    ?    ?    P      ? 20210202 0131   08.592200 GAU 1.00e-01  0.00e+00  0.00e+00  0.00e+00  1.0000   
SHIF      ?    ?    ?    P      ? 20210202 0131   08.669700 GAU 1.00e-01  0.00e+00  0.00e+00  0.00e+00  1.0000   
N4        ?    ?    ?    P      ? 20210202 0131   08.776900 GAU 1.00e-01  0.00e+00  0.00e+00  0.00e+00  1.0000   
P2        ?    ?    ?    S      ? 20210202 0131   09.901700 GAU 2.00e-01  0.00e+00  0.00e+00  0.00e+00  1.0000   
P1        ?    ?    ?    S      ? 20210202 0131   09.584800 GAU 2.00e-01  0.00e+00  0.00e+00  0.00e+00  1.0000   
P3        ?    ?    ?    S      ? 20210202 0131   10.112200 GAU 2.00e-01  0.00e+00  0.00e+00  0.00e+00  1.0000   
N19       ?    ?    ?    S      ? 20210202 0131   10.206900 GAU 2.00e-01  0.00e+00  0.00e+00  0.00e+00  1.0000   
N16       ?    ?    ?    S      ? 20210202 0131   10.026700 GAU 2.00e-01  0.00e+00  0.00e+00  0.00e+00  1.0000   
N12       ?    ?    ?    S      ? 20210202 0131   10.824600 GAU 2.00e-01  0.00e+00  0.00e+00  0.00e+00  1.0000   
N15       ?    ?    ?    S      ? 20210202 0131   10.740400 GAU 2.00e-01  0.00e+00  0.00e+00  0.00e+00  1.0000   
N9        ?    ?    ?    S      ? 20210202 0131   10.687900 GAU 2.00e-01  0.00e+00  0.00e+00  0.00e+00  1.0000   
N20       ?    ?    ?    S      ? 20210202 0131   10.597300 GAU 2.00e-01  0.00e+00  0.00e+00  0.00e+00  1.0000   
N18       ?    ?    ?    S      ? 20210202 0131   10.778300 GAU 2.00e-01  0.00e+00  0.00e+00  0.00e+00  1.0000   
N14       ?    ?    ?    S      ? 20210202 0131   10.848200 GAU 2.00e-01  0.00e+00  0.00e+00  0.00e+00  1.0000   
N10       ?    ?    ?    S      ? 20210202 0131   10.862800 GAU 2.00e-01  0.00e+00  0.00e+00  0.00e+00  1.0000   
N17       ?    ?    ?    S      ? 20210202 0131   11.170800 GAU 2.00e-01  0.00e+00  0.00e+00  0.00e+00  1.0000   
N6        ?    ?    ?    S      ? 20210202 0131   10.935300 GAU 2.00e-01  0.00e+00  0.00e+00  0.00e+00  1.0000   
N7        ?    ?    ?    S      ? 20210202 0131   11.417500 GAU 2.00e-01  0.00e+00  0.00e+00  0.00e+00  1.0000   
N11       ?    ?    ?    S      ? 20210202 0131   11.201500 GAU 2.00e-01  0.00e+00  0.00e+00  0.00e+00  1.0000   
N13       ?    ?    ?    S      ? 20210202 0131   11.698900 GAU 2.00e-01  0.00e+00  0.00e+00  0.00e+00  1.0000   
# EQEVENT: Label: SYNEQ_4 Loc: X 31.23 Y -19.02 Z 10.00 OT 1612327255.000000
P9        ?    ?    ?    P      ? 20210202 0811   00.093300 GAU 1.00e-01  0.00e+00  0.00e+00  0.00e+00  1.0000   
JNAK      ?    ?    ?    P      ? 20210202 0811   00.367800 GAU 1.00e-01  0.00e+00  0.00e+00  0.00e+00  1.0000   
TOLS      ?    ?    ?    P      ? 20210202 0811   00.771000 GAU 1.00e-01  0.00e+00  0.00e+00  0.00e+00  1.0000   
DLRM      ?    ?    ?    P      ? 20210202 0811   01.324900 GAU 1.00e-01  0.00e+00  0.00e+00  0.00e+00  1.0000   
P4        ?    ?    ?    P      ? 20210202 0811   01.498100 GAU 1.00e-01  0.00e+00  0.00e+00  0.00e+00  1.0000   
ABTL      ?    ?    ?    P      ? 20210202 0811   02.333900 GAU 1.00e-01  0.00e+00  0.00e+00  0.00e+00  1.0000   
N7        ?    ?    ?    P      ? 20210202 0811   03.974600 GAU 1.00e-01  0.00e+00  0.00e+00  0.00e+00  1.0000   
P9        ?    ?    ?    S      ? 20210202 0811   04.360100 GAU 2.00e-01  0.00e+00  0.00e+00  0.00e+00  1.0000   
JNAK      ?    ?    ?    S      ? 20210202 0811   05.300800 GAU 2.00e-01  0.00e+00  0.00e+00  0.00e+00  1.0000   
TOLS      ?    ?    ?    S      ? 20210202 0811   05.569200 GAU 2.00e-01  0.00e+00  0.00e+00  0.00e+00  1.0000   
DLRM      ?    ?    ?    S      ? 20210202 0811   06.530400 GAU 2.00e-01  0.00e+00  0.00e+00  0.00e+00  1.0000   
P4        ?    ?    ?    S      ? 20210202 0811   06.333800 GAU 2.00e-01  0.00e+00  0.00e+00  0.00e+00  1.0000   
ABTL      ?    ?    ?    S      ? 20210202 0811   08.458700 GAU 2.00e-01  0.00e+00  0.00e+00  0.00e+00  1.0000   
# EQEVENT: Label: SYNEQ_5 Loc: X 30.09 Y 5.80 Z 9.20 OT 1612388160.900000
ABAD      ?    ?    ?    P      ? 20210202 0106   03.336900 GAU 1.00e-01  0.00e+00  0.00e+00  0.00e+00  1.0000   
P9        ?    ?    ?    P      ? 20210202 0106   04.012000 GAU 1.00e-01  0.00e+00  0.00e+00  0.00e+00  1.0000   
ABTL      ?    ?    ?    P      ? 20210202 0106   05.544800 GAU 1.00e-01  0.00e+00  0.00e+00  0.00e+00  1.0000   
TOLS      ?    ?    ?    P      ? 20210202 0106   05.587400 GAU 1.00e-01  0.00e+00  0.00e+00  0.00e+00  1.0000   
AHRM      ?    ?    ?    P      ? 20210202 0106   05.732700 GAU 1.00e-01  0.00e+00  0.00e+00  0.00e+00  1.0000   
KHIA      ?    ?    ?    P      ? 20210202 0106   06.224800 GAU 1.00e-01  0.00e+00  0.00e+00  0.00e+00  1.0000   
ABAD      ?    ?    ?    S      ? 20210202 0106   05.296600 GAU 2.00e-01  0.00e+00  0.00e+00  0.00e+00  1.0000   
P9        ?    ?    ?    S      ? 20210202 0106   06.783300 GAU 2.00e-01  0.00e+00  0.00e+00  0.00e+00  1.0000   
ABTL      ?    ?    ?    S      ? 20210202 0106   09.601000 GAU 2.00e-01  0.00e+00  0.00e+00  0.00e+00  1.0000   
TOLS      ?    ?    ?    S      ? 20210202 0106   09.705500 GAU 2.00e-01  0.00e+00  0.00e+00  0.00e+00  1.0000   
# EQEVENT: Label: SYNEQ_6 Loc: X 12.51 Y -41.22 Z 5.90 OT 1612484467.200000
DLRM      ?    ?    ?    P      ? 20210202 0351   09.302000 GAU 1.00e-01  0.00e+00  0.00e+00  0.00e+00  1.0000   
KOLO      ?    ?    ?    P      ? 20210202 0351   10.880300 GAU 1.00e-01  0.00e+00  0.00e+00  0.00e+00  1.0000   
ABAS      ?    ?    ?    P      ? 20210202 0351   11.828200 GAU 1.00e-01  0.00e+00  0.00e+00  0.00e+00  1.0000   
KHIA      ?    ?    ?    P      ? 20210202 0351   13.172100 GAU 1.00e-01  0.00e+00  0.00e+00  0.00e+00  1.0000   
AHRM      ?    ?    ?    P      ? 20210202 0351   13.821800 GAU 1.00e-01  0.00e+00  0.00e+00  0.00e+00  1.0000   
N12       ?    ?    ?    P      ? 20210202 0351   15.400600 GAU 1.00e-01  0.00e+00  0.00e+00  0.00e+00  1.0000   
DLRM      ?    ?    ?    S      ? 20210202 0351   10.991400 GAU 2.00e-01  0.00e+00  0.00e+00  0.00e+00  1.0000   
KOLO      ?    ?    ?    S      ? 20210202 0351   14.116800 GAU 2.00e-01  0.00e+00  0.00e+00  0.00e+00  1.0000   
ABAS      ?    ?    ?    S      ? 20210202 0351   15.874000 GAU 2.00e-01  0.00e+00  0.00e+00  0.00e+00  1.0000   
KHIA      ?    ?    ?    S      ? 20210202 0351   18.330800 GAU 2.00e-01  0.00e+00  0.00e+00  0.00e+00  1.0000   
# EQEVENT: Label: SYNEQ_7 Loc: X 30.66 Y -27.55 Z 14.70 OT 1612619023.800000
KOLO      ?    ?    ?    P      ? 20210202 1713   47.144800 GAU 1.00e-01  0.00e+00  0.00e+00  0.00e+00  1.0000   
AHRM      ?    ?    ?    P      ? 20210202 1713   47.586200 GAU 1.00e-01  0.00e+00  0.00e+00  0.00e+00  1.0000   
ABAS      ?    ?    ?    P      ? 20210202 1713   49.430000 GAU 1.00e-01  0.00e+00  0.00e+00  0.00e+00  1.0000   
DLRM      ?    ?    ?    P      ? 20210202 1713   49.417400 GAU 1.00e-01  0.00e+00  0.00e+00  0.00e+00  1.0000   
KOLO      ?    ?    ?    S      ? 20210202 1713   49.933100 GAU 2.00e-01  0.00e+00  0.00e+00  0.00e+00  1.0000   
ABAS      ?    ?    ?    S      ? 20210202 1713   53.723700 GAU 2.00e-01  0.00e+00  0.00e+00  0.00e+00  1.0000   
DLRM      ?    ?    ?    S      ? 20210202 1713   53.957100 GAU 2.00e-01  0.00e+00  0.00e+00  0.00e+00  1.0000   
