# EQEVENT: Label: SYNEQ_38 Loc: X 287.91 Y -6.06 Z 7.10 OT 1620146467.800000
P5        ?    ?    ?    P      ? 20210505 2111   28.940000 GAU 5.00e-02  0.00e+00  0.00e+00  0.00e+00  1.0000   
P9        ?    ?    ?    P      ? 20210505 2111   29.523200 GAU 5.00e-02  0.00e+00  0.00e+00  0.00e+00  1.0000   
N19       ?    ?    ?    P      ? 20210505 2111   28.096000 GAU 5.00e-02  0.00e+00  0.00e+00  0.00e+00  1.0000   
NOKA      ?    ?    ?    P      ? 20210505 2111   25.203100 GAU 5.00e-02  0.00e+00  0.00e+00  0.00e+00  1.0000   
N10       ?    ?    ?    P      ? 20210505 2111   28.929900 GAU 5.00e-02  0.00e+00  0.00e+00  0.00e+00  1.0000   
SHIF      ?    ?    ?    P      ? 20210505 2111   25.925500 GAU 5.00e-02  0.00e+00  0.00e+00  0.00e+00  1.0000   
N7        ?    ?    ?    P      ? 20210505 2111   29.099300 GAU 5.00e-02  0.00e+00  0.00e+00  0.00e+00  1.0000   
N17       ?    ?    ?    P      ? 20210505 2111   27.944000 GAU 5.00e-02  0.00e+00  0.00e+00  0.00e+00  1.0000   
N11       ?    ?    ?    P      ? 20210505 2111   28.735000 GAU 5.00e-02  0.00e+00  0.00e+00  0.00e+00  1.0000   
P4        ?    ?    ?    P      ? 20210505 2111   28.923100 GAU 5.00e-02  0.00e+00  0.00e+00  0.00e+00  1.0000   
N15       ?    ?    ?    P      ? 20210505 2111   28.523800 GAU 5.00e-02  0.00e+00  0.00e+00  0.00e+00  1.0000   
TOLS      ?    ?    ?    P      ? 20210505 2111   29.098700 GAU 5.00e-02  0.00e+00  0.00e+00  0.00e+00  1.0000   
N18       ?    ?    ?    P      ? 20210505 2111   28.135300 GAU 5.00e-02  0.00e+00  0.00e+00  0.00e+00  1.0000   
KHRK      ?    ?    ?    P      ? 20210505 2111   21.767300 GAU 5.00e-02  0.00e+00  0.00e+00  0.00e+00  1.0000   
N2        ?    ?    ?    P      ? 20210505 2111   30.150400 GAU 5.00e-02  0.00e+00  0.00e+00  0.00e+00  1.0000   
P9        ?    ?    ?    S      ? 20210505 2111   47.291900 GAU 1.00e-01  0.00e+00  0.00e+00  0.00e+00  1.0000   
NOKA      ?    ?    ?    S      ? 20210505 2111   39.286100 GAU 1.00e-01  0.00e+00  0.00e+00  0.00e+00  1.0000   
N10       ?    ?    ?    S      ? 20210505 2111   46.019400 GAU 1.00e-01  0.00e+00  0.00e+00  0.00e+00  1.0000   
N7        ?    ?    ?    S      ? 20210505 2111   46.320400 GAU 1.00e-01  0.00e+00  0.00e+00  0.00e+00  1.0000   
N11       ?    ?    ?    S      ? 20210505 2111   45.600100 GAU 1.00e-01  0.00e+00  0.00e+00  0.00e+00  1.0000   
N17       ?    ?    ?    S      ? 20210505 2111   44.118600 GAU 1.00e-01  0.00e+00  0.00e+00  0.00e+00  1.0000   
KHRK      ?    ?    ?    S      ? 20210505 2111   33.074800 GAU 1.00e-01  0.00e+00  0.00e+00  0.00e+00  1.0000   
# EQEVENT: Label: SYNEQ_39 Loc: X 303.64 Y -24.86 Z 40.60 OT 1620146472.800000
N13       ?    ?    ?    P      ? 20210505 2111   30.665200 GAU 5.00e-02  0.00e+00  0.00e+00  0.00e+00  1.0000   
N9        ?    ?    ?    P      ? 20210505 2111   31.031600 GAU 5.00e-02  0.00e+00  0.00e+00  0.00e+00  1.0000   
N3        ?    ?    ?    P      ? 20210505 2111   32.078900 GAU 5.00e-02  0.00e+00  0.00e+00  0.00e+00  1.0000   
KHIA      ?    ?    ?    P      ? 20210505 2111   32.976700 GAU 5.00e-02  0.00e+00  0.00e+00  0.00e+00  1.0000   
JNAK      ?    ?    ?    P      ? 20210505 2111   33.783200 GAU 5.00e-02  0.00e+00  0.00e+00  0.00e+00  1.0000   
N4        ?    ?    ?    P      ? 20210505 2111   31.584200 GAU 5.00e-02  0.00e+00  0.00e+00  0.00e+00  1.0000   
P2        ?    ?    ?    P      ? 20210505 2111   30.649300 GAU 5.00e-02  0.00e+00  0.00e+00  0.00e+00  1.0000   
DLRM      ?    ?    ?    P      ? 20210505 2111   35.861200 GAU 5.00e-02  0.00e+00  0.00e+00  0.00e+00  1.0000   
ABAD      ?    ?    ?    P      ? 20210505 2111   31.469400 GAU 5.00e-02  0.00e+00  0.00e+00  0.00e+00  1.0000   
P3        ?    ?    ?    P      ? 20210505 2111   30.655700 GAU 5.00e-02  0.00e+00  0.00e+00  0.00e+00  1.0000   
P1        ?    ?    ?    P      ? 20210505 2111   30.618400 GAU 5.00e-02  0.00e+00  0.00e+00  0.00e+00  1.0000   
ABAS      ?    ?    ?    P      ? 20210505 2111   39.227600 GAU 5.00e-02  0.00e+00  0.00e+00  0.00e+00  1.0000   
KOLO      ?    ?    ?    P      ? 20210505 2111   36.012900 GAU 5.00e-02  0.00e+00  0.00e+00  0.00e+00  1.0000   
SHIF      ?    ?    ?    P      ? 20210505 2111   28.225500 GAU 5.00e-02  0.00e+00  0.00e+00  0.00e+00  1.0000   
N14       ?    ?    ?    P      ? 20210505 2111   30.568900 GAU 5.00e-02  0.00e+00  0.00e+00  0.00e+00  1.0000   
N6        ?    ?    ?    P      ? 20210505 2111   31.371200 GAU 5.00e-02  0.00e+00  0.00e+00  0.00e+00  1.0000   
NOKA      ?    ?    ?    P      ? 20210505 2111   27.281500 GAU 5.00e-02  0.00e+00  0.00e+00  0.00e+00  1.0000   
N1        ?    ?    ?    P      ? 20210505 2111   32.367500 GAU 5.00e-02  0.00e+00  0.00e+00  0.00e+00  1.0000   
AHRM      ?    ?    ?    P      ? 20210505 2111   34.106500 GAU 5.00e-02  0.00e+00  0.00e+00  0.00e+00  1.0000   
N10       ?    ?    ?    P      ? 20210505 2111   31.057400 GAU 5.00e-02  0.00e+00  0.00e+00  0.00e+00  1.0000   
CAMP      ?    ?    ?    P      ? 20210505 2111   32.063400 GAU 5.00e-02  0.00e+00  0.00e+00  0.00e+00  1.0000   
N20       ?    ?    ?    P      ? 20210505 2111   29.778100 GAU 5.00e-02  0.00e+00  0.00e+00  0.00e+00  1.0000   
N5        ?    ?    ?    P      ? 20210505 2111   31.985800 GAU 5.00e-02  0.00e+00  0.00e+00  0.00e+00  1.0000   
CAMP      ?    ?    ?    S      ? 20210505 2111   47.685000 GAU 1.00e-01  0.00e+00  0.00e+00  0.00e+00  1.0000   
ABAD      ?    ?    ?    S      ? 20210505 2111   46.523600 GAU 1.00e-01  0.00e+00  0.00e+00  0.00e+00  1.0000   
ABAS      ?    ?    ?    S      ? 20210505 2112   00.904900 GAU 1.00e-01  0.00e+00  0.00e+00  0.00e+00  1.0000   
KHIA      ?    ?    ?    S      ? 20210505 2111   49.393600 GAU 1.00e-01  0.00e+00  0.00e+00  0.00e+00  1.0000   
DLRM      ?    ?    ?    S      ? 20210505 2111   54.490800 GAU 1.00e-01  0.00e+00  0.00e+00  0.00e+00  1.0000   
P2        ?    ?    ?    S      ? 20210505 2111   45.094800 GAU 1.00e-01  0.00e+00  0.00e+00  0.00e+00  1.0000   
N4        ?    ?    ?    S      ? 20210505 2111   46.811200 GAU 1.00e-01  0.00e+00  0.00e+00  0.00e+00  1.0000   
N20       ?    ?    ?    S      ? 20210505 2111   43.329100 GAU 1.00e-01  0.00e+00  0.00e+00  0.00e+00  1.0000   
SHIF      ?    ?    ?    S      ? 20210505 2111   40.658600 GAU 1.00e-01  0.00e+00  0.00e+00  0.00e+00  1.0000   
N9        ?    ?    ?    S      ? 20210505 2111   45.782000 GAU 1.00e-01  0.00e+00  0.00e+00  0.00e+00  1.0000   
# EQEVENT: Label: SYNEQ_40 Loc: X 299.32 Y -18.68 Z 15.00 OT 1620211525.500000
N11       ?    ?    ?    P      ? 20210505 1515   43.666700 GAU 5.00e-02  0.00e+00  0.00e+00  0.00e+00  1.0000   
ABAS      ?    ?    ?    P      ? 20210505 1515   52.621900 GAU 5.00e-02  0.00e+00  0.00e+00  0.00e+00  1.0000   
N17       ?    ?    ?    P      ? 20210505 1515   43.007800 GAU 5.00e-02  0.00e+00  0.00e+00  0.00e+00  1.0000   
N4        ?    ?    ?    P      ? 20210505 1515   44.569300 GAU 5.00e-02  0.00e+00  0.00e+00  0.00e+00  1.0000   
N7        ?    ?    ?    P      ? 20210505 1515   44.156300 GAU 5.00e-02  0.00e+00  0.00e+00  0.00e+00  1.0000   
N5        ?    ?    ?    P      ? 20210505 1515   44.944300 GAU 5.00e-02  0.00e+00  0.00e+00  0.00e+00  1.0000   
KHRK      ?    ?    ?    P      ? 20210505 1515   37.892900 GAU 5.00e-02  0.00e+00  0.00e+00  0.00e+00  1.0000   
TOLS      ?    ?    ?    P      ? 20210505 1515   44.029200 GAU 5.00e-02  0.00e+00  0.00e+00  0.00e+00  1.0000   
CAMP      ?    ?    ?    P      ? 20210505 1515   45.246700 GAU 5.00e-02  0.00e+00  0.00e+00  0.00e+00  1.0000   
NOKA      ?    ?    ?    P      ? 20210505 1515   40.083800 GAU 5.00e-02  0.00e+00  0.00e+00  0.00e+00  1.0000   
N15       ?    ?    ?    P      ? 20210505 1515   43.541800 GAU 5.00e-02  0.00e+00  0.00e+00  0.00e+00  1.0000   
N14       ?    ?    ?    P      ? 20210505 1515   43.326200 GAU 5.00e-02  0.00e+00  0.00e+00  0.00e+00  1.0000   
N9        ?    ?    ?    P      ? 20210505 1515   44.047300 GAU 5.00e-02  0.00e+00  0.00e+00  0.00e+00  1.0000   
N6        ?    ?    ?    P      ? 20210505 1515   44.360700 GAU 5.00e-02  0.00e+00  0.00e+00  0.00e+00  1.0000   
P4        ?    ?    ?    P      ? 20210505 1515   43.748100 GAU 5.00e-02  0.00e+00  0.00e+00  0.00e+00  1.0000   
N18       ?    ?    ?    P      ? 20210505 1515   43.192800 GAU 5.00e-02  0.00e+00  0.00e+00  0.00e+00  1.0000   
KHRK      ?    ?    ?    S      ? 20210505 1515   47.915400 GAU 1.00e-01  0.00e+00  0.00e+00  0.00e+00  1.0000   
N7        ?    ?    ?    S      ? 20210505 1515   59.244000 GAU 1.00e-01  0.00e+00  0.00e+00  0.00e+00  1.0000   
P4        ?    ?    ?    S      ? 20210505 1515   58.388500 GAU 1.00e-01  0.00e+00  0.00e+00  0.00e+00  1.0000   
ABAS      ?    ?    ?    S      ? 20210505 1516   14.787300 GAU 1.00e-01  0.00e+00  0.00e+00  0.00e+00  1.0000   
N17       ?    ?    ?    S      ? 20210505 1515   57.022900 GAU 1.00e-01  0.00e+00  0.00e+00  0.00e+00  1.0000   
N14       ?    ?    ?    S      ? 20210505 1515   58.068200 GAU 1.00e-01  0.00e+00  0.00e+00  0.00e+00  1.0000   
N9        ?    ?    ?    S      ? 20210505 1515   59.076700 GAU 1.00e-01  0.00e+00  0.00e+00  0.00e+00  1.0000   
N18       ?    ?    ?    S      ? 20210505 1515   57.364100 GAU 1.00e-01  0.00e+00  0.00e+00  0.00e+00  1.0000   
# EQEVENT: Label: SYNEQ_41 Loc: X 309.48 Y -27.02 Z 28.80 OT 1620211527.700000
CAMP      ?    ?    ?    P      ? 20210505 1515   45.891000 GAU 5.00e-02  0.00e+00  0.00e+00  0.00e+00  1.0000   
N2        ?    ?    ?    P      ? 20210505 1515   45.850500 GAU 5.00e-02  0.00e+00  0.00e+00  0.00e+00  1.0000   
N1        ?    ?    ?    P      ? 20210505 1515   46.221300 GAU 5.00e-02  0.00e+00  0.00e+00  0.00e+00  1.0000   
JNAK      ?    ?    ?    P      ? 20210505 1515   47.482600 GAU 5.00e-02  0.00e+00  0.00e+00  0.00e+00  1.0000   
DLRM      ?    ?    ?    P      ? 20210505 1515   49.642200 GAU 5.00e-02  0.00e+00  0.00e+00  0.00e+00  1.0000   
N3        ?    ?    ?    P      ? 20210505 1515   45.817800 GAU 5.00e-02  0.00e+00  0.00e+00  0.00e+00  1.0000   
AHRM      ?    ?    ?    P      ? 20210505 1515   47.719200 GAU 5.00e-02  0.00e+00  0.00e+00  0.00e+00  1.0000   
KHIA      ?    ?    ?    P      ? 20210505 1515   46.639000 GAU 5.00e-02  0.00e+00  0.00e+00  0.00e+00  1.0000   
KOLO      ?    ?    ?    P      ? 20210505 1515   49.799000 GAU 5.00e-02  0.00e+00  0.00e+00  0.00e+00  1.0000   
KOLO      ?    ?    ?    S      ? 20210505 1516   07.634200 GAU 1.00e-01  0.00e+00  0.00e+00  0.00e+00  1.0000   
N1        ?    ?    ?    S      ? 20210505 1516   01.189900 GAU 1.00e-01  0.00e+00  0.00e+00  0.00e+00  1.0000   
AHRM      ?    ?    ?    S      ? 20210505 1516   03.789700 GAU 1.00e-01  0.00e+00  0.00e+00  0.00e+00  1.0000   
N2        ?    ?    ?    S      ? 20210505 1516   00.690300 GAU 1.00e-01  0.00e+00  0.00e+00  0.00e+00  1.0000   
# EQEVENT: Label: SYNEQ_42 Loc: X 302.17 Y -24.24 Z 8.70 OT 1620247884.700000
NOKA      ?    ?    ?    P      ? 20210505 0121   38.168600 GAU 5.00e-02  0.00e+00  0.00e+00  0.00e+00  1.0000   
N15       ?    ?    ?    P      ? 20210505 0121   41.684100 GAU 5.00e-02  0.00e+00  0.00e+00  0.00e+00  1.0000   
N20       ?    ?    ?    P      ? 20210505 0121   40.804400 GAU 5.00e-02  0.00e+00  0.00e+00  0.00e+00  1.0000   
N10       ?    ?    ?    P      ? 20210505 0121   42.130500 GAU 5.00e-02  0.00e+00  0.00e+00  0.00e+00  1.0000   
SHIF      ?    ?    ?    P      ? 20210505 0121   39.087600 GAU 5.00e-02  0.00e+00  0.00e+00  0.00e+00  1.0000   
N18       ?    ?    ?    P      ? 20210505 0121   41.319500 GAU 5.00e-02  0.00e+00  0.00e+00  0.00e+00  1.0000   
KHRK      ?    ?    ?    P      ? 20210505 0121   36.463200 GAU 5.00e-02  0.00e+00  0.00e+00  0.00e+00  1.0000   
N9        ?    ?    ?    P      ? 20210505 0121   42.240800 GAU 5.00e-02  0.00e+00  0.00e+00  0.00e+00  1.0000   
N17       ?    ?    ?    P      ? 20210505 0121   41.275700 GAU 5.00e-02  0.00e+00  0.00e+00  0.00e+00  1.0000   
KHIA      ?    ?    ?    P      ? 20210505 0121   44.356100 GAU 5.00e-02  0.00e+00  0.00e+00  0.00e+00  1.0000   
N5        ?    ?    ?    P      ? 20210505 0121   43.176800 GAU 5.00e-02  0.00e+00  0.00e+00  0.00e+00  1.0000   
P2        ?    ?    ?    P      ? 20210505 0121   41.698200 GAU 5.00e-02  0.00e+00  0.00e+00  0.00e+00  1.0000   
N14       ?    ?    ?    P      ? 20210505 0121   41.641200 GAU 5.00e-02  0.00e+00  0.00e+00  0.00e+00  1.0000   
N4        ?    ?    ?    P      ? 20210505 0121   42.849800 GAU 5.00e-02  0.00e+00  0.00e+00  0.00e+00  1.0000   
N19       ?    ?    ?    P      ? 20210505 0121   41.289700 GAU 5.00e-02  0.00e+00  0.00e+00  0.00e+00  1.0000   
TOLS      ?    ?    ?    P      ? 20210505 0121   42.216400 GAU 5.00e-02  0.00e+00  0.00e+00  0.00e+00  1.0000   
N6        ?    ?    ?    P      ? 20210505 0121   42.461200 GAU 5.00e-02  0.00e+00  0.00e+00  0.00e+00  1.0000   
P1        ?    ?    ?    P      ? 20210505 0121   41.716900 GAU 5.00e-02  0.00e+00  0.00e+00  0.00e+00  1.0000   
N1        ?    ?    ?    P      ? 20210505 0121   43.562500 GAU 5.00e-02  0.00e+00  0.00e+00  0.00e+00  1.0000   
JNAK      ?    ?    ?    P      ? 20210505 0121   45.134900 GAU 5.00e-02  0.00e+00  0.00e+00  0.00e+00  1.0000   
N3        ?    ?    ?    P      ? 20210505 0121   43.180200 GAU 5.00e-02  0.00e+00  0.00e+00  0.00e+00  1.0000   
N7        ?    ?    ?    P      ? 20210505 0121   42.398500 GAU 5.00e-02  0.00e+00  0.00e+00  0.00e+00  1.0000   
N11       ?    ?    ?    P      ? 20210505 0121   41.892000 GAU 5.00e-02  0.00e+00  0.00e+00  0.00e+00  1.0000   
CAMP      ?    ?    ?    P      ? 20210505 0121   43.274800 GAU 5.00e-02  0.00e+00  0.00e+00  0.00e+00  1.0000   
N2        ?    ?    ?    P      ? 20210505 0121   43.355300 GAU 5.00e-02  0.00e+00  0.00e+00  0.00e+00  1.0000   
P4        ?    ?    ?    P      ? 20210505 0121   41.903200 GAU 5.00e-02  0.00e+00  0.00e+00  0.00e+00  1.0000   
NOKA      ?    ?    ?    S      ? 20210505 0121   49.132400 GAU 1.00e-01  0.00e+00  0.00e+00  0.00e+00  1.0000   
JNAK      ?    ?    ?    S      ? 20210505 0122   01.593700 GAU 1.00e-01  0.00e+00  0.00e+00  0.00e+00  1.0000   
N9        ?    ?    ?    S      ? 20210505 0121   56.359400 GAU 1.00e-01  0.00e+00  0.00e+00  0.00e+00  1.0000   
P4        ?    ?    ?    S      ? 20210505 0121   55.731600 GAU 1.00e-01  0.00e+00  0.00e+00  0.00e+00  1.0000   
N6        ?    ?    ?    S      ? 20210505 0121   56.788600 GAU 1.00e-01  0.00e+00  0.00e+00  0.00e+00  1.0000   
N20       ?    ?    ?    S      ? 20210505 0121   53.833200 GAU 1.00e-01  0.00e+00  0.00e+00  0.00e+00  1.0000   
CAMP      ?    ?    ?    S      ? 20210505 0121   58.319600 GAU 1.00e-01  0.00e+00  0.00e+00  0.00e+00  1.0000   
N15       ?    ?    ?    S      ? 20210505 0121   55.557100 GAU 1.00e-01  0.00e+00  0.00e+00  0.00e+00  1.0000   
N10       ?    ?    ?    S      ? 20210505 0121   56.190900 GAU 1.00e-01  0.00e+00  0.00e+00  0.00e+00  1.0000   
KHIA      ?    ?    ?    S      ? 20210505 0122   00.266100 GAU 1.00e-01  0.00e+00  0.00e+00  0.00e+00  1.0000   
N14       ?    ?    ?    S      ? 20210505 0121   55.363200 GAU 1.00e-01  0.00e+00  0.00e+00  0.00e+00  1.0000   
N19       ?    ?    ?    S      ? 20210505 0121   54.465400 GAU 1.00e-01  0.00e+00  0.00e+00  0.00e+00  1.0000   
N18       ?    ?    ?    S      ? 20210505 0121   54.860700 GAU 1.00e-01  0.00e+00  0.00e+00  0.00e+00  1.0000   
# EQEVENT: Label: SYNEQ_43 Loc: X 295.82 Y -28.17 Z 11.30 OT 1620313949.700000
P5        ?    ?    ?    P      ? 20210505 1942   46.872800 GAU 5.00e-02  0.00e+00  0.00e+00  0.00e+00  1.0000   
N5        ?    ?    ?    P      ? 20210505 1942   47.763200 GAU 5.00e-02  0.00e+00  0.00e+00  0.00e+00  1.0000   
N7        ?    ?    ?    P      ? 20210505 1942   46.994700 GAU 5.00e-02  0.00e+00  0.00e+00  0.00e+00  1.0000   
N1        ?    ?    ?    P      ? 20210505 1942   48.229900 GAU 5.00e-02  0.00e+00  0.00e+00  0.00e+00  1.0000   
P3        ?    ?    ?    P      ? 20210505 1942   46.521800 GAU 5.00e-02  0.00e+00  0.00e+00  0.00e+00  1.0000   
N2        ?    ?    ?    P      ? 20210505 1942   47.914500 GAU 5.00e-02  0.00e+00  0.00e+00  0.00e+00  1.0000   
AHRM      ?    ?    ?    P      ? 20210505 1942   50.555600 GAU 5.00e-02  0.00e+00  0.00e+00  0.00e+00  1.0000   
KHRK      ?    ?    ?    P      ? 20210505 1942   40.389000 GAU 5.00e-02  0.00e+00  0.00e+00  0.00e+00  1.0000   
SHIF      ?    ?    ?    P      ? 20210505 1942   43.916500 GAU 5.00e-02  0.00e+00  0.00e+00  0.00e+00  1.0000   
N4        ?    ?    ?    P      ? 20210505 1942   47.457000 GAU 5.00e-02  0.00e+00  0.00e+00  0.00e+00  1.0000   
NOKA      ?    ?    ?    P      ? 20210505 1942   43.247400 GAU 5.00e-02  0.00e+00  0.00e+00  0.00e+00  1.0000   
CAMP      ?    ?    ?    P      ? 20210505 1942   47.891700 GAU 5.00e-02  0.00e+00  0.00e+00  0.00e+00  1.0000   
P4        ?    ?    ?    P      ? 20210505 1942   46.781400 GAU 5.00e-02  0.00e+00  0.00e+00  0.00e+00  1.0000   
CAMP      ?    ?    ?    S      ? 20210505 1943   02.954900 GAU 1.00e-01  0.00e+00  0.00e+00  0.00e+00  1.0000   
N5        ?    ?    ?    S      ? 20210505 1943   02.581000 GAU 1.00e-01  0.00e+00  0.00e+00  0.00e+00  1.0000   
N4        ?    ?    ?    S      ? 20210505 1943   01.815100 GAU 1.00e-01  0.00e+00  0.00e+00  0.00e+00  1.0000   
