# EQEVENT: Label: SYNEQ_33 Loc: X 307.24 Y -32.94 Z 11.10 OT 1619975003.200000
JNAK      ?    ?    ?    P      ? 20210505 2133   41.849900 GAU 5.00e-02  0.00e+00  0.00e+00  0.00e+00  1.0000   
P1        ?    ?    ?    P      ? 20210505 2133   38.490600 GAU 5.00e-02  0.00e+00  0.00e+00  0.00e+00  1.0000   
N1        ?    ?    ?    P      ? 20210505 2133   40.458300 GAU 5.00e-02  0.00e+00  0.00e+00  0.00e+00  1.0000   
AHRM      ?    ?    ?    P      ? 20210505 2133   42.260200 GAU 5.00e-02  0.00e+00  0.00e+00  0.00e+00  1.0000   
ABTL      ?    ?    ?    P      ? 20210505 2133   37.018100 GAU 5.00e-02  0.00e+00  0.00e+00  0.00e+00  1.0000   
N14       ?    ?    ?    P      ? 20210505 2133   38.428500 GAU 5.00e-02  0.00e+00  0.00e+00  0.00e+00  1.0000   
N11       ?    ?    ?    P      ? 20210505 2133   38.709900 GAU 5.00e-02  0.00e+00  0.00e+00  0.00e+00  1.0000   
N20       ?    ?    ?    P      ? 20210505 2133   37.623000 GAU 5.00e-02  0.00e+00  0.00e+00  0.00e+00  1.0000   
ABAD      ?    ?    ?    P      ? 20210505 2133   39.478300 GAU 5.00e-02  0.00e+00  0.00e+00  0.00e+00  1.0000   
N10       ?    ?    ?    P      ? 20210505 2133   39.045700 GAU 5.00e-02  0.00e+00  0.00e+00  0.00e+00  1.0000   
N13       ?    ?    ?    P      ? 20210505 2133   38.639300 GAU 5.00e-02  0.00e+00  0.00e+00  0.00e+00  1.0000   
ABAS      ?    ?    ?    P      ? 20210505 2133   47.511300 GAU 5.00e-02  0.00e+00  0.00e+00  0.00e+00  1.0000   
N15       ?    ?    ?    P      ? 20210505 2133   38.575300 GAU 5.00e-02  0.00e+00  0.00e+00  0.00e+00  1.0000   
N4        ?    ?    ?    P      ? 20210505 2133   39.685500 GAU 5.00e-02  0.00e+00  0.00e+00  0.00e+00  1.0000   
P9        ?    ?    ?    P      ? 20210505 2133   39.336600 GAU 5.00e-02  0.00e+00  0.00e+00  0.00e+00  1.0000   
P4        ?    ?    ?    P      ? 20210505 2133   38.675000 GAU 5.00e-02  0.00e+00  0.00e+00  0.00e+00  1.0000   
KHRK      ?    ?    ?    P      ? 20210505 2133   34.134800 GAU 5.00e-02  0.00e+00  0.00e+00  0.00e+00  1.0000   
N19       ?    ?    ?    P      ? 20210505 2133   38.049800 GAU 5.00e-02  0.00e+00  0.00e+00  0.00e+00  1.0000   
DLRM      ?    ?    ?    P      ? 20210505 2133   43.973600 GAU 5.00e-02  0.00e+00  0.00e+00  0.00e+00  1.0000   
N3        ?    ?    ?    P      ? 20210505 2133   40.108900 GAU 5.00e-02  0.00e+00  0.00e+00  0.00e+00  1.0000   
N6        ?    ?    ?    P      ? 20210505 2133   39.256100 GAU 5.00e-02  0.00e+00  0.00e+00  0.00e+00  1.0000   
N18       ?    ?    ?    P      ? 20210505 2133   38.242900 GAU 5.00e-02  0.00e+00  0.00e+00  0.00e+00  1.0000   
KOLO      ?    ?    ?    P      ? 20210505 2133   44.187500 GAU 5.00e-02  0.00e+00  0.00e+00  0.00e+00  1.0000   
N2        ?    ?    ?    P      ? 20210505 2133   40.067700 GAU 5.00e-02  0.00e+00  0.00e+00  0.00e+00  1.0000   
N17       ?    ?    ?    P      ? 20210505 2133   38.065300 GAU 5.00e-02  0.00e+00  0.00e+00  0.00e+00  1.0000   
P3        ?    ?    ?    P      ? 20210505 2133   38.530700 GAU 5.00e-02  0.00e+00  0.00e+00  0.00e+00  1.0000   
P2        ?    ?    ?    P      ? 20210505 2133   38.595700 GAU 5.00e-02  0.00e+00  0.00e+00  0.00e+00  1.0000   
CAMP      ?    ?    ?    P      ? 20210505 2133   40.124900 GAU 5.00e-02  0.00e+00  0.00e+00  0.00e+00  1.0000   
KHIA      ?    ?    ?    P      ? 20210505 2133   41.018300 GAU 5.00e-02  0.00e+00  0.00e+00  0.00e+00  1.0000   
NOKA      ?    ?    ?    P      ? 20210505 2133   34.914600 GAU 5.00e-02  0.00e+00  0.00e+00  0.00e+00  1.0000   
P5        ?    ?    ?    P      ? 20210505 2133   38.645100 GAU 5.00e-02  0.00e+00  0.00e+00  0.00e+00  1.0000   
TOLS      ?    ?    ?    P      ? 20210505 2133   38.958000 GAU 5.00e-02  0.00e+00  0.00e+00  0.00e+00  1.0000   
N9        ?    ?    ?    P      ? 20210505 2133   38.977800 GAU 5.00e-02  0.00e+00  0.00e+00  0.00e+00  1.0000   
N16       ?    ?    ?    P      ? 20210505 2133   38.410800 GAU 5.00e-02  0.00e+00  0.00e+00  0.00e+00  1.0000   
N7        ?    ?    ?    P      ? 20210505 2133   39.128700 GAU 5.00e-02  0.00e+00  0.00e+00  0.00e+00  1.0000   
N5        ?    ?    ?    P      ? 20210505 2133   40.037100 GAU 5.00e-02  0.00e+00  0.00e+00  0.00e+00  1.0000   
N17       ?    ?    ?    S      ? 20210505 2133   50.045500 GAU 1.00e-01  0.00e+00  0.00e+00  0.00e+00  1.0000   
JNAK      ?    ?    ?    S      ? 20210505 2133   56.806100 GAU 1.00e-01  0.00e+00  0.00e+00  0.00e+00  1.0000   
N15       ?    ?    ?    S      ? 20210505 2133   51.016800 GAU 1.00e-01  0.00e+00  0.00e+00  0.00e+00  1.0000   
DLRM      ?    ?    ?    S      ? 20210505 2134   01.014700 GAU 1.00e-01  0.00e+00  0.00e+00  0.00e+00  1.0000   
N1        ?    ?    ?    S      ? 20210505 2133   54.137100 GAU 1.00e-01  0.00e+00  0.00e+00  0.00e+00  1.0000   
N18       ?    ?    ?    S      ? 20210505 2133   50.546500 GAU 1.00e-01  0.00e+00  0.00e+00  0.00e+00  1.0000   
P1        ?    ?    ?    S      ? 20210505 2133   50.886200 GAU 1.00e-01  0.00e+00  0.00e+00  0.00e+00  1.0000   
N4        ?    ?    ?    S      ? 20210505 2133   52.966200 GAU 1.00e-01  0.00e+00  0.00e+00  0.00e+00  1.0000   
N9        ?    ?    ?    S      ? 20210505 2133   51.802300 GAU 1.00e-01  0.00e+00  0.00e+00  0.00e+00  1.0000   
AHRM      ?    ?    ?    S      ? 20210505 2133   57.674300 GAU 1.00e-01  0.00e+00  0.00e+00  0.00e+00  1.0000   
N10       ?    ?    ?    S      ? 20210505 2133   51.733300 GAU 1.00e-01  0.00e+00  0.00e+00  0.00e+00  1.0000   
KHIA      ?    ?    ?    S      ? 20210505 2133   55.611400 GAU 1.00e-01  0.00e+00  0.00e+00  0.00e+00  1.0000   
N11       ?    ?    ?    S      ? 20210505 2133   51.533100 GAU 1.00e-01  0.00e+00  0.00e+00  0.00e+00  1.0000   
P2        ?    ?    ?    S      ? 20210505 2133   51.115700 GAU 1.00e-01  0.00e+00  0.00e+00  0.00e+00  1.0000   
N2        ?    ?    ?    S      ? 20210505 2133   53.925100 GAU 1.00e-01  0.00e+00  0.00e+00  0.00e+00  1.0000   
P9        ?    ?    ?    S      ? 20210505 2133   52.259800 GAU 1.00e-01  0.00e+00  0.00e+00  0.00e+00  1.0000   
# EQEVENT: Label: SYNEQ_34 Loc: X 320.47 Y -40.18 Z 58.50 OT 1620048320.700000
N7        ?    ?    ?    P      ? 20210505 1755   37.809000 GAU 5.00e-02  0.00e+00  0.00e+00  0.00e+00  1.0000   
N6        ?    ?    ?    P      ? 20210505 1755   37.852500 GAU 5.00e-02  0.00e+00  0.00e+00  0.00e+00  1.0000   
N1        ?    ?    ?    P      ? 20210505 1755   38.825800 GAU 5.00e-02  0.00e+00  0.00e+00  0.00e+00  1.0000   
ABTL      ?    ?    ?    P      ? 20210505 1755   35.530100 GAU 5.00e-02  0.00e+00  0.00e+00  0.00e+00  1.0000   
P3        ?    ?    ?    P      ? 20210505 1755   37.018700 GAU 5.00e-02  0.00e+00  0.00e+00  0.00e+00  1.0000   
P1        ?    ?    ?    P      ? 20210505 1755   37.132100 GAU 5.00e-02  0.00e+00  0.00e+00  0.00e+00  1.0000   
N3        ?    ?    ?    P      ? 20210505 1755   38.510500 GAU 5.00e-02  0.00e+00  0.00e+00  0.00e+00  1.0000   
KOLO      ?    ?    ?    P      ? 20210505 1755   41.664600 GAU 5.00e-02  0.00e+00  0.00e+00  0.00e+00  1.0000   
P2        ?    ?    ?    P      ? 20210505 1755   37.247100 GAU 5.00e-02  0.00e+00  0.00e+00  0.00e+00  1.0000   
N15       ?    ?    ?    P      ? 20210505 1755   37.356500 GAU 5.00e-02  0.00e+00  0.00e+00  0.00e+00  1.0000   
TOLS      ?    ?    ?    P      ? 20210505 1755   37.145800 GAU 5.00e-02  0.00e+00  0.00e+00  0.00e+00  1.0000   
P9        ?    ?    ?    P      ? 20210505 1755   37.212000 GAU 5.00e-02  0.00e+00  0.00e+00  0.00e+00  1.0000   
CAMP      ?    ?    ?    P      ? 20210505 1755   38.550500 GAU 5.00e-02  0.00e+00  0.00e+00  0.00e+00  1.0000   
KHIA      ?    ?    ?    P      ? 20210505 1755   38.969000 GAU 5.00e-02  0.00e+00  0.00e+00  0.00e+00  1.0000   
N4        ?    ?    ?    P      ? 20210505 1755   38.231400 GAU 5.00e-02  0.00e+00  0.00e+00  0.00e+00  1.0000   
DLRM      ?    ?    ?    P      ? 20210505 1755   41.749400 GAU 5.00e-02  0.00e+00  0.00e+00  0.00e+00  1.0000   
P5        ?    ?    ?    P      ? 20210505 1755   36.963100 GAU 5.00e-02  0.00e+00  0.00e+00  0.00e+00  1.0000   
AHRM      ?    ?    ?    P      ? 20210505 1755   39.821300 GAU 5.00e-02  0.00e+00  0.00e+00  0.00e+00  1.0000   
N9        ?    ?    ?    P      ? 20210505 1755   37.601700 GAU 5.00e-02  0.00e+00  0.00e+00  0.00e+00  1.0000   
N17       ?    ?    ?    P      ? 20210505 1755   36.959700 GAU 5.00e-02  0.00e+00  0.00e+00  0.00e+00  1.0000   
N13       ?    ?    ?    P      ? 20210505 1755   37.372000 GAU 5.00e-02  0.00e+00  0.00e+00  0.00e+00  1.0000   
N5        ?    ?    ?    P      ? 20210505 1755   38.498300 GAU 5.00e-02  0.00e+00  0.00e+00  0.00e+00  1.0000   
N18       ?    ?    ?    P      ? 20210505 1755   37.050000 GAU 5.00e-02  0.00e+00  0.00e+00  0.00e+00  1.0000   
N14       ?    ?    ?    P      ? 20210505 1755   37.198400 GAU 5.00e-02  0.00e+00  0.00e+00  0.00e+00  1.0000   
SHIF      ?    ?    ?    P      ? 20210505 1755   35.177200 GAU 5.00e-02  0.00e+00  0.00e+00  0.00e+00  1.0000   
N11       ?    ?    ?    P      ? 20210505 1755   37.521000 GAU 5.00e-02  0.00e+00  0.00e+00  0.00e+00  1.0000   
JNAK      ?    ?    ?    P      ? 20210505 1755   39.777000 GAU 5.00e-02  0.00e+00  0.00e+00  0.00e+00  1.0000   
N20       ?    ?    ?    P      ? 20210505 1755   36.533700 GAU 5.00e-02  0.00e+00  0.00e+00  0.00e+00  1.0000   
N2        ?    ?    ?    P      ? 20210505 1755   38.509000 GAU 5.00e-02  0.00e+00  0.00e+00  0.00e+00  1.0000   
N14       ?    ?    ?    S      ? 20210505 1755   50.614200 GAU 1.00e-01  0.00e+00  0.00e+00  0.00e+00  1.0000   
P9        ?    ?    ?    S      ? 20210505 1755   50.660400 GAU 1.00e-01  0.00e+00  0.00e+00  0.00e+00  1.0000   
N17       ?    ?    ?    S      ? 20210505 1755   50.111700 GAU 1.00e-01  0.00e+00  0.00e+00  0.00e+00  1.0000   
N13       ?    ?    ?    S      ? 20210505 1755   50.884900 GAU 1.00e-01  0.00e+00  0.00e+00  0.00e+00  1.0000   
N3        ?    ?    ?    S      ? 20210505 1755   53.011300 GAU 1.00e-01  0.00e+00  0.00e+00  0.00e+00  1.0000   
N2        ?    ?    ?    S      ? 20210505 1755   52.909600 GAU 1.00e-01  0.00e+00  0.00e+00  0.00e+00  1.0000   
KHIA      ?    ?    ?    S      ? 20210505 1755   53.760200 GAU 1.00e-01  0.00e+00  0.00e+00  0.00e+00  1.0000   
N5        ?    ?    ?    S      ? 20210505 1755   52.862100 GAU 1.00e-01  0.00e+00  0.00e+00  0.00e+00  1.0000   
CAMP      ?    ?    ?    S      ? 20210505 1755   52.800800 GAU 1.00e-01  0.00e+00  0.00e+00  0.00e+00  1.0000   
P2        ?    ?    ?    S      ? 20210505 1755   50.483900 GAU 1.00e-01  0.00e+00  0.00e+00  0.00e+00  1.0000   
N18       ?    ?    ?    S      ? 20210505 1755   50.413500 GAU 1.00e-01  0.00e+00  0.00e+00  0.00e+00  1.0000   
N4        ?    ?    ?    S      ? 20210505 1755   52.122600 GAU 1.00e-01  0.00e+00  0.00e+00  0.00e+00  1.0000   
# EQEVENT: Label: SYNEQ_35 Loc: X 299.28 Y -20.67 Z 12.50 OT 1620050402.700000
N6        ?    ?    ?    P      ? 20210505 1830   21.138300 GAU 5.00e-02  0.00e+00  0.00e+00  0.00e+00  1.0000   
N7        ?    ?    ?    P      ? 20210505 1830   20.960100 GAU 5.00e-02  0.00e+00  0.00e+00  0.00e+00  1.0000   
NOKA      ?    ?    ?    P      ? 20210505 1830   16.948700 GAU 5.00e-02  0.00e+00  0.00e+00  0.00e+00  1.0000   
N18       ?    ?    ?    P      ? 20210505 1830   19.991100 GAU 5.00e-02  0.00e+00  0.00e+00  0.00e+00  1.0000   
N1        ?    ?    ?    P      ? 20210505 1830   22.275200 GAU 5.00e-02  0.00e+00  0.00e+00  0.00e+00  1.0000   
KOLO      ?    ?    ?    P      ? 20210505 1830   26.098900 GAU 5.00e-02  0.00e+00  0.00e+00  0.00e+00  1.0000   
AHRM      ?    ?    ?    P      ? 20210505 1830   24.218100 GAU 5.00e-02  0.00e+00  0.00e+00  0.00e+00  1.0000   
JNAK      ?    ?    ?    P      ? 20210505 1830   23.813600 GAU 5.00e-02  0.00e+00  0.00e+00  0.00e+00  1.0000   
KHIA      ?    ?    ?    P      ? 20210505 1830   23.114200 GAU 5.00e-02  0.00e+00  0.00e+00  0.00e+00  1.0000   
CAMP      ?    ?    ?    P      ? 20210505 1830   22.064800 GAU 5.00e-02  0.00e+00  0.00e+00  0.00e+00  1.0000   
KHRK      ?    ?    ?    P      ? 20210505 1830   14.769400 GAU 5.00e-02  0.00e+00  0.00e+00  0.00e+00  1.0000   
N6        ?    ?    ?    S      ? 20210505 1830   35.920500 GAU 1.00e-01  0.00e+00  0.00e+00  0.00e+00  1.0000   
CAMP      ?    ?    ?    S      ? 20210505 1830   37.691400 GAU 1.00e-01  0.00e+00  0.00e+00  0.00e+00  1.0000   
N18       ?    ?    ?    S      ? 20210505 1830   34.174800 GAU 1.00e-01  0.00e+00  0.00e+00  0.00e+00  1.0000   
KHIA      ?    ?    ?    S      ? 20210505 1830   39.566400 GAU 1.00e-01  0.00e+00  0.00e+00  0.00e+00  1.0000   
N7        ?    ?    ?    S      ? 20210505 1830   35.924000 GAU 1.00e-01  0.00e+00  0.00e+00  0.00e+00  1.0000   
# EQEVENT: Label: SYNEQ_36 Loc: X 294.17 Y -20.48 Z 10.70 OT 1620051092.500000
AHRM      ?    ?    ?    P      ? 20210505 1841   54.543900 GAU 5.00e-02  0.00e+00  0.00e+00  0.00e+00  1.0000   
ABTL      ?    ?    ?    P      ? 20210505 1841   49.250400 GAU 5.00e-02  0.00e+00  0.00e+00  0.00e+00  1.0000   
KOLO      ?    ?    ?    P      ? 20210505 1841   56.421300 GAU 5.00e-02  0.00e+00  0.00e+00  0.00e+00  1.0000   
DLRM      ?    ?    ?    P      ? 20210505 1841   56.063100 GAU 5.00e-02  0.00e+00  0.00e+00  0.00e+00  1.0000   
JNAK      ?    ?    ?    P      ? 20210505 1841   53.983800 GAU 5.00e-02  0.00e+00  0.00e+00  0.00e+00  1.0000   
ABAS      ?    ?    ?    P      ? 20210505 1841   59.752400 GAU 5.00e-02  0.00e+00  0.00e+00  0.00e+00  1.0000   
KHIA      ?    ?    ?    P      ? 20210505 1841   53.253500 GAU 5.00e-02  0.00e+00  0.00e+00  0.00e+00  1.0000   
N17       ?    ?    ?    P      ? 20210505 1841   49.897500 GAU 5.00e-02  0.00e+00  0.00e+00  0.00e+00  1.0000   
NOKA      ?    ?    ?    P      ? 20210505 1841   47.328900 GAU 5.00e-02  0.00e+00  0.00e+00  0.00e+00  1.0000   
KHRK      ?    ?    ?    P      ? 20210505 1841   44.311100 GAU 5.00e-02  0.00e+00  0.00e+00  0.00e+00  1.0000   
P9        ?    ?    ?    P      ? 20210505 1841   51.587900 GAU 5.00e-02  0.00e+00  0.00e+00  0.00e+00  1.0000   
N19       ?    ?    ?    P      ? 20210505 1841   49.904400 GAU 5.00e-02  0.00e+00  0.00e+00  0.00e+00  1.0000   
DLRM      ?    ?    ?    S      ? 20210505 1842   15.245800 GAU 1.00e-01  0.00e+00  0.00e+00  0.00e+00  1.0000   
ABAS      ?    ?    ?    S      ? 20210505 1842   22.047200 GAU 1.00e-01  0.00e+00  0.00e+00  0.00e+00  1.0000   
ABTL      ?    ?    ?    S      ? 20210505 1842   03.002600 GAU 1.00e-01  0.00e+00  0.00e+00  0.00e+00  1.0000   
P9        ?    ?    ?    S      ? 20210505 1842   07.132600 GAU 1.00e-01  0.00e+00  0.00e+00  0.00e+00  1.0000   
KHRK      ?    ?    ?    S      ? 20210505 1841   53.712700 GAU 1.00e-01  0.00e+00  0.00e+00  0.00e+00  1.0000   
# EQEVENT: Label: SYNEQ_37 Loc: X 304.20 Y -27.61 Z 20.70 OT 1620138205.400000
SHIF      ?    ?    ?    P      ? 20210505 1853   39.262200 GAU 5.00e-02  0.00e+00  0.00e+00  0.00e+00  1.0000   
N9        ?    ?    ?    P      ? 20210505 1853   42.336300 GAU 5.00e-02  0.00e+00  0.00e+00  0.00e+00  1.0000   
N4        ?    ?    ?    P      ? 20210505 1853   42.985000 GAU 5.00e-02  0.00e+00  0.00e+00  0.00e+00  1.0000   
P9        ?    ?    ?    P      ? 20210505 1853   42.644500 GAU 5.00e-02  0.00e+00  0.00e+00  0.00e+00  1.0000   
N6        ?    ?    ?    P      ? 20210505 1853   42.658400 GAU 5.00e-02  0.00e+00  0.00e+00  0.00e+00  1.0000   
DLRM      ?    ?    ?    P      ? 20210505 1853   47.309800 GAU 5.00e-02  0.00e+00  0.00e+00  0.00e+00  1.0000   
NOKA      ?    ?    ?    P      ? 20210505 1853   38.364600 GAU 5.00e-02  0.00e+00  0.00e+00  0.00e+00  1.0000   
ABAS      ?    ?    ?    P      ? 20210505 1853   50.955200 GAU 5.00e-02  0.00e+00  0.00e+00  0.00e+00  1.0000   
KHRK      ?    ?    ?    P      ? 20210505 1853   37.157100 GAU 5.00e-02  0.00e+00  0.00e+00  0.00e+00  1.0000   
N3        ?    ?    ?    P      ? 20210505 1853   43.459700 GAU 5.00e-02  0.00e+00  0.00e+00  0.00e+00  1.0000   
N5        ?    ?    ?    P      ? 20210505 1853   43.331200 GAU 5.00e-02  0.00e+00  0.00e+00  0.00e+00  1.0000   
AHRM      ?    ?    ?    P      ? 20210505 1853   45.524600 GAU 5.00e-02  0.00e+00  0.00e+00  0.00e+00  1.0000   
CAMP      ?    ?    ?    P      ? 20210505 1853   43.498500 GAU 5.00e-02  0.00e+00  0.00e+00  0.00e+00  1.0000   
KHIA      ?    ?    ?    P      ? 20210505 1853   44.475100 GAU 5.00e-02  0.00e+00  0.00e+00  0.00e+00  1.0000   
KOLO      ?    ?    ?    P      ? 20210505 1853   47.560600 GAU 5.00e-02  0.00e+00  0.00e+00  0.00e+00  1.0000   
N2        ?    ?    ?    P      ? 20210505 1853   43.492500 GAU 5.00e-02  0.00e+00  0.00e+00  0.00e+00  1.0000   
JNAK      ?    ?    ?    P      ? 20210505 1853   45.183200 GAU 5.00e-02  0.00e+00  0.00e+00  0.00e+00  1.0000   
N7        ?    ?    ?    P      ? 20210505 1853   42.497700 GAU 5.00e-02  0.00e+00  0.00e+00  0.00e+00  1.0000   
SHIF      ?    ?    ?    S      ? 20210505 1853   50.450000 GAU 1.00e-01  0.00e+00  0.00e+00  0.00e+00  1.0000   
P9        ?    ?    ?    S      ? 20210505 1853   56.745800 GAU 1.00e-01  0.00e+00  0.00e+00  0.00e+00  1.0000   
N2        ?    ?    ?    S      ? 20210505 1853   57.981800 GAU 1.00e-01  0.00e+00  0.00e+00  0.00e+00  1.0000   
KHRK      ?    ?    ?    S      ? 20210505 1853   46.601000 GAU 1.00e-01  0.00e+00  0.00e+00  0.00e+00  1.0000   
N5        ?    ?    ?    S      ? 20210505 1853   57.884100 GAU 1.00e-01  0.00e+00  0.00e+00  0.00e+00  1.0000   
CAMP      ?    ?    ?    S      ? 20210505 1853   58.032400 GAU 1.00e-01  0.00e+00  0.00e+00  0.00e+00  1.0000   
N7        ?    ?    ?    S      ? 20210505 1853   56.496900 GAU 1.00e-01  0.00e+00  0.00e+00  0.00e+00  1.0000   
AHRM      ?    ?    ?    S      ? 20210505 1854   02.085800 GAU 1.00e-01  0.00e+00  0.00e+00  0.00e+00  1.0000   
KOLO      ?    ?    ?    S      ? 20210505 1854   05.475000 GAU 1.00e-01  0.00e+00  0.00e+00  0.00e+00  1.0000   
