 2021  4 4 0701  6.0 L  29.806  50.718 30.7  SLT 13 0.0                        1
 GAP=338        0.22      95.5    33.9 33.9 -0.3175E+04 -0.9466E+03  0.2475E+04E
 STAT SP IPHASW D HRMN SECON CODA AMPLIT PERI AZIMU VELO AIN AR TRES W  DIS CAZ7
 SHIF     P   0 ? 0701 21.35                             106   -0.0110 83.1 1694
 N20      P   0 ? 0701 23.02                             104   -0.0210 93.8 1734
 N17      P   0 ? 0701 23.48                             104    0.04 9 96.4 1744
 N18      P   0 ? 0701 23.63                             103    0.03 9 97.4 1734
 P1       P   0 ? 0701 23.87                             103    0.03 9 99.0 1694
 N6       P   0 ? 0701 24.54                             102   -0.09 9  104 1724
 N3       P   0 ? 0701 25.35                             102    0.01 9  108 1724
 N5       P   0 ? 0701 25.26                             102   -0.00 9  108 1714
 CAMP     P   0 ? 0701 25.37                             102   -0.01 9  109 1704
 KHIA     P   0 ? 0701 25.97                             101    0.03 9  112 1574
 AHRM     P   0 ? 0701 26.94                             101   -0.00 8  118 1524
 DLRM     P   0 ? 0701 28.99                             100    0.05 8  131 1644
 KOLO     P   0 ? 0701 28.86                             100   -0.05 8  131 1574
                                                                                
 2021  4 4 0710 28.4 L  29.858  50.713 44.5  SLT 25 0.1                        1
 GAP=336        0.17       2.8     1.8  7.5 -0.1820E+01  0.6190E+01 -0.1998E+02E
 STAT SP IPHASW D HRMN SECON CODA AMPLIT PERI AZIMU VELO AIN AR TRES W  DIS CAZ7
 SHIF     P   0 ? 0710 45.42                             114    0.0210 88.8 1704
 N17      P   0 ? 0710 47.45                             111    0.06 9  102 1744
 N18      P   0 ? 0710 47.60                             110    0.06 9  103 1744
 P3       P   0 ? 0710 47.66                             110   -0.00 9  104 1664
 P4       P   0 ? 0710 47.67                             110   -0.00 9  104 1624
 P3       S   0   0711  3.14                             110   -0.11 9  104 1664
 N14      P   0 ? 0710 47.72                             110   -0.07 9  105 1734
 P1       P   0 ? 0710 47.67                             110   -0.11 9  105 1694
 N14      S   0   0711  3.53                             110    0.05 9  105 1734
 N15      P   0 ? 0710 47.89                             110    0.03 9  105 1724
 N15      S   0   0711  3.51                             110   -0.09 9  105 1724
 N11      S   0   0711  3.98                             110    0.05 9  106 1744
 ABAD     P   0 ? 0710 47.91                             110   -0.03 9  106 1504
 ABAD     S   0   0711  3.80                             110    0.05 9  106 1504
 P9       S   0   0711  3.81                             110   -0.00 9  106 1534
 N11      P   0 ? 0710 48.02                             110   -0.02 9  106 1744
 P9       P   0 ? 0710 47.96                             110   -0.01 9  106 1534
 N13      P   0 ? 0710 47.94                             110   -0.02 9  106 1744
 N10      P   0 ? 0710 48.20                             109   -0.05 9  108 1734
 N9       P   0 ? 0710 48.30                             109    0.03 9  108 1714
 N9       S   0   0711  4.41                             109    0.05 9  108 1714
 N4       P   0 ? 0710 48.83                             109   -0.01 9  112 1734
 N4       S   0   0711  5.32                             109   -0.06 9  112 1734
 N3       P   0 ? 0710 49.32                             108    0.09 9  114 1724
 N5       P   0 ? 0710 49.17                             108    0.02 9  114 1714
 N3       S   0   0711  6.15                             108    0.06 9  114 1724
 N2       P   0 ? 0710 49.31                             108    0.05 9  115 1714
 CAMP     P   0 ? 0710 49.23                             108   -0.04 9  115 1704
 N1       P   0 ? 0710 49.53                             108   -0.01 9  116 1714
 KHIA     P   0 ? 0710 49.82                             108    0.05 9  118 1584
 JNAK     P   0 ? 0710 50.68                             107   -0.01 8  124 1634
 KOLO     P   0 ? 0710 52.70                             105    0.03 8  136 1584
 DLRM     P   0 ? 0710 52.66                             105   -0.07 8  137 1654
 ABAS     P   0 ? 0710 55.92                             103   -0.01 7  157 1594
                                                                                
 2021  4 4 0730  9.3 L  29.744  50.719 51.2  SLT 17 0.1                        1
 GAP=336        0.21       3.5     2.3  7.3  0.3135E+01 -0.4706E+01 -0.2436E+02E
 STAT SP IPHASW D HRMN SECON CODA AMPLIT PERI AZIMU VELO AIN AR TRES W  DIS CAZ7
 N18      P   0 ? 0730 26.99                             117   -0.0310 90.6 1734
 N14      P   0 ? 0730 27.35                             116    0.1010 92.2 1734
 N14      S   0   0730 41.81                             116    0.0310 92.2 1734
 P2       P   0 ? 0730 27.26                             116   -0.0110 92.3 1664
 N15      P   0 ? 0730 27.37                             116    0.0510 92.6 1724
 N13      P   0 ? 0730 27.47                             116    0.0610 93.3 1744
 N11      P   0 ? 0730 27.38                             116   -0.1110 93.8 1744
 N11      S   0   0730 42.31                             116    0.1010 93.8 1744
 P9       P   0 ? 0730 27.58                             116   -0.0310 94.6 1504
 N9       P   0 ? 0730 27.75                             116    0.0310 95.4 1704
 N4       P   0 ? 0730 28.21                             115   -0.0510 99.1 1724
 N4       S   0   0730 43.50                             115   -0.0910 99.1 1724
 N5       P   0 ? 0730 28.51                             114   -0.05 9  101 1714
 N3       P   0 ? 0730 28.61                             114   -0.03 9  102 1714
 KHIA     P   0 ? 0730 29.26                             113   -0.01 9  106 1564
 KHIA     S   0   0730 45.30                             113   -0.12 9  106 1564
 JNAK     P   0 ? 0730 30.12                             112    0.02 9  112 1624
 JNAK     S   0   0730 46.86                             112   -0.07 9  112 1624
 AHRM     P   0 ? 0730 30.25                             112   -0.01 9  112 1504
 AHRM     S   0   0730 47.34                             112    0.13 9  112 1504
 DLRM     P   0 ? 0730 32.06                             110   -0.01 8  125 1644
 DLRM     S   0   0730 50.51                             110    0.02 8  125 1644
 KOLO     P   0 ? 0730 32.08                             110   -0.00 8  125 1564
 ABAS     P   0 ? 0730 35.37                             107    0.11 7  145 1574
                                                                                
 2021  4 4 0802  4.7 L  29.682  50.828 45.5  SLT 15 0.1                        1
 GAP=330        0.21       2.3     1.8  4.3 -0.3809E+00  0.1659E+01 -0.8766E+01E
 STAT SP IPHASW D HRMN SECON CODA AMPLIT PERI AZIMU VELO AIN AR TRES W  DIS CAZ7
 ABTL     P   0 ? 0802 18.97                             120   -0.0610 70.2 1564
 ABTL     S   0   0802 30.72                             120    0.0510 70.2 1564
 N17      P   0 ? 0802 20.82                             116    0.11 9 82.1 1804
 N17      S   0   0802 33.72                             116    0.00 9 82.1 1804
 N18      P   0 ? 0802 20.84                             116   -0.00 9 83.0 1804
 ABAD     P   0 ? 0802 20.86                             116   -0.02 9 83.2 1504
 P2       P   0 ? 0802 20.87                             116   -0.05 9 83.5 1724
 P2       S   0   0802 33.98                             116   -0.11 9 83.5 1724
 N15      P   0 ? 0802 21.16                             115    0.05 9 84.8 1784
 N9       P   0 ? 0802 21.47                             115   -0.01 9 87.3 1774
 N10      P   0 ? 0802 21.53                             114    0.03 9 87.4 1784
 N4       P   0 ? 0802 22.05                             113   -0.02 9 91.3 1784
 N4       S   0   0802 36.15                             113   -0.02 9 91.3 1784
 KHIA     P   0 ? 0802 22.61                             112   -0.08 9 95.4 1604
 KHIA     S   0   0802 37.38                             112    0.09 9 95.4 1604
 AHRM     P   0 ? 0802 23.60                             111    0.02 9  101 1534
 AHRM     S   0   0802 38.90                             111   -0.01 9  101 1534
 JNAK     P   0 ? 0802 23.70                             111    0.04 9  102 1664
 KOLO     P   0 ? 0802 25.54                             109    0.02 8  114 1594
 DLRM     P   0 ? 0802 25.66                             109   -0.01 8  115 1684
 ABAS     P   0 ? 0802 28.71                             106   -0.03 7  135 1604
                                                                                
 2021  4 4 0811 20.2 L  29.760  50.703 37.0  SLT 14 0.1                        1
 GAP=337        0.21       4.6     3.5 12.8  0.8954E+01 -0.2215E+02 -0.5625E+02E
 STAT SP IPHASW D HRMN SECON CODA AMPLIT PERI AZIMU VELO AIN AR TRES W  DIS CAZ7
 N18      P   0 ? 0811 37.35                             108    0.0610 92.5 1724
 N18      S   0   0811 51.10                             108   -0.0410 92.5 1724
 N15      P   0 ? 0811 37.61                             108    0.0010 94.6 1714
 N15      S   0   0811 51.70                             108   -0.0210 94.6 1714
 N11      P   0 ? 0811 37.80                             108    0.0210 95.7 1734
 N9       P   0 ? 0811 38.03                             107   -0.0110 97.4 1704
 N9       S   0   0811 52.58                             107    0.0810 97.4 1704
 N4       P   0 ? 0811 38.64                             107    0.0410  101 1724
 N5       P   0 ? 0811 38.88                             106   -0.05 9  103 1704
 CAMP     P   0 ? 0811 38.99                             106   -0.06 9  104 1694
 N2       P   0 ? 0811 39.04                             106   -0.00 9  104 1704
 KHIA     P   0 ? 0811 39.71                             105    0.01 9  108 1554
 KHIA     S   0   0811 55.47                             105   -0.04 9  108 1554
 JNAK     P   0 ? 0811 40.52                             105   -0.04 9  114 1614
 AHRM     P   0 ? 0811 40.83                             105    0.08 9  115 1504
 KOLO     P   0 ? 0811 42.54                             103   -0.09 8  127 1564
 DLRM     P   0 ? 0811 42.53                             103   -0.07 8  127 1634
 DLRM     S   0   0812  0.79                             103    0.03 8  127 1634
 ABAS     P   0 ? 0811 46.03                             101    0.12 7  148 1574
                                                                                
 2021  4 4 0850 40.6 L  29.827  50.719 42.2  SLT 24 0.0                        1
 GAP=335        0.17       1.8     1.7  5.2  0.1477E+00  0.3406E+00 -0.8305E+01E
 STAT SP IPHASW D HRMN SECON CODA AMPLIT PERI AZIMU VELO AIN AR TRES W  DIS CAZ7
 NOKA     P   0 ? 0850 55.71                             115   -0.0410 77.3 1574
 SHIF     P   0 ? 0850 56.90                             113   -0.0210 85.3 1704
 ABTL     P   0 ? 0850 57.50                             112   -0.01 9 89.2 1544
 N17      P   0 ? 0850 58.92                             110   -0.00 9 98.7 1744
 N17      S   0   0851 13.72                             110   -0.04 9 98.7 1744
 N18      P   0 ? 0850 59.05                             110   -0.03 9 99.7 1744
 N18      S   0   0851 14.07                             110    0.03 9 99.7 1744
 P4       P   0 ? 0850 59.21                             110    0.00 9  101 1614
 N14      P   0 ? 0850 59.28                             109   -0.04 9  101 1744
 N14      S   0   0851 14.59                             109    0.11 9  101 1744
 N15      P   0 ? 0850 59.42                             109    0.03 9  102 1724
 ABAD     P   0 ? 0850 59.59                             109    0.09 9  102 1504
 P9       P   0 ? 0850 59.57                             109    0.04 9  103 1524
 N11      P   0 ? 0850 59.61                             109    0.04 9  103 1744
 N9       P   0 ? 0850 59.83                             109    0.02 9  104 1714
 N6       P   0 ? 0851  0.04                             109   -0.04 9  106 1724
 N4       P   0 ? 0851  0.37                             108   -0.00 9  108 1734
 N5       P   0 ? 0851  0.65                             108   -0.04 9  110 1724
 N2       P   0 ? 0851  0.84                             108    0.04 8  111 1714
 N3       P   0 ? 0851  0.85                             108    0.08 8  111 1724
 N3       S   0   0851 17.02                             108   -0.08 8  111 1724
 N1       P   0 ? 0851  1.00                             107   -0.07 8  113 1714
 N1       S   0   0851 17.61                             107   -0.04 8  113 1714
 KHIA     P   0 ? 0851  1.31                             107   -0.01 8  114 1584
 KHIA     S   0   0851 18.14                             107    0.04 8  114 1584
 AHRM     P   0 ? 0851  2.26                             106   -0.03 8  120 1524
 JNAK     P   0 ? 0851  2.20                             106   -0.04 8  120 1634
 JNAK     S   0   0851 19.80                             106    0.05 8  120 1634
 AHRM     S   0   0851 19.76                             106   -0.08 8  120 1524
 KOLO     P   0 ? 0851  4.24                             105    0.01 7  133 1574
 DLRM     P   0 ? 0851  4.32                             105    0.04 7  133 1654
 ABAS     P   0 ? 0851  7.48                             103   -0.02 7  154 1594
                                                                                
 2021  4 4 0911 10.8 L  29.771  50.680 46.4  SLT 23 0.1                        1
 GAP=334        0.18       1.9     2.0  4.4 -0.8428E+00  0.4343E+01 -0.6928E+01E
 STAT SP IPHASW D HRMN SECON CODA AMPLIT PERI AZIMU VELO AIN AR TRES W  DIS CAZ7
 NOKA     P   0 ? 0911 25.68                             119   -0.0210 73.3 1524
 SHIF     P   0 ? 0911 26.69                             117    0.0510 80.0 1664
 ABTL     P   0 ? 0911 27.43                             116   -0.01 9 85.5 1504
 ABTL     S   0   0911 40.88                             116   -0.03 9 85.5 1504
 N17      P   0 ? 0911 28.60                             114    0.07 9 93.0 1714
 N18      P   0 ? 0911 28.73                             113    0.04 9 94.0 1714
 P3       P   0 ? 0911 28.89                             113   -0.02 9 95.5 1624
 P3       S   0   0911 43.52                             113   -0.04 9 95.5 1624
 N14      P   0 ? 0911 28.89                             113   -0.04 9 95.6 1714
 P4       P   0 ? 0911 29.06                             113    0.08 9 96.0 1584
 P4       S   0   0911 43.74                             113    0.05 9 96.0 1584
 N15      P   0 ? 0911 29.02                             113    0.01 9 96.1 1704
 N10      P   0 ? 0911 29.28                             112   -0.11 9 98.7 1704
 N10      S   0   0911 44.35                             112   -0.07 9 98.7 1704
 P9       P   0 ? 0911 29.47                             112    0.03 9 99.0 1494
 P9       S   0   0911 44.55                             112    0.03 9 99.0 1494
 ABAD     P   0 ? 0911 29.42                             112   -0.04 9 99.1 1464
 N4       P   0 ? 0911 29.94                             111   -0.02 9  103 1704
 N4       S   0   0911 45.60                             111    0.14 9  103 1704
 N3       P   0 ? 0911 30.31                             111   -0.05 9  105 1704
 N5       P   0 ? 0911 30.26                             111   -0.03 9  105 1694
 N2       P   0 ? 0911 30.44                             111    0.04 9  106 1694
 N1       P   0 ? 0911 30.62                             111   -0.05 9  107 1694
 KHIA     P   0 ? 0911 31.09                             110   -0.02 8  110 1544
 JNAK     P   0 ? 0911 31.93                             109    0.01 8  116 1614
 JNAK     S   0   0911 48.94                             109   -0.07 8  116 1614
 AHRM     P   0 ? 0911 32.20                             109    0.05 8  117 1494
 DLRM     P   0 ? 0911 33.92                             107    0.01 8  128 1624
 KOLO     P   0 ? 0911 33.95                             107   -0.03 8  129 1554
 ABAS     P   0 ? 0911 37.27                             105    0.08 7  150 1564
                                                                                
 2021  4 4 0912 53.0 L  29.814  50.711 41.6  SLT 20 0.1                        1
 GAP=335        0.19       1.9     2.6  6.0 -0.3459E+00  0.3284E+01 -0.1011E+02E
 STAT SP IPHASW D HRMN SECON CODA AMPLIT PERI AZIMU VELO AIN AR TRES W  DIS CAZ7
 NOKA     P   0 ? 0913  7.91                             115   -0.0310 76.3 1564
 ABTL     P   0 ? 0913  9.69                             112   -0.02 9 88.2 1534
 N17      P   0 ? 0913 11.10                             110    0.03 9 97.3 1744
 N18      P   0 ? 0913 11.25                             110    0.03 9 98.3 1734
 P4       P   0 ? 0913 11.42                             110    0.03 9 99.4 1614
 P4       S   0   0913 26.35                             110    0.06 9 99.4 1614
 N14      P   0 ? 0913 11.44                             109   -0.03 9 99.9 1734
 N14      S   0   0913 26.31                             109   -0.12 9 99.9 1734
 N15      P   0 ? 0913 11.59                             109    0.05 9  100 1724
 ABAD     P   0 ? 0913 11.75                             109    0.03 9  102 1494
 N10      P   0 ? 0913 12.02                             109    0.09 9  103 1724
 N4       P   0 ? 0913 12.55                             108    0.03 9  107 1734
 N4       S   0   0913 28.35                             108    0.01 9  107 1734
 N5       S   0   0913 29.01                             108    0.09 9  109 1714
 N3       P   0 ? 0913 12.92                             108    0.01 9  109 1724
 N5       P   0 ? 0913 12.84                             108    0.00 9  109 1714
 N2       P   0 ? 0913 12.89                             108   -0.06 9  110 1714
 N2       S   0   0913 29.16                             108    0.04 9  110 1714
 CAMP     P   0 ? 0913 12.91                             108   -0.05 9  110 1704
 N1       P   0 ? 0913 13.11                             107   -0.12 8  111 1714
 JNAK     P   0 ? 0913 14.36                             106   -0.05 8  119 1634
 JNAK     S   0   0913 31.62                             106   -0.14 8  119 1634
 AHRM     P   0 ? 0913 14.50                             106    0.00 8  120 1524
 DLRM     P   0 ? 0913 16.43                             105   -0.02 8  132 1644
 DLRM     S   0   0913 35.50                             105    0.05 8  132 1644
 KOLO     P   0 ? 0913 16.43                             105    0.01 8  132 1574
 ABAS     P   0 ? 0913 19.73                             103    0.04 7  153 1584
                                                                                
