 2021  5 5 0121 24.7 L  29.763  50.625  7.1  SLT 26 0.1                        1
 GAP=300        0.24       6.2     2.0  8.3 -0.6322E+01 -0.9637E+01  0.5060E+02E
 STAT SP IPHASW D HRMN SECON CODA AMPLIT PERI AZIMU VELO AIN AR TRES W  DIS CAZ7
 KHRK     P   0 ? 0121 36.46                              53   -0.0510 63.9 2084
 NOKA     P   0 ? 0121 38.17                              53   -0.1610 75.2 1484
 NOKA     S   0   0121 49.13                              53   -0.2010 75.2 1484
 SHIF     P   0 ? 0121 39.09                              53   -0.10 9 80.6 1624
 N20      P   0 ? 0121 40.80                              53   -0.01 9 90.6 1674
 N20      S   0   0121 53.83                              53    0.01 9 90.6 1674
 N17      P   0 ? 0121 41.28                              53    0.08 9 93.0 1684
 N19      P   0 ? 0121 41.29                              53    0.02 9 93.5 1654
 N19      S   0   0121 54.47                              53   -0.19 9 93.5 1654
 N18      P   0 ? 0121 41.32                              53   -0.05 9 94.1 1684
 N18      S   0   0121 54.86                              53    0.02 9 94.1 1684
 N14      P   0 ? 0121 41.64                              53    0.01 9 95.7 1684
 N14      S   0   0121 55.36                              53    0.05 9 95.7 1684
 P1       P   0 ? 0121 41.72                              53   -0.03 9 96.4 1634
 N15      P   0 ? 0121 41.68                              53   -0.06 9 96.4 1664
 N15      S   0   0121 55.56                              53    0.06 9 96.4 1664
 P2       P   0 ? 0121 41.70                              53   -0.11 9 96.8 1614
 P4       P   0 ? 0121 41.90                              53    0.01 9 97.3 1554
 P4       S   0   0121 55.73                              53   -0.05 9 97.3 1554
 N11      P   0 ? 0121 41.89                              53    0.01 9 97.3 1684
 N10      P   0 ? 0121 42.13                              53   -0.01 9 98.9 1674
 N10      S   0   0121 56.19                              53   -0.04 9 98.9 1674
 TOLS     P   0 ? 0121 42.22                              53    0.04 9 99.1 1514
 N9       P   0 ? 0121 42.24                              53    0.03 8 99.3 1654
 N9       S   0   0121 56.36                              53   -0.00 8 99.3 1654
 N7       P   0 ? 0121 42.40                              53    0.07 8  100 1674
 N6       P   0 ? 0121 42.46                              53   -0.01 8  101 1664
 N6       S   0   0121 56.79                              53   -0.04 8  101 1664
 N4       P   0 ? 0121 42.85                              53    0.09 8  103 1674
 N5       P   0 ? 0121 43.18                              53    0.05 8  105 1664
 N3       P   0 ? 0121 43.18                              53   -0.02 8  105 1674
 CAMP     S   0   0121 58.32                              53    0.02 8  106 1654
 N2       P   0 ? 0121 43.36                              53    0.10 8  106 1664
 CAMP     P   0 ? 0121 43.27                              53   -0.02 8  106 1654
 N1       P   0 ? 0121 43.56                              53    0.01 8  108 1664
 KHIA     P   0 ? 0121 44.36                              53    0.14 8  112 1524
 KHIA     S   0   0122  0.27                              53    0.27 8  112 1524
 JNAK     P   0 ? 0121 45.13                              53    0.14 8  117 1584
 JNAK     S   0   0122  1.59                              53    0.20 8  117 1584
                                                                                
 2021  5 5 1942 29.5 L  29.735  50.555 10.7  SLT 13 0.1                        1
 GAP=299        0.22       9.3     2.2 24.3 -0.9253E+01 -0.2612E+02  0.2242E+03E
 STAT SP IPHASW D HRMN SECON CODA AMPLIT PERI AZIMU VELO AIN AR TRES W  DIS CAZ7
 KHRK     P   0 ? 1942 40.39                              68   -0.0210 58.2 2044
 NOKA     P   0 ? 1942 43.25                              68   -0.11 9 76.5 1434
 SHIF     P   0 ? 1942 43.92                              68    0.00 9 80.0 1574
 P3       P   0 ? 1942 46.52                              68   -0.01 8 96.2 1554
 P4       P   0 ? 1942 46.78                              68    0.01 8 97.7 1504
 P5       P   0 ? 1942 46.87                              68   -0.02 8 98.4 1484
 N7       P   0 ? 1942 46.99                              68    0.04 8 98.8 1634
 N4       P   0 ? 1942 47.46                              68    0.09 8  101 1634
 N4       S   0   1943  1.82                              68   -0.04 8  101 1634
 N5       P   0 ? 1942 47.76                              68   -0.01 8  104 1624
 N5       S   0   1943  2.58                              68   -0.01 8  104 1624
 N2       P   0 ? 1942 47.91                              68    0.00 8  105 1624
 CAMP     P   0 ? 1942 47.89                              68   -0.06 8  105 1614
 CAMP     S   0   1943  2.95                              68    0.04 8  105 1614
 N1       P   0 ? 1942 48.23                              68    0.03 8  107 1624
 AHRM     P   0 ? 1942 50.56                              68    0.12 7  120 1434
                                                                                
 2021  5 5 1244 52.5 L  29.699  50.553  8.2  SLT 33 0.1                        1
 GAP=292        0.26       5.5     2.3 14.3 -0.8908E+01 -0.2514E+02  0.7707E+02E
 STAT SP IPHASW D HRMN SECON CODA AMPLIT PERI AZIMU VELO AIN AR TRES W  DIS CAZ7
 KHRK     P   0 ? 1245  2.96                              68    0.0110 54.5 2054
 NOKA     P   0 ? 1245  5.83                              68   -0.19 9 73.5 1414
 SHIF     P   0 ? 1245  6.43                              68   -0.05 9 76.4 1564
 N20      P   0 ? 1245  7.90                              68   -0.08 9 85.7 1614
 N17      P   0 ? 1245  8.30                              68   -0.04 9 87.9 1634
 N17      S   0   1245 20.93                              68   -0.25 9 87.9 1634
 N19      P   0 ? 1245  8.46                              68   -0.02 9 88.8 1604
 N18      P   0 ? 1245  8.49                              68   -0.04 9 89.1 1624
 N14      P   0 ? 1245  8.72                              68   -0.07 9 90.7 1624
 N14      S   0   1245 22.17                              68    0.17 9 90.7 1624
 N13      S   0   1245 22.23                              68    0.00 8 91.5 1644
 N15      P   0 ? 1245  8.89                              68   -0.03 8 91.5 1614
 N15      S   0   1245 22.12                              68   -0.12 8 91.5 1614
 N13      P   0 ? 1245  8.87                              68   -0.04 8 91.5 1644
 P1       P   0 ? 1245  9.03                              68    0.02 8 92.1 1584
 N11      P   0 ? 1245  9.08                              68    0.06 8 92.1 1634
 P3       P   0 ? 1245  9.13                              68    0.02 8 92.7 1544
 P3       S   0   1245 22.53                              68   -0.05 8 92.7 1544
 P2       P   0 ? 1245  9.07                              68   -0.05 8 92.8 1564
 N10      P   0 ? 1245  9.28                              68   -0.03 8 93.9 1624
 N10      S   0   1245 22.69                              68   -0.25 8 93.9 1624
 P4       P   0 ? 1245  9.24                              68   -0.13 8 94.3 1494
 N9       P   0 ? 1245  9.43                              68    0.01 8 94.6 1604
 N7       P   0 ? 1245  9.45                              68   -0.04 8 95.0 1624
 P5       P   0 ? 1245  9.53                              68    0.03 8 95.1 1474
 TOLS     P   0 ? 1245  9.71                              68   -0.06 8 96.8 1454
 TOLS     S   0   1245 23.65                              68   -0.12 8 96.8 1454
 N4       P   0 ? 1245 10.05                              68    0.14 8 97.7 1634
 N4       S   0   1245 24.16                              68    0.13 8 97.7 1634
 P9       P   0 ? 1245 10.20                              68   -0.04 8 99.6 1404
 N5       P   0 ? 1245 10.38                              68    0.06 8  100 1614
 N5       S   0   1245 24.73                              68   -0.04 8  100 1614
 N2       S   0   1245 25.21                              68    0.20 8  101 1614
 CAMP     P   0 ? 1245 10.57                              68    0.07 8  101 1604
 CAMP     S   0   1245 25.19                              68    0.09 8  101 1604
 N3       P   0 ? 1245 10.35                              68   -0.02 8  101 1624
 ABAD     P   0 ? 1245 10.37                              68   -0.01 8  101 1374
 N2       P   0 ? 1245 10.47                              68    0.02 8  101 1614
 N1       P   0 ? 1245 10.80                              68    0.06 8  103 1614
 KHIA     P   0 ? 1245 11.86                              68    0.08 8  109 1474
 KHIA     S   0   1245 27.42                              68    0.01 8  109 1474
 JNAK     P   0 ? 1245 12.51                              68    0.13 8  113 1534
 JNAK     S   0   1245 28.62                              68    0.12 8  113 1534
 AHRM     P   0 ? 1245 13.12                              68    0.03 7  117 1424
 AHRM     S   0   1245 29.98                              68    0.19 7  117 1424
 DLRM     P   0 ? 1245 14.60                              68    0.22 7  125 1564
 KOLO     P   0 ? 1245 14.95                              68    0.19 7  128 1484
                                                                                
 2021  5 5 0649 42.5 L  29.553  50.409 48.4  SLT 16 0.1                        1
 GAP=296        0.24       5.8     5.6  6.8  0.3021E+02 -0.3378E+02 -0.3586E+02E
 STAT SP IPHASW D HRMN SECON CODA AMPLIT PERI AZIMU VELO AIN AR TRES W  DIS CAZ7
 KHRK     P   0 ? 0649 52.84                             143    0.0610 34.3 1964
 N17      P   0 ? 0649 58.26                             119   -0.04 9 78.7 1494
 N13      P   0 ? 0649 58.72                             118   -0.04 9 81.9 1514
 N11      P   0 ? 0649 58.78                             118   -0.09 9 82.7 1504
 N15      P   0 ? 0649 58.81                             118   -0.07 9 82.8 1484
 N7       P   0 ? 0649 59.26                             117   -0.07 9 85.9 1504
 N4       P   0 ? 0649 59.63                             116   -0.05 8 88.3 1514
 N5       P   0 ? 0650  0.15                             115    0.04 8 91.3 1494
 N3       P   0 ? 0650  0.12                             115    0.00 8 91.3 1504
 N3       S   0   0650 14.42                             115    0.04 8 91.3 1504
 CAMP     P   0 ? 0650  0.29                             115   -0.04 8 92.8 1484
 CAMP     S   0   0650 14.76                             115   -0.00 8 92.8 1484
 KHIA     P   0 ? 0650  2.25                             112    0.06 8  105 1354
 JNAK     P   0 ? 0650  2.28                             112   -0.10 8  107 1434
 AHRM     P   0 ? 0650  3.71                             110    0.04 7  115 1314
 DLRM     P   0 ? 0650  4.21                             110    0.12 7  118 1464
 KOLO     P   0 ? 0650  4.93                             109    0.06 7  123 1394
 ABAS     P   0 ? 0650  8.00                             106    0.21 6  142 1434
                                                                                
 2021  5 5 2040 28.0 L  29.712  50.637 10.9  SLT  4 0.1                        1
 GAP=295        0.32       3.9     3.7745.0  0.7550E+01 -0.2342E+04 -0.2075E+04E
 STAT SP IPHASW D HRMN SECON CODA AMPLIT PERI AZIMU VELO AIN AR TRES W  DIS CAZ7
 KHRK     P   0 ? 2040 39.16                              68    0.0410 59.7 2124
 KHRK     S   0   2040 48.09                              68   -0.0510 59.7 2124
 NOKA     P   0 ? 2040 40.65                              68   -0.1110 69.9 1464
 N11      P   0 ? 2040 44.34                              68    0.08 9 91.6 1684
 N6       P   0 ? 2040 44.87                              68    0.02 9 95.2 1664
 N6       S   0   2040 58.56                              68    0.05 9 95.2 1664
                                                                                
 2021  5 5 2146 43.5 L  29.749  50.575  7.2  SLT  7 0.1                        1
 GAP=299        0.27      10.8     1.4 25.2 -0.6780E+00 -0.1498E+01  0.2710E+03E
 STAT SP IPHASW D HRMN SECON CODA AMPLIT PERI AZIMU VELO AIN AR TRES W  DIS CAZ7
 KHRK     P   0 ? 2146 55.02                              68   -0.0010 60.4 2054
 KHRK     S   0   2147  4.34                              68    0.0010 60.4 2054
 NOKA     P   0 ? 2146 57.56                              68   -0.07 9 76.6 1444
 SHIF     P   0 ? 2146 58.28                              68   -0.01 9 80.8 1594
 SHIF     S   0   2147 10.13                              68   -0.13 9 80.8 1594
 N20      P   0 ? 2146 59.84                              68   -0.01 9 90.4 1644
 N17      P   0 ? 2147  0.25                              68    0.03 9 92.7 1654
 N11      P   0 ? 2147  0.94                              68    0.04 8 96.9 1654
 N11      S   0   2147 15.00                              68    0.02 8 96.9 1654
 P4       P   0 ? 2147  1.15                              68    0.05 8 98.1 1524
 P4       S   0   2147 15.46                              68    0.13 8 98.1 1524
                                                                                
 2021  5 5 2146 46.5 L  29.556  50.495 36.0  SLT 32 0.1                        1
 GAP=280        0.26       1.9     1.7  3.8  0.2025E+01 -0.2907E+01 -0.5963E+01E
 STAT SP IPHASW D HRMN SECON CODA AMPLIT PERI AZIMU VELO AIN AR TRES W  DIS CAZ7
 KHRK     P   0 ? 2146 55.93                             130    0.2010 37.8 2084
 N20      P   0 ? 2147  0.65                             112   -0.02 9 73.3 1534
 N19      P   0 ? 2147  1.18                             111    0.01 9 76.6 1524
 N14      P   0 ? 2147  1.43                             111    0.06 9 77.9 1554
 N14      S   0   2147 13.38                             111   -0.02 9 77.9 1554
 N13      P   0 ? 2147  1.44                             111   -0.01 9 78.5 1564
 N13      S   0   2147 13.39                             111   -0.15 9 78.5 1564
 N16      P   0 ? 2147  1.31                             111   -0.15 9 78.5 1524
 N15      P   0 ? 2147  1.47                             111   -0.06 9 79.0 1544
 N15      S   0   2147 13.84                             111    0.16 9 79.0 1544
 N11      P   0 ? 2147  1.53                             111   -0.03 9 79.2 1564
 P1       P   0 ? 2147  1.63                             110   -0.09 9 80.3 1504
 N10      P   0 ? 2147  1.86                             110   -0.01 9 81.2 1554
 N10      S   0   2147 14.35                             110    0.06 9 81.2 1554
 P2       P   0 ? 2147  1.89                             110   -0.02 9 81.5 1474
 P3       P   0 ? 2147  1.94                             110   -0.02 9 81.9 1454
 P3       S   0   2147 14.37                             110   -0.09 9 81.9 1454
 N7       P   0 ? 2147  2.06                             110    0.03 9 82.3 1554
 N7       S   0   2147 14.31                             110   -0.28 9 82.3 1554
 N9       P   0 ? 2147  1.95                             110   -0.07 9 82.3 1534
 N9       S   0   2147 14.43                             110   -0.14 9 82.3 1534
 N6       P   0 ? 2147  2.12                             110   -0.10 9 83.5 1544
 P4       P   0 ? 2147  2.38                             109    0.01 9 84.6 1404
 N4       P   0 ? 2147  2.37                             109   -0.04 9 84.8 1564
 P5       P   0 ? 2147  2.56                             109   -0.03 9 86.0 1384
 N5       P   0 ? 2147  2.80                             109   -0.04 8 87.6 1544
 N5       S   0   2147 16.17                             109    0.12 8 87.6 1544
 N3       P   0 ? 2147  2.81                             109   -0.05 8 87.8 1554
 N3       S   0   2147 16.11                             109    0.02 8 87.8 1554
 TOLS     P   0 ? 2147  2.85                             109   -0.04 8 87.9 1364
 N2       P   0 ? 2147  2.97                             108   -0.00 8 88.5 1544
 CAMP     P   0 ? 2147  3.08                             108    0.03 8 89.0 1534
 N1       P   0 ? 2147  3.19                             108   -0.06 8 90.3 1544
 N1       S   0   2147 16.73                             108   -0.06 8 90.3 1544
 P9       P   0 ? 2147  3.54                             108   -0.00 8 92.1 1314
 P9       S   0   2147 17.43                             108    0.11 8 92.1 1314
 ABAD     P   0 ? 2147  3.86                             107    0.06 8 93.8 1284
 KHIA     P   0 ? 2147  4.71                             106   -0.03 8 99.9 1394
 JNAK     P   0 ? 2147  5.10                             106    0.04 8  102 1464
 AHRM     P   0 ? 2147  6.25                             105    0.06 8  109 1344
 DLRM     P   0 ? 2147  7.01                             104    0.11 7  114 1504
 DLRM     S   0   2147 23.60                             104    0.21 7  114 1504
 KOLO     P   0 ? 2147  7.61                             104    0.07 7  118 1424
 KOLO     S   0   2147 24.72                             104    0.16 7  118 1424
 ABAS     P   0 ? 2147 10.80                             102    0.20 7  137 1464
 ABAS     S   0   2147 30.29                             102    0.19 7  137 1464
                                                                                
