 2021  4 4 2243 52.7 L  29.719  50.686 58.8  SLT 27 0.1                        1
 GAP=333        0.18       1.8     1.6  2.8  0.2926E+00  0.5369E+00 -0.4592E+01E
 STAT SP IPHASW D HRMN SECON CODA AMPLIT PERI AZIMU VELO AIN AR TRES W  DIS CAZ7
 NOKA     P   0 ? 2244  8.05                             129    0.0310 68.0 1504
 SHIF     P   0 ? 2244  8.84                             126    0.0210 74.3 1664
 N20      P   0 ? 2244 10.31                             123    0.10 9 84.7 1704
 N20      S   0   2244 24.29                             123   -0.07 9 84.7 1704
 N17      P   0 ? 2244 10.60                             122    0.05 9 87.2 1714
 N19      P   0 ? 2244 10.60                             122    0.02 9 87.4 1684
 N18      P   0 ? 2244 10.67                             121   -0.02 9 88.2 1714
 N18      S   0   2244 25.30                             121    0.06 9 88.2 1714
 P3       P   0 ? 2244 10.88                             121   -0.03 9 89.8 1624
 N14      P   0 ? 2244 10.89                             121   -0.02 9 89.8 1714
 P3       S   0   2244 25.69                             121    0.05 9 89.8 1624
 P1       P   0 ? 2244 10.96                             121    0.00 9 90.2 1664
 P2       P   0 ? 2244 10.96                             121   -0.03 9 90.4 1644
 P2       S   0   2244 25.88                             121    0.09 9 90.4 1644
 P4       P   0 ? 2244 10.99                             121   -0.01 9 90.5 1574
 P4       S   0   2244 25.68                             121   -0.12 9 90.5 1574
 N11      P   0 ? 2244 11.07                             121   -0.07 9 91.4 1714
 N11      S   0   2244 26.10                             121    0.05 9 91.4 1714
 N10      P   0 ? 2244 11.28                             120   -0.07 9 92.9 1704
 N9       P   0 ? 2244 11.32                             120   -0.07 9 93.2 1684
 N9       S   0   2244 26.45                             120   -0.05 9 93.2 1684
 ABAD     P   0 ? 2244 11.59                             120    0.07 9 94.1 1444
 ABAD     S   0   2244 26.76                             120    0.03 9 94.1 1444
 N6       P   0 ? 2244 11.62                             120   -0.00 9 94.9 1694
 N4       P   0 ? 2244 11.91                             119    0.03 9 96.8 1704
 N3       P   0 ? 2244 12.28                             118    0.02 9 99.4 1694
 CAMP     P   0 ? 2244 12.20                             118   -0.12 9 99.8 1674
 N2       P   0 ? 2244 12.32                             118    0.02 9 99.8 1684
 N1       P   0 ? 2244 12.60                             118    0.04 9  102 1684
 KHIA     P   0 ? 2244 12.97                             117   -0.05 8  105 1534
 KHIA     S   0   2244 29.36                             117   -0.09 8  105 1534
 JNAK     P   0 ? 2244 13.75                             116   -0.01 8  110 1604
 AHRM     P   0 ? 2244 14.00                             116   -0.04 8  112 1484
 DLRM     P   0 ? 2244 15.66                             113    0.00 8  123 1624
 KOLO     P   0 ? 2244 15.80                             113    0.05 8  123 1544
 ABAS     P   0 ? 2244 18.94                             110    0.09 7  144 1564
 ABAS     S   0   2244 40.07                             110    0.06 7  144 1564
                                                                                
 2021  4 4 2259 52.8 L  29.810  50.781 21.2  SLT 27 0.0                        1
 GAP=337        0.17       2.1     1.8 16.5  0.1301E+00  0.2230E+01 -0.3353E+02E
 STAT SP IPHASW D HRMN SECON CODA AMPLIT PERI AZIMU VELO AIN AR TRES W  DIS CAZ7
 SHIF     P   0 ? 2300  7.70                              99   -0.0310 82.7 1744
 N20      P   0 ? 2300  9.56                              97    0.06 9 93.7 1774
 N20      S   0   2300 23.05                              97    0.00 9 93.7 1774
 N19      P   0 ? 2300  9.86                              97   -0.03 9 96.1 1754
 N17      P   0 ? 2300  9.97                              97    0.04 9 96.4 1784
 P4       P   0 ? 2300  9.98                              97   -0.05 9 97.0 1644
 P3       P   0 ? 2300  9.95                              97   -0.12 9 97.3 1694
 P3       S   0   2300 24.16                              97    0.07 9 97.3 1694
 N18      P   0 ? 2300 10.10                              97    0.02 9 97.4 1774
 P2       S   0   2300 24.29                              97   -0.08 9 98.3 1714
 P9       S   0   2300 24.46                              97    0.07 9 98.3 1554
 P2       P   0 ? 2300 10.24                              97    0.01 9 98.3 1714
 P9       P   0 ? 2300 10.24                              97   -0.00 9 98.3 1554
 N14      P   0 ? 2300 10.35                              97    0.02 9 98.9 1774
 N15      P   0 ? 2300 10.43                              97    0.04 9 99.3 1764
 N15      S   0   2300 24.65                              97   -0.01 9 99.3 1764
 N13      P   0 ? 2300 10.49                              97   -0.04 9  100 1784
 N11      P   0 ? 2300 10.67                              97    0.06 9  101 1774
 N10      P   0 ? 2300 10.81                              97    0.00 9  102 1764
 N9       P   0 ? 2300 10.74                              97   -0.07 9  102 1744
 N6       P   0 ? 2300 11.13                              97    0.03 9  104 1754
 N4       P   0 ? 2300 11.43                              96    0.00 9  106 1764
 N4       S   0   2300 26.57                              96    0.03 9  106 1764
 N2       P   0 ? 2300 11.84                              96   -0.01 9  108 1744
 N5       P   0 ? 2300 11.67                              96   -0.06 9  108 1754
 N3       P   0 ? 2300 11.85                              96    0.03 9  108 1754
 N3       S   0   2300 27.22                              96   -0.04 9  108 1754
 CAMP     P   0 ? 2300 11.93                              96    0.09 9  108 1734
 N1       P   0 ? 2300 12.10                              96   -0.03 9  110 1744
 KHIA     P   0 ? 2300 12.15                              96   -0.03 9  110 1604
 AHRM     P   0 ? 2300 13.08                              96   -0.03 8  116 1544
 JNAK     P   0 ? 2300 13.21                              96   -0.00 8  117 1664
 JNAK     S   0   2300 29.71                              96   -0.06 8  117 1664
 DLRM     P   0 ? 2300 15.42                              95    0.08 8  130 1674
 ABAS     P   0 ? 2300 18.59                              94    0.04 7  150 1614
                                                                                
 2021  4 4 2311 14.1 L  29.762  50.736 42.4  SLT 22 0.1                        1
 GAP=342        0.19       3.0     2.6  7.5  0.2572E+01 -0.2837E+01 -0.2103E+02E
 STAT SP IPHASW D HRMN SECON CODA AMPLIT PERI AZIMU VELO AIN AR TRES W  DIS CAZ7
 N20      P   0 ? 2311 30.94                             112    0.0210 88.7 1744
 N17      P   0 ? 2311 31.42                             112    0.1110 91.3 1754
 N18      P   0 ? 2311 31.52                             111    0.0610 92.3 1744
 P4       P   0 ? 2311 31.62                             111    0.0310 93.2 1614
 P4       S   0   2311 45.70                             111   -0.0710 93.2 1614
 P2       P   0 ? 2311 31.69                             111   -0.0010 93.8 1674
 P1       P   0 ? 2311 31.63                             111   -0.0610 93.8 1704
 P1       S   0   2311 45.95                             111    0.0110 93.8 1704
 N14      P   0 ? 2311 31.67                             111   -0.0310 93.9 1744
 N15      P   0 ? 2311 31.80                             111    0.0310 94.3 1734
 N15      S   0   2311 46.10                             111    0.0110 94.3 1734
 N13      P   0 ? 2311 31.84                             111   -0.0410 95.1 1754
 N11      P   0 ? 2311 31.93                             111   -0.0210 95.6 1754
 N9       P   0 ? 2311 32.17                             110   -0.0110 97.1 1724
 N6       P   0 ? 2311 32.47                             110    0.0210 98.8 1724
 N4       P   0 ? 2311 32.80                             110    0.06 9  101 1734
 N4       S   0   2311 47.95                             110    0.09 9  101 1734
 N5       P   0 ? 2311 33.03                             109   -0.03 9  103 1724
 N3       P   0 ? 2311 33.16                             109    0.03 9  103 1724
 N5       S   0   2311 48.30                             109   -0.12 9  103 1724
 CAMP     P   0 ? 2311 33.16                             109   -0.01 9  104 1714
 N2       P   0 ? 2311 33.11                             109   -0.06 9  104 1714
 N1       P   0 ? 2311 33.33                             109   -0.11 9  105 1714
 KHIA     P   0 ? 2311 33.64                             109   -0.06 9  107 1574
 KHIA     S   0   2311 49.65                             109    0.07 9  107 1574
 JNAK     P   0 ? 2311 34.57                             108   -0.02 9  113 1634
 KOLO     P   0 ? 2311 36.67                             106    0.08 8  126 1574
 DLRM     P   0 ? 2311 36.62                             106    0.00 8  126 1654
 DLRM     S   0   2311 54.88                             106    0.01 8  126 1654
                                                                                
 2021  4 4 2349 51.7 L  29.753  50.901 23.2  SLT 20 0.1                        1
 GAP=335        0.20       3.0     3.4 20.9 -0.4677E+01  0.2863E+02 -0.5493E+02E
 STAT SP IPHASW D HRMN SECON CODA AMPLIT PERI AZIMU VELO AIN AR TRES W  DIS CAZ7
 ABTL     P   0 ? 2350  5.55                             101    0.0410 75.3 1644
 SHIF     P   0 ? 2350  5.59                             101   -0.0110 75.9 1824
 N20      P   0 ? 2350  7.40                             100   -0.04 9 87.5 1844
 P9       P   0 ? 2350  7.53                             100   -0.01 9 88.1 1604
 P4       P   0 ? 2350  7.56                              99   -0.01 9 88.3 1714
 P2       P   0 ? 2350  7.93                              99   -0.03 9 90.8 1774
 N18      P   0 ? 2350  7.99                              99   -0.03 9 91.2 1844
 P1       P   0 ? 2350  8.04                              99   -0.01 9 91.4 1794
 N14      P   0 ? 2350  8.22                              99   -0.05 9 92.7 1844
 N15      P   0 ? 2350  8.38                              99    0.09 9 92.8 1834
 N13      P   0 ? 2350  8.46                              99   -0.04 9 94.1 1854
 N11      P   0 ? 2350  8.59                              99    0.03 9 94.5 1844
 N10      P   0 ? 2350  8.74                              99    0.03 9 95.5 1834
 N6       P   0 ? 2350  8.87                              99   -0.10 9 97.1 1824
 N4       P   0 ? 2350  9.37                              98    0.04 9 99.3 1834
 N4       S   0   2350 23.74                              98    0.11 9 99.3 1834
 CAMP     P   0 ? 2350  9.72                              98    0.08 9  101 1804
 KHIA     P   0 ? 2350  9.57                              98   -0.02 9  101 1654
 N5       P   0 ? 2350  9.55                              98   -0.03 9  101 1814
 N2       P   0 ? 2350  9.71                              98    0.03 9  102 1804
 N3       P   0 ? 2350  9.72                              98    0.04 9  102 1814
 N2       S   0   2350 24.16                              98   -0.11 9  102 1804
                                                                                
 2021  4 4 2352 39.0 L  29.661  50.686 41.6  SLT 22 0.1                        1
 GAP=335        0.19       1.8     3.2  4.9 -0.1402E+01  0.6407E+01 -0.7664E+01E
 STAT SP IPHASW D HRMN SECON CODA AMPLIT PERI AZIMU VELO AIN AR TRES W  DIS CAZ7
 NOKA     P   0 ? 2352 51.97                             120    0.0310 62.5 1474
 SHIF     P   0 ? 2352 52.74                             118    0.0210 68.0 1644
 ABTL     P   0 ? 2352 53.66                             116   -0.04 9 74.8 1464
 N17      P   0 ? 2352 54.53                             114   -0.04 9 80.8 1714
 N19      P   0 ? 2352 54.61                             114   -0.01 9 81.1 1684
 N18      P   0 ? 2352 54.79                             114    0.06 9 81.9 1704
 N14      P   0 ? 2352 55.03                             113    0.06 9 83.5 1704
 P1       P   0 ? 2352 55.06                             113    0.03 9 83.9 1654
 P1       S   0   2353  8.06                             113    0.01 9 83.9 1654
 P2       P   0 ? 2352 55.09                             113    0.01 9 84.2 1634
 N10      P   0 ? 2352 55.48                             112    0.05 9 86.6 1694
 N9       P   0 ? 2352 55.43                             112   -0.05 9 86.9 1674
 N6       P   0 ? 2352 55.63                             112   -0.10 9 88.6 1684
 N4       P   0 ? 2352 56.01                             111    0.00 9 90.4 1704
 N4       S   0   2353  9.82                             111    0.01 9 90.4 1704
 N5       P   0 ? 2352 56.36                             111    0.02 9 92.6 1684
 N5       S   0   2353 10.29                             111   -0.13 9 92.6 1684
 N3       P   0 ? 2352 56.39                             111   -0.02 9 93.1 1694
 N3       S   0   2353 10.63                             111    0.09 9 93.1 1694
 N2       P   0 ? 2352 56.44                             111   -0.02 9 93.5 1684
 CAMP     P   0 ? 2352 56.49                             111    0.01 9 93.6 1674
 N1       P   0 ? 2352 56.70                             110   -0.03 9 95.2 1674
 N1       S   0   2353 11.13                             110    0.01 9 95.2 1674
 KHIA     P   0 ? 2352 57.25                             110   -0.05 8 99.0 1524
 JNAK     P   0 ? 2352 57.98                             109   -0.06 8  104 1594
 DLRM     P   0 ? 2353  0.04                             107    0.02 8  117 1614
 KOLO     P   0 ? 2353  0.31                             106    0.14 8  118 1534
                                                                                
 2021  4 4 2356 55.8 L  29.688  50.705 55.8  SLT 29 0.0                        1
 GAP=334        0.17       1.9     1.5  3.3  0.6997E+00  0.1055E+00 -0.5344E+01E
 STAT SP IPHASW D HRMN SECON CODA AMPLIT PERI AZIMU VELO AIN AR TRES W  DIS CAZ7
 SHIF     P   0 ? 2357 11.13                             126    0.0010 70.6 1674
 N20      P   0 ? 2357 12.49                             122   -0.0410 81.0 1714
 N17      P   0 ? 2357 12.85                             121   -0.02 9 83.6 1724
 N19      P   0 ? 2357 12.87                             121   -0.03 9 83.7 1694
 N18      P   0 ? 2357 13.04                             121    0.02 9 84.6 1724
 P3       P   0 ? 2357 13.22                             121    0.00 9 86.1 1624
 N14      P   0 ? 2357 13.34                             121    0.10 9 86.2 1714
 P1       P   0 ? 2357 13.26                             120   -0.01 9 86.5 1674
 P4       P   0 ? 2357 13.25                             120   -0.05 9 86.6 1574
 P2       P   0 ? 2357 13.31                             120    0.01 9 86.7 1644
 N15      P   0 ? 2357 13.35                             120    0.04 9 86.7 1704
 N13      P   0 ? 2357 13.43                             120    0.04 9 87.3 1734
 N11      P   0 ? 2357 13.43                             120   -0.04 9 87.8 1724
 N10      P   0 ? 2357 13.71                             120    0.04 9 89.3 1714
 N9       P   0 ? 2357 13.70                             120   -0.01 9 89.6 1694
 N9       S   0   2357 28.25                             120    0.04 9 89.6 1694
 P9       P   0 ? 2357 13.77                             119   -0.01 9 90.0 1474
 P9       S   0   2357 28.41                             119    0.08 9 90.0 1474
 N6       P   0 ? 2357 14.00                             119    0.05 9 91.2 1704
 N6       S   0   2357 28.53                             119   -0.11 9 91.2 1704
 N4       P   0 ? 2357 14.19                             119   -0.02 9 93.1 1714
 N5       P   0 ? 2357 14.47                             118   -0.05 9 95.3 1694
 N3       P   0 ? 2357 14.55                             118   -0.03 9 95.8 1704
 N2       P   0 ? 2357 14.57                             118   -0.06 9 96.1 1694
 N2       S   0   2357 29.91                             118    0.04 9 96.1 1694
 CAMP     P   0 ? 2357 14.59                             118   -0.05 9 96.2 1684
 N1       P   0 ? 2357 14.90                             117    0.02 9 97.8 1694
 KHIA     P   0 ? 2357 15.36                             117    0.04 9  101 1544
 JNAK     P   0 ? 2357 16.14                             115    0.07 8  106 1604
 AHRM     P   0 ? 2357 16.30                             115   -0.05 8  108 1484
 AHRM     S   0   2357 32.91                             115   -0.08 8  108 1484
 DLRM     P   0 ? 2357 18.03                             113    0.05 8  119 1624
 DLRM     S   0   2357 35.98                             113    0.03 8  119 1624
 KOLO     P   0 ? 2357 18.01                             113   -0.06 8  120 1544
 KOLO     S   0   2357 36.10                             113   -0.01 8  120 1544
 ABAS     P   0 ? 2357 21.25                             109    0.07 7  140 1564
                                                                                
