 2021  4 4 0938 55.2 L  29.673  50.570 75.2  SLT 12 0.1                        1
 GAP=345        0.21      10.4     7.4 11.3  0.6422E+02 -0.6386E+02 -0.1149E+03E
 STAT SP IPHASW D HRMN SECON CODA AMPLIT PERI AZIMU VELO AIN AR TRES W  DIS CAZ7
 P1       P   0 ? 0939 14.73                             129   -0.0510 88.8 1584
 N10      P   0 ? 0939 15.02                             128   -0.0010 90.7 1624
 N4       P   0 ? 0939 15.55                             127    0.0510 94.5 1634
 N4       S   0   0939 31.96                             127    0.0310 94.5 1634
 N5       P   0 ? 0939 15.90                             126    0.0710 97.0 1624
 N3       P   0 ? 0939 15.89                             126    0.0210 97.3 1624
 N3       S   0   0939 32.54                             126   -0.0610 97.3 1624
 N2       P   0 ? 0939 15.92                             126   -0.0210 97.8 1614
 N2       S   0   0939 32.81                             126    0.0910 97.8 1614
 CAMP     P   0 ? 0939 15.98                             126    0.0110 98.1 1604
 CAMP     S   0   0939 32.83                             126    0.0410 98.1 1604
 N1       P   0 ? 0939 16.08                             125   -0.09 9 99.6 1614
 N1       S   0   0939 33.06                             125   -0.09 9 99.6 1614
 JNAK     P   0 ? 0939 17.51                             123   -0.01 9  110 1534
 DLRM     P   0 ? 0939 19.20                             120   -0.04 8  122 1564
 KOLO     P   0 ? 0939 19.64                             119    0.07 8  124 1484
 KOLO     S   0   0939 39.27                             119   -0.02 8  124 1484
 ABAS     P   0 ? 0939 22.47                             116    0.02 7  145 1514
                                                                                
 2021  4 4 0938 55.2 L  29.839  50.722 49.7  SLT 20 0.1                        1
 GAP=338        0.18       3.7     2.6  8.7  0.5577E+01 -0.1127E+02 -0.3160E+02E
 STAT SP IPHASW D HRMN SECON CODA AMPLIT PERI AZIMU VELO AIN AR TRES W  DIS CAZ7
 SHIF     P   0 ? 0939 12.22                             117    0.0310 86.6 1704
 N20      P   0 ? 0939 13.73                             114   -0.03 9 97.4 1734
 N17      P   0 ? 0939 14.18                             114    0.04 9  100 1744
 N17      S   0   0939 29.39                             114   -0.12 9  100 1744
 N18      P   0 ? 0939 14.19                             113   -0.10 9  101 1744
 N18      S   0   0939 29.87                             113    0.09 9  101 1744
 N14      S   0   0939 30.21                             113    0.00 9  103 1744
 P2       P   0 ? 0939 14.53                             113    0.02 9  103 1684
 N14      P   0 ? 0939 14.63                             113    0.10 9  103 1744
 P1       P   0 ? 0939 14.57                             113    0.06 9  103 1704
 N15      P   0 ? 0939 14.62                             113    0.03 9  103 1734
 N13      P   0 ? 0939 14.65                             113   -0.05 9  104 1754
 N11      P   0 ? 0939 14.75                             113   -0.03 9  104 1744
 N9       P   0 ? 0939 15.02                             112    0.02 9  106 1724
 N6       P   0 ? 0939 15.25                             112   -0.01 9  108 1724
 N4       P   0 ? 0939 15.55                             112   -0.01 9  110 1734
 CAMP     S   0   0939 32.81                             111   -0.02 9  112 1714
 N2       P   0 ? 0939 15.93                             111   -0.04 9  112 1714
 CAMP     P   0 ? 0939 15.91                             111   -0.07 9  112 1714
 N5       P   0 ? 0939 15.90                             111    0.04 9  112 1724
 N2       S   0   0939 32.84                             111    0.02 9  112 1714
 N1       P   0 ? 0939 16.22                             111   -0.02 9  114 1714
 N1       S   0   0939 33.36                             111    0.06 9  114 1714
 AHRM     S   0   0939 35.35                             110   -0.04 8  122 1534
 JNAK     P   0 ? 0939 17.33                             110   -0.04 8  122 1644
 AHRM     P   0 ? 0939 17.40                             110    0.01 8  122 1534
 KOLO     P   0 ? 0939 19.37                             108    0.06 8  134 1584
 KOLO     S   0   0939 38.87                             108    0.00 8  134 1584
                                                                                
 2021  4 4 0942  8.1 L  29.723  50.721 54.6  SLT 14 0.1                        1
 GAP=336        0.21       5.2     2.5  8.7  0.5746E+01 -0.8489E+01 -0.4384E+02E
 STAT SP IPHASW D HRMN SECON CODA AMPLIT PERI AZIMU VELO AIN AR TRES W  DIS CAZ7
 N17      P   0 ? 0942 25.51                             120   -0.0310 87.2 1744
 N17      S   0   0942 39.65                             120   -0.0410 87.2 1744
 N18      P   0 ? 0942 25.70                             119    0.0110 88.2 1734
 N18      S   0   0942 40.03                             119    0.0810 88.2 1734
 P4       P   0 ? 0942 25.86                             119   -0.0310 89.6 1594
 N11      P   0 ? 0942 26.13                             118   -0.0210 91.4 1734
 N10      P   0 ? 0942 26.45                             118    0.1010 92.9 1724
 N10      S   0   0942 41.22                             118    0.0710 92.9 1724
 N9       P   0 ? 0942 26.39                             118    0.0210 93.1 1704
 N4       P   0 ? 0942 26.92                             117    0.0210 96.7 1724
 N5       P   0 ? 0942 27.17                             116   -0.03 9 98.8 1714
 N5       S   0   0942 42.58                             116   -0.12 9 98.8 1714
 N3       P   0 ? 0942 27.16                             116   -0.11 9 99.3 1714
 KHIA     P   0 ? 0942 27.95                             115    0.04 9  104 1554
 KHIA     S   0   0942 44.01                             115    0.03 9  104 1554
 AHRM     P   0 ? 0942 28.87                             114   -0.03 9  110 1494
 AHRM     S   0   0942 45.74                             114   -0.03 9  110 1494
 DLRM     P   0 ? 0942 30.66                             112    0.00 8  122 1634
 KOLO     P   0 ? 0942 30.68                             112   -0.01 8  122 1554
 ABAS     P   0 ? 0942 33.92                             109    0.09 7  143 1574
                                                                                
 2021  4 4 0957 30.1 L  29.704  50.686 72.3  SLT 15 0.1                        1
 GAP=332        0.22       3.1     3.4  5.8  0.8600E+00  0.2936E+01 -0.1403E+02E
 STAT SP IPHASW D HRMN SECON CODA AMPLIT PERI AZIMU VELO AIN AR TRES W  DIS CAZ7
 ABTL     P   0 ? 0957 48.21                             131    0.0610 78.8 1484
 N18      P   0 ? 0957 49.01                             128   -0.1010 86.6 1714
 N15      P   0 ? 0957 49.39                             127    0.0110 88.7 1694
 N11      P   0 ? 0957 49.57                             127    0.0510 89.8 1714
 N10      P   0 ? 0957 49.77                             127    0.06 9 91.3 1704
 P9       P   0 ? 0957 49.84                             126   -0.03 9 92.5 1474
 ABAD     P   0 ? 0957 49.90                             126   -0.01 9 92.8 1444
 N4       P   0 ? 0957 50.22                             126    0.01 9 95.1 1704
 N3       P   0 ? 0957 50.53                             125   -0.03 9 97.8 1694
 KHIA     P   0 ? 0957 51.23                             123   -0.07 9  103 1534
 JNAK     P   0 ? 0957 51.91                             122   -0.07 9  108 1604
 JNAK     S   0   0958  9.75                             122    0.05 9  108 1604
 AHRM     P   0 ? 0957 52.27                             121    0.00 9  110 1474
 DLRM     P   0 ? 0957 53.86                             119    0.08 8  121 1624
 DLRM     S   0   0958 12.89                             119   -0.06 8  121 1624
 KOLO     P   0 ? 0957 53.87                             119   -0.01 8  122 1544
 ABAS     P   0 ? 0957 56.93                             115    0.08 7  143 1554
                                                                                
 2021  4 4 1117 13.3 L  29.745  50.702 53.4  SLT 21 0.1                        1
 GAP=336        0.19       2.3     2.1  4.5 -0.1254E+01  0.3509E+01 -0.9750E+01E
 STAT SP IPHASW D HRMN SECON CODA AMPLIT PERI AZIMU VELO AIN AR TRES W  DIS CAZ7
 NOKA     P   0 ? 1117 28.35                             125    0.0610 69.8 1524
 N17      P   0 ? 1117 31.09                             118    0.05 9 89.9 1734
 N18      P   0 ? 1117 31.17                             118   -0.02 9 90.9 1724
 N14      P   0 ? 1117 31.44                             117    0.02 9 92.5 1724
 N14      S   0   1117 46.05                             117   -0.05 9 92.5 1724
 P4       P   0 ? 1117 31.41                             117   -0.02 9 92.6 1594
 P4       S   0   1117 46.18                             117    0.05 9 92.6 1594
 N15      P   0 ? 1117 31.49                             117    0.00 9 93.0 1714
 N15      S   0   1117 46.25                             117    0.02 9 93.0 1714
 N13      P   0 ? 1117 31.54                             117   -0.03 9 93.6 1734
 P9       P   0 ? 1117 31.89                             117    0.03 9 95.5 1494
 P9       S   0   1117 46.81                             117   -0.09 9 95.5 1494
 N10      P   0 ? 1117 31.86                             117    0.00 9 95.6 1714
 N9       P   0 ? 1117 31.92                             117    0.03 9 95.8 1694
 N9       S   0   1117 46.85                             117   -0.11 9 95.8 1694
 N6       P   0 ? 1117 32.18                             116    0.04 9 97.5 1704
 N4       P   0 ? 1117 32.32                             116   -0.09 9 99.4 1714
 N4       S   0   1117 47.94                             116    0.03 9 99.4 1714
 N5       S   0   1117 48.56                             115    0.09 9  102 1704
 N2       S   0   1117 48.73                             115    0.06 9  102 1704
 N5       P   0 ? 1117 32.66                             115   -0.07 9  102 1704
 N3       P   0 ? 1117 32.76                             115   -0.03 9  102 1704
 N2       P   0 ? 1117 32.81                             115   -0.02 9  102 1704
 KHIA     P   0 ? 1117 33.42                             114   -0.06 8  107 1554
 JNAK     P   0 ? 1117 34.31                             113    0.03 8  112 1614
 AHRM     P   0 ? 1117 34.45                             113   -0.04 8  113 1494
 DLRM     P   0 ? 1117 36.23                             111   -0.00 8  125 1634
 KOLO     P   0 ? 1117 36.39                             111    0.11 8  125 1554
 ABAS     P   0 ? 1117 39.46                             108    0.02 7  146 1574
                                                                                
 2021  4 4 1226  3.6 L  29.734  50.710 50.9  SLT 26 0.1                        1
 GAP=336        0.18       2.5     2.3  4.8  0.2886E+01 -0.4916E+01 -0.1146E+02E
 STAT SP IPHASW D HRMN SECON CODA AMPLIT PERI AZIMU VELO AIN AR TRES W  DIS CAZ7
 SHIF     P   0 ? 1226 19.21                             121    0.0610 75.4 1684
 N20      P   0 ? 1226 20.68                             118    0.0410 86.0 1724
 N20      S   0   1226 34.39                             118   -0.0310 86.0 1724
 N17      P   0 ? 1226 20.99                             117   -0.01 9 88.5 1734
 N19      P   0 ? 1226 21.06                             117    0.04 9 88.6 1704
 N19      S   0   1226 35.17                             117    0.06 9 88.6 1704
 N18      P   0 ? 1226 21.13                             117   -0.02 9 89.5 1724
 N18      S   0   1226 35.47                             117    0.13 9 89.5 1724
 P4       P   0 ? 1226 21.38                             117    0.00 9 91.1 1594
 N14      P   0 ? 1226 21.33                             117   -0.05 9 91.1 1724
 N15      P   0 ? 1226 21.46                             116    0.01 9 91.6 1714
 N13      P   0 ? 1226 21.44                             116   -0.10 9 92.2 1734
 N13      S   0   1226 35.98                             116   -0.07 9 92.2 1734
 N11      P   0 ? 1226 21.63                             116    0.01 9 92.8 1734
 P9       P   0 ? 1226 21.70                             116   -0.10 9 94.0 1494
 N10      P   0 ? 1226 21.83                             116    0.01 9 94.2 1724
 N9       P   0 ? 1226 21.91                             116    0.05 9 94.4 1704
 N9       S   0   1226 36.54                             116   -0.08 9 94.4 1704
 N6       P   0 ? 1226 22.11                             115    0.00 9 96.1 1714
 N4       P   0 ? 1226 22.44                             115    0.06 9 98.1 1724
 N4       S   0   1226 37.56                             115   -0.02 9 98.1 1724
 N5       P   0 ? 1226 22.71                             114    0.01 9  100 1704
 N2       P   0 ? 1226 22.75                             114   -0.05 9  101 1704
 CAMP     P   0 ? 1226 22.84                             114    0.03 9  101 1694
 N2       S   0   1226 38.40                             114    0.06 9  101 1704
 N3       P   0 ? 1226 22.73                             114   -0.04 9  101 1714
 N1       P   0 ? 1226 23.04                             114   -0.03 9  103 1704
 N1       S   0   1226 38.73                             114   -0.09 9  103 1704
 KHIA     P   0 ? 1226 23.45                             113    0.01 9  105 1554
 JNAK     P   0 ? 1226 24.22                             112   -0.04 8  111 1614
 JNAK     S   0   1226 41.00                             112    0.03 8  111 1614
 AHRM     P   0 ? 1226 24.46                             112    0.01 8  112 1494
 KOLO     P   0 ? 1226 26.24                             110   -0.02 8  124 1554
 KOLO     S   0   1226 44.61                             110    0.01 8  124 1554
 DLRM     P   0 ? 1226 26.20                             110   -0.02 8  124 1634
 ABAS     P   0 ? 1226 29.60                             107    0.17 7  145 1574
                                                                                
 2021  4 4 1811 22.1 L  29.758  50.759 39.6  SLT 21 0.1                        1
 GAP=333        0.19       2.0     1.9  5.7 -0.1120E+01  0.4122E+01 -0.1053E+02E
 STAT SP IPHASW D HRMN SECON CODA AMPLIT PERI AZIMU VELO AIN AR TRES W  DIS CAZ7
 NOKA     P   0 ? 1811 35.87                             116    0.0510 68.8 1574
 N18      P   0 ? 1811 39.27                             110    0.05 9 91.7 1764
 P4       P   0 ? 1811 39.28                             110    0.00 9 92.1 1624
 P4       S   0   1811 53.20                             110    0.01 9 92.1 1624
 ABAD     P   0 ? 1811 39.54                             109   -0.02 9 93.9 1494
 P9       P   0 ? 1811 39.63                             109    0.05 9 94.1 1524
 P9       S   0   1811 53.72                             109   -0.03 9 94.1 1524
 N13      P   0 ? 1811 39.59                             109   -0.05 9 94.5 1764
 N13      S   0   1811 53.90                             109    0.04 9 94.5 1764
 N10      P   0 ? 1811 39.87                             109   -0.05 9 96.3 1754
 N10      S   0   1811 54.44                             109    0.08 9 96.3 1754
 N9       P   0 ? 1811 39.89                             109   -0.04 9 96.4 1734
 N9       S   0   1811 54.24                             109   -0.14 9 96.4 1734
 N6       P   0 ? 1811 40.17                             109   -0.03 9 98.2 1744
 N4       P   0 ? 1811 40.53                             108    0.02 9  100 1754
 N5       P   0 ? 1811 40.73                             108   -0.08 9  102 1734
 N5       S   0   1811 56.04                             108    0.06 9  102 1734
 N3       S   0   1811 56.07                             108   -0.05 9  103 1744
 CAMP     P   0 ? 1811 40.94                             108    0.02 9  103 1724
 N3       P   0 ? 1811 40.88                             108   -0.02 9  103 1744
 N2       P   0 ? 1811 40.97                             108    0.05 9  103 1734
 N1       P   0 ? 1811 41.22                             107    0.03 8  105 1724
 KHIA     P   0 ? 1811 41.34                             107   -0.04 8  106 1584
 JNAK     P   0 ? 1811 42.28                             106   -0.03 8  112 1644
 JNAK     S   0   1811 58.70                             106    0.02 8  112 1644
 AHRM     P   0 ? 1811 42.26                             106   -0.08 8  112 1524
 KOLO     P   0 ? 1811 44.29                             105    0.00 8  125 1584
 DLRM     P   0 ? 1811 44.47                             104    0.11 8  125 1664
 ABAS     P   0 ? 1811 47.65                             102    0.09 7  145 1594
                                                                                
 2021  4 4 1923 53.2 L  29.766  50.720 54.6  SLT 13 0.1                        1
 GAP=334        0.21       4.6     2.7  9.5 -0.2386E+01  0.7378E+01 -0.4235E+02E
 STAT SP IPHASW D HRMN SECON CODA AMPLIT PERI AZIMU VELO AIN AR TRES W  DIS CAZ7
 N18      P   0 ? 1924 11.58                             118    0.0510 92.9 1734
 P4       P   0 ? 1924 11.70                             118    0.0010 94.1 1604
 P4       S   0   1924 26.64                             118   -0.0010 94.1 1604
 N14      P   0 ? 1924 11.77                             118    0.0110 94.5 1734
 N15      P   0 ? 1924 11.82                             117   -0.0110 95.0 1724
 N11      P   0 ? 1924 11.98                             117   -0.0210 96.2 1744
 N11      S   0   1924 27.24                             117    0.0610 96.2 1744
 ABAD     P   0 ? 1924 12.03                             117   -0.0310 96.5 1484
 N6       P   0 ? 1924 12.48                             116    0.0010 99.5 1714
 N3       P   0 ? 1924 13.03                             115   -0.10 9  104 1724
 N5       S   0   1924 29.06                             115   -0.05 9  104 1714
 N2       P   0 ? 1924 13.19                             115    0.02 9  104 1714
 N5       P   0 ? 1924 13.03                             115   -0.03 9  104 1714
 N2       S   0   1924 29.20                             115   -0.10 9  104 1714
 N1       P   0 ? 1924 13.41                             115   -0.02 9  106 1714
 N1       S   0   1924 29.89                             115    0.12 9  106 1714
 AHRM     P   0 ? 1924 14.81                             113    0.12 9  114 1514
 AHRM     S   0   1924 32.02                             113   -0.03 9  114 1514
 DLRM     P   0 ? 1924 16.53                             111    0.01 8  127 1644
                                                                                
