 2021  5 5 1755 20.7 L  29.635  50.809 55.9  SLT 29 0.1                        1
 GAP=332        0.21       2.2     1.7  3.6 -0.7282E+00  0.1312E+01 -0.7606E+01E
 STAT SP IPHASW D HRMN SECON CODA AMPLIT PERI AZIMU VELO AIN AR TRES W  DIS CAZ7
 SHIF     P   0 ? 1755 35.18                             129    0.0610 63.0 1744
 ABTL     P   0 ? 1755 35.53                             128   -0.0110 66.3 1534
 N20      P   0 ? 1755 36.53                             125   -0.0310 74.2 1784
 N17      P   0 ? 1755 36.96                             124    0.04 9 76.9 1794
 N17      S   0   1755 50.11                             124    0.09 9 76.9 1794
 P5       P   0 ? 1755 36.96                             123   -0.05 9 77.5 1604
 P3       P   0 ? 1755 37.02                             123   -0.01 9 77.7 1684
 N18      P   0 ? 1755 37.05                             123    0.01 9 77.8 1784
 N18      S   0   1755 50.41                             123    0.16 9 77.8 1784
 TOLS     P   0 ? 1755 37.15                             123   -0.00 9 78.6 1584
 P2       P   0 ? 1755 37.25                             123    0.09 9 78.7 1704
 P2       S   0   1755 50.48                             123    0.03 9 78.7 1704
 P1       P   0 ? 1755 37.13                             123   -0.05 9 78.8 1734
 N14      P   0 ? 1755 37.20                             123   -0.06 9 79.4 1784
 N14      S   0   1755 50.61                             123   -0.02 9 79.4 1784
 P9       S   0   1755 50.66                             123   -0.07 9 79.7 1514
 N15      P   0 ? 1755 37.36                             123    0.06 9 79.7 1774
 P9       P   0 ? 1755 37.21                             123   -0.10 9 79.7 1514
 N13      P   0 ? 1755 37.37                             122   -0.06 9 80.7 1794
 N13      S   0   1755 50.88                             122   -0.07 9 80.7 1794
 N11      P   0 ? 1755 37.52                             122    0.02 9 81.1 1794
 N9       P   0 ? 1755 37.60                             122   -0.05 9 82.3 1754
 N7       P   0 ? 1755 37.81                             121   -0.02 9 83.5 1774
 N6       P   0 ? 1755 37.85                             121   -0.06 9 84.1 1764
 N4       P   0 ? 1755 38.23                             121    0.04 9 86.2 1774
 N4       S   0   1755 52.12                             121   -0.20 9 86.2 1774
 N5       P   0 ? 1755 38.50                             120    0.05 9 88.1 1754
 N5       S   0   1755 52.86                             120    0.06 9 88.1 1754
 N3       S   0   1755 53.01                             120    0.07 9 88.7 1764
 CAMP     P   0 ? 1755 38.55                             120    0.01 9 88.7 1744
 CAMP     S   0   1755 52.80                             120   -0.15 9 88.7 1744
 N3       P   0 ? 1755 38.51                             120   -0.02 9 88.7 1764
 N2       P   0 ? 1755 38.51                             120   -0.04 9 88.8 1754
 N2       S   0   1755 52.91                             120   -0.06 9 88.8 1754
 N1       P   0 ? 1755 38.83                             119    0.04 9 90.5 1744
 KHIA     P   0 ? 1755 38.97                             119    0.06 9 91.3 1584
 KHIA     S   0   1755 53.76                             119    0.14 9 91.3 1584
 JNAK     P   0 ? 1755 39.78                             117    0.01 9 97.4 1654
 AHRM     P   0 ? 1755 39.82                             117    0.00 9 97.6 1514
 KOLO     P   0 ? 1755 41.66                             115    0.05 8  110 1574
 DLRM     P   0 ? 1755 41.75                             114    0.06 8  111 1664
                                                                                
 2021  5 5 1830  2.7 L  29.779  50.588  6.7  SLT 11 0.1                        1
 GAP=301        0.27      10.9     2.7 15.0 -0.1427E+02 -0.2164E+02  0.1621E+03E
 STAT SP IPHASW D HRMN SECON CODA AMPLIT PERI AZIMU VELO AIN AR TRES W  DIS CAZ7
 KHRK     P   0 ? 1830 14.77                              53    0.0110 63.9 2054
 NOKA     P   0 ? 1830 16.95                              53   -0.19 9 78.7 1474
 N18      P   0 ? 1830 19.99                              53   -0.05 9 96.7 1664
 N18      S   0   1830 34.17                              53    0.04 9 96.7 1664
 N7       P   0 ? 1830 20.96                              53   -0.05 8  103 1664
 N7       S   0   1830 35.92                              53    0.05 8  103 1664
 N6       P   0 ? 1830 21.14                              53   -0.01 8  104 1654
 N6       S   0   1830 35.92                              53   -0.22 8  104 1654
 CAMP     P   0 ? 1830 22.06                              53    0.08 8  109 1634
 CAMP     S   0   1830 37.69                              53    0.06 8  109 1634
 N1       P   0 ? 1830 22.28                              53    0.05 8  110 1644
 KHIA     P   0 ? 1830 23.11                              53    0.10 8  115 1514
 KHIA     S   0   1830 39.57                              53    0.07 8  115 1514
 JNAK     P   0 ? 1830 23.81                              53    0.07 8  120 1574
 AHRM     P   0 ? 1830 24.22                              53    0.01 8  122 1464
 KOLO     P   0 ? 1830 26.10                              53    0.08 7  134 1514
                                                                                
 2021  5 5 1841 32.3 L  29.804  50.528 11.5  SLT 12 0.2                        1
 GAP=304        0.38       4.0     2.7409.6  0.5917E+01 -0.7832E+03 -0.1355E+04E
 STAT SP IPHASW D HRMN SECON CODA AMPLIT PERI AZIMU VELO AIN AR TRES W  DIS CAZ7
 KHRK     P   0 ? 1841 44.31                              91    0.1010 64.4 1994
 KHRK     S   0   1841 53.71                              91   -0.1310 64.4 1994
 NOKA     P   0 ? 1841 47.33                              90   -0.08 9 84.2 1444
 ABTL     P   0 ? 1841 49.25                              90   -0.16 9 96.6 1444
 ABTL     S   0   1842  3.00                              90   -0.25 9 96.6 1444
 N17      P   0 ? 1841 49.90                              90   -0.01 8 99.8 1634
 N19      P   0 ? 1841 49.90                              90   -0.14 8  101 1614
 P9       P   0 ? 1841 51.59                              90   -0.03 8  110 1434
 P9       S   0   1842  7.13                              90   -0.12 8  110 1434
 KHIA     P   0 ? 1841 53.25                              90    0.01 8  120 1494
 JNAK     P   0 ? 1841 53.98                              90    0.08 7  125 1554
 AHRM     P   0 ? 1841 54.54                              90    0.05 7  128 1444
 DLRM     P   0 ? 1841 56.06                              90    0.14 7  137 1574
 DLRM     S   0   1842 15.25                              90    0.21 7  137 1574
 KOLO     P   0 ? 1841 56.42                              90    0.18 7  139 1504
 ABAS     P   0 ? 1841 59.75                              90    0.24 6  159 1524
 ABAS     S   0   1842 22.05                              90    0.51 6  159 1524
                                                                                
 2021  5 5 1853 25.4 L  29.698  50.651  4.3  SLT 18 0.1                        1
 GAP=291        0.27       4.5     1.0  3.5  0.3808E+00  0.1787E+00  0.1530E+02E
 STAT SP IPHASW D HRMN SECON CODA AMPLIT PERI AZIMU VELO AIN AR TRES W  DIS CAZ7
 KHRK     P   0 ? 1853 37.16                              40    0.0310 59.1 2144
 KHRK     S   0   1853 46.60                              40   -0.0210 59.1 2144
 NOKA     P   0 ? 1853 38.36                              40   -0.1810 67.8 1474
 SHIF     P   0 ? 1853 39.26                              40   -0.11 9 73.0 1634
 SHIF     S   0   1853 50.45                              40   -0.22 9 73.0 1634
 N9       P   0 ? 1853 42.34                              40   -0.05 9 91.8 1664
 N7       P   0 ? 1853 42.50                              40   -0.02 9 92.5 1684
 N7       S   0   1853 56.50                              40    0.12 9 92.5 1684
 N6       P   0 ? 1853 42.66                              40    0.00 9 93.4 1674
 P9       P   0 ? 1853 42.64                              40   -0.09 9 93.8 1454
 P9       S   0   1853 56.75                              40   -0.02 9 93.8 1454
 N4       P   0 ? 1853 42.98                              40    0.04 9 95.2 1684
 N5       P   0 ? 1853 43.33                              40    0.02 8 97.5 1664
 N5       S   0   1853 57.88                              40    0.07 8 97.5 1664
 N3       P   0 ? 1853 43.46                              40    0.08 8 97.9 1674
 N2       P   0 ? 1853 43.49                              40    0.05 8 98.3 1664
 N2       S   0   1853 57.98                              40   -0.06 8 98.3 1664
 CAMP     P   0 ? 1853 43.50                              40    0.03 8 98.4 1654
 CAMP     S   0   1853 58.03                              40   -0.06 8 98.4 1654
 KHIA     P   0 ? 1853 44.48                              40    0.06 8  104 1514
 JNAK     P   0 ? 1853 45.18                              40    0.01 8  109 1584
 AHRM     P   0 ? 1853 45.52                              40   -0.09 8  112 1464
 AHRM     S   0   1854  2.09                              40    0.11 8  112 1464
 DLRM     P   0 ? 1853 47.31                              40    0.08 7  122 1604
 KOLO     P   0 ? 1853 47.56                              40    0.13 7  123 1524
 KOLO     S   0   1854  5.47                              40    0.21 7  123 1524
 ABAS     P   0 ? 1853 50.96                              40    0.23 7  143 1544
                                                                                
 2021  5 5 2111  7.8 L  29.938  50.477 11.2  SLT 15 0.1                        1
 GAP=314        0.25       9.8     2.6 23.7 -0.2041E+02 -0.4995E+02  0.2319E+03E
 STAT SP IPHASW D HRMN SECON CODA AMPLIT PERI AZIMU VELO AIN AR TRES W  DIS CAZ7
 KHRK     P   0 ? 2111 21.77                              90   -0.0310 77.4 1924
 KHRK     S   0   2111 33.07                              90   -0.0610 77.4 1924
 NOKA     P   0 ? 2111 25.20                              90   -0.13 9 99.3 1474
 NOKA     S   0   2111 39.29                              90   -0.23 9 99.3 1474
 SHIF     P   0 ? 2111 25.93                              90   -0.11 9  104 1584
 N17      P   0 ? 2111 27.94                              90    0.02 8  115 1634
 N17      S   0   2111 44.12                              90   -0.09 8  115 1634
 N19      P   0 ? 2111 28.10                              90    0.04 8  116 1614
 N18      P   0 ? 2111 28.14                              90    0.03 8  117 1634
 N15      P   0 ? 2111 28.52                              90    0.02 8  119 1624
 N11      P   0 ? 2111 28.73                              90    0.12 8  120 1634
 N11      S   0   2111 45.60                              90    0.15 8  120 1634
 P4       P   0 ? 2111 28.92                              90    0.08 8  121 1534
 N10      P   0 ? 2111 28.93                              90    0.04 8  121 1624
 N10      S   0   2111 46.02                              90    0.05 8  121 1624
 P5       P   0 ? 2111 28.94                              90    0.01 8  122 1514
 TOLS     P   0 ? 2111 29.10                              90   -0.07 8  123 1504
 N7       P   0 ? 2111 29.10                              90    0.02 8  123 1634
 N7       S   0   2111 46.32                              90    0.02 8  123 1634
 P9       P   0 ? 2111 29.52                              90   -0.00 8  125 1454
 P9       S   0   2111 47.29                              90    0.18 8  125 1454
 N2       P   0 ? 2111 30.15                              90    0.12 8  129 1624
                                                                                
 2021  5 5 2111 12.8 L  29.780  50.615 31.1  SLT 23 0.1                        1
 GAP=335        0.18       1.5     1.7  5.6  0.4609E+00  0.1217E+01 -0.7052E+01E
 STAT SP IPHASW D HRMN SECON CODA AMPLIT PERI AZIMU VELO AIN AR TRES W  DIS CAZ7
 NOKA     P   0 ? 2111 27.28                             108   -0.0510 77.4 1484
 SHIF     P   0 ? 2111 28.23                             106    0.0710 82.7 1624
 SHIF     S   0   2111 40.66                             106    0.1010 82.7 1624
 N20      P   0 ? 2111 29.78                             104    0.06 9 92.8 1674
 N20      S   0   2111 43.33                             104   -0.06 9 92.8 1674
 N14      P   0 ? 2111 30.57                             104    0.06 9 97.8 1674
 P1       P   0 ? 2111 30.62                             103   -0.01 9 98.6 1634
 P3       P   0 ? 2111 30.66                             103    0.03 9 98.6 1594
 N13      P   0 ? 2111 30.67                             103    0.01 9 98.8 1684
 P2       P   0 ? 2111 30.65                             103   -0.04 9 99.0 1614
 P2       S   0   2111 45.09                             103   -0.06 9 99.0 1614
 N9       P   0 ? 2111 31.03                             103   -0.05 9  101 1654
 N9       S   0   2111 45.78                             103   -0.08 9  101 1654
 N10      P   0 ? 2111 31.06                             103    0.05 9  101 1674
 N6       P   0 ? 2111 31.37                             103    0.04 9  103 1664
 ABAD     P   0 ? 2111 31.47                             103    0.04 9  104 1434
 ABAD     S   0   2111 46.52                             103    0.03 9  104 1434
 N4       P   0 ? 2111 31.58                             103   -0.03 9  105 1674
 N4       S   0   2111 46.81                             103   -0.00 9  105 1674
 N5       P   0 ? 2111 31.99                             102    0.02 9  107 1664
 N3       P   0 ? 2111 32.08                             102    0.04 9  108 1664
 CAMP     P   0 ? 2111 32.06                             102   -0.07 9  108 1654
 CAMP     S   0   2111 47.69                             102   -0.06 9  108 1654
 N1       P   0 ? 2111 32.37                             102   -0.01 9  110 1654
 KHIA     P   0 ? 2111 32.98                             102   -0.07 8  114 1524
 KHIA     S   0   2111 49.39                             102   -0.03 8  114 1524
 JNAK     P   0 ? 2111 33.78                             101   -0.02 8  119 1584
 AHRM     P   0 ? 2111 34.11                             101   -0.09 8  121 1474
 DLRM     P   0 ? 2111 35.86                             100    0.03 8  132 1604
 DLRM     S   0   2111 54.49                             100    0.03 8  132 1604
 KOLO     P   0 ? 2111 36.01                             100   -0.00 8  133 1534
 ABAS     P   0 ? 2111 39.23                              98   -0.05 7  153 1544
 ABAS     S   0   2112  0.90                              98    0.20 7  153 1544
                                                                                
 2021  5 5 1515 25.5 L  29.795  50.588  6.7  SLT 16 0.1                        1
 GAP=303        0.30      10.0     1.6 12.8  0.3662E+00  0.2547E+00  0.1268E+03E
 STAT SP IPHASW D HRMN SECON CODA AMPLIT PERI AZIMU VELO AIN AR TRES W  DIS CAZ7
 KHRK     P   0 ? 1515 37.89                              53    0.0010 65.6 2044
 KHRK     S   0   1515 47.92                              53    0.0010 65.6 2044
 NOKA     P   0 ? 1515 40.08                              53   -0.15 9 80.2 1474
 N17      P   0 ? 1515 43.01                              53    0.02 9 97.3 1674
 N17      S   0   1515 57.02                              53   -0.14 9 97.3 1674
 N18      P   0 ? 1515 43.19                              53    0.01 9 98.5 1664
 N18      S   0   1515 57.36                              53   -0.13 9 98.5 1664
 N14      P   0 ? 1515 43.33                              53   -0.11 9  100 1664
 N14      S   0   1515 58.07                              53    0.11 9  100 1664
 N15      P   0 ? 1515 43.54                              53   -0.01 9  101 1654
 N11      P   0 ? 1515 43.67                              53   -0.01 8  102 1674
 P4       P   0 ? 1515 43.75                              53   -0.02 8  102 1544
 P4       S   0   1515 58.39                              53   -0.17 8  102 1544
 N9       S   0   1515 59.08                              53    0.04 8  104 1644
 N7       S   0   1515 59.24                              53    0.01 8  104 1664
 TOLS     P   0 ? 1515 44.03                              53   -0.05 8  104 1504
 N9       P   0 ? 1515 44.05                              53    0.02 8  104 1644
 N7       P   0 ? 1515 44.16                              53    0.02 8  104 1664
 N6       P   0 ? 1515 44.36                              53    0.07 8  105 1654
 N4       P   0 ? 1515 44.57                              53    0.01 8  107 1664
 N5       P   0 ? 1515 44.94                              53   -0.00 8  109 1654
 CAMP     P   0 ? 1515 45.25                              53    0.14 8  110 1644
 ABAS     P   0 ? 1515 52.62                              53    0.19 6  156 1544
 ABAS     S   0   1516 14.79                              53    0.55 6  156 1544
                                                                                
 2021  5 5 1515 27.7 L  29.757  50.695 11.2  SLT  9 0.1                        1
 GAP=339        0.26       7.8     3.6999.9  0.4639E+01 -0.9552E+03 -0.3197E+05E
 STAT SP IPHASW D HRMN SECON CODA AMPLIT PERI AZIMU VELO AIN AR TRES W  DIS CAZ7
 N3       P   0 ? 1515 45.82                              90   -0.0510  103 1704
 CAMP     P   0 ? 1515 45.89                              90   -0.0310  104 1684
 N2       P   0 ? 1515 45.85                              90   -0.0610  104 1694
 N2       S   0   1516  0.69                              90    0.0110  104 1694
 N1       P   0 ? 1515 46.22                              90    0.0210  106 1694
 N1       S   0   1516  1.19                              90   -0.0110  106 1694
 KHIA     P   0 ? 1515 46.64                              90    0.0110  108 1554
 JNAK     P   0 ? 1515 47.48                              90   -0.02 9  114 1614
 AHRM     P   0 ? 1515 47.72                              90   -0.00 9  115 1494
 AHRM     S   0   1516  3.79                              90   -0.16 9  115 1494
 KOLO     P   0 ? 1515 49.80                              90    0.15 9  127 1554
 KOLO     S   0   1516  7.63                              90    0.18 9  127 1554
 DLRM     P   0 ? 1515 49.64                              90    0.04 9  127 1634
                                                                                
