 2021  5 5 1914 22.9 L  29.785  50.578 10.6  SLT 26 0.1                        1
 GAP=336        0.24      39.4    21.0106.5 -0.8222E+03 -0.2225E+04  0.4195E+04E
 STAT SP IPHASW D HRMN SECON CODA AMPLIT PERI AZIMU VELO AIN AR TRES W  DIS CAZ7
 NOKA     P   0 ? 1914 37.21                              68   -0.0610 79.8 1464
 NOKA     S   0   1914 48.80                              68   -0.1310 79.8 1464
 ABTL     P   0 ? 1914 39.25                              68   -0.02 9 92.1 1454
 ABTL     S   0   1914 52.41                              68   -0.13 9 92.1 1454
 N20      P   0 ? 1914 39.45                              68   -0.14 9 94.2 1654
 N20      S   0   1914 53.02                              68   -0.11 9 94.2 1654
 N17      P   0 ? 1914 39.90                              68   -0.06 9 96.5 1664
 N18      P   0 ? 1914 40.04                              68   -0.10 9 97.6 1654
 N15      P   0 ? 1914 40.51                              68   -0.01 9 99.9 1644
 P3       P   0 ? 1914 40.52                              68   -0.07 9  100 1574
 N11      P   0 ? 1914 40.65                              68    0.00 9  101 1664
 P4       P   0 ? 1914 40.74                              68   -0.04 9  102 1534
 N9       P   0 ? 1914 41.04                              68    0.04 9  103 1634
 N9       S   0   1914 55.64                              68   -0.05 9  103 1634
 N7       P   0 ? 1914 41.09                              68   -0.02 9  104 1654
 TOLS     S   0   1914 55.82                              68   -0.05 9  104 1504
 N7       S   0   1914 55.92                              68    0.04 9  104 1654
 TOLS     P   0 ? 1914 41.05                              68   -0.05 9  104 1504
 N6       P   0 ? 1914 41.25                              68   -0.01 9  105 1644
 P9       S   0   1914 56.68                              68    0.15 9  106 1454
 N4       P   0 ? 1914 41.41                              68   -0.12 9  106 1654
 P9       P   0 ? 1914 41.47                              68    0.00 9  106 1454
 ABAD     P   0 ? 1914 41.62                              68    0.07 9  106 1424
 N2       S   0   1914 57.54                              68   -0.04 9  109 1644
 N3       S   0   1914 57.46                              68    0.01 9  109 1654
 N5       P   0 ? 1914 41.90                              68   -0.02 9  109 1644
 N3       P   0 ? 1914 41.96                              68   -0.01 9  109 1654
 N2       P   0 ? 1914 42.09                              68    0.04 9  109 1644
 CAMP     P   0 ? 1914 42.11                              68    0.03 9  110 1634
 CAMP     S   0   1914 57.82                              68    0.18 9  110 1634
 N1       P   0 ? 1914 42.46                              68    0.12 9  111 1644
 KHIA     P   0 ? 1914 43.20                              68    0.06 8  116 1504
 KHIA     S   0   1914 59.55                              68    0.00 8  116 1504
 JNAK     P   0 ? 1914 43.90                              68    0.04 8  121 1564
 JNAK     S   0   1915  1.09                              68    0.24 8  121 1564
 DLRM     P   0 ? 1914 46.07                              68    0.17 8  133 1594
 KOLO     P   0 ? 1914 46.36                              68    0.21 8  135 1514
 ABAS     P   0 ? 1914 49.66                              68    0.22 7  155 1534
                                                                                
 2021  5 5 2128 10.6 L  29.668  50.836 48.2  SLT 35 0.1                        1
 GAP=329        0.21       1.5     1.8  2.6 -0.1205E+01  0.2315E+01 -0.3456E+01E
 STAT SP IPHASW D HRMN SECON CODA AMPLIT PERI AZIMU VELO AIN AR TRES W  DIS CAZ7
 NOKA     P   0 ? 2128 23.44                             128    0.0510 56.8 1604
 NOKA     S   0   2128 33.77                             128   -0.0010 56.8 1604
 SHIF     P   0 ? 2128 24.61                             123   -0.0610 66.5 1774
 ABTL     P   0 ? 2128 24.99                             122    0.0410 68.5 1564
 ABTL     S   0   2128 36.56                             122   -0.0310 68.5 1564
 N20      P   0 ? 2128 26.18                             119   -0.05 9 77.8 1804
 N19      P   0 ? 2128 26.55                             118   -0.01 9 80.1 1784
 P5       P   0 ? 2128 26.51                             118   -0.06 9 80.2 1624
 P4       P   0 ? 2128 26.63                             118    0.03 9 80.4 1654
 N17      P   0 ? 2128 26.59                             118   -0.03 9 80.6 1814
 N17      S   0   2128 39.69                             118    0.07 9 80.6 1814
 P3       P   0 ? 2128 26.59                             118   -0.07 9 80.8 1704
 TOLS     P   0 ? 2128 26.71                             118    0.01 9 81.1 1604
 ABAD     P   0 ? 2128 26.83                             118    0.07 9 81.5 1504
 N18      P   0 ? 2128 26.80                             118    0.05 9 81.5 1804
 P9       P   0 ? 2128 26.84                             118    0.04 9 81.8 1544
 P2       P   0 ? 2128 26.86                             118    0.05 9 81.9 1734
 P2       S   0   2128 39.94                             118   -0.02 9 81.9 1734
 N16      P   0 ? 2128 26.80                             118   -0.04 9 82.1 1784
 P1       P   0 ? 2128 26.88                             118    0.03 9 82.2 1754
 P1       S   0   2128 40.21                             118    0.17 9 82.2 1754
 N14      P   0 ? 2128 26.93                             117   -0.04 9 83.0 1804
 N15      P   0 ? 2128 26.89                             117   -0.12 9 83.3 1794
 N15      S   0   2128 40.51                             117    0.19 9 83.3 1794
 N13      P   0 ? 2128 27.20                             117    0.04 9 84.4 1814
 N13      S   0   2128 40.61                             117    0.01 9 84.4 1814
 N11      P   0 ? 2128 27.18                             117   -0.05 9 84.8 1814
 N11      S   0   2128 40.61                             117   -0.10 9 84.8 1814
 N9       P   0 ? 2128 27.34                             117   -0.03 9 85.8 1774
 N9       S   0   2128 40.70                             117   -0.27 9 85.8 1774
 N10      P   0 ? 2128 27.32                             117   -0.07 9 85.9 1794
 N7       P   0 ? 2128 27.59                             116    0.02 9 87.1 1794
 N7       S   0   2128 41.40                             116    0.07 9 87.1 1794
 N6       P   0 ? 2128 27.59                             116   -0.05 9 87.6 1784
 N6       S   0   2128 41.56                             116    0.10 9 87.6 1784
 N4       P   0 ? 2128 27.99                             115    0.04 9 89.8 1794
 N4       S   0   2128 41.96                             115   -0.06 9 89.8 1794
 N5       P   0 ? 2128 28.14                             115   -0.07 9 91.6 1774
 N5       S   0   2128 42.50                             115    0.01 9 91.6 1774
 CAMP     P   0 ? 2128 28.31                             115    0.02 9 92.1 1764
 N3       P   0 ? 2128 28.40                             115    0.10 9 92.2 1784
 N2       P   0 ? 2128 28.28                             115   -0.03 9 92.3 1774
 KHIA     P   0 ? 2128 28.53                             114   -0.01 8 93.8 1604
 KHIA     S   0   2128 42.93                             114   -0.16 8 93.8 1604
 N1       P   0 ? 2128 28.61                             114    0.05 8 94.0 1764
 JNAK     P   0 ? 2128 29.52                             113    0.02 8  100 1674
 KOLO     P   0 ? 2128 31.35                             110    0.01 8  113 1594
 DLRM     P   0 ? 2128 31.56                             110    0.06 8  114 1684
 ABAS     P   0 ? 2128 34.63                             107    0.10 7  133 1614
                                                                                
 2021  5 5 2007 23.5 L  29.836  50.546 11.0  SLT 14 0.2                        1
 GAP=306        0.40       3.4     3.0999.9  0.4839E+01 -0.6086E+03 -0.2850E+04E
 STAT SP IPHASW D HRMN SECON CODA AMPLIT PERI AZIMU VELO AIN AR TRES W  DIS CAZ7
 KHRK     P   0 ? 2007 35.86                              68   -0.1310 68.3 1994
 NOKA     P   0 ? 2007 38.62                              68   -0.25 9 86.2 1474
 NOKA     S   0   2007 50.95                              68   -0.40 9 86.2 1474
 ABTL     P   0 ? 2007 40.81                              68   -0.05 9 98.5 1464
 N19      P   0 ? 2007 41.67                              68    0.02 8  103 1624
 N19      S   0   2007 56.36                              68   -0.03 8  103 1624
 N18      P   0 ? 2007 41.66                              68   -0.06 8  104 1644
 N7       P   0 ? 2007 42.68                              68   -0.01 8  110 1644
 N6       P   0 ? 2007 42.84                              68    0.00 8  111 1634
 N6       S   0   2007 58.44                              68   -0.09 8  111 1634
 P9       P   0 ? 2007 43.14                              68    0.07 8  112 1454
 P9       S   0   2007 58.89                              68   -0.06 8  112 1454
 KHIA     P   0 ? 2007 44.84                              68    0.10 8  123 1504
 JNAK     P   0 ? 2007 45.53                              68    0.07 7  127 1564
 JNAK     S   0   2008  3.51                              68    0.24 7  127 1564
 AHRM     P   0 ? 2007 46.01                              68    0.06 7  130 1464
 AHRM     S   0   2008  4.32                              68    0.16 7  130 1464
 DLRM     P   0 ? 2007 47.63                              68    0.13 7  140 1584
 DLRM     S   0   2008  7.34                              68    0.37 7  140 1584
 KOLO     P   0 ? 2007 48.03                              68    0.28 7  141 1514
 ABAS     P   0 ? 2007 51.36                              68    0.32 6  162 1534
                                                                                
 2021  5 5 2128 55.4 L  29.719  50.768 10.8  SLT 23 0.1                        1
 GAP=288        0.30       6.0     1.8 14.9 -0.2674E+01 -0.8461E+01  0.8712E+02E
 STAT SP IPHASW D HRMN SECON CODA AMPLIT PERI AZIMU VELO AIN AR TRES W  DIS CAZ7
 NOKA     P   0 ? 2129  7.14                              68   -0.1910 64.5 1564
 KHRK     P   0 ? 2129  7.87                              68   -0.0010 67.8 2214
 SHIF     P   0 ? 2129  8.57                              68   -0.1010 72.8 1724
 ABTL     P   0 ? 2129  9.09                              68   -0.17 9 76.4 1544
 ABTL     S   0   2129 20.29                              68   -0.19 9 76.4 1544
 N20      P   0 ? 2129 10.38                              68   -0.05 9 83.7 1754
 N20      S   0   2129 22.50                              68   -0.10 9 83.7 1754
 N19      P   0 ? 2129 10.86                              68    0.02 9 86.2 1744
 N18      P   0 ? 2129 10.98                              68   -0.04 9 87.4 1764
 N18      S   0   2129 23.54                              68   -0.12 9 87.4 1764
 P1       P   0 ? 2129 11.19                              68   -0.03 9 88.7 1714
 TOLS     P   0 ? 2129 11.15                              68   -0.10 9 88.8 1574
 ABAD     P   0 ? 2129 11.33                              68   -0.08 9 89.7 1484
 N10      P   0 ? 2129 11.71                              68   -0.05 9 91.9 1754
 N9       P   0 ? 2129 11.83                              68    0.06 9 92.0 1734
 N9       S   0   2129 24.94                              68   -0.07 9 92.0 1734
 N7       P   0 ? 2129 12.00                              68    0.04 9 93.1 1754
 N7       S   0   2129 25.35                              68   -0.01 9 93.1 1754
 N6       P   0 ? 2129 12.04                              68   -0.02 9 93.8 1744
 N4       P   0 ? 2129 12.46                              68    0.08 9 95.8 1754
 N5       P   0 ? 2129 12.73                              68    0.03 9 97.8 1734
 N3       P   0 ? 2129 12.90                              68    0.11 9 98.3 1744
 CAMP     P   0 ? 2129 12.89                              68    0.08 9 98.5 1724
 CAMP     S   0   2129 27.07                              68    0.17 9 98.5 1724
 N1       P   0 ? 2129 13.22                              68    0.12 8  100 1734
 KHIA     P   0 ? 2129 13.34                              68    0.04 8  101 1574
 AHRM     P   0 ? 2129 14.40                              68    0.08 8  108 1514
 AHRM     S   0   2129 29.86                              68    0.23 8  108 1514
 KOLO     P   0 ? 2129 16.47                              68    0.15 8  120 1574
 KOLO     S   0   2129 33.50                              68    0.24 8  120 1574
 DLRM     P   0 ? 2129 16.65                              68    0.26 8  121 1664
                                                                                
 2021  5 5 2133 23.1 L  29.679  50.674 11.0  SLT 36 0.1                        1
 GAP=285        0.25       4.2     1.6 10.7 -0.3540E+01 -0.1005E+02  0.4405E+02E
 STAT SP IPHASW D HRMN SECON CODA AMPLIT PERI AZIMU VELO AIN AR TRES W  DIS CAZ7
 KHRK     P   0 ? 2133 34.13                              68    0.0010 58.7 2174
 NOKA     P   0 ? 2133 34.91                              68   -0.2110 64.9 1474
 ABTL     P   0 ? 2133 37.02                              68   -0.09 9 77.2 1464
 N20      P   0 ? 2133 37.62                              68   -0.03 9 80.6 1694
 N17      P   0 ? 2133 38.07                              68    0.02 9 83.1 1704
 N17      S   0   2133 50.05                              68   -0.07 9 83.1 1704
 N19      P   0 ? 2133 38.05                              68   -0.06 9 83.4 1674
 N18      P   0 ? 2133 38.24                              68    0.02 9 84.1 1694
 N18      S   0   2133 50.55                              68    0.12 9 84.1 1694
 N16      P   0 ? 2133 38.41                              68   -0.02 9 85.4 1674
 N14      P   0 ? 2133 38.43                              68   -0.05 9 85.7 1694
 P3       P   0 ? 2133 38.53                              68   -0.01 9 86.1 1604
 N15      P   0 ? 2133 38.58                              68    0.00 9 86.3 1684
 P1       P   0 ? 2133 38.49                              68   -0.07 9 86.3 1654
 P1       S   0   2133 50.89                              68   -0.16 9 86.3 1654
 N15      S   0   2133 51.02                              68   -0.06 9 86.3 1684
 P2       P   0 ? 2133 38.60                              68   -0.02 9 86.6 1624
 P2       S   0   2133 51.12                              68   -0.03 9 86.6 1624
 N13      P   0 ? 2133 38.64                              68   -0.01 9 86.7 1714
 P4       P   0 ? 2133 38.67                              68   -0.00 9 86.9 1554
 N11      P   0 ? 2133 38.71                              68   -0.03 9 87.3 1704
 N11      S   0   2133 51.53                              68    0.16 9 87.3 1704
 P5       P   0 ? 2133 38.65                              68   -0.09 9 87.4 1534
 TOLS     P   0 ? 2133 38.96                              68   -0.01 9 88.7 1514
 N10      P   0 ? 2133 39.05                              68    0.06 9 88.8 1694
 N10      S   0   2133 51.73                              68   -0.08 9 88.8 1694
 N9       P   0 ? 2133 38.98                              68   -0.06 9 89.2 1674
 N9       S   0   2133 51.80                              68   -0.12 9 89.2 1674
 N7       P   0 ? 2133 39.13                              68   -0.05 9 90.0 1694
 P9       P   0 ? 2133 39.34                              68    0.03 9 90.8 1454
 P9       S   0   2133 52.26                              68   -0.14 9 90.8 1454
 N6       P   0 ? 2133 39.26                              68   -0.05 9 90.8 1684
 ABAD     P   0 ? 2133 39.48                              68    0.10 9 91.3 1424
 N4       P   0 ? 2133 39.69                              68    0.09 9 92.7 1694
 N4       S   0   2133 52.97                              68    0.04 9 92.7 1694
 N5       P   0 ? 2133 40.04                              68    0.07 9 94.9 1674
 N3       P   0 ? 2133 40.11                              68    0.08 8 95.4 1684
 N2       P   0 ? 2133 40.07                              68   -0.02 8 95.7 1674
 N2       S   0   2133 53.93                              68    0.12 8 95.7 1674
 CAMP     P   0 ? 2133 40.12                              68    0.01 8 95.9 1664
 N1       P   0 ? 2133 40.46                              68    0.08 8 97.5 1674
 N1       S   0   2133 54.14                              68   -0.20 8 97.5 1674
 KHIA     P   0 ? 2133 41.02                              68    0.01 8  101 1524
 KHIA     S   0   2133 55.61                              68    0.14 8  101 1524
 JNAK     P   0 ? 2133 41.85                              68    0.06 8  106 1594
 JNAK     S   0   2133 56.81                              68   -0.07 8  106 1594
 AHRM     P   0 ? 2133 42.26                              68    0.07 8  109 1464
 AHRM     S   0   2133 57.67                              68    0.05 8  109 1464
 DLRM     P   0 ? 2133 43.97                              68    0.11 7  119 1614
 DLRM     S   0   2134  1.01                              68    0.38 7  119 1614
 KOLO     P   0 ? 2133 44.19                              68    0.17 7  120 1534
 ABAS     P   0 ? 2133 47.51                              68    0.18 7  141 1554
                                                                                
