 2021  4 4 2130 12.6 L  30.006  50.581 67.1  SLT 17 0.1                        1
 GAP=342        0.19       4.5     5.6  8.9 -0.1004E+01  0.7879E+01 -0.3795E+02E
 STAT SP IPHASW D HRMN SECON CODA AMPLIT PERI AZIMU VELO AIN AR TRES W  DIS CAZ7
 NOKA     P   0 ? 2130 33.07                             122    0.0210  101 1544
 N20      P   0 ? 2130 35.43                             118    0.00 9  118 1684
 N17      P   0 ? 2130 35.74                             117   -0.03 9  120 1694
 N15      P   0 ? 2130 36.21                             117   -0.04 9  124 1674
 N15      S   0   2130 55.49                             117    0.11 9  124 1674
 N11      P   0 ? 2130 36.38                             116   -0.01 9  125 1694
 N11      S   0   2130 55.63                             116    0.01 9  125 1694
 N10      P   0 ? 2130 36.71                             116    0.09 9  126 1684
 N10      S   0   2130 55.96                             116   -0.08 9  126 1684
 N9       P   0 ? 2130 36.64                             116   -0.03 9  127 1674
 N6       P   0 ? 2130 36.92                             116    0.01 9  128 1674
 N6       S   0   2130 56.53                             116   -0.04 9  128 1674
 N4       P   0 ? 2130 37.07                             115   -0.10 9  130 1684
 N5       P   0 ? 2130 37.56                             115    0.05 8  132 1674
 CAMP     P   0 ? 2130 37.67                             115    0.03 8  133 1664
 N1       P   0 ? 2130 37.92                             114    0.04 8  135 1674
 KHIA     P   0 ? 2130 38.27                             114   -0.06 8  138 1564
 JNAK     P   0 ? 2130 39.17                             113    0.04 8  143 1604
 AHRM     P   0 ? 2130 39.27                             113   -0.03 8  144 1514
 DLRM     P   0 ? 2130 41.11                             111    0.04 7  156 1624
 KOLO     P   0 ? 2130 41.14                             111    0.02 7  157 1564
                                                                                
 2021  4 4 2221 32.8 L  29.686  50.635 23.4  SLT 14 0.1                        1
 GAP=336        0.22       1.9     3.4 13.4 -0.1396E+01  0.1717E+02 -0.2173E+02E
 STAT SP IPHASW D HRMN SECON CODA AMPLIT PERI AZIMU VELO AIN AR TRES W  DIS CAZ7
 NOKA     P   0 ? 2221 45.48                             103    0.0210 67.6 1454
 ABTL     P   0 ? 2221 47.44                             101    0.02 9 80.0 1444
 N17      P   0 ? 2221 48.25                             100    0.12 9 84.6 1684
 N6       P   0 ? 2221 49.29                              99   -0.11 9 92.5 1664
 N6       S   0   2222  2.76                              99   -0.07 9 92.5 1664
 P9       P   0 ? 2221 49.57                              99   -0.02 9 93.7 1444
 N5       P   0 ? 2221 50.10                              99    0.05 9 96.6 1654
 N2       P   0 ? 2221 50.19                              99    0.01 9 97.4 1654
 N2       S   0   2222  4.22                              99   -0.02 9 97.4 1654
 CAMP     P   0 ? 2221 50.17                              99   -0.04 9 97.6 1644
 CAMP     S   0   2222  4.24                              99   -0.05 9 97.6 1644
 N1       P   0 ? 2221 50.41                              98   -0.05 9 99.2 1654
 N1       S   0   2222  4.85                              98    0.09 9 99.2 1654
 KHIA     P   0 ? 2221 51.17                              98   -0.05 8  104 1504
 JNAK     P   0 ? 2221 51.97                              98    0.04 8  108 1574
 JNAK     S   0   2222  7.48                              98    0.06 8  108 1574
 AHRM     P   0 ? 2221 52.38                              97   -0.06 8  111 1454
 DLRM     P   0 ? 2221 53.99                              97    0.02 8  121 1594
 ABAS     P   0 ? 2221 57.54                              96    0.06 7  143 1534
                                                                                
 2021  4 4 2223  5.5 L  29.690  50.963 11.7  SLT 22 0.1                        1
 GAP=330        0.22      28.2     3.4 68.7 -0.6203E+02 -0.1482E+03  0.1933E+04E
 STAT SP IPHASW D HRMN SECON CODA AMPLIT PERI AZIMU VELO AIN AR TRES W  DIS CAZ7
 ABTL     P   0 ? 2223 17.72                              91   -0.0810 67.0 1674
 ABAD     P   0 ? 2223 19.58                              91   -0.0610 78.4 1594
 P9       P   0 ? 2223 19.87                              91    0.06 9 79.5 1634
 P4       P   0 ? 2223 19.91                              91   -0.07 9 80.6 1744
 N20      P   0 ? 2223 20.02                              91   -0.06 9 81.2 1894
 N20      S   0   2223 31.73                              91   -0.18 9 81.2 1894
 P2       P   0 ? 2223 20.42                              91   -0.07 9 83.7 1814
 N17      P   0 ? 2223 20.50                              91   -0.06 9 84.2 1894
 P1       P   0 ? 2223 20.63                              91    0.01 9 84.5 1844
 N18      P   0 ? 2223 20.70                              91    0.02 9 84.9 1894
 N15      P   0 ? 2223 20.84                              91   -0.07 9 86.3 1874
 N15      S   0   2223 33.32                              91   -0.09 9 86.3 1874
 N13      P   0 ? 2223 21.23                              91    0.06 9 87.9 1894
 N13      S   0   2223 33.90                              91    0.02 9 87.9 1894
 N11      P   0 ? 2223 21.26                              91    0.04 9 88.3 1894
 N11      S   0   2223 33.93                              91   -0.04 9 88.3 1894
 N9       P   0 ? 2223 21.24                              91   -0.02 9 88.5 1854
 N10      P   0 ? 2223 21.36                              91    0.01 9 89.0 1874
 N6       P   0 ? 2223 21.63                              91    0.05 9 90.5 1864
 N6       S   0   2223 34.74                              91    0.12 9 90.5 1864
 N4       P   0 ? 2223 21.99                              90    0.03 9 92.9 1874
 N5       P   0 ? 2223 22.17                              90   -0.01 9 94.2 1854
 N5       S   0   2223 35.70                              90   -0.01 9 94.2 1854
 CAMP     P   0 ? 2223 22.16                              90   -0.06 9 94.5 1834
 N2       P   0 ? 2223 22.29                              90    0.02 9 94.8 1844
 N2       S   0   2223 35.96                              90    0.09 9 94.8 1844
 N3       P   0 ? 2223 22.36                              90    0.06 9 95.0 1854
 N1       P   0 ? 2223 22.65                              90    0.11 9 96.4 1844
 N1       S   0   2223 36.49                              90    0.13 9 96.4 1844
 DLRM     P   0 ? 2223 25.56                              90    0.16 8  114 1744
                                                                                
 2021  4 4 2226 20.4 L  29.816  50.784 28.2  SLT 27 0.0                        1
 GAP=334        0.17       2.1     1.5 10.0 -0.3642E+00  0.3627E+01 -0.1974E+02E
 STAT SP IPHASW D HRMN SECON CODA AMPLIT PERI AZIMU VELO AIN AR TRES W  DIS CAZ7
 SHIF     P   0 ? 2226 35.62                             104   -0.0110 83.2 1744
 ABTL     P   0 ? 2226 36.01                             104    0.0110 85.5 1584
 N20      P   0 ? 2226 37.43                             102    0.06 9 94.3 1774
 N19      P   0 ? 2226 37.74                             102   -0.02 9 96.7 1754
 P4       P   0 ? 2226 37.90                             102    0.02 9 97.5 1654
 P4       S   0   2226 52.11                             102    0.04 9 97.5 1654
 P3       P   0 ? 2226 37.95                             102    0.02 9 97.8 1694
 N18      P   0 ? 2226 37.90                             102   -0.05 9 97.9 1774
 ABAD     P   0 ? 2226 37.98                             102   -0.03 9 98.2 1524
 P9       P   0 ? 2226 38.00                             102   -0.08 9 98.7 1554
 P9       S   0   2226 52.43                             102    0.00 9 98.7 1554
 P2       P   0 ? 2226 38.09                             102    0.00 9 98.8 1714
 P2       S   0   2226 52.37                             102   -0.07 9 98.8 1714
 N14      P   0 ? 2226 38.18                             102   -0.02 9 99.5 1774
 N14      S   0   2226 52.75                             102    0.11 9 99.5 1774
 N15      P   0 ? 2226 38.26                             101    0.01 9 99.8 1764
 N15      S   0   2226 52.68                             101   -0.06 9 99.8 1764
 N13      P   0 ? 2226 38.40                             101    0.00 9  101 1784
 N11      P   0 ? 2226 38.51                             101    0.04 9  101 1784
 N9       P   0 ? 2226 38.72                             101    0.06 9  102 1754
 N6       P   0 ? 2226 38.99                             101    0.04 9  104 1754
 N4       P   0 ? 2226 39.23                             101   -0.05 9  106 1764
 N5       P   0 ? 2226 39.54                             100   -0.04 9  108 1754
 N3       P   0 ? 2226 39.56                             100   -0.11 9  109 1754
 N3       S   0   2226 55.30                             100   -0.01 9  109 1754
 N2       P   0 ? 2226 39.71                             100    0.02 9  109 1744
 CAMP     P   0 ? 2226 39.70                             100    0.02 9  109 1744
 N1       P   0 ? 2226 39.94                             100   -0.03 9  111 1744
 KHIA     P   0 ? 2226 40.04                             100    0.04 9  111 1604
 JNAK     P   0 ? 2226 41.02                             100   -0.01 8  117 1664
 AHRM     P   0 ? 2226 41.01                             100    0.10 8  117 1554
 AHRM     S   0   2226 57.54                             100   -0.02 8  117 1554
 DLRM     P   0 ? 2226 43.17                              99    0.02 8  131 1674
 ABAS     P   0 ? 2226 46.32                              97   -0.01 7  151 1614
                                                                                
 2021  4 4 2230 14.2 L  29.718  50.672 56.6  SLT 24 0.1                        1
 GAP=336        0.19       1.9     2.1  3.8  0.4345E+00  0.7578E+00 -0.6128E+01E
 STAT SP IPHASW D HRMN SECON CODA AMPLIT PERI AZIMU VELO AIN AR TRES W  DIS CAZ7
 NOKA     P   0 ? 2230 29.45                             127    0.0510 68.7 1494
 SHIF     P   0 ? 2230 30.23                             125    0.0610 74.6 1654
 ABTL     P   0 ? 2230 31.03                             123    0.00 9 80.9 1484
 N20      P   0 ? 2230 31.53                             121   -0.03 9 84.9 1694
 N17      P   0 ? 2230 31.96                             121    0.06 9 87.4 1704
 N19      P   0 ? 2230 31.93                             121   -0.02 9 87.6 1684
 N18      P   0 ? 2230 32.09                             120    0.04 9 88.4 1704
 N14      P   0 ? 2230 32.24                             120   -0.04 9 90.0 1704
 N15      P   0 ? 2230 32.46                             120    0.10 9 90.6 1694
 N13      P   0 ? 2230 32.41                             120   -0.01 9 91.0 1714
 N13      S   0   2230 47.06                             120   -0.08 9 91.0 1714
 N10      P   0 ? 2230 32.78                             119    0.06 9 93.1 1694
 N9       P   0 ? 2230 32.74                             119   -0.02 9 93.5 1674
 N6       P   0 ? 2230 33.00                             118    0.00 9 95.1 1684
 N4       P   0 ? 2230 33.24                             118   -0.02 9 97.0 1694
 N5       P   0 ? 2230 33.59                             117    0.01 9 99.2 1684
 N5       S   0   2230 49.26                             117    0.03 9 99.2 1684
 N3       P   0 ? 2230 33.58                             117   -0.06 9 99.6 1694
 N3       S   0   2230 49.34                             117   -0.01 9 99.6 1694
 CAMP     P   0 ? 2230 33.65                             117   -0.05 9  100 1674
 N2       P   0 ? 2230 33.64                             117   -0.05 9  100 1684
 N1       P   0 ? 2230 33.84                             117   -0.10 9  102 1674
 KHIA     P   0 ? 2230 34.38                             116   -0.08 8  105 1534
 JNAK     P   0 ? 2230 35.22                             115    0.03 8  110 1594
 AHRM     P   0 ? 2230 35.50                             114   -0.01 8  112 1474
 AHRM     S   0   2230 52.66                             114   -0.07 8  112 1474
 DLRM     P   0 ? 2230 37.12                             112    0.03 8  123 1614
 DLRM     S   0   2230 55.72                             112    0.12 8  123 1614
 KOLO     P   0 ? 2230 37.26                             112    0.04 8  124 1534
                                                                                
 2021  4 4 2236 35.9 L  29.769  50.772 39.2  SLT 19 0.1                        1
 GAP=336        0.20       4.3     2.4 11.6  0.7184E+01 -0.1855E+02 -0.4868E+02E
 STAT SP IPHASW D HRMN SECON CODA AMPLIT PERI AZIMU VELO AIN AR TRES W  DIS CAZ7
 N20      P   0 ? 2236 52.58                             110   -0.0110 89.2 1764
 N17      P   0 ? 2236 53.07                             110    0.0710 91.9 1774
 N17      S   0   2237  6.77                             110   -0.1010 91.9 1774
 N18      P   0 ? 2236 53.13                             109   -0.0110 92.8 1764
 N18      S   0   2237  7.15                             109    0.0210 92.8 1764
 N14      P   0 ? 2236 53.42                             109    0.0310 94.4 1764
 N14      S   0   2237  7.67                             109    0.1010 94.4 1764
 N15      P   0 ? 2236 53.44                             109   -0.0010 94.7 1754
 N13      P   0 ? 2236 53.59                             109    0.0210 95.6 1774
 N11      P   0 ? 2236 53.75                             109    0.1010 96.1 1774
 N11      S   0   2237  8.14                             109    0.1010 96.1 1774
 N10      S   0   2237  8.27                             109   -0.1210 97.4 1754
 N9       S   0   2237  8.40                             109   -0.0010 97.4 1744
 N10      P   0 ? 2236 53.82                             109   -0.0210 97.4 1754
 N9       P   0 ? 2236 53.87                             109    0.0210 97.4 1744
 N6       P   0 ? 2236 54.01                             108   -0.1110 99.2 1744
 CAMP     P   0 ? 2236 54.77                             107   -0.07 9  104 1734
 N2       P   0 ? 2236 54.78                             107   -0.06 9  104 1734
 N1       P   0 ? 2236 55.16                             107    0.05 9  106 1734
 KHIA     P   0 ? 2236 55.24                             107    0.01 9  106 1594
 KHIA     S   0   2237 10.95                             107    0.04 9  106 1594
 AHRM     P   0 ? 2236 56.16                             106   -0.01 9  112 1534
 AHRM     S   0   2237 12.57                             106   -0.04 9  112 1534
 JNAK     P   0 ? 2236 56.14                             106   -0.06 9  113 1654
 JNAK     S   0   2237 12.58                             106   -0.07 9  113 1654
 KOLO     P   0 ? 2236 58.19                             104    0.04 8  125 1594
 KOLO     S   0   2237 16.28                             104    0.09 8  125 1594
 DLRM     P   0 ? 2236 58.25                             104   -0.00 8  126 1664
 ABAS     P   0 ? 2237  1.44                             102    0.01 7  146 1604
                                                                                
 2021  4 4 2241 47.5 L  29.701  50.610 41.8  SLT 29 0.1                        1
 GAP=336        0.17       2.2     1.8  5.4  0.1467E+01 -0.9094E+00 -0.1034E+02E
 STAT SP IPHASW D HRMN SECON CODA AMPLIT PERI AZIMU VELO AIN AR TRES W  DIS CAZ7
 SHIF     P   0 ? 2242  2.29                             116    0.0510 74.6 1604
 N20      P   0 ? 2242  3.71                             113    0.0410 84.4 1654
 N17      P   0 ? 2242  4.00                             112   -0.02 9 86.7 1664
 N19      P   0 ? 2242  4.08                             112   -0.04 9 87.3 1634
 N18      P   0 ? 2242  4.22                             112    0.03 9 87.8 1664
 N14      P   0 ? 2242  4.53                             112    0.10 9 89.4 1664
 N15      P   0 ? 2242  4.51                             112   -0.03 9 90.1 1654
 N13      P   0 ? 2242  4.59                             112    0.03 9 90.3 1674
 P1       P   0 ? 2242  4.52                             112   -0.05 9 90.4 1614
 P3       P   0 ? 2242  4.65                             112    0.04 9 90.6 1574
 P2       P   0 ? 2242  4.60                             111   -0.05 9 90.9 1594
 N11      P   0 ? 2242  4.69                             111    0.03 9 90.9 1674
 P4       P   0 ? 2242  4.78                             111   -0.01 9 91.8 1524
 P4       S   0   2242 18.80                             111    0.02 9 91.8 1524
 N10      P   0 ? 2242  4.95                             111    0.04 9 92.6 1654
 N9       P   0 ? 2242  4.94                             111   -0.05 9 93.1 1644
 N9       S   0   2242 19.03                             111   -0.10 9 93.1 1644
 N6       P   0 ? 2242  5.20                             111   -0.02 9 94.7 1644
 N4       P   0 ? 2242  5.43                             110   -0.05 9 96.4 1664
 P9       P   0 ? 2242  5.49                             110    0.00 9 96.4 1434
 N5       P   0 ? 2242  5.73                             110   -0.11 9 98.8 1644
 N5       S   0   2242 20.79                             110    0.12 9 98.8 1644
 N3       P   0 ? 2242  5.83                             110   -0.07 9 99.2 1654
 N2       P   0 ? 2242  6.02                             110    0.06 9 99.6 1644
 CAMP     P   0 ? 2242  6.00                             110    0.00 9 99.8 1634
 N1       P   0 ? 2242  6.27                             109    0.03 9  101 1644
 N1       S   0   2242 21.30                             109   -0.09 9  101 1644
 KHIA     P   0 ? 2242  7.03                             108    0.01 9  106 1494
 JNAK     P   0 ? 2242  7.70                             108    0.02 8  111 1564
 JNAK     S   0   2242 24.08                             108    0.07 8  111 1564
 AHRM     P   0 ? 2242  8.16                             107   -0.05 8  114 1444
 AHRM     S   0   2242 24.93                             107   -0.04 8  114 1444
 DLRM     P   0 ? 2242  9.67                             106    0.03 8  123 1584
 KOLO     P   0 ? 2242  9.88                             105   -0.02 8  125 1504
 KOLO     S   0   2242 28.04                             105    0.02 8  125 1504
 ABAS     P   0 ? 2242 13.15                             103    0.07 7  145 1534
                                                                                
