 2021  5 5 2318 41.6 L  29.686  50.575  9.8  SLT 27 0.1                        1
 GAP=293        0.31       5.0     1.3 11.2 -0.2625E+01 -0.6576E+01  0.5416E+02E
 STAT SP IPHASW D HRMN SECON CODA AMPLIT PERI AZIMU VELO AIN AR TRES W  DIS CAZ7
 KHRK     P   0 ? 2318 51.87                              68   -0.0210 54.2 2084
 KHRK     S   0   2319  0.28                              68    0.0310 54.2 2084
 NOKA     P   0 ? 2318 54.50                              68   -0.13 9 71.1 1414
 NOKA     S   0   2319  4.96                              68   -0.24 9 71.1 1414
 N20      P   0 ? 2318 56.56                              68   -0.10 9 83.8 1624
 N17      P   0 ? 2318 56.95                              68   -0.07 9 86.0 1644
 N19      P   0 ? 2318 57.11                              68   -0.04 9 86.8 1614
 N15      P   0 ? 2318 57.53                              68   -0.06 9 89.5 1624
 N15      S   0   2319 10.47                              68   -0.10 9 89.5 1624
 N13      P   0 ? 2318 57.52                              68   -0.08 9 89.6 1654
 P1       P   0 ? 2318 57.70                              68    0.03 9 90.0 1594
 N11      P   0 ? 2318 57.67                              68   -0.03 9 90.2 1644
 N11      S   0   2319 10.74                              68   -0.03 9 90.2 1644
 P3       P   0 ? 2318 57.75                              68   -0.00 9 90.5 1544
 P2       P   0 ? 2318 57.68                              68   -0.10 9 90.7 1574
 P4       P   0 ? 2318 57.93                              68   -0.07 8 92.1 1504
 P4       S   0   2319 11.26                              68   -0.05 8 92.1 1504
 N7       P   0 ? 2318 58.19                              68    0.02 8 93.1 1634
 N7       S   0   2319 11.58                              68   -0.04 8 93.1 1634
 N6       P   0 ? 2318 58.37                              68    0.04 8 94.1 1624
 TOLS     P   0 ? 2318 58.39                              68    0.00 8 94.4 1464
 N4       P   0 ? 2318 58.61                              68    0.02 8 95.7 1634
 P9       P   0 ? 2318 58.84                              68   -0.00 8 97.3 1414
 P9       S   0   2319 12.71                              68   -0.12 8 97.3 1414
 N5       P   0 ? 2318 58.92                              68   -0.07 8 98.2 1624
 N3       P   0 ? 2318 59.06                              68    0.02 8 98.5 1634
 CAMP     P   0 ? 2318 59.18                              68    0.01 8 99.3 1614
 CAMP     S   0   2319 13.35                              68   -0.07 8 99.3 1614
 N1       P   0 ? 2318 59.48                              68    0.06 8  101 1624
 KHIA     P   0 ? 2319  0.47                              68    0.07 8  107 1474
 JNAK     P   0 ? 2319  1.15                              68    0.13 8  111 1544
 JNAK     S   0   2319 16.92                              68    0.14 8  111 1544
 AHRM     P   0 ? 2319  1.78                              68    0.08 8  115 1424
 AHRM     S   0   2319 18.22                              68    0.21 8  115 1424
 DLRM     P   0 ? 2319  3.16                              68    0.12 7  123 1574
 KOLO     P   0 ? 2319  3.64                              68    0.25 7  125 1494
 ABAS     P   0 ? 2319  6.93                              68    0.28 6  146 1514
 ABAS     S   0   2319 27.62                              68    0.66 6  146 1514
                                                                                
 2021  5 5 0019 52.0 L  29.626  50.590 26.3  SLT 18 0.1                        1
 GAP=335        0.21       2.0     2.8  8.5  0.2054E+00  0.6355E+01 -0.1429E+02E
 STAT SP IPHASW D HRMN SECON CODA AMPLIT PERI AZIMU VELO AIN AR TRES W  DIS CAZ7
 NOKA     P   0 ? 0020  4.35                             107   -0.0210 65.0 1384
 SHIF     P   0 ? 0020  4.75                             106   -0.0110 67.6 1564
 N17      P   0 ? 0020  6.56                             103   -0.00 9 79.1 1644
 N17      S   0   0020 18.46                             103    0.11 9 79.1 1644
 N11      P   0 ? 0020  7.24                             103    0.01 9 83.3 1644
 N11      S   0   0020 19.45                             103   -0.10 9 83.3 1644
 P3       P   0 ? 0020  7.24                             102   -0.06 9 83.8 1534
 P3       S   0   0020 19.76                             102    0.07 9 83.8 1534
 N10      P   0 ? 0020  7.53                             102    0.03 9 85.1 1634
 N10      S   0   0020 20.08                             102    0.02 9 85.1 1634
 N9       P   0 ? 0020  7.56                             102   -0.05 9 85.8 1614
 N9       S   0   0020 20.12                             102   -0.13 9 85.8 1614
 N7       P   0 ? 0020  7.57                             102   -0.12 9 86.2 1634
 N7       S   0   0020 20.47                             102    0.08 9 86.2 1634
 N6       P   0 ? 0020  7.81                             102   -0.03 9 87.2 1624
 N4       P   0 ? 0020  8.19                             102    0.10 9 88.9 1634
 N5       P   0 ? 0020  8.46                             101   -0.03 9 91.4 1624
 N2       P   0 ? 0020  8.63                             101    0.01 9 92.2 1614
 CAMP     P   0 ? 0020  8.72                             101    0.05 9 92.5 1604
 N1       P   0 ? 0020  8.96                             101    0.05 9 94.0 1614
 JNAK     P   0 ? 0020 10.55                             100    0.04 8  104 1534
 JNAK     S   0   0020 25.44                             100   -0.07 8  104 1534
 AHRM     P   0 ? 0020 11.31                              99    0.05 8  109 1414
 DLRM     P   0 ? 0020 12.48                              99   -0.01 8  117 1564
 KOLO     P   0 ? 0020 12.90                              98    0.02 8  119 1484
                                                                                
 2021  5 5 0035 26.2 L  29.688  50.664 42.2  SLT 10 0.1                        1
 GAP=337        0.24       6.8     6.7 16.0  0.2987E+02 -0.6534E+02 -0.1048E+03E
 STAT SP IPHASW D HRMN SECON CODA AMPLIT PERI AZIMU VELO AIN AR TRES W  DIS CAZ7
 N7       P   0 ? 0035 43.35                             112   -0.0110 91.2 1684
 N6       P   0 ? 0035 43.53                             111    0.0410 92.0 1674
 N6       S   0   0035 57.61                             111    0.0910 92.0 1674
 N4       P   0 ? 0035 43.86                             111    0.1010 93.8 1694
 N4       S   0   0035 57.88                             111   -0.1210 93.8 1694
 CAMP     P   0 ? 0035 44.21                             110   -0.0310 97.1 1664
 N1       P   0 ? 0035 44.42                             110   -0.0710 98.7 1674
 JNAK     P   0 ? 0035 45.79                             108   -0.04 9  108 1584
 AHRM     P   0 ? 0035 46.23                             108   -0.01 9  110 1464
 DLRM     P   0 ? 0035 47.82                             106    0.01 9  120 1604
 DLRM     S   0   0036  5.37                             106    0.04 9  120 1604
 KOLO     P   0 ? 0035 47.97                             106   -0.01 9  121 1524
 ABAS     P   0 ? 0035 51.18                             104    0.00 8  142 1544
                                                                                
 2021  5 5 0041 17.0 L  29.707  50.607  4.8  SLT 16 0.1                        1
 GAP=295        0.27      10.0     2.2  8.4 -0.1845E+01 -0.2635E+01  0.8308E+02E
 STAT SP IPHASW D HRMN SECON CODA AMPLIT PERI AZIMU VELO AIN AR TRES W  DIS CAZ7
 KHRK     P   0 ? 0041 28.41                              40    0.0110 57.7 2104
 N20      P   0 ? 0041 32.75                              40   -0.06 9 85.1 1654
 N11      P   0 ? 0041 33.92                              40    0.05 9 91.7 1664
 N11      S   0   0041 47.46                              40   -0.07 9 91.7 1664
 N9       P   0 ? 0041 34.18                              40   -0.04 9 93.9 1634
 N9       S   0   0041 48.11                              40   -0.06 9 93.9 1634
 N7       P   0 ? 0041 34.30                              40   -0.03 8 94.5 1654
 TOLS     P   0 ? 0041 34.18                              40   -0.18 8 94.7 1484
 N6       P   0 ? 0041 34.53                              40    0.05 8 95.4 1644
 N6       S   0   0041 48.55                              40   -0.08 8 95.4 1644
 N4       P   0 ? 0041 34.76                              40    0.01 8 97.1 1664
 N5       P   0 ? 0041 35.04                              40   -0.10 8 99.5 1644
 CAMP     P   0 ? 0041 35.34                              40    0.04 8  101 1634
 N1       P   0 ? 0041 35.59                              40    0.03 8  102 1644
 KHIA     P   0 ? 0041 36.42                              40    0.03 8  107 1494
 JNAK     P   0 ? 0041 37.13                              40    0.05 8  112 1564
 AHRM     P   0 ? 0041 37.54                              40   -0.09 8  115 1444
 DLRM     P   0 ? 0041 39.25                              40    0.13 7  124 1584
 DLRM     S   0   0041 57.32                              40    0.29 7  124 1584
 ABAS     P   0 ? 0041 42.87                              40    0.19 6  146 1534
                                                                                
 2021  5 5 0921 11.0 L  29.727  50.644 10.8  SLT  3 0.0                        1
 GAP=352        0.31     999.9   731.5999.9 -0.1096E+07 -0.2951E+07  0.6051E+07E
 STAT SP IPHASW D HRMN SECON CODA AMPLIT PERI AZIMU VELO AIN AR TRES W  DIS CAZ7
 DLRM     P   0 ? 0921 32.59                              68   -0.0410  125 1604
 DLRM     S   0   0921 50.20                              68    0.0210  125 1604
 KOLO     P   0 ? 0921 32.80                              68   -0.0110  126 1524
 ABAS     P   0 ? 0921 36.18                              68    0.06 9  147 1544
 ABAS     S   0   0921 56.47                              68   -0.03 9  147 1544
                                                                                
 2021  5 5 0921 12.3 L  29.553  50.527 43.1  SLT 32 0.1                        1
 GAP=277        0.26       1.4     1.3  2.6  0.4397E+00  0.3051E+00 -0.2663E+01E
 STAT SP IPHASW D HRMN SECON CODA AMPLIT PERI AZIMU VELO AIN AR TRES W  DIS CAZ7
 KHRK     P   0 ? 0921 22.59                             135    0.2010 39.1 2124
 SHIF     P   0 ? 0921 25.44                             121   -0.03 9 63.3 1484
 NOKA     P   0 ? 0921 25.56                             121    0.02 9 63.8 1294
 NOKA     S   0   0921 36.29                             121   -0.01 9 63.8 1294
 N20      P   0 ? 0921 26.53                             118   -0.11 9 71.6 1554
 N20      S   0   0921 38.19                             118   -0.10 9 71.6 1554
 N17      P   0 ? 0921 26.93                             117    0.01 9 73.6 1574
 N19      P   0 ? 0921 27.04                             117   -0.07 9 74.9 1544
 N14      P   0 ? 0921 27.25                             116   -0.08 9 76.4 1574
 N14      S   0   0921 39.34                             116   -0.19 9 76.4 1574
 N13      P   0 ? 0921 27.34                             116   -0.07 9 77.0 1584
 N15      P   0 ? 0921 27.38                             116   -0.09 9 77.4 1564
 N15      S   0   0921 39.72                             116   -0.07 9 77.4 1564
 N11      P   0 ? 0921 27.51                             116   -0.01 9 77.7 1584
 N11      S   0   0921 39.81                             116   -0.06 9 77.7 1584
 P1       P   0 ? 0921 27.58                             116   -0.05 9 78.5 1524
 P2       P   0 ? 0921 27.73                             115   -0.06 9 79.6 1494
 P2       S   0   0921 40.34                             115   -0.03 9 79.6 1494
 N10      P   0 ? 0921 27.76                             115   -0.04 9 79.6 1574
 P3       P   0 ? 0921 27.85                             115    0.02 9 79.9 1474
 N9       P   0 ? 0921 27.85                             115   -0.09 9 80.6 1554
 N9       S   0   0921 40.78                             115    0.14 9 80.6 1554
 N7       P   0 ? 0921 28.05                             115    0.09 9 80.7 1574
 N7       S   0   0921 40.73                             115    0.05 9 80.7 1574
 N6       P   0 ? 0921 28.14                             115    0.00 9 81.9 1564
 P4       P   0 ? 0921 28.19                             114   -0.01 9 82.4 1424
 N4       P   0 ? 0921 28.39                             114    0.06 9 83.3 1584
 N4       S   0   0921 41.28                             114   -0.07 9 83.3 1584
 P5       P   0 ? 0921 28.28                             114   -0.11 9 83.7 1394
 TOLS     P   0 ? 0921 28.72                             114    0.04 9 85.6 1384
 N5       P   0 ? 0921 28.74                             113    0.00 9 86.0 1564
 N5       S   0   0921 42.23                             113    0.15 9 86.0 1564
 N3       P   0 ? 0921 28.77                             113    0.00 9 86.2 1574
 N3       S   0   0921 41.95                             113   -0.18 9 86.2 1574
 N2       P   0 ? 0921 28.85                             113   -0.02 9 86.9 1564
 CAMP     P   0 ? 0921 28.89                             113   -0.04 9 87.3 1554
 N1       P   0 ? 0921 29.14                             113    0.01 8 88.7 1564
 N1       S   0   0921 42.90                             113    0.10 8 88.7 1564
 P9       P   0 ? 0921 29.28                             113    0.00 8 89.6 1324
 P9       S   0   0921 43.06                             113   -0.00 8 89.6 1324
 ABAD     P   0 ? 0921 29.53                             112    0.02 8 91.2 1294
 KHIA     P   0 ? 0921 30.48                             111   -0.00 8 97.6 1404
 KHIA     S   0   0921 45.39                             111    0.15 8 97.6 1404
 JNAK     P   0 ? 0921 30.93                             110    0.09 8  100 1484
 JNAK     S   0   0921 46.24                             110    0.34 8  100 1484
 AHRM     P   0 ? 0921 31.98                             109    0.11 8  107 1354
 KOLO     P   0 ? 0921 33.37                             107    0.13 7  116 1434
                                                                                
 2021  5 5 1255 10.0 L  29.697  50.527 12.0  SLT 13 0.1                        1
 GAP=296        0.23       2.2     2.1112.5  0.3313E+01 -0.1414E+03 -0.1667E+03E
 STAT SP IPHASW D HRMN SECON CODA AMPLIT PERI AZIMU VELO AIN AR TRES W  DIS CAZ7
 KHRK     P   0 ? 1255 20.11                              92    0.0510 53.2 2034
 NOKA     P   0 ? 1255 23.51                              91   -0.06 9 75.0 1394
 N20      P   0 ? 1255 25.31                              91   -0.09 9 86.4 1604
 N15      P   0 ? 1255 26.34                              91    0.00 8 92.1 1604
 N4       P   0 ? 1255 27.29                              91   -0.03 8 98.2 1614
 N3       P   0 ? 1255 27.79                              91    0.01 8  101 1604
 N5       P   0 ? 1255 27.72                              91   -0.01 8  101 1604
 N2       P   0 ? 1255 27.81                              91   -0.06 8  102 1594
 N1       P   0 ? 1255 28.13                              91   -0.03 8  103 1594
 N1       S   0   1255 42.85                              91   -0.05 8  103 1594
 KHIA     P   0 ? 1255 29.28                              91   -0.01 8  110 1464
 KHIA     S   0   1255 44.82                              91   -0.12 8  110 1464
 JNAK     P   0 ? 1255 29.88                              91    0.03 8  114 1524
 JNAK     S   0   1255 46.04                              91    0.09 8  114 1524
 AHRM     P   0 ? 1255 30.80                              91    0.17 7  119 1414
 AHRM     S   0   1255 47.48                              91    0.11 7  119 1414
 DLRM     P   0 ? 1255 31.87                              91    0.04 7  126 1554
 DLRM     S   0   1255 49.57                              91    0.02 7  126 1554
                                                                                
 2021  5 5 0101 33.3 L  29.828  50.685  9.0  SLT 12 0.1                        1
 GAP=301        0.30      10.6     2.6 26.2 -0.7208E+01 -0.2326E+02  0.2743E+03E
 STAT SP IPHASW D HRMN SECON CODA AMPLIT PERI AZIMU VELO AIN AR TRES W  DIS CAZ7
 KHRK     P   0 ? 0101 46.73                              68    0.0110 73.1 2104
 NOKA     P   0 ? 0101 47.38                              68   -0.2610 78.8 1544
 N11      P   0 ? 0101 51.57                              68   -0.04 9  103 1724
 TOLS     P   0 ? 0101 51.49                              68   -0.06 9  103 1564
 N9       P   0 ? 0101 51.86                              68   -0.02 9  105 1704
 N7       P   0 ? 0101 52.02                              68   -0.02 9  106 1714
 N7       S   0   0102  7.10                              68   -0.13 9  106 1714
 N6       P   0 ? 0101 52.18                              68    0.02 9  107 1704
 N6       S   0   0102  7.41                              68   -0.03 9  107 1704
 N4       P   0 ? 0101 52.48                              68    0.01 8  109 1714
 KHIA     P   0 ? 0101 53.76                              68    0.16 8  116 1564
 KHIA     S   0   0102 10.06                              68    0.02 8  116 1564
 JNAK     P   0 ? 0101 54.59                              68    0.09 8  121 1624
 AHRM     P   0 ? 0101 54.70                              68    0.05 8  122 1514
 AHRM     S   0   0102 11.92                              68   -0.02 8  122 1514
 DLRM     P   0 ? 0101 56.83                              68    0.22 7  134 1634
 DLRM     S   0   0102 15.72                              68    0.23 7  134 1634
                                                                                
