 2020  1 1 0208 20.1 L  36.474  52.253 13.3  New  6 0.8                        1
 GAP=162        2.02       5.3     4.8  7.3 -0.8614E+01  0.1509E+02  0.1355E+01E
 Action:ARG 22-06-18 17:45 OP:OBSP STATUS:               ID:20200101020820     I
 STAT SP IPHASW D HRMM SECON CODA AMPLIT PERI AZIMU VELO AIN AR TRES W  DIS CAZ7
 YXLK    EP   0    2 823.337                             137   -0.2310 10.6  60 
 YXLK    ES   0    2 826.547                             137    0.3810 10.6  60 
 TVCN    EP   0    2 823.904                             110   -1.8510 24.6 191 
 TVCN    ES   0    2 831.151                             110    1.1810 24.6 191 
 SRWZ    EP   0    2 831.144                              96    0.4410 51.9 202 
 SRWZ    ES   0    2 838.044                              96   -0.6010 51.9 202 
 RVDG    EP   0    2 832.107                              95    0.2410 58.2  99 
 RVDG    ES   0    2 840.085                              95   -0.5910 58.2  99 
 ZSCP    EP   0    2 833.126                              94    0.1610 64.1 115 
 ZSCP    ES   0    2 843.160                              94    0.5610 64.1 115 
 EVSP    EP   0    2 837.900                              64   -0.4110 95.5 258 
 EVSP    ES   0    2 852.688                              64    0.7410 95.5 258 
                                                                                
 2020  1 1 0209 59.9 L  35.982  52.076  7.1  New 10 0.8                        1
 GAP=213        2.08       5.8     4.2  4.6  0.1539E+01 -0.6633E+01  0.4297E+01E
 Action:ARG 22-06-18 17:45 OP:OBSP STATUS:               ID:20200101021000     I
 STAT SP IPHASW D HRMM SECON CODA AMPLIT PERI AZIMU VELO AIN AR TRES W  DIS CAZ7
 SRWZ    EP   0    210 1.760                             130   -0.2810 7.47 331 
 SRWZ    ES   0    210 2.271                             130   -1.4110 7.47 331 
 TVCN    EP   0    210 8.602                              97    1.8410 32.4  20 
 TVCN    ES   0    21012.852                              97    0.9010 32.4  20 
 YXLK    EP   0    21013.731                              68    0.7010 64.9  23 
 YXLK    ES   0    21021.973                              68   -0.9510 64.9  23 
 ZSCP    EP   0    21015.281                              68   -0.4110 79.3  69 
 ZSCP    ES   0    21027.609                              68    0.0310 79.3  69 
 YIBA    EP   0    21016.510                              68    0.4210 81.4 360 
 YIBA    ES   0    21027.967                              68   -0.2910 81.4 360 
 EVSP    EP   0    21016.502                              68   -0.2010 84.7 294 
 EVSP    ES   0    21029.927                              68    0.5810 84.7 294 
 RVDG    EP   0    21017.891                              68    0.8710 86.5  58 
 RVDG    ES   0    21029.563                              68   -0.3410 86.5  58 
 XIVZ    EP   0    21020.093                              47   -0.51 9  108 358 
 XIVZ    ES   0    21036.530                              47    0.37 9  108 358 
 ZGXN    EP   0    21028.909                              47    0.62 8  160  81 
 ZGXN    ES   0    21049.185                              47   -0.43 8  160  81 
 YAIP    EP   0    21027.156                              47   -1.47 8  162  52 
 YAIP    ES   0    21049.434                              47   -0.78 8  162  52 
                                                                                
 2020  1 1 0211 39.6 L  35.949  51.966 14.0  New 10 1.0                        1
 GAP=219        2.51       8.2     5.9  5.2  0.4226E+01  0.4032E+00  0.4694E+01E
 Action:ARG 22-06-18 17:45 OP:OBSP STATUS:               ID:20200101021140     I
 STAT SP IPHASW D HRMM SECON CODA AMPLIT PERI AZIMU VELO AIN AR TRES W  DIS CAZ7
 SRWZ    EP   0    21143.288                             135   -0.0410 12.0  31 
 SRWZ    ES   0    21145.976                             135   -0.1410 12.0  31 
 TVCN    EP   0    21148.675                             101    0.6110 40.1  32 
 TVCN    ES   0    21155.337                             101    0.9410 40.1  32 
 YXLK    EP   0    21153.967                              64    0.0410 72.6  29 
 YXLK    ES   0    212 3.648                              64   -1.0110 72.6  29 
 EVSP    EP   0    21153.488                              64   -1.2610 77.5 299 
 EVSP    ES   0    212 7.467                              64    1.3610 77.5 299 
 YIBA    EP   0    21155.847                              64   -0.2510 85.6   6 
 YIBA    ES   0    212 7.377                              64   -1.0810 85.6   6 
 ZSCP    EP   0    21157.732                              64    0.9310 89.8  69 
 ZSCP    ES   0    212 9.243                              64   -0.4610 89.8  69 
 RVDG    EP   0    21155.765                              53   -2.17 9 96.8  59 
 RVDG    ES   0    21213.149                              53    1.47 9 96.8  59 
 XIVZ    EP   0    212 0.738                              53    0.67 9  111   3 
 XIVZ    ES   0    21216.050                              53    0.64 9  111   3 
 ZGXN    EP   0    212 9.236                              53    0.51 8  170  80 
 ZGXN    ES   0    21231.681                              53    1.11 8  170  80 
 YAIP    EP   0    212 7.508                              53   -1.53 8  172  53 
 YAIP    ES   0    21230.778                              53   -0.33 8  172  53 
                                                                                
 2020  1 1 0213 20.5 L  35.793  52.046 16.5  New  5 0.6                        1
 GAP=232        1.38       7.1     4.7  4.4  0.6463E+01 -0.1060E+01  0.1297E+02E
 Action:ARG 22-06-18 17:45 OP:OBSP STATUS:               ID:20200101021320     I
 STAT SP IPHASW D HRMM SECON CODA AMPLIT PERI AZIMU VELO AIN AR TRES W  DIS CAZ7
 SRWZ    EP   0    21327.113                             115    0.2610 27.5 358 
 SRWZ    ES   0    21331.632                             115    0.0110 27.5 358 
 EVSP    EP   0    21338.443                              53    0.4510 93.0 306 
 EVSP    ES   0    21351.130                              53    0.0310 93.0 306 
 RVDG    EP   0    21337.774                              53   -1.42 9  101  49 
 RVDG    ES   0    21353.938                              53    0.73 9  101  49 
 YIBA    EP   0    21339.187                              53   -0.18 9  102   1 
 YIBA    ES   0    21353.194                              53   -0.32 9  102   1 
 ZGXN    EP   0    21349.037                              53    0.17 8  167  74 
 ZGXN    ES   0    21410.519                              53    0.37 8  167  74 
                                                                                
 2020  1 1 0215  0.8 L  35.816  51.847 22.5  New  6 0.6                        1
 GAP=257        1.48       8.7     5.1  5.4 -0.2884E+01  0.9088E+01  0.7632E+01E
 Action:ARG 22-06-18 17:45 OP:OBSP STATUS:               ID:20200101021500     I
 STAT SP IPHASW D HRMM SECON CODA AMPLIT PERI AZIMU VELO AIN AR TRES W  DIS CAZ7
 SRWZ    EP   0    215 7.739                             117   -0.1810 30.1  34 
 SRWZ    ES   0    21513.576                             117    0.2810 30.1  34 
 TVCN    EP   0    21511.575                              99   -0.8510 58.3  33 
 TVCN    ES   0    21521.648                              99    0.4710 58.3  33 
 EVSP    EP   0    21515.131                              62   -0.3010 77.5 313 
 EVSP    ES   0    21527.094                              62    0.6510 77.5 313 
 RVDG    EP   0    21520.336                              62   -0.43 9  114  56 
 RVDG    ES   0    21536.039                              62    0.25 9  114  56 
 XIVZ    EP   0    21523.234                              62    0.54 9  127   7 
 XIVZ    ES   0    21537.889                              62   -1.27 9  127   7 
 YAIP    EP   0    21532.829                              62    0.88 7  190  52 
 YAIP    ES   0    21555.643                              62    0.30 7  190  52 
                                                                                
 2020  1 1 0216 40.4 L  35.975  52.050  9.4  New  8 0.7                        1
 GAP=269        1.67       5.8     8.9  5.2  0.2555E+02 -0.3445E+02 -0.9194E+01E
 Action:ARG 22-06-18 17:45 OP:OBSP STATUS:               ID:20200101021640     I
 STAT SP IPHASW D HRMM SECON CODA AMPLIT PERI AZIMU VELO AIN AR TRES W  DIS CAZ7
 SRWZ    EP   0    21642.720                             140   -0.1710 7.42 350 
 SRWZ    ES   0    21644.627                             140   -0.1410 7.42 350 
 TVCN    EP   0    21647.900                              68    0.2110 34.0  23 
 TVCN    ES   0    21653.420                              68    0.2610 34.0  23 
 YXLK    EP   0    21653.447                              68   -0.2710 66.6  24 
 YXLK    ES   0    217 3.274                              68   -0.4310 66.6  24 
 ZSCP    EP   0    21656.509                              68   -0.0110 81.7  69 
 ZSCP    ES   0    217 9.818                              68    1.2010 81.7  69 
 YIBA    EP   0    21657.648                              68    1.0410 82.2   1 
 YIBA    ES   0    217 8.399                              68   -0.3710 82.2   1 
 RVDG    EP   0    21657.296                              56   -0.5210 88.9  58 
 RVDG    ES   0    217 9.806                              56   -1.0810 88.9  58 
 ZGXN    EP   0    217 8.923                              47    0.04 8  162  81 
 ZGXN    ES   0    21729.094                              47   -1.15 8  162  81 
 YAIP    EP   0    217 9.540                              47    0.33 8  165  53 
 YAIP    ES   0    21732.003                              47    1.18 8  165  53 
                                                                                
 2020  1 1 0218 20.7 L  36.006  52.145 10.0  New  5 0.8                        1
 GAP=234        1.80      11.0     8.0  8.5  0.4572E+02 -0.5402E+02 -0.6745E+02E
 Action:ARG 22-06-18 17:45 OP:OBSP STATUS:               ID:20200101021820     I
 STAT SP IPHASW D HRMM SECON CODA AMPLIT PERI AZIMU VELO AIN AR TRES W  DIS CAZ7
 SRWZ    EP   0    21824.448                             131    0.6810 10.6 292 
 SRWZ    ES   0    21825.663                             131   -0.3910 10.6 292 
 YIBA    EP   0    21836.203                              68   -0.1110 79.1 355 
 YIBA    ES   0    21847.437                              68   -0.5710 79.1 355 
 RVDG    EP   0    21836.829                              68    0.3810 79.8  57 
 RVDG    ES   0    21848.742                              68    0.5010 79.8  57 
 XIVZ    EP   0    21841.109                              47    0.34 9  105 354 
 XIVZ    ES   0    21856.639                              47    0.83 9  105 354 
 YAIP    EP   0    21846.182                              47   -1.98 8  156  52 
 YAIP    ES   0    219 8.468                              47   -0.27 8  156  52 
                                                                                
 2020  1 1 0219 59.6 L  36.059  52.257  2.4  New  7 0.6                        1
 GAP=181        1.57       4.3     3.0  6.2  0.8101E+00 -0.8098E+01 -0.1372E+02E
 Action:ARG 22-06-18 17:45 OP:OBSP STATUS:               ID:20200101022000     I
 STAT SP IPHASW D HRMM SECON CODA AMPLIT PERI AZIMU VELO AIN AR TRES W  DIS CAZ7
 SRWZ    EP   0    220 4.231                              97    0.1310 20.1 264 
 SRWZ    ES   0    220 7.639                              97    0.1610 20.1 264 
 YXLK    EP   0    22011.508                              64    0.9610 52.0  10 
 YXLK    ES   0    22018.338                              64   -0.4210 52.0  10 
 ZSCP    EP   0    22011.536                              64   -0.8010 61.0  72 
 ZSCP    ES   0    22021.300                              64   -0.5910 61.0  72 
 YIBA    EP   0    22015.190                              56    0.1510 74.8 347 
 YIBA    ES   0    22026.036                              56   -0.5910 74.8 347 
 EVSP    EP   0    22018.955                              56   -0.25 9 97.3 286 
 EVSP    ES   0    22033.029                              56   -0.89 9 97.3 286 
 XIVZ    EP   0    22020.552                              49    0.66 9  101 348 
 XIVZ    ES   0    22035.957                              49    0.84 9  101 348 
 ZGXN    EP   0    22026.343                              41    0.18 8  143  84 
 ZGXN    ES   0    22046.939                              41    0.85 8  143  84 
                                                                                
 2020  1 1 0221 40.4 L  35.599  52.513 12.2  New  9 0.8                        1
 GAP=243        1.83       8.1     5.5  8.1  0.1243E+02 -0.1831E+02 -0.1992E+02E
 Action:ARG 22-06-18 17:45 OP:OBSP STATUS:               ID:20200101022140     I
 STAT SP IPHASW D HRMM SECON CODA AMPLIT PERI AZIMU VELO AIN AR TRES W  DIS CAZ7
 SRWZ    EP   0    22154.623                              93    1.1810 65.3 319 
 SRWZ    ES   0    222 2.444                              93   -0.7910 65.3 319 
 TVCN    EP   0    22156.379                              64    0.5810 78.2 339 
 TVCN    ES   0    222 6.881                              64   -0.4610 78.2 339 
 ZSCP    EP   0    22155.573                              64   -0.2510 78.3  26 
 ZSCP    ES   0    222 8.349                              64    0.9510 78.3  26 
 YXLK    EP   0    222 0.078                              53    0.20 9  103 352 
 YXLK    ES   0    22214.703                              53    0.22 9  103 352 
 YIBA    EP   0    222 2.488                              53   -1.34 9  130 342 
 YIBA    ES   0    22221.623                              53    0.21 9  130 342 
 ZGXN    EP   0    222 3.888                              53   -0.80 9  136  61 
 ZGXN    ES   0    22223.087                              53    0.18 9  136  61 
 EVSP    EP   0    222 5.081                              53   -0.19 8  140 304 
 EVSP    ES   0    22224.845                              53    0.91 8  140 304 
 XIVZ    EP   0    222 6.527                              53   -1.15 8  156 344 
 XIVZ    ES   0    22228.003                              53   -0.13 8  156 344 
 YAIP    EP   0    22210.308                              53    1.07 8  167  32 
 YAIP    ES   0    22229.925                              53   -0.95 8  167  32 
                                                                                
 2020  1 1 0223 20.3 L  36.209  51.904 22.1  New  5 0.7                        1
 GAP=277        1.84       9.1    12.5  6.4  0.8251E+02  0.8244E+01  0.2960E+01E
 Action:ARG 22-06-18 17:45 OP:OBSP STATUS:               ID:20200101022320     I
 STAT SP IPHASW D HRMM SECON CODA AMPLIT PERI AZIMU VELO AIN AR TRES W  DIS CAZ7
 TVCN    EP   0    22325.498                             119   -1.5210 27.1  79 
 TVCN    ES   0    22332.954                             119    0.9210 27.1  79 
 YIBA    EP   0    22332.974                              98    1.0110 58.1  15 
 YIBA    ES   0    22340.049                              98   -0.6410 58.1  15 
 XIVZ    EP   0    22336.335                              62    0.4810 83.0   7 
 XIVZ    ES   0    22347.293                              62   -0.2010 83.0   7 
 RVDG    EP   0    22337.034                              62   -0.0110 91.2  77 
 RVDG    ES   0    22349.524                              62   -0.0610 91.2  77 
 ZGXN    EP   0    22349.143                              62    0.01 8  173  90 
 ZGXN    ES   0    22410.780                              62    0.03 8  173  90 
                                                                                
 2020  1 1 0225  0.6 L  35.976  52.556 13.3  New 10 0.9                        1
 GAP=201        2.31       6.6     4.0  6.1 -0.4063E+01 -0.2798E+01  0.7970E+01E
 Action:ARG 22-06-18 17:45 OP:OBSP STATUS:               ID:20200101022500     I
 STAT SP IPHASW D HRMM SECON CODA AMPLIT PERI AZIMU VELO AIN AR TRES W  DIS CAZ7
 ZSCP    EP   0    225 9.956                              98    0.6110 42.0  48 
 ZSCP    ES   0    22515.087                              98   -0.8410 42.0  48 
 TVCN    EP   0    22510.201                              98    0.3810 44.6 314 
 TVCN    ES   0    22515.138                              98   -1.6210 44.6 314 
 SRWZ    EP   0    22510.238                              97   -0.1010 47.5 279 
 SRWZ    ES   0    22518.457                              97    0.7810 47.5 279 
 RVDG    EP   0    225 9.937                              95   -1.8310 55.2  33 
 RVDG    ES   0    22521.627                              95    1.4510 55.2  33 
 YXLK    EP   0    22513.828                              94    0.6010 63.1 344 
 YXLK    ES   0    22523.215                              94    0.4910 63.1 344 
 YIBA    EP   0    22518.702                              64    0.3610 93.0 332 
 YIBA    ES   0    22531.191                              64   -0.4810 93.0 332 
 ZGXN    EP   0    22523.108                              53    1.12 9  117  78 
 ZGXN    ES   0    22537.454                              53   -0.61 9  117  78 
 XIVZ    EP   0    22523.076                              53    0.96 9  118 336 
 XIVZ    ES   0    22538.516                              53    0.24 9  118 336 
 EVSP    EP   0    22522.480                              53   -0.73 9  126 286 
 EVSP    ES   0    22540.149                              53   -0.05 9  126 286 
 YAIP    EP   0    22522.842                              53   -1.15 9  131  41 
 YAIP    ES   0    22541.940                              53    0.37 9  131  41 
                                                                                
 2020  1 1 0226 39.9 L  35.966  52.030 10.3  New  5 0.8                        1
 GAP=238        2.09       9.0     6.3 10.6 -0.1421E+02 -0.2574E+02  0.1418E+02E
 Action:ARG 22-06-18 17:45 OP:OBSP STATUS:               ID:20200101022640     I
 STAT SP IPHASW D HRMM SECON CODA AMPLIT PERI AZIMU VELO AIN AR TRES W  DIS CAZ7
 YXLK    EP   0    22653.024                              90   -0.4710 68.2  25 
 YXLK    ES   0    227 3.243                              90   -0.4410 68.2  25 
 EVSP    EP   0    22655.578                              90   -0.4210 81.7 296 
 EVSP    ES   0    227 8.120                              90    0.0610 81.7 296 
 YIBA    EP   0    22656.777                              90    0.5010 83.2   2 
 YIBA    ES   0    227 9.014                              90    0.4710 83.2   2 
 RVDG    EP   0    22656.626                              64   -0.9610 90.9  58 
 RVDG    ES   0    22711.550                              64    0.7110 90.9  58 
 XIVZ    EP   0    227 2.315                              53    1.83 9  109 360 
 XIVZ    ES   0    22714.764                              53   -1.16 9  109 360 
                                                                                
