 2020  1 1 0146 39.9 L  36.105  52.363 17.6  New  7 0.9                        1
 GAP=171        2.21       6.0     4.6  6.0 -0.4645E+01 -0.5740E+01 -0.5196E+01E
 Action:ARG 22-06-18 17:45 OP:OBSP STATUS:               ID:20200101014640     I
 STAT SP IPHASW D HRMM SECON CODA AMPLIT PERI AZIMU VELO AIN AR TRES W  DIS CAZ7
 SRWZ    EP   0    14646.661                             115   -0.1510 30.3 257 
 SRWZ    ES   0    14651.261                             115   -0.7410 30.3 257 
 YXLK    EP   0    14649.615                              64    0.0910 46.2 359 
 YXLK    ES   0    14657.322                              64    0.5710 46.2 359 
 ZSCP    EP   0    14650.123                              64   -0.1010 50.4  74 
 ZSCP    ES   0    14659.083                              64    1.1010 50.4  74 
 RVDG    EP   0    14650.708                              64   -0.6810 57.4  56 
 RVDG    ES   0    14658.524                              64   -1.4810 57.4  56 
 XIVZ    EP   0    14657.559                              53   -0.53 9 98.7 342 
 XIVZ    ES   0    14711.674                              53   -0.06 9 98.7 342 
 ZGXN    EP   0    147 4.583                              53    1.51 9  133  85 
 ZGXN    ES   0    14719.351                              53   -1.11 9  133  85 
 YAIP    EP   0    147 3.960                              53    0.75 9  134  51 
 YAIP    ES   0    14722.103                              53    1.41 9  134  51 
                                                                                
 2020  1 1 0148 18.7 L  36.145  51.695  8.0  New  7 0.7                        1
 GAP=206        1.73       5.8     4.0  9.9  0.2464E+01 -0.1643E+02 -0.1846E+01E
 Action:ARG 22-06-18 17:45 OP:OBSP STATUS:               ID:20200101014820     I
 STAT SP IPHASW D HRMM SECON CODA AMPLIT PERI AZIMU VELO AIN AR TRES W  DIS CAZ7
 EVSP    EP   0    14827.676                              68   -0.6710 46.1 290 
 EVSP    ES   0    14835.830                              68    0.2510 46.1 290 
 TVCN    EP   0    14829.390                              68    0.8610 47.1  75 
 TVCN    ES   0    14835.186                              68   -0.7110 47.1  75 
 YIBA    EP   0    14833.943                              68    0.8610 71.7  28 
 YIBA    ES   0    14843.309                              68   -0.5510 71.7  28 
 XIVZ    EP   0    14837.086                              56   -0.0910 94.2  18 
 XIVZ    ES   0    14851.337                              56    0.3110 94.2  18 
 ZSCP    EP   0    14838.153                              47   -1.38 9  109  85 
 ZSCP    ES   0    14856.193                              47    1.04 9  109  85 
 RVDG    EP   0    14840.240                              47    0.38 9  111  75 
 RVDG    ES   0    14855.509                              47   -0.22 9  111  75 
 YAIP    EP   0    14850.638                              47    0.39 7  182  63 
 YAIP    ES   0    14913.383                              47   -0.53 7  182  63 
                                                                                
 2020  1 1 0150  0.5 L  35.860  52.034 10.0  New  7 0.9                        1
 GAP=283        2.26       9.2    12.1  9.2  0.1904E+02 -0.4366E+02  0.3411E+02E
 Action:ARG 22-06-18 17:45 OP:OBSP STATUS:               ID:20200101015000     I
 STAT SP IPHASW D HRMM SECON CODA AMPLIT PERI AZIMU VELO AIN AR TRES W  DIS CAZ7
 SRWZ    EP   0    150 4.676                             113   -0.4810 20.1   0 
 SRWZ    ES   0    150 9.863                             113    1.2110 20.1   0 
 TVCN    EP   0    150 8.520                              68   -1.5210 46.5  19 
 TVCN    ES   0    15015.665                              68   -1.5510 46.5  19 
 YXLK    EP   0    15017.080                              68    1.0310 78.9  21 
 YXLK    ES   0    15028.435                              68    0.7210 78.9  21 
 RVDG    EP   0    15019.209                              56   -0.04 9 97.3  52 
 RVDG    ES   0    15033.787                              56    0.46 9 97.3  52 
 XIVZ    EP   0    15023.041                              47    0.21 9  121 360 
 XIVZ    ES   0    15039.495                              47   -0.10 9  121 360 
 ZGXN    EP   0    15030.877                              47    1.41 8  166  77 
 ZGXN    ES   0    15050.674                              47   -0.52 8  166  77 
 YAIP    EP   0    15029.753                              47   -0.81 8  174  50 
 YAIP    ES   0    15053.289                              47    0.16 8  174  50 
                                                                                
 2020  1 1 0151 40.6 L  36.173  51.813  5.2  New  4 0.7                        1
 GAP=297        1.73       8.6    14.5 18.1  0.5499E+02 -0.1727E+03 -0.3069E+02E
 Action:ARG 22-06-18 17:45 OP:OBSP STATUS:               ID:20200101015140     I
 STAT SP IPHASW D HRMM SECON CODA AMPLIT PERI AZIMU VELO AIN AR TRES W  DIS CAZ7
 YXLK    EP   0    15154.142                              68    0.7610 62.2  51 
 YXLK    ES   0    152 2.611                              68   -0.3910 62.2  51 
 XIVZ    EP   0    15157.173                              68   -1.0610 88.4  12 
 XIVZ    ES   0    15212.062                              68    0.5810 88.4  12 
 RVDG    EP   0    152 1.139                              56    0.83 9  100  76 
 RVDG    ES   0    15214.568                              56   -0.55 9  100  76 
 YAIP    EP   0    15210.073                              47   -0.80 8  171  63 
 YAIP    ES   0    15234.152                              47    0.54 8  171  63 
                                                                                
 2020  1 1 0153 20.4 L  35.922  52.250  2.4  New  4 0.7                        1
 GAP=256        1.69      13.5    10.7 18.8  0.1040E+03 -0.1823E+03 -0.2046E+03E
 Action:ARG 22-06-18 17:45 OP:OBSP STATUS:               ID:20200101015320     I
 STAT SP IPHASW D HRMM SECON CODA AMPLIT PERI AZIMU VELO AIN AR TRES W  DIS CAZ7
 SRWZ    EP   0    15326.814                              64    1.2010 23.4 304 
 SRWZ    ES   0    15329.073                              64   -0.4710 23.4 304 
 YXLK    EP   0    15334.134                              64   -0.2310 67.1   8 
 YXLK    ES   0    15344.759                              64   -0.0810 67.1   8 
 RVDG    EP   0    15335.788                              56   -0.6210 77.9  48 
 RVDG    ES   0    15349.105                              56    0.6810 77.9  48 
 YIBA    EP   0    15337.695                              56   -0.8710 89.5 350 
 YIBA    ES   0    15352.556                              56    0.3610 89.5 350 
                                                                                
 2020  1 1 0154 59.9 L  35.748  52.116 10.0  New  9 0.7                        1
 GAP=235        1.68       5.6     5.2  7.8  0.6318E+01 -0.8224E+01 -0.6382E+01E
 Action:ARG 22-06-18 17:45 OP:OBSP STATUS:               ID:20200101015500     I
 STAT SP IPHASW D HRMM SECON CODA AMPLIT PERI AZIMU VELO AIN AR TRES W  DIS CAZ7
 SRWZ    EP   0    155 6.914                              68    0.0210 33.3 347 
 SRWZ    ES   0    15511.118                              68   -1.0010 33.3 347 
 TVCN    EP   0    15511.759                              68    0.4910 56.9   8 
 TVCN    ES   0    15519.932                              68    0.1610 56.9   8 
 YXLK    EP   0    15517.338                              56    0.3410 88.5  14 
 YXLK    ES   0    15529.450                              56   -0.3510 88.5  14 
 RVDG    EP   0    15517.909                              47   -1.00 9  100  44 
 RVDG    ES   0    15532.943                              47   -0.19 9  100  44 
 EVSP    EP   0    15519.686                              47    0.62 9  101 307 
 EVSP    ES   0    15532.597                              47   -0.81 9  101 307 
 YIBA    EP   0    15520.846                              47    0.85 9  107 358 
 YIBA    ES   0    15536.468                              47    1.42 9  107 358 
 XIVZ    EP   0    15522.813                              47   -1.05 9  134 356 
 XIVZ    ES   0    15542.461                              47    0.65 9  134 356 
 ZGXN    EP   0    15528.168                              47    0.09 8  162  72 
 ZGXN    ES   0    15549.167                              47   -0.02 8  162  72 
 YAIP    EP   0    15530.365                              47    0.19 8  177  45 
 YAIP    ES   0    15552.467                              47   -0.38 8  177  45 
                                                                                
 2020  1 1 0156 40.6 L  36.001  52.151 18.1  New  9 1.1                        1
 GAP=209        2.79       7.9     6.6  5.4  0.1098E+01 -0.1213E+02 -0.4382E+01E
 Action:ARG 22-06-18 17:45 OP:OBSP STATUS:               ID:20200101015640     I
 STAT SP IPHASW D HRMM SECON CODA AMPLIT PERI AZIMU VELO AIN AR TRES W  DIS CAZ7
 SRWZ    EP   0    15644.508                             146   -0.3510 11.3 293 
 SRWZ    ES   0    15648.973                             146    0.9410 11.3 293 
 TVCN    EP   0    15647.984                             117    0.6710 28.7   9 
 TVCN    ES   0    15652.953                             117    0.6210 28.7   9 
 YXLK    EP   0    15653.945                              64    1.3310 60.6  18 
 YXLK    ES   0    15659.815                              64   -1.7910 60.6  18 
 ZSCP    EP   0    15652.751                              64   -1.7910 72.2  69 
 ZSCP    ES   0    157 4.355                              64   -0.6310 72.2  69 
 YIBA    EP   0    15654.409                              64   -1.3810 79.7 355 
 YIBA    ES   0    157 7.640                              64    0.4810 79.7 355 
 EVSP    EP   0    15656.197                              53   -1.3210 90.2 291 
 EVSP    ES   0    15710.641                              53    0.4610 90.2 291 
 XIVZ    EP   0    15659.285                              53   -0.56 9  106 354 
 XIVZ    ES   0    15714.931                              53    0.68 9  106 354 
 ZGXN    EP   0    157 7.108                              53    0.38 8  153  82 
 ZGXN    ES   0    15728.665                              53    2.37 8  153  82 
 YAIP    EP   0    157 7.724                              53    0.60 8  156  52 
 YAIP    ES   0    15727.519                              53    0.52 8  156  52 
                                                                                
 2020  1 1 0158 21.2 L  36.024  52.022  8.8  New  4 0.6                        1
 GAP=305        1.36       9.0    13.3  4.4  0.7377E+02 -0.3386E+02 -0.3101E+02E
 Action:ARG 22-06-18 17:45 OP:OBSP STATUS:               ID:20200101015820     I
 STAT SP IPHASW D HRMM SECON CODA AMPLIT PERI AZIMU VELO AIN AR TRES W  DIS CAZ7
 SRWZ    EP   0    15823.842                             165    0.7210 2.20  31 
 SRWZ    ES   0    15824.250                             165   -0.3110 2.20  31 
 YIBA    EP   0    15836.367                              68   -0.1110 76.9   3 
 YIBA    ES   0    15847.521                              68   -0.4110 76.9   3 
 XIVZ    EP   0    15840.481                              56   -0.55 9  103   0 
 XIVZ    ES   0    15856.754                              56    0.86 9  103   0 
 YAIP    EP   0    15849.200                              47   -0.72 8  163  55 
 YAIP    ES   0    15911.892                              47    0.44 8  163  55 
                                                                                
 2020  1 1 0200  1.0 L  36.168  52.211 10.2  New  6 0.7                        1
 GAP=195        1.86       5.9     4.2  9.0  0.5513E+01  0.1478E+02  0.1237E+01E
 Action:ARG 22-06-18 17:45 OP:OBSP STATUS:               ID:20200101020000     I
 STAT SP IPHASW D HRMM SECON CODA AMPLIT PERI AZIMU VELO AIN AR TRES W  DIS CAZ7
 YIBA    EP   0    2 013.733                              90    0.3210 62.1 348 
 YIBA    ES   0    2 021.810                              90   -0.9410 62.1 348 
 ZSCP    EP   0    2 012.165                              90   -1.3210 62.5  83 
 ZSCP    ES   0    2 022.344                              90   -0.5410 62.5  83 
 RVDG    EP   0    2 014.812                              90    0.6410 66.2  68 
 RVDG    ES   0    2 025.248                              90    1.1710 66.2  68 
 XIVZ    EP   0    2 018.674                              64    0.4310 88.5 349 
 XIVZ    ES   0    2 031.510                              64    0.3110 88.5 349 
 EVSP    EP   0    2 019.152                              64    0.5610 90.6 279 
 EVSP    ES   0    2 031.506                              64   -0.3110 90.6 279 
 YAIP    EP   0    2 026.432                              53    0.32 8  140  56 
 YAIP    ES   0    2 044.306                              53   -0.67 8  140  56 
                                                                                
 2020  1 1 0201 38.8 L  36.013  52.127  7.4  New  4 0.5                        1
 GAP=208        1.31       5.6     3.8  4.3 -0.7551E+01 -0.8004E+01  0.1007E+02E
 Action:ARG 22-06-18 17:45 OP:OBSP STATUS:               ID:20200101020140     I
 STAT SP IPHASW D HRMM SECON CODA AMPLIT PERI AZIMU VELO AIN AR TRES W  DIS CAZ7
 SRWZ    EP   0    2 141.733                             126    0.4510 8.85 290 
 SRWZ    ES   0    2 142.624                             126   -0.4910 8.85 290 
 TVCN    EP   0    2 144.654                             100   -0.1910 27.8  14 
 TVCN    ES   0    2 149.510                             100    0.1610 27.8  14 
 EVSP    EP   0    2 157.193                              68    0.9710 87.7 291 
 EVSP    ES   0    2 2 8.746                              68   -0.5110 87.7 291 
 ZGXN    EP   0    2 2 5.765                              47   -0.72 8  155  82 
 ZGXN    ES   0    2 227.392                              47    0.17 8  155  82 
                                                                                
 2020  1 1 0203 19.2 L  36.105  52.024 18.2  New  6 1.1                        1
 GAP=188        2.77       9.5    14.3 10.1 -0.2726E+02  0.7076E+01 -0.6571E+02E
 Action:ARG 22-06-18 17:45 OP:OBSP STATUS:               ID:20200101020320     I
 STAT SP IPHASW D HRMM SECON CODA AMPLIT PERI AZIMU VELO AIN AR TRES W  DIS CAZ7
 SRWZ    EP   0    2 323.547                             154    0.4810 7.17 172 
 SRWZ    ES   0    2 326.624                             154    0.6610 7.17 172 
 TVCN    EP   0    2 324.080                             113   -0.9310 23.1  43 
 TVCN    ES   0    2 329.715                             113    0.3510 23.1  43 
 YXLK    EP   0    2 327.602                              90   -2.6710 55.0  33 
 YXLK    ES   0    2 338.713                              90    0.1410 55.0  33 
 YIBA    EP   0    2 332.712                              90    0.2910 67.9   3 
 YIBA    ES   0    2 342.825                              90    0.4910 67.9   3 
 XIVZ    EP   0    2 336.173                              62   -0.4710 93.9   0 
 XIVZ    ES   0    2 350.675                              62    0.9610 93.9   0 
 YAIP    EP   0    2 345.301                              62   -0.80 8  158  57 
 YAIP    ES   0    2 4 8.229                              62    1.96 8  158  57 
                                                                                
 2020  1 1 0205  0.3 L  36.160  52.051 17.3  New 10 1.2                        1
 GAP= 98        3.13       6.9     6.2  6.5 -0.8048E+00 -0.3635E+01 -0.2239E+02E
 Action:ARG 22-06-18 17:45 OP:OBSP STATUS:               ID:20200101020500     I
 STAT SP IPHASW D HRMM SECON CODA AMPLIT PERI AZIMU VELO AIN AR TRES W  DIS CAZ7
 SRWZ    EP   0    2 5 3.781                             140   -0.8710 13.2 186 
 SRWZ    ES   0    2 5 8.214                             140    0.3210 13.2 186 
 TVCN    EP   0    2 5 4.054                             131   -1.1110 17.2  51 
 TVCN    ES   0    2 5 9.295                             131    0.5110 17.2  51 
 YXLK    EP   0    2 512.888                              64    2.5010 48.6  34 
 YXLK    ES   0    2 517.580                              64   -0.3410 48.6  34 
 YIBA    EP   0    2 511.797                              64   -0.7810 61.7   1 
 YIBA    ES   0    2 522.538                              64    0.7810 61.7   1 
 EVSP    EP   0    2 515.847                              64    0.7810 76.7 281 
 EVSP    ES   0    2 525.657                              64   -0.4610 76.7 281 
 ZSCP    EP   0    2 515.943                              64    0.8510 76.8  84 
 ZSCP    ES   0    2 526.969                              64    0.8010 76.8  84 
 RVDG    EP   0    2 512.906                              64   -2.7110 79.9  71 
 RVDG    ES   0    2 527.534                              64    0.4610 79.9  71 
 XIVZ    EP   0    2 517.519                              64    0.5910 87.8 358 
 XIVZ    ES   0    2 528.470                              64   -0.9110 87.8 358 
 YAIP    EP   0    2 527.507                              53    0.97 8  153  59 
 YAIP    ES   0    2 543.834                              53   -2.35 8  153  59 
 ZGXN    EP   0    2 529.107                              53    1.49 8  160  88 
 ZGXN    ES   0    2 547.319                              53   -0.76 8  160  88 
                                                                                
 2020  1 1 0206 41.8 L  35.491  51.905 37.5  New  7 0.8                        1
 GAP=305        1.87      12.8    15.9 13.7 -0.4670E+02 -0.1161E+03  0.1076E+03E
 Action:ARG 22-06-18 17:45 OP:OBSP STATUS:               ID:20200101020640     I
 STAT SP IPHASW D HRMM SECON CODA AMPLIT PERI AZIMU VELO AIN AR TRES W  DIS CAZ7
 SRWZ    EP   0    2 654.323                             110    0.0410 62.1  11 
 SRWZ    ES   0    2 7 3.797                             110    0.1710 62.1  11 
 TVCN    EP   0    2 658.899                             102    0.8110 89.0  17 
 TVCN    ES   0    2 710.044                             102   -0.2510 89.0  17 
 YXLK    EP   0    2 7 1.404                              98   -1.38 9  121  19 
 YXLK    ES   0    2 719.336                              98    0.83 9  121  19 
 ZSCP    EP   0    2 7 3.713                              97    0.86 9  122  47 
 ZSCP    ES   0    2 718.113                              97   -0.51 9  122  47 
 RVDG    EP   0    2 7 5.120                              97    0.49 9  134  41 
 RVDG    ES   0    2 720.578                              97   -1.15 9  134  41 
 ZGXN    EP   0    2 711.865                              57   -1.05 7  191  65 
 ZGXN    ES   0    2 737.769                              57    1.53 7  191  65 
 YAIP    EP   0    2 714.580                              57   -0.78 7  210  43 
 YAIP    ES   0    2 740.563                              57    0.05 7  210  43 
                                                                                
