 2020  1 1 0043 20.8 L  35.946  52.039 14.1  New  7 1.0                        1
 GAP=217        2.33       8.7     5.8  8.8  0.2000E+01 -0.7227E+00  0.1989E+02E
 Action:ARG 22-06-18 17:45 OP:OBSP STATUS:               ID:20200101004320     I
 STAT SP IPHASW D HRMM SECON CODA AMPLIT PERI AZIMU VELO AIN AR TRES W  DIS CAZ7
 TVCN    EP   0    04329.246                             102    0.4510 37.4  23 
 TVCN    ES   0    04333.638                             102   -1.1310 37.4  23 
 YXLK    EP   0    04335.758                              64    1.0510 69.9  24 
 YXLK    ES   0    04345.855                              64    0.7410 69.9  24 
 EVSP    EP   0    04335.725                              64   -1.2310 83.5 297 
 EVSP    ES   0    04349.546                              64    0.4910 83.5 297 
 ZSCP    EP   0    04337.455                              64    0.4310 83.9  68 
 ZSCP    ES   0    04348.625                              64   -0.5510 83.9  68 
 XIVZ    EP   0    04342.002                              53    0.68 9  112 359 
 XIVZ    ES   0    04356.777                              53    0.10 9  112 359 
 ZGXN    EP   0    04349.002                              53   -0.00 8  164  80 
 ZGXN    ES   0    04411.717                              53    1.59 8  164  80 
 YAIP    EP   0    04347.493                              53   -2.02 8  167  52 
 YAIP    ES   0    044 9.883                              53   -1.15 8  167  52 
                                                                                
 2020  1 1 0044 59.5 L  35.904  51.766  3.7  New  9 1.0                        1
 GAP=291        2.36       8.2    10.2 10.0  0.1445E+02 -0.2994E+02 -0.1655E+02E
 Action:ARG 22-06-18 17:45 OP:OBSP STATUS:               ID:20200101004500     I
 STAT SP IPHASW D HRMM SECON CODA AMPLIT PERI AZIMU VELO AIN AR TRES W  DIS CAZ7
 SRWZ    EP   0    045 5.537                              64   -0.1110 28.6  58 
 SRWZ    ES   0    045 9.064                              64   -1.1910 28.6  58 
 TVCN    EP   0    04511.925                              64    0.9410 55.3  45 
 TVCN    ES   0    04520.922                              64    1.3210 55.3  45 
 YXLK    EP   0    04517.119                              56    0.1310 86.7  38 
 YXLK    ES   0    04528.878                              56   -1.2210 86.7  38 
 YIBA    EP   0    04518.916                              56    0.5510 94.1  17 
 YIBA    ES   0    04532.903                              56    0.3910 94.1  17 
 ZSCP    EP   0    04520.299                              49   -0.54 9  109  70 
 ZSCP    ES   0    04535.543                              49   -1.29 9  109  70 
 RVDG    EP   0    04522.257                              41    0.44 9  115  62 
 RVDG    ES   0    04540.471                              41    1.93 9  115  62 
 XIVZ    EP   0    04520.649                              41   -1.68 9  118  11 
 XIVZ    ES   0    04539.280                              41   -0.16 9  118  11 
 ZGXN    EP   0    04532.581                              41   -0.10 7  189  80 
 ZGXN    ES   0    04558.498                              41    0.95 7  189  80 
 YAIP    EP   0    04533.010                              41    0.18 7  190  55 
 YAIP    ES   0    04557.349                              41   -0.47 7  190  55 
                                                                                
 2020  1 1 0046 40.4 L  36.134  51.972 10.0  New  9 1.0                        1
 GAP=133        2.52       5.2     5.6  7.8  0.8609E+01 -0.1919E+02 -0.1940E+02E
 Action:ARG 22-06-18 17:45 OP:OBSP STATUS:               ID:20200101004640     I
 STAT SP IPHASW D HRMM SECON CODA AMPLIT PERI AZIMU VELO AIN AR TRES W  DIS CAZ7
 SRWZ    EP   0    04643.106                             128   -0.5510 11.8 151 
 SRWZ    ES   0    04647.390                             128    1.3110 11.8 151 
 YXLK    EP   0    04650.408                              68   -1.1610 55.1  39 
 YXLK    ES   0    047 1.760                              68    1.8310 55.1  39 
 YIBA    EP   0    04653.076                              68   -0.3510 65.1   8 
 YIBA    ES   0    047 1.788                              68   -1.3910 65.1   8 
 EVSP    EP   0    04654.847                              68    0.4510 70.3 284 
 EVSP    ES   0    047 4.553                              68   -0.3110 70.3 284 
 ZSCP    EP   0    04656.233                              68   -0.7510 84.3  82 
 ZSCP    ES   0    047 8.640                              68   -0.7610 84.3  82 
 RVDG    EP   0    04658.066                              56    0.4910 87.6  71 
 RVDG    ES   0    047 9.771                              56   -0.6610 87.6  71 
 XIVZ    EP   0    04658.047                              56   -0.0510 90.7   3 
 XIVZ    ES   0    04713.232                              56    1.8910 90.7   3 
 YAIP    EP   0    047 7.960                              47   -0.60 8  160  59 
 YAIP    ES   0    04730.446                              47    0.78 8  160  59 
 ZGXN    EP   0    047 8.695                              47   -0.90 8  167  87 
 ZGXN    ES   0    04732.311                              47    0.84 8  167  87 
                                                                                
 2020  1 1 0048 18.5 L  36.166  52.297 12.8  New  4 0.6                        1
 GAP=294        1.56       7.0    12.9  4.6 -0.4416E+02  0.2734E+01  0.6679E+01E
 Action:ARG 22-06-18 17:45 OP:OBSP STATUS:               ID:20200101004820     I
 STAT SP IPHASW D HRMM SECON CODA AMPLIT PERI AZIMU VELO AIN AR TRES W  DIS CAZ7
 TVCN    EP   0    04821.073                             128   -1.1410 13.2 319 
 TVCN    ES   0    04825.700                             128    0.6810 13.2 319 
 YIBA    EP   0    04831.950                              94    0.6010 64.3 342 
 YIBA    ES   0    04840.621                              94   -0.3910 64.3 342 
 XIVZ    EP   0    04835.785                              64   -0.0910 90.5 344 
 XIVZ    ES   0    04849.026                              64    0.1010 90.5 344 
 EVSP    EP   0    04837.857                              53    0.70 9 98.3 278 
 EVSP    ES   0    04850.766                              53   -0.41 9 98.3 278 
                                                                                
 2020  1 1 0049 59.9 L  36.171  52.113  8.0  New  8 0.9                        1
 GAP=117        2.29       4.1     4.5  5.3 -0.4911E+01 -0.2905E+01 -0.5749E+01E
 Action:ARG 22-06-18 17:45 OP:OBSP STATUS:               ID:20200101005000     I
 STAT SP IPHASW D HRMM SECON CODA AMPLIT PERI AZIMU VELO AIN AR TRES W  DIS CAZ7
 TVCN    EP   0    050 3.072                             119    0.1010 12.4  40 
 TVCN    ES   0    050 5.242                             119   -0.0510 12.4  40 
 SRWZ    EP   0    050 2.523                             112   -1.1110 16.0 206 
 SRWZ    ES   0    050 7.128                             112    0.6810 16.0 206 
 YXLK    EP   0    050 9.491                              96    0.2710 44.6  29 
 YXLK    ES   0    05017.744                              96    1.5010 44.6  29 
 YIBA    EP   0    05011.808                              68   -0.3810 60.6 356 
 YIBA    ES   0    05020.249                              68   -1.1810 60.6 356 
 ZSCP    EP   0    05012.650                              68   -1.5010 71.2  84 
 ZSCP    ES   0    05026.079                              68    1.2110 71.2  84 
 EVSP    EP   0    05016.049                              68   -0.0810 81.9 279 
 EVSP    ES   0    05029.194                              68    0.8710 81.9 279 
 YAIP    EP   0    05026.418                              47    0.05 8  148  58 
 YAIP    ES   0    05045.590                              47   -0.66 8  148  58 
 ZGXN    EP   0    05028.479                              47    1.06 8  155  89 
 ZGXN    ES   0    05047.188                              47   -0.89 8  155  89 
                                                                                
 2020  1 1 0051 40.2 L  36.298  51.837  6.9  New  8 1.0                        1
 GAP=121        2.57       5.8     4.7  9.9  0.1134E+01  0.3801E+00 -0.3256E+02E
 Action:ARG 22-06-18 17:45 OP:OBSP STATUS:               ID:20200101005140     I
 STAT SP IPHASW D HRMM SECON CODA AMPLIT PERI AZIMU VELO AIN AR TRES W  DIS CAZ7
 TVCN    EP   0    05145.901                              97   -1.3210 32.9  98 
 TVCN    ES   0    05154.108                              97    1.6310 32.9  98 
 SRWZ    EP   0    05145.362                              96   -1.9810 33.6 148 
 SRWZ    ES   0    05153.169                              96    0.4710 33.6 148 
 YXLK    EP   0    05151.331                              68    0.1810 52.8  62 
 YXLK    ES   0    05159.371                              68    0.0010 52.8  62 
 EVSP    EP   0    05153.557                              68    1.8010 56.0 269 
 EVSP    ES   0    05159.897                              68   -0.5310 56.0 269 
 XIVZ    EP   0    05155.742                              68    0.5810 74.4  13 
 XIVZ    ES   0    052 5.557                              68   -0.8310 74.4  13 
 RVDG    EP   0    05158.143                              56   -0.8510 95.4  83 
 RVDG    ES   0    05213.272                              56    0.1810 95.4  83 
 ZSCP    EP   0    05159.995                              56    0.9210 95.9  94 
 ZSCP    ES   0    05212.931                              56   -0.3010 95.9  94 
 YAIP    EP   0    052 9.180                              47    0.04 8  163  67 
 YAIP    ES   0    05230.892                              47    0.05 8  163  67 
                                                                                
 2020  1 1 0053 19.9 L  35.937  52.110  9.1  New  4 0.6                        1
 GAP=275        1.49       9.3     7.4  5.5  0.3328E+02 -0.2547E+02 -0.1865E+02E
 Action:ARG 22-06-18 17:45 OP:OBSP STATUS:               ID:20200101005320     I
 STAT SP IPHASW D HRMM SECON CODA AMPLIT PERI AZIMU VELO AIN AR TRES W  DIS CAZ7
 SRWZ    EP   0    05323.179                             121   -0.1210 13.3 330 
 SRWZ    ES   0    05325.448                             121   -0.3910 13.3 330 
 YIBA    EP   0    05337.730                              68    0.7910 86.5 358 
 YIBA    ES   0    05350.537                              68    0.8310 86.5 358 
 RVDG    EP   0    05337.146                              68    0.1610 86.7  54 
 RVDG    ES   0    05349.399                              68   -0.3810 86.7  54 
 XIVZ    EP   0    05341.306                              47    0.15 9  113 356 
 XIVZ    ES   0    05355.969                              47   -1.12 9  113 356 
                                                                                
 2020  1 1 0054 59.2 L  35.950  52.122  9.7  New  4 0.9                        1
 GAP=215        2.07       9.5     6.2 15.7 -0.7215E+01 -0.2103E+02  0.3345E+02E
 Action:ARG 22-06-18 17:45 OP:OBSP STATUS:               ID:20200101005500     I
 STAT SP IPHASW D HRMM SECON CODA AMPLIT PERI AZIMU VELO AIN AR TRES W  DIS CAZ7
 YXLK    EP   0    05513.838                              68    1.2710 66.8  18 
 YXLK    ES   0    05521.872                              68   -0.7010 66.8  18 
 EVSP    EP   0    05517.191                              56    0.3810 90.0 295 
 EVSP    ES   0    05529.787                              56   -0.2110 90.0 295 
 ZGXN    EP   0    05525.430                              47   -1.37 8  156  80 
 ZGXN    ES   0    05548.326                              47    0.85 8  156  80 
 YAIP    EP   0    05526.315                              47   -1.19 8  161  51 
 YAIP    ES   0    05549.306                              47    0.59 8  161  51 
                                                                                
 2020  1 1 0056 40.0 L  36.340  52.240 11.8  New  8 1.0                        1
 GAP=105        2.58       3.8     6.1  6.3 -0.5024E+01 -0.9186E+01 -0.1885E+01E
 Action:ARG 22-06-18 17:45 OP:OBSP STATUS:               ID:20200101005640     I
 STAT SP IPHASW D HRMM SECON CODA AMPLIT PERI AZIMU VELO AIN AR TRES W  DIS CAZ7
 TVCN    EP   0    05643.468                             135    0.3410 9.92 201 
 TVCN    ES   0    05644.759                             135   -0.7410 9.92 201 
 YXLK    EP   0    05644.408                             107   -0.7710 22.6  27 
 YXLK    ES   0    05650.239                             107    1.1610 22.6  27 
 SRWZ    EP   0    05649.373                              96    1.4110 37.9 209 
 SRWZ    ES   0    05653.102                              96   -0.8510 37.9 209 
 YIBA    EP   0    05650.168                              94    1.0110 44.4 340 
 YIBA    ES   0    05654.959                              94   -1.0910 44.4 340 
 XIVZ    EP   0    05653.837                              92   -0.1410 70.5 344 
 XIVZ    ES   0    057 4.190                              92   -0.3010 70.5 344 
 EVSP    EP   0    057 0.005                              64    2.2410 92.4 267 
 EVSP    ES   0    05710.197                              64   -0.9110 92.4 267 
 YAIP    EP   0    057 2.277                              53   -0.90 9  128  63 
 YAIP    ES   0    05720.498                              53   -0.08 9  128  63 
 ZGXN    EP   0    057 4.342                              53   -1.14 8  144  96 
 ZGXN    ES   0    05725.035                              53    0.41 8  144  96 
                                                                                
 2020  1 1 0058 18.8 L  35.689  52.499  2.4  New  8 0.7                        1
 GAP=235        1.81       6.5     4.3  7.6 -0.2372E+01  0.2089E+01 -0.1024E+02E
 Action:ARG 22-06-18 17:45 OP:OBSP STATUS:               ID:20200101005820     I
 STAT SP IPHASW D HRMM SECON CODA AMPLIT PERI AZIMU VELO AIN AR TRES W  DIS CAZ7
 SRWZ    EP   0    05829.728                              64   -1.0210 57.2 313 
 SRWZ    ES   0    05839.868                              64    0.1310 57.2 313 
 ZSCP    EP   0    05832.515                              64   -0.8310 70.2  31 
 ZSCP    ES   0    05843.778                              64   -0.5110 70.2  31 
 RVDG    EP   0    05836.856                              56    0.6410 85.7  24 
 RVDG    ES   0    05849.337                              56    0.0210 85.7  24 
 YXLK    EP   0    05838.910                              56    1.2910 93.2 352 
 YXLK    ES   0    05852.296                              56    0.5410 93.2 352 
 YIBA    EP   0    05841.809                              41   -0.25 9  120 341 
 YIBA    ES   0    05859.362                              41   -0.18 9  120 341 
 ZGXN    EP   0    05845.098                              41    1.23 9  133  65 
 ZGXN    ES   0    059 2.134                              41   -0.56 9  133  65 
 EVSP    EP   0    05843.027                              41   -0.99 9  134 300 
 EVSP    ES   0    059 3.456                              41    0.49 9  134 300 
 XIVZ    EP   0    05846.685                              41    0.79 8  146 343 
 XIVZ    ES   0    059 5.690                              41   -0.56 8  146 343 
                                                                                
 2020  1 1 0100  0.1 L  35.888  51.645 11.5  New  8 0.7                        1
 GAP=239        1.75       7.8     4.6  5.7  0.1247E+02 -0.5425E+01 -0.6030E+01E
 Action:ARG 22-06-18 17:45 OP:OBSP STATUS:               ID:20200101010000     I
 STAT SP IPHASW D HRMM SECON CODA AMPLIT PERI AZIMU VELO AIN AR TRES W  DIS CAZ7
 SRWZ    EP   0    1 0 9.143                              95    0.8610 39.1  64 
 SRWZ    ES   0    1 013.644                              95   -0.7910 39.1  64 
 EVSP    EP   0    1 012.648                              92    0.6810 59.1 319 
 EVSP    ES   0    1 019.706                              92   -1.1810 59.1 319 
 TVCN    EP   0    1 012.709                              92   -0.3010 64.7  51 
 TVCN    ES   0    1 023.436                              92    0.7410 64.7  51 
 YXLK    EP   0    1 018.385                              64    0.0410 95.1  42 
 YXLK    ES   0    1 031.525                              64   -0.5210 95.1  42 
 YIBA    EP   0    1 019.467                              53    0.39 9 99.5  22 
 YIBA    ES   0    1 033.117                              53   -0.20 9 99.5  22 
 XIVZ    EP   0    1 023.246                              53    0.74 9  123  16 
 XIVZ    ES   0    1 040.387                              53    1.06 9  123  16 
 RVDG    EP   0    1 022.963                              53    0.05 9  126  63 
 RVDG    ES   0    1 039.360                              53   -0.67 9  126  63 
 ZGXN    EP   0    1 032.618                              53   -1.24 7  200  80 
 ZGXN    ES   0    1 059.056                              53   -0.13 7  200  80 
                                                                                
 2020  1 1 0101 39.2 L  36.205  52.017 16.1  New  6 0.8                        1
 GAP=186        2.06       5.6     7.5  5.8  0.2872E+01 -0.1090E+02 -0.1925E+02E
 Action:ARG 22-06-18 17:45 OP:OBSP STATUS:               ID:20200101010140     I
 STAT SP IPHASW D HRMM SECON CODA AMPLIT PERI AZIMU VELO AIN AR TRES W  DIS CAZ7
 TVCN    EP   0    1 144.563                             128    0.6010 17.4  71 
 TVCN    ES   0    1 147.157                             128   -0.3510 17.4  71 
 SRWZ    EP   0    1 145.548                             127    1.4610 18.3 175 
 SRWZ    ES   0    1 146.473                             127   -1.2610 18.3 175 
 ZSCP    EP   0    1 154.415                              64   -0.1210 79.6  88 
 ZSCP    ES   0    1 2 5.612                              64   -0.4110 79.6  88 
 RVDG    EP   0    1 156.213                              64    1.3610 81.4  75 
 RVDG    ES   0    1 2 6.669                              64    0.1110 81.4  75 
 XIVZ    EP   0    1 154.252                              64   -0.8210 82.7   0 
 XIVZ    ES   0    1 2 6.995                              64    0.0510 82.7   0 
 YAIP    EP   0    1 2 4.886                              53   -0.70 8  153  61 
 YAIP    ES   0    1 225.124                              53   -0.22 8  153  61 
                                                                                
