 2020  1 1 0021 39.5 L  35.864  52.189 12.3  New  7 1.1                        1
 GAP=223        2.63       9.7     7.5 10.4  0.1389E+02  0.3121E+02  0.2379E+02E
 Action:ARG 22-06-18 17:45 OP:OBSP STATUS:               ID:20200101002140     I
 STAT SP IPHASW D HRMM SECON CODA AMPLIT PERI AZIMU VELO AIN AR TRES W  DIS CAZ7
 YXLK    EP   0    02154.110                              92   -0.1110 74.5  12 
 YXLK    ES   0    022 6.444                              92    1.1710 74.5  12 
 ZSCP    EP   0    02155.047                              64    0.5510 76.0  57 
 ZSCP    ES   0    022 7.040                              64    1.2810 76.0  57 
 YIBA    EP   0    02156.127                              64   -1.5610 95.1 354 
 YIBA    ES   0    022 9.715                              64   -1.6310 95.1 354 
 EVSP    EP   0    02159.122                              53    0.71 9 99.7 299 
 EVSP    ES   0    02213.951                              53    1.34 9 99.7 299 
 XIVZ    EP   0    022 0.037                              53   -1.59 9  122 353 
 XIVZ    ES   0    02218.949                              53    0.71 9  122 353 
 ZGXN    EP   0    022 6.147                              53   -0.02 8  152  76 
 ZGXN    ES   0    02225.799                              53   -0.40 8  152  76 
 YAIP    EP   0    022 6.411                              53   -1.30 8  163  47 
 YAIP    ES   0    02228.874                              53   -0.02 8  163  47 
                                                                                
 2020  1 1 0023 21.9 L  35.835  52.007  7.5  New  6 0.9                        1
 GAP=229        2.08       8.9     6.5 15.4  0.1284E+02 -0.5342E+02 -0.3017E+02E
 Action:ARG 22-06-18 17:45 OP:OBSP STATUS:               ID:20200101002320     I
 STAT SP IPHASW D HRMM SECON CODA AMPLIT PERI AZIMU VELO AIN AR TRES W  DIS CAZ7
 YXLK    EP   0    02337.615                              68   -0.6510 82.4  22 
 YXLK    ES   0    02350.597                              68    0.0410 82.4  22 
 EVSP    EP   0    02339.337                              68    0.1310 87.5 305 
 EVSP    ES   0    02351.620                              68   -0.5910 87.5 305 
 YIBA    EP   0    02343.370                              56    2.3610 97.9   3 
 YIBA    ES   0    02355.354                              56   -0.0110 97.9   3 
 RVDG    EP   0    02340.994                              56   -0.5210  101  52 
 RVDG    ES   0    02356.007                              56   -0.2310  101  52 
 ZGXN    EP   0    02351.720                              47    0.09 8  169  76 
 ZGXN    ES   0    02414.729                              47    0.79 8  169  76 
 YAIP    EP   0    02351.635                              47   -1.19 8  177  49 
 YAIP    ES   0    02415.575                              47   -0.46 8  177  49 
                                                                                
 2020  1 1 0024 57.9 L  36.016  51.991 10.0  New  4 0.9                        1
 GAP=258        2.32      29.6    12.9 30.7 -0.3311E+03  0.2855E+03 -0.7562E+03E
 Action:ARG 22-06-18 17:45 OP:OBSP STATUS:               ID:20200101002500     I
 STAT SP IPHASW D HRMM SECON CODA AMPLIT PERI AZIMU VELO AIN AR TRES W  DIS CAZ7
 TVCN    EP   0    025 6.034                              68    1.1610 32.7  35 
 TVCN    ES   0    025 9.868                              68   -0.2510 32.7  35 
 YXLK    EP   0    025 9.699                              68   -1.1510 65.0  30 
 YXLK    ES   0    02520.874                              68    0.2910 65.0  30 
 EVSP    EP   0    02511.771                              68   -1.1710 76.2 294 
 EVSP    ES   0    02524.965                              68    0.7310 76.2 294 
 XIVZ    EP   0    02518.863                              47    1.19 9  104   2 
 XIVZ    ES   0    02531.781                              47   -0.75 9  104   2 
                                                                                
 2020  1 1 0026 40.1 L  35.937  51.795 16.5  New  5 0.9                        1
 GAP=299        2.34      11.2    13.5  8.9  0.5151E+02  0.1758E+02  0.1404E+02E
 Action:ARG 22-06-18 17:45 OP:OBSP STATUS:               ID:20200101002640     I
 STAT SP IPHASW D HRMM SECON CODA AMPLIT PERI AZIMU VELO AIN AR TRES W  DIS CAZ7
 TVCN    EP   0    02650.979                             101    0.3610 50.9  46 
 TVCN    ES   0    02657.919                             101   -0.5810 50.9  46 
 YIBA    EP   0    02656.529                              64   -0.6010 89.9  16 
 YIBA    ES   0    02711.709                              64    1.8310 89.9  16 
 ZSCP    EP   0    027 0.893                              53    1.54 9  105  72 
 ZSCP    ES   0    02713.202                              53   -0.58 9  105  72 
 RVDG    EP   0    02659.704                              53   -0.56 9  111  63 
 RVDG    ES   0    02715.512                              53    0.15 9  111  63 
 XIVZ    EP   0    027 0.224                              53   -0.53 9  114  10 
 XIVZ    ES   0    02715.044                              53   -1.19 9  114  10 
                                                                                
 2020  1 1 0028 22.5 L  35.884  51.886 12.1  New  6 0.6                        1
 GAP=312        1.49       7.1     9.9  4.8 -0.5342E+01  0.5339E+00  0.5880E+01E
 Action:ARG 22-06-18 17:45 OP:OBSP STATUS:               ID:20200101002820     I
 STAT SP IPHASW D HRMM SECON CODA AMPLIT PERI AZIMU VELO AIN AR TRES W  DIS CAZ7
 SRWZ    EP   0    02828.548                             109    0.9210 22.0  38 
 SRWZ    ES   0    02831.597                             109    0.1310 22.0  38 
 TVCN    EP   0    02831.808                              94   -0.9510 50.1  34 
 TVCN    ES   0    02840.263                              94   -0.1810 50.1  34 
 YXLK    EP   0    02838.515                              64   -0.1110 82.4  31 
 YXLK    ES   0    02850.017                              64   -0.6910 82.4  31 
 YIBA    EP   0    02841.070                              64    0.5610 93.7  10 
 YIBA    ES   0    02854.205                              64    0.2010 93.7  10 
 RVDG    EP   0    02842.237                              53   -0.28 9  107  58 
 RVDG    ES   0    02857.792                              53    0.28 9  107  58 
 YAIP    EP   0    02852.860                              53   -0.79 7  182  53 
 YAIP    ES   0    02918.077                              53    1.09 7  182  53 
                                                                                
 2020  1 1 0029 59.9 L  36.021  51.836 20.1  New  8 0.7                        1
 GAP=215        1.62       6.7     4.4  7.5  0.7786E+01 -0.1510E+02 -0.9143E+01E
 Action:ARG 22-06-18 17:45 OP:OBSP STATUS:               ID:20200101003000     I
 STAT SP IPHASW D HRMM SECON CODA AMPLIT PERI AZIMU VELO AIN AR TRES W  DIS CAZ7
 TVCN    EP   0    030 9.142                              99    0.3110 41.9  51 
 TVCN    ES   0    03015.062                              99   -0.4610 41.9  51 
 EVSP    EP   0    03011.836                              94   -0.5610 63.4 298 
 EVSP    ES   0    03021.229                              94   -0.5110 63.4 298 
 YIBA    EP   0    03015.445                              92    0.3110 79.8  15 
 YIBA    ES   0    03026.649                              92    0.1110 79.8  15 
 ZSCP    EP   0    03018.863                              62    0.95 9 98.7  76 
 ZSCP    ES   0    03030.583                              62   -0.82 9 98.7  76 
 RVDG    EP   0    03019.406                              62    0.77 9  104  66 
 RVDG    ES   0    03032.436                              62   -0.23 9  104  66 
 XIVZ    EP   0    03018.729                              62   -0.04 9  105   9 
 XIVZ    ES   0    03033.515                              62    0.61 9  105   9 
 YAIP    EP   0    03030.087                              62    0.59 8  177  58 
 YAIP    ES   0    03050.966                              62   -0.71 8  177  58 
 ZGXN    EP   0    03031.101                              62    1.13 8  181  83 
 ZGXN    ES   0    03051.031                              62   -1.48 8  181  83 
                                                                                
 2020  1 1 0031 40.8 L  36.066  51.792 22.1  New  5 0.7                        1
 GAP=282        1.68       8.5    10.9  6.1  0.2799E+02  0.6490E+01 -0.2520E+02E
 Action:ARG 22-06-18 17:45 OP:OBSP STATUS:               ID:20200101003140     I
 STAT SP IPHASW D HRMM SECON CODA AMPLIT PERI AZIMU VELO AIN AR TRES W  DIS CAZ7
 SRWZ    EP   0    03146.534                             127   -0.2810 22.1  97 
 SRWZ    ES   0    03151.600                             127    0.2910 22.1  97 
 TVCN    EP   0    03150.005                             105    0.1110 42.4  60 
 TVCN    ES   0    03156.507                             105   -0.1810 42.4  60 
 YIBA    EP   0    03156.368                              62    1.0110 76.3  19 
 YIBA    ES   0    032 5.879                              62   -0.3810 76.3  19 
 RVDG    EP   0    03158.016                              62   -1.63 9  105  70 
 RVDG    ES   0    03214.233                              62    0.48 9  105  70 
 ZGXN    EP   0    03211.748                              62    0.53 7  184  85 
 ZGXN    ES   0    03234.250                              62    0.23 7  184  85 
                                                                                
 2020  1 1 0033 20.3 L  36.176  52.399  5.8  New  9 0.9                        1
 GAP=157        2.34       4.4     3.6  6.2 -0.1207E+01  0.1995E+01 -0.1819E+01E
 Action:ARG 22-06-18 17:45 OP:OBSP STATUS:               ID:20200101003320     I
 STAT SP IPHASW D HRMM SECON CODA AMPLIT PERI AZIMU VELO AIN AR TRES W  DIS CAZ7
 SRWZ    EP   0    03328.390                              94    0.4610 36.0 246 
 SRWZ    ES   0    03332.477                              94   -1.1510 36.0 246 
 YXLK    EP   0    03329.877                              93    1.4410 38.5 354 
 YXLK    ES   0    03332.878                              93   -1.6410 38.5 354 
 ZSCP    EP   0    03328.838                              93   -1.0110 45.6  82 
 ZSCP    ES   0    03336.810                              93   -0.1810 45.6  82 
 RVDG    EP   0    03331.254                              92    0.4310 50.5  62 
 RVDG    ES   0    03338.944                              92    0.2410 50.5  62 
 YIBA    EP   0    03335.532                              68    1.5710 66.8 334 
 YIBA    ES   0    03343.551                              68   -0.6410 66.8 334 
 XIVZ    EP   0    03339.238                              68    0.5510 92.3 339 
 XIVZ    ES   0    03352.910                              68    0.4510 92.3 339 
 EVSP    EP   0    03341.376                              47    0.17 9  107 277 
 EVSP    ES   0    03356.681                              47   -0.18 9  107 277 
 YAIP    EP   0    03344.384                              47    0.41 9  126  52 
 YAIP    ES   0    034 0.018                              47   -1.68 9  126  52 
 ZGXN    EP   0    03344.631                              47    0.24 9  129  89 
 ZGXN    ES   0    034 2.950                              47    0.51 9  129  89 
                                                                                
 2020  1 1 0035  0.2 L  35.839  51.945  0.9  New  9 0.5                        1
 GAP=244        1.18       3.6     2.8  3.6 -0.4595E+00 -0.4428E+00  0.1216E+01E
 Action:ARG 22-06-18 17:45 OP:OBSP STATUS:               ID:20200101003500     I
 STAT SP IPHASW D HRMM SECON CODA AMPLIT PERI AZIMU VELO AIN AR TRES W  DIS CAZ7
 SRWZ    EP   0    035 6.415                              92    0.9210 23.8  20 
 SRWZ    ES   0    035 9.398                              92   -0.0710 23.8  20 
 TVCN    EP   0    03510.985                              64   -0.2510 51.7  26 
 TVCN    ES   0    03519.064                              64   -0.4410 51.7  26 
 EVSP    EP   0    03516.925                              56   -0.3710 82.6 307 
 EVSP    ES   0    03530.416                              56    0.3010 82.6 307 
 YXLK    EP   0    03517.649                              56    0.0610 84.2  26 
 YXLK    ES   0    03531.070                              56    0.4510 84.2  26 
 ZSCP    EP   0    03519.515                              56   -0.34 9 96.5  63 
 ZSCP    ES   0    03534.520                              56   -0.07 9 96.5  63 
 YIBA    EP   0    03519.144                              56   -0.97 9 97.9   6 
 YIBA    ES   0    03534.584                              56   -0.46 9 97.9   6 
 RVDG    EP   0    03521.270                              49   -0.12 9  105  54 
 RVDG    ES   0    03537.799                              49    0.52 9  105  54 
 XIVZ    EP   0    03524.936                              41    0.69 9  124   3 
 XIVZ    ES   0    03542.539                              41    0.26 9  124   3 
 YAIP    EP   0    03532.884                              41    0.14 7  181  51 
 YAIP    ES   0    03556.946                              41   -0.19 7  181  51 
                                                                                
 2020  1 1 0036 40.5 L  36.389  51.844 15.5  New  5 1.0                        1
 GAP=274        2.36       7.5    15.2  7.5  0.4253E+02 -0.2688E+01  0.4342E+01E
 Action:ARG 22-06-18 17:45 OP:OBSP STATUS:               ID:20200101003640     I
 STAT SP IPHASW D HRMM SECON CODA AMPLIT PERI AZIMU VELO AIN AR TRES W  DIS CAZ7
 TVCN    EP   0    03648.207                             107    0.0510 35.2 115 
 TVCN    ES   0    03653.132                             107   -0.7510 35.2 115 
 YIBA    EP   0    03648.409                             103   -0.8610 41.4  29 
 YIBA    ES   0    03655.842                             103    0.0110 41.4  29 
 YXLK    EP   0    03652.428                             101    1.9410 48.2  72 
 YXLK    ES   0    03657.905                             101   -0.0610 48.2  72 
 RVDG    EP   0    03659.259                              53    0.9710 94.2  90 
 RVDG    ES   0    03711.653                              53    0.0310 94.2  90 
 YAIP    EP   0    037 5.951                              53   -1.84 8  159  70 
 YAIP    ES   0    03728.148                              53   -0.09 8  159  70 
                                                                                
 2020  1 1 0038 18.5 L  35.757  51.930 23.5  New  5 0.8                        1
 GAP=293        1.93      10.7    13.9  7.8  0.6384E+02 -0.3523E+02  0.4293E+01E
 Action:ARG 22-06-18 17:45 OP:OBSP STATUS:               ID:20200101003820     I
 STAT SP IPHASW D HRMM SECON CODA AMPLIT PERI AZIMU VELO AIN AR TRES W  DIS CAZ7
 SRWZ    EP   0    03825.757                             116   -0.3810 32.8  17 
 SRWZ    ES   0    03832.083                             116    0.2110 32.8  17 
 YXLK    EP   0    03836.211                              62    0.8410 93.0  24 
 YXLK    ES   0    03847.527                              62   -0.5110 93.0  24 
 ZSCP    EP   0    03835.602                              62   -1.10 9  102  59 
 ZSCP    ES   0    03851.114                              62    0.74 9  102  59 
 YIBA    EP   0    03836.967                              62   -0.47 9  107   7 
 YIBA    ES   0    03851.925                              62    0.27 9  107   7 
 ZGXN    EP   0    03849.638                              62    1.75 8  178  74 
 ZGXN    ES   0    039 8.813                              62   -1.13 8  178  74 
                                                                                
 2020  1 1 0040  0.2 L  36.450  52.051 11.9  New 10 0.8                        1
 GAP=101        2.12       2.9     4.0  6.7  0.3196E+00 -0.8512E+01  0.2842E+00E
 Action:ARG 22-06-18 17:45 OP:OBSP STATUS:               ID:20200101004000     I
 STAT SP IPHASW D HRMM SECON CODA AMPLIT PERI AZIMU VELO AIN AR TRES W  DIS CAZ7
 TVCN    EP   0    040 7.198                             104    1.3010 25.4 148 
 TVCN    ES   0    04010.416                             104    0.2510 25.4 148 
 YXLK    EP   0    040 4.675                             101   -1.7710 28.4  74 
 YXLK    ES   0    04011.626                             101    0.4910 28.4  74 
 YIBA    EP   0    040 7.384                             100    0.7510 29.5   3 
 YIBA    ES   0    04010.619                             100   -0.8510 29.5   3 
 SRWZ    EP   0    040 7.917                              94   -1.6610 45.5 182 
 SRWZ    ES   0    04016.243                              94   -0.3710 45.5 182 
 XIVZ    EP   0    04011.165                              93   -0.2810 55.6 358 
 XIVZ    ES   0    04020.530                              93    0.6410 55.6 358 
 RVDG    EP   0    04015.222                              92    0.0310 75.8  95 
 RVDG    ES   0    04026.770                              92    0.3310 75.8  95 
 EVSP    EP   0    04016.585                              92    1.1310 77.3 257 
 EVSP    ES   0    04026.759                              92   -0.1510 77.3 257 
 ZSCP    EP   0    04016.399                              64    0.4610 80.1 107 
 ZSCP    ES   0    04027.753                              64    0.0110 80.1 107 
 YAIP    EP   0    04024.801                              53   -0.15 8  139  70 
 YAIP    ES   0    04042.830                              53   -0.69 8  139  70 
 ZGXN    EP   0    04028.125                              53   -0.29 8  163 100 
 ZGXN    ES   0    04050.400                              53    0.82 8  163 100 
                                                                                
 2020  1 1 0041 39.4 L  36.110  52.033 10.0  New  9 0.9                        1
 GAP=107        2.36       5.0     4.5  7.9 -0.7794E-02 -0.4223E+01 -0.2201E+02E
 Action:ARG 22-06-18 17:45 OP:OBSP STATUS:               ID:20200101004140     I
 STAT SP IPHASW D HRMM SECON CODA AMPLIT PERI AZIMU VELO AIN AR TRES W  DIS CAZ7
 SRWZ    EP   0    04141.706                             141   -0.3710 7.72 178 
 SRWZ    ES   0    04144.034                             141   -0.0210 7.72 178 
 TVCN    EP   0    04145.169                              68    0.6810 22.1  43 
 TVCN    ES   0    04149.064                              68    0.7910 22.1  43 
 YXLK    EP   0    04149.119                              68   -1.2810 54.1  32 
 YXLK    ES   0    04159.020                              68    0.4010 54.1  32 
 YIBA    EP   0    04152.826                              68   -0.0110 67.2   3 
 YIBA    ES   0    042 2.545                              68   -0.3410 67.2   3 
 EVSP    EP   0    04155.128                              68    0.6210 76.3 285 
 EVSP    ES   0    042 6.154                              68    0.3410 76.3 285 
 ZSCP    EP   0    04152.518                              68   -2.5510 79.3  80 
 ZSCP    ES   0    042 7.626                              68    0.8410 79.3  80 
 RVDG    EP   0    04156.707                              68    0.8710 83.4  68 
 RVDG    ES   0    042 7.980                              68   -0.1610 83.4  68 
 XIVZ    EP   0    04157.468                              56   -0.0610 93.3 360 
 XIVZ    ES   0    04210.382                              56   -0.7210 93.3 360 
 ZGXN    EP   0    042 9.497                              47    1.67 8  162  86 
 ZGXN    ES   0    04228.878                              47   -0.24 8  162  86 
                                                                                
