 2020  1 1 0228 20.4 L  35.989  52.293  3.6  New  7 0.6                        1
 GAP=209        1.46       4.7     3.2  6.6  0.7226E+00  0.6704E+00 -0.2227E+01E
 Action:ARG 22-06-18 17:45 OP:OBSP STATUS:               ID:20200101022820     I
 STAT SP IPHASW D HRMM SECON CODA AMPLIT PERI AZIMU VELO AIN AR TRES W  DIS CAZ7
 YXLK    EP   0    22833.992                              64    1.2510 59.3   5 
 YXLK    ES   0    22841.672                              64   -0.3010 59.3   5 
 ZSCP    EP   0    22832.494                              64   -0.5710 60.9  64 
 ZSCP    ES   0    22841.849                              64   -0.6810 60.9  64 
 RVDG    EP   0    22834.887                              56    0.0110 70.1  50 
 RVDG    ES   0    22845.388                              56   -0.3110 70.1  50 
 EVSP    EP   0    22840.461                              49   -0.38 9  103 289 
 EVSP    ES   0    22855.500                              49   -0.63 9  103 289 
 XIVZ    EP   0    22842.029                              49    0.07 9  109 347 
 XIVZ    ES   0    22858.631                              49    0.53 9  109 347 
 ZGXN    EP   0    22847.387                              41    0.87 8  140  80 
 ZGXN    ES   0    229 6.687                              41    0.63 8  140  80 
 YAIP    EP   0    22847.280                              41   -0.15 8  147  48 
 YAIP    ES   0    229 7.690                              41    0.02 8  147  48 
                                                                                
 2020  1 1 0229 59.9 L  35.917  52.195 13.3  New  4 1.0                        1
 GAP=247        2.32      14.3     9.3  8.3 -0.6179E+02 -0.3390E+02  0.6719E+02E
 Action:ARG 22-06-18 17:45 OP:OBSP STATUS:               ID:20200101023000     I
 STAT SP IPHASW D HRMM SECON CODA AMPLIT PERI AZIMU VELO AIN AR TRES W  DIS CAZ7
 SRWZ    EP   0    230 6.004                             117    1.2310 19.9 314 
 SRWZ    ES   0    230 8.346                             117   -0.0610 19.9 314 
 TVCN    EP   0    230 8.101                             100    0.1810 37.7   1 
 TVCN    ES   0    23013.125                             100   -0.7810 37.7   1 
 EVSP    EP   0    23017.384                              53   -1.06 9 97.5 295 
 EVSP    ES   0    23032.680                              53    0.36 9 97.5 295 
 YAIP    EP   0    23025.925                              53   -1.50 8  159  48 
 YAIP    ES   0    23049.657                              53    1.61 8  159  48 
                                                                                
 2020  1 1 0231 40.5 L  36.112  51.739 19.5  New  5 0.6                        1
 GAP=186        1.52       5.7     4.1  7.9  0.8545E+01 -0.8443E+01 -0.1490E+02E
 Action:ARG 22-06-18 17:45 OP:OBSP STATUS:               ID:20200101023140     I
 STAT SP IPHASW D HRMM SECON CODA AMPLIT PERI AZIMU VELO AIN AR TRES W  DIS CAZ7
 SRWZ    EP   0    23147.588                             111    0.4810 27.8 106 
 SRWZ    ES   0    23151.646                             111   -0.4210 27.8 106 
 EVSP    EP   0    23151.793                              94    0.8610 51.1 293 
 EVSP    ES   0    23157.983                              94   -0.7710 51.1 293 
 YIBA    EP   0    23155.335                              92    0.7310 73.3  24 
 YIBA    ES   0    232 4.831                              92   -0.3610 73.3  24 
 YAIP    EP   0    232 9.622                              62   -0.86 8  180  62 
 YAIP    ES   0    23233.583                              62    0.62 8  180  62 
 ZGXN    EP   0    23211.070                              62   -0.67 7  189  87 
 ZGXN    ES   0    23235.142                              62   -0.04 7  189  87 
                                                                                
 2020  1 1 0233 19.9 L  36.302  52.101  5.4  New  4 0.8                        1
 GAP=150        2.11       7.5    12.6 14.0 -0.6228E+02  0.1551E+03 -0.7244E+02E
 Action:ARG 22-06-18 17:45 OP:OBSP STATUS:               ID:20200101023320     I
 STAT SP IPHASW D HRMM SECON CODA AMPLIT PERI AZIMU VELO AIN AR TRES W  DIS CAZ7
 TVCN    ES   0    23323.244                             110   -1.0210 10.2 120 
 TVCN    EP   0    23324.031                             110    1.6410 10.2 120 
 YXLK    EP   0    23326.349                              93   -0.6110 33.4  43 
 YXLK    ES   0    23331.869                              93   -0.4010 33.4  43 
 XIVZ    EP   0    23335.342                              68    0.7610 72.3 355 
 XIVZ    ES   0    23345.580                              68   -0.0210 72.3 355 
 EVSP    EP   0    23336.215                              68    0.2610 79.7 269 
 EVSP    ES   0    23347.355                              68   -0.6410 79.7 269 
                                                                                
 2020  1 1 0235  1.6 L  35.883  52.026 17.6  New  7 0.9                        1
 GAP=282        2.21      11.1    13.3 18.9  0.8395E+02 -0.1388E+03 -0.1083E+03E
 Action:ARG 22-06-18 17:45 OP:OBSP STATUS:               ID:20200101023500     I
 STAT SP IPHASW D HRMM SECON CODA AMPLIT PERI AZIMU VELO AIN AR TRES W  DIS CAZ7
 TVCN    EP   0    23511.299                              64    0.4010 44.3  21 
 TVCN    ES   0    23518.182                              64    0.3010 44.3  21 
 YXLK    EP   0    23515.344                              64   -0.9710 76.8  23 
 YXLK    ES   0    23526.004                              64   -1.3610 76.8  23 
 ZSCP    EP   0    23518.220                              64    0.0810 87.8  64 
 ZSCP    ES   0    23531.747                              64    1.1910 87.8  64 
 RVDG    EP   0    23520.779                              53    1.35 9 96.3  54 
 RVDG    ES   0    23533.108                              53    0.30 9 96.3  54 
 XIVZ    EP   0    23522.612                              53   -0.08 9  119 360 
 XIVZ    ES   0    23539.369                              53    0.84 9  119 360 
 ZGXN    EP   0    23529.611                              53   -0.10 8  166  78 
 ZGXN    ES   0    23548.847                              53   -1.97 8  166  78 
 YAIP    EP   0    23529.767                              53   -0.87 8  173  50 
 YAIP    ES   0    23552.620                              53    0.19 8  173  50 
                                                                                
 2020  1 1 0236 39.8 L  36.044  52.119 17.8  New 10 0.8                        1
 GAP=184        1.94       5.2     4.1  3.7  0.6206E+00 -0.5148E+01 -0.5314E+01E
 Action:ARG 22-06-18 17:45 OP:OBSP STATUS:               ID:20200101023640     I
 STAT SP IPHASW D HRMM SECON CODA AMPLIT PERI AZIMU VELO AIN AR TRES W  DIS CAZ7
 SRWZ    EP   0    23642.578                             155   -1.0510 7.56 267 
 SRWZ    ES   0    23645.949                             155   -0.5610 7.56 267 
 TVCN    EP   0    23646.005                             121    0.2010 24.7  17 
 TVCN    ES   0    23651.511                             121    1.1910 24.7  17 
 YXLK    EP   0    23650.506                              64   -0.7210 57.1  22 
 YXLK    ES   0    23659.196                              64   -0.6010 57.1  22 
 ZSCP    EP   0    23654.308                              64    0.3710 73.4  73 
 ZSCP    ES   0    237 4.835                              64    0.2810 73.4  73 
 YIBA    EP   0    23654.740                              64    0.5910 74.7 357 
 YIBA    ES   0    237 4.028                              64   -0.9010 74.7 357 
 RVDG    EP   0    23655.934                              64    0.9610 79.6  61 
 RVDG    ES   0    237 5.630                              64   -0.7410 79.6  61 
 EVSP    EP   0    23656.925                              64    0.9110 85.9 289 
 EVSP    ES   0    237 8.263                              64    0.0810 85.9 289 
 XIVZ    EP   0    23658.701                              53    0.39 9  101 355 
 XIVZ    ES   0    23712.315                              53    0.12 9  101 355 
 ZGXN    EP   0    237 7.605                              53    1.35 8  155  83 
 ZGXN    ES   0    23725.289                              53   -0.82 8  155  83 
 YAIP    EP   0    237 4.977                              53   -1.26 8  155  54 
 YAIP    ES   0    23726.188                              53    0.11 8  155  54 
                                                                                
 2020  1 1 0238 19.7 L  35.985  52.069 17.0  New  8 1.1                        1
 GAP=213        2.82       9.2     6.8  8.8  0.6486E+01  0.2258E+00  0.1505E+02E
 Action:ARG 22-06-18 17:45 OP:OBSP STATUS:               ID:20200101023820     I
 STAT SP IPHASW D HRMM SECON CODA AMPLIT PERI AZIMU VELO AIN AR TRES W  DIS CAZ7
 TVCN    EP   0    23824.986                             112   -1.9310 32.3  21 
 TVCN    ES   0    23833.804                             112    1.4710 32.3  21 
 YXLK    EP   0    23831.020                              64   -1.4610 64.8  23 
 YXLK    ES   0    23842.794                              64    0.7310 64.8  23 
 ZSCP    EP   0    23835.106                              64    0.1510 79.7  70 
 ZSCP    ES   0    23846.424                              64    0.0210 79.7  70 
 YIBA    EP   0    23836.678                              64    1.5010 81.0 360 
 YIBA    ES   0    23844.762                              64   -2.0310 81.0 360 
 EVSP    EP   0    23836.800                              64    1.1210 84.0 294 
 EVSP    ES   0    23847.324                              64   -0.3410 84.0 294 
 XIVZ    EP   0    23839.675                              53    0.46 9  107 358 
 XIVZ    ES   0    23854.379                              53    0.53 9  107 358 
 ZGXN    EP   0    23845.866                              53   -1.17 8  160  81 
 ZGXN    ES   0    239 8.026                              53    0.49 8  160  81 
 YAIP    EP   0    23847.730                              53    0.39 8  162  53 
 YAIP    ES   0    239 8.266                              53    0.20 8  162  53 
                                                                                
 2020  1 1 0240  0.2 L  36.089  52.248 16.6  New 10 0.7                        1
 GAP=170        1.96       4.4     3.9  3.9 -0.1723E+01 -0.6324E+01 -0.1862E-01E
 Action:ARG 22-06-18 17:45 OP:OBSP STATUS:               ID:20200101024000     I
 STAT SP IPHASW D HRMM SECON CODA AMPLIT PERI AZIMU VELO AIN AR TRES W  DIS CAZ7
 TVCN    EP   0    240 4.878                             127   -0.3410 19.1 347 
 TVCN    ES   0    240 7.606                             127   -1.3910 19.1 347 
 SRWZ    EP   0    240 5.196                             125   -0.1410 19.9 255 
 SRWZ    ES   0    24010.620                             125    1.4110 19.9 255 
 YXLK    EP   0    240 9.872                             102   -0.4610 49.0  11 
 YXLK    ES   0    24019.620                             102    1.6810 49.0  11 
 ZSCP    EP   0    24011.610                              64   -0.7110 60.8  75 
 ZSCP    ES   0    24021.538                              64    0.1110 60.8  75 
 RVDG    EP   0    24013.479                              64    0.1210 67.0  60 
 RVDG    ES   0    24023.273                              64    0.0310 67.0  60 
 YIBA    EP   0    24013.385                              64   -0.7010 71.4 347 
 YIBA    ES   0    24025.239                              64    0.7210 71.4 347 
 EVSP    EP   0    24017.715                              53   -0.3210 95.7 284 
 EVSP    ES   0    24031.234                              53   -0.2010 95.7 284 
 XIVZ    EP   0    24018.422                              53    0.08 9 97.8 348 
 XIVZ    ES   0    24031.770                              53   -0.20 9 97.8 348 
 ZGXN    EP   0    24025.130                              53    0.13 8  143  85 
 ZGXN    ES   0    24044.131                              53    0.52 8  143  85 
 YAIP    EP   0    24023.818                              53   -1.13 8  143  53 
 YAIP    ES   0    24044.390                              53    0.86 8  143  53 
                                                                                
 2020  1 1 0241 40.5 L  36.257  52.437 20.0  New  6 0.6                        1
 GAP=178        1.59       6.1     4.4  7.0  0.1502E+02  0.1633E+02  0.1945E+02E
 Action:ARG 22-06-18 17:45 OP:OBSP STATUS:               ID:20200101024140     I
 STAT SP IPHASW D HRMM SECON CODA AMPLIT PERI AZIMU VELO AIN AR TRES W  DIS CAZ7
 YXLK    EP   0    24146.946                             110   -0.6110 30.2 346 
 YXLK    ES   0    24153.117                             110    0.3110 30.2 346 
 ZSCP    EP   0    24148.869                              99   -0.5710 41.8  94 
 ZSCP    ES   0    24157.027                              99    0.9110 41.8  94 
 RVDG    EP   0    24148.704                              98   -1.0310 43.6  70 
 RVDG    ES   0    24156.981                              98    0.3510 43.6  70 
 XIVZ    EP   0    24157.399                              62    0.8210 85.4 334 
 XIVZ    ES   0    242 8.320                              62   -0.2810 85.4 334 
 EVSP    EP   0    242 1.027                              62    0.83 9  110 272 
 EVSP    ES   0    24214.603                              62   -0.33 9  110 272 
 ZGXN    EP   0    242 2.239                              62   -0.26 9  126  93 
 ZGXN    ES   0    24218.836                              62   -0.12 9  126  93 
                                                                                
 2020  1 1 0243 20.1 L  35.649  52.130 14.1  New  5 0.7                        1
 GAP=281        1.65      10.6    43.0 33.7  0.2280E+03 -0.1416E+04 -0.1417E+03E
 Action:ARG 22-06-18 17:45 OP:OBSP STATUS:               ID:20200101024320     I
 STAT SP IPHASW D HRMM SECON CODA AMPLIT PERI AZIMU VELO AIN AR TRES W  DIS CAZ7
 SRWZ    EP   0    24329.774                              99    0.4510 44.3 349 
 SRWZ    ES   0    24335.866                              99   -0.3610 44.3 349 
 ZSCP    EP   0    24337.885                              64   -0.2510 94.8  47 
 ZSCP    ES   0    24352.041                              64    0.4010 94.8  47 
 RVDG    EP   0    24339.789                              53   -0.18 9  107  40 
 RVDG    ES   0    24355.005                              53    0.15 9  107  40 
 ZGXN    EP   0    24349.780                              53    1.34 8  165  68 
 ZGXN    ES   0    244 8.474                              53   -1.20 8  165  68 
 YAIP    EP   0    24349.888                              53   -1.30 7  184  42 
 YAIP    ES   0    24415.290                              53    0.79 7  184  42 
                                                                                
 2020  1 1 0245  1.2 L  36.144  52.202 16.4  New  6 0.9                        1
 GAP=262        2.33       9.7    10.8  6.5  0.5636E+02 -0.2734E+02  0.8804E+01E
 Action:ARG 22-06-18 17:45 OP:OBSP STATUS:               ID:20200101024500     I
 STAT SP IPHASW D HRMM SECON CODA AMPLIT PERI AZIMU VELO AIN AR TRES W  DIS CAZ7
 TVCN    EP   0    245 4.298                             140   -0.9810 12.4 359 
 TVCN    ES   0    245 9.970                             140    1.6110 12.4 359 
 YXLK    EP   0    245 9.447                             104   -0.9710 44.1  18 
 YXLK    ES   0    24516.802                             104   -0.5610 44.1  18 
 ZSCP    EP   0    24512.363                              64   -1.4310 63.6  81 
 ZSCP    ES   0    24523.921                              64    0.6610 63.6  81 
 RVDG    EP   0    24515.306                              64    0.7910 67.9  66 
 RVDG    ES   0    24524.033                              64   -0.4910 67.9  66 
 XIVZ    EP   0    24518.199                              64   -0.1510 90.9 350 
 XIVZ    ES   0    24531.752                              64    0.5210 90.9 350 
 ZGXN    EP   0    24527.515                              53    0.96 8  147  88 
 ZGXN    ES   0    24546.125                              53    0.52 8  147  88 
                                                                                
 2020  1 1 0246 40.3 L  36.264  52.192 14.6  New  7 0.8                        1
 GAP=136        2.03       5.1     4.3  4.1  0.1782E+01 -0.3775E+01  0.4144E+01E
 Action:ARG 22-06-18 17:45 OP:OBSP STATUS:               ID:20200101024640     I
 STAT SP IPHASW D HRMM SECON CODA AMPLIT PERI AZIMU VELO AIN AR TRES W  DIS CAZ7
 TVCN    EP   0    24642.829                             175   -0.4410 1.16 136 
 TVCN    ES   0    24646.276                             175    0.8010 1.16 136 
 YXLK    EP   0    24647.002                             107   -0.3610 32.1  27 
 YXLK    ES   0    24651.988                             107   -0.6510 32.1  27 
 YIBA    EP   0    24649.767                              98   -1.0710 51.3 348 
 YIBA    ES   0    24659.872                              98    1.1510 51.3 348 
 ZSCP    EP   0    24652.647                              64   -0.5010 63.9  93 
 ZSCP    ES   0    247 2.026                              64   -0.7410 63.9  93 
 RVDG    EP   0    24653.175                              64   -0.0910 64.6  77 
 RVDG    ES   0    247 4.054                              64    1.0810 64.6  77 
 EVSP    EP   0    24658.043                              64    0.9010 87.9 272 
 EVSP    ES   0    247 9.264                              64   -0.5010 87.9 272 
 ZGXN    EP   0    247 5.513                              53   -0.55 8  148  93 
 ZGXN    ES   0    24726.572                              53    1.20 8  148  93 
                                                                                
