 2020  1 1 0103 18.7 L  35.558  52.086  4.8  New  9 0.9                        1
 GAP=251        2.11       7.4     7.2  7.2  0.9405E+01 -0.9723E+01  0.4693E+01E
 Action:ARG 22-06-18 17:45 OP:OBSP STATUS:               ID:20200101010320     I
 STAT SP IPHASW D HRMM SECON CODA AMPLIT PERI AZIMU VELO AIN AR TRES W  DIS CAZ7
 SRWZ    EP   0    1 330.559                              91    0.7010 53.8 355 
 SRWZ    ES   0    1 337.597                              91   -0.6210 53.8 355 
 TVCN    EP   0    1 334.870                              68    0.3410 78.2   8 
 TVCN    ES   0    1 346.695                              68    0.3010 78.2   8 
 ZSCP    EP   0    1 337.443                              56   -1.86 9  105  44 
 ZSCP    ES   0    1 355.562                              56    0.82 9  105  44 
 YXLK    EP   0    1 340.244                              47    0.17 9  110  13 
 YXLK    ES   0    1 356.746                              47    0.64 9  110  13 
 EVSP    EP   0    1 341.076                              47    0.50 9  113 316 
 EVSP    ES   0    1 356.517                              47   -0.47 9  113 316 
 RVDG    EP   0    1 340.394                              47   -0.87 9  118  38 
 RVDG    ES   0    1 357.452                              47   -0.74 9  118  38 
 YIBA    EP   0    1 342.020                              47   -0.83 9  129 359 
 YIBA    ES   0    1 4 1.729                              47    0.77 9  129 359 
 XIVZ    EP   0    1 346.813                              47    0.11 8  155 358 
 XIVZ    ES   0    1 4 7.218                              47   -0.48 8  155 358 
 ZGXN    EP   0    1 351.658                              47    2.32 8  173  65 
 ZGXN    ES   0    1 411.771                              47   -0.53 8  173  65 
                                                                                
 2020  1 1 0104 59.8 L  36.183  51.946 15.2  New  9 1.2                        1
 GAP=191        3.06       8.6     6.2  8.5  0.8034E+01  0.1001E+02  0.2511E+02E
 Action:ARG 22-06-18 17:45 OP:OBSP STATUS:               ID:20200101010500     I
 STAT SP IPHASW D HRMM SECON CODA AMPLIT PERI AZIMU VELO AIN AR TRES W  DIS CAZ7
 TVCN    EP   0    1 5 5.484                             116   -0.0910 24.3  70 
 TVCN    ES   0    1 5 8.851                             116   -1.0110 24.3  70 
 YXLK    EP   0    1 5 9.768                              99   -0.8410 52.6  44 
 YXLK    ES   0    1 519.044                              99    0.3610 52.6  44 
 YIBA    EP   0    1 511.009                              97   -0.9810 60.2  11 
 YIBA    ES   0    1 524.013                              97    2.9110 60.2  11 
 EVSP    EP   0    1 513.481                              64    0.3710 66.8 280 
 EVSP    ES   0    1 522.752                              64   -0.3110 66.8 280 
 XIVZ    EP   0    1 516.055                              64   -0.1710 85.5   5 
 XIVZ    ES   0    1 526.600                              64   -1.9110 85.5   5 
 ZSCP    EP   0    1 516.845                              64    0.5210 86.1  86 
 ZSCP    ES   0    1 528.322                              64   -0.3610 86.1  86 
 RVDG    EP   0    1 516.350                              64   -0.3310 88.3  75 
 RVDG    ES   0    1 529.452                              64    0.1410 88.3  75 
 YAIP    EP   0    1 529.749                              53    2.44 8  160  61 
 YAIP    ES   0    1 546.058                              53   -1.85 8  160  61 
 ZGXN    EP   0    1 529.193                              53    0.44 8  170  89 
 ZGXN    ES   0    1 552.028                              53    1.59 8  170  89 
                                                                                
 2020  1 1 0106 39.8 L  36.191  52.077  2.3  New  5 0.5                        1
 GAP=270        1.30       9.3    11.4 13.2  0.9719E+02 -0.1223E+03 -0.9283E+02E
 Action:ARG 22-06-18 17:45 OP:OBSP STATUS:               ID:20200101010640     I
 STAT SP IPHASW D HRMM SECON CODA AMPLIT PERI AZIMU VELO AIN AR TRES W  DIS CAZ7
 YIBA    EP   0    1 652.705                              64    0.6710 58.2 359 
 YIBA    ES   0    1 7 0.891                              64   -0.2910 58.2 359 
 ZSCP    EP   0    1 654.989                              56   -0.2310 74.3  86 
 ZSCP    ES   0    1 7 7.404                              56    0.6610 74.3  86 
 RVDG    EP   0    1 655.433                              56   -0.2310 76.7  73 
 RVDG    ES   0    1 7 7.219                              56   -0.3010 76.7  73 
 XIVZ    EP   0    1 657.498                              56    0.4110 84.4 357 
 XIVZ    ES   0    1 7 9.855                              56   -0.1710 84.4 357 
 YAIP    EP   0    1 7 6.252                              41   -1.17 8  149  60 
 YAIP    ES   0    1 728.509                              41    0.41 8  149  60 
                                                                                
 2020  1 1 0108 19.7 L  35.972  51.916 19.2  New  7 0.9                        1
 GAP=227        2.26      10.0     6.4 11.5  0.9253E+01 -0.3351E+02 -0.1663E+02E
 Action:ARG 22-06-18 17:45 OP:OBSP STATUS:               ID:20200101010820     I
 STAT SP IPHASW D HRMM SECON CODA AMPLIT PERI AZIMU VELO AIN AR TRES W  DIS CAZ7
 TVCN    EP   0    1 828.638                              96    0.2110 40.6  39 
 TVCN    ES   0    1 834.209                              96   -0.7310 40.6  39 
 EVSP    EP   0    1 833.973                              92    0.2810 72.3 299 
 EVSP    ES   0    1 843.487                              92   -0.6610 72.3 299 
 YIBA    EP   0    1 836.641                              62    1.0610 83.6   9 
 YIBA    ES   0    1 848.275                              62    0.8210 83.6   9 
 ZSCP    EP   0    1 835.281                              62   -1.7210 93.3  72 
 ZSCP    ES   0    1 849.279                              62   -0.6610 93.3  72 
 RVDG    EP   0    1 839.562                              62    1.64 9 99.5  62 
 RVDG    ES   0    1 851.885                              62    0.34 9 99.5  62 
 XIVZ    EP   0    1 839.719                              62    0.41 9  109   5 
 XIVZ    ES   0    1 852.799                              62   -1.19 9  109   5 
 YAIP    EP   0    1 848.673                              62   -0.27 8  174  55 
 YAIP    ES   0    1 911.389                              62    0.55 8  174  55 
                                                                                
 2020  1 1 0109 60.0 L  36.129  52.001 17.5  New  7 0.8                        1
 GAP=122        1.87       5.9     4.7  4.5 -0.8086E+01  0.5763E+01 -0.1639E+02E
 Action:ARG 22-06-18 17:45 OP:OBSP STATUS:               ID:20200101011000     I
 STAT SP IPHASW D HRMM SECON CODA AMPLIT PERI AZIMU VELO AIN AR TRES W  DIS CAZ7
 SRWZ    EP   0    110 4.313                             148    0.3210 10.2 163 
 SRWZ    ES   0    110 7.550                             148    0.5410 10.2 163 
 TVCN    EP   0    110 5.459                             123   -0.2110 22.8  52 
 TVCN    ES   0    110 9.758                             123   -0.1810 22.8  52 
 YXLK    EP   0    110 9.641                              64   -1.2710 54.0  36 
 YXLK    ES   0    11018.774                              64   -0.3410 54.0  36 
 EVSP    EP   0    11013.883                              64   -0.2110 73.0 284 
 EVSP    ES   0    11024.440                              64   -0.2310 73.0 284 
 XIVZ    EP   0    11017.174                              53    0.0810 91.3   1 
 XIVZ    ES   0    11031.215                              53    1.2810 91.3   1 
 YAIP    EP   0    11027.815                              53    0.83 8  159  59 
 YAIP    ES   0    11048.319                              53    1.08 8  159  59 
 ZGXN    EP   0    11026.232                              53   -1.68 8  165  87 
 ZGXN    ES   0    11049.100                              53    0.23 8  165  87 
                                                                                
 2020  1 1 0111 39.7 L  36.030  52.035  3.6  New  9 0.8                        1
 GAP=208        2.10       5.6     4.2  9.3  0.1953E+01 -0.6268E+01 -0.7006E+01E
 Action:ARG 22-06-18 17:45 OP:OBSP STATUS:               ID:20200101011140     I
 STAT SP IPHASW D HRMM SECON CODA AMPLIT PERI AZIMU VELO AIN AR TRES W  DIS CAZ7
 TVCN    EP   0    11145.881                              64   -0.0410 29.2  31 
 TVCN    ES   0    11149.346                              64   -1.2810 29.2  31 
 YXLK    EP   0    11153.018                              64    0.6010 61.7  28 
 YXLK    ES   0    112 3.797                              64    1.8010 61.7  28 
 YIBA    EP   0    11155.192                              56   -0.0110 76.2   2 
 YIBA    ES   0    112 6.827                              56   -0.0410 76.2   2 
 EVSP    EP   0    11155.383                              56   -0.3910 79.3 291 
 EVSP    ES   0    112 8.548                              56    0.6810 79.3 291 
 ZSCP    EP   0    11156.735                              56    0.6110 81.1  74 
 ZSCP    ES   0    112 8.634                              56    0.1610 81.1  74 
 RVDG    EP   0    11156.288                              56   -0.9310 87.0  62 
 RVDG    ES   0    11210.708                              56    0.3110 87.0  62 
 XIVZ    EP   0    112 0.077                              49    0.12 9  102 359 
 XIVZ    ES   0    11214.487                              49   -0.69 9  102 359 
 YAIP    EP   0    112 7.741                              41   -1.16 8  162  55 
 YAIP    ES   0    11229.579                              41   -1.25 8  162  55 
 ZGXN    EP   0    112 8.480                              41   -0.53 8  163  83 
 ZGXN    ES   0    11232.448                              41    1.42 8  163  83 
                                                                                
 2020  1 1 0113 18.5 L  35.944  51.847 19.4  New  4 0.8                        1
 GAP=246        1.84      15.4     5.7  8.2  0.6814E+01  0.3480E+01 -0.6440E+02E
 Action:ARG 22-06-18 17:45 OP:OBSP STATUS:               ID:20200101011320     I
 STAT SP IPHASW D HRMM SECON CODA AMPLIT PERI AZIMU VELO AIN AR TRES W  DIS CAZ7
 SRWZ    EP   0    11325.163                             124    1.2410 20.1  58 
 SRWZ    ES   0    11327.312                             124   -0.7110 20.1  58 
 EVSP    EP   0    11331.287                              92   -0.5110 68.6 304 
 EVSP    ES   0    11342.062                              92    0.2510 68.6 304 
 XIVZ    EP   0    11337.481                              62   -1.11 9  113   8 
 XIVZ    ES   0    11354.384                              62    0.70 9  113   8 
 YAIP    EP   0    11349.159                              62    0.49 7  181  55 
 YAIP    ES   0    11410.933                              62   -0.39 7  181  55 
                                                                                
 2020  1 1 0114 59.6 L  36.256  52.002 13.1  New  7 0.9                        1
 GAP=100        2.51       4.7     5.1  8.8 -0.2488E+01  0.4099E+01 -0.1917E+02E
 Action:ARG 22-06-18 17:45 OP:OBSP STATUS:               ID:20200101011500     I
 STAT SP IPHASW D HRMM SECON CODA AMPLIT PERI AZIMU VELO AIN AR TRES W  DIS CAZ7
 TVCN    EP   0    115 4.936                             119    0.8710 17.8  90 
 TVCN    ES   0    115 7.651                             119    0.2310 17.8  90 
 SRWZ    EP   0    115 5.243                             110    0.1210 24.1 173 
 SRWZ    ES   0    115 8.854                             110   -0.4210 24.1 173 
 YXLK    EP   0    115 7.535                              97   -1.0610 43.3  47 
 YXLK    ES   0    11516.268                              97    0.9310 43.3  47 
 YIBA    EP   0    115 7.530                              96   -2.5410 51.3   7 
 YIBA    ES   0    11518.183                              96    0.2510 51.3   7 
 EVSP    EP   0    11515.077                              93    1.3810 71.0 273 
 EVSP    ES   0    11523.907                              93   -0.3710 71.0 273 
 XIVZ    EP   0    11515.529                              64    0.7810 77.1   1 
 XIVZ    ES   0    11526.414                              64    0.3110 77.1   1 
 RVDG    EP   0    11515.163                              64   -0.3010 81.4  79 
 RVDG    ES   0    11527.202                              64   -0.1610 81.4  79 
                                                                                
 2020  1 1 0116 40.5 L  36.027  52.295 17.9  New  6 0.9                        1
 GAP=192        2.13      16.1     5.5  7.5 -0.3336E+02 -0.1616E+02 -0.4105E+02E
 Action:ARG 22-06-18 17:45 OP:OBSP STATUS:               ID:20200101011640     I
 STAT SP IPHASW D HRMM SECON CODA AMPLIT PERI AZIMU VELO AIN AR TRES W  DIS CAZ7
 SRWZ    EP   0    11646.537                             123    0.2410 23.5 274 
 SRWZ    ES   0    11650.254                             123   -0.4210 23.5 274 
 ZSCP    EP   0    11650.964                              64   -1.2610 59.1  67 
 ZSCP    ES   0    11659.679                              64   -1.3610 59.1  67 
 RVDG    EP   0    11654.655                              64    1.0510 67.4  53 
 RVDG    ES   0    117 3.811                              64    0.3610 67.4  53 
 EVSP    EP   0    11659.172                              53    0.12 9  102 287 
 EVSP    ES   0    11712.603                              53   -0.39 9  102 287 
 ZGXN    EP   0    117 5.229                              53    0.58 8  140  82 
 ZGXN    ES   0    11722.995                              53    0.22 8  140  82 
 YAIP    EP   0    117 7.069                              53    1.81 8  144  49 
 YAIP    ES   0    11723.524                              53   -0.33 8  144  49 
                                                                                
 2020  1 1 0118 20.6 L  35.837  51.983 19.7  New  4 0.7                        1
 GAP=308        1.66      48.2    63.8125.9  0.2960E+04 -0.7859E+04 -0.5901E+04E
 Action:ARG 22-06-18 17:45 OP:OBSP STATUS:               ID:20200101011820     I
 STAT SP IPHASW D HRMM SECON CODA AMPLIT PERI AZIMU VELO AIN AR TRES W  DIS CAZ7
 YXLK    EP   0    11836.585                              62    0.2810 83.0  24 
 YXLK    ES   0    11848.001                              62   -0.0910 83.0  24 
 ZSCP    EP   0    11838.166                              62    0.3110 93.6  62 
 ZSCP    ES   0    11851.285                              62    0.4810 93.6  62 
 RVDG    EP   0    11837.804                              62   -1.3710  103  53 
 RVDG    ES   0    11853.333                              62    0.2310  103  53 
 ZGXN    EP   0    11850.364                              62    1.08 8  171  76 
 ZGXN    ES   0    119 9.889                              62   -0.91 8  171  76 
                                                                                
 2020  1 1 0120  0.2 L  36.029  52.070 11.5  New  6 1.0                        1
 GAP=208        2.35       8.4     6.1  5.4  0.7903E+00 -0.1336E+02 -0.6579E+01E
 Action:ARG 22-06-18 17:45 OP:OBSP STATUS:               ID:20200101012000     I
 STAT SP IPHASW D HRMM SECON CODA AMPLIT PERI AZIMU VELO AIN AR TRES W  DIS CAZ7
 SRWZ    EP   0    120 3.072                             162    0.3810 3.39 292 
 SRWZ    ES   0    120 4.640                             162    0.1010 3.39 292 
 YIBA    EP   0    12014.268                              92   -1.0210 76.2 360 
 YIBA    ES   0    12026.637                              92    0.0610 76.2 360 
 EVSP    EP   0    12015.324                              64   -1.0510 82.3 291 
 EVSP    ES   0    12029.154                              64    0.6810 82.3 291 
 RVDG    EP   0    12017.269                              64    0.5610 84.3  61 
 RVDG    ES   0    12028.728                              64   -0.3310 84.3  61 
 YAIP    EP   0    12027.450                              53   -0.61 8  160  54 
 YAIP    ES   0    12051.017                              53    2.08 8  160  54 
 ZGXN    EP   0    12029.406                              53    1.32 8  160  83 
 ZGXN    ES   0    12047.147                              53   -1.83 8  160  83 
                                                                                
 2020  1 1 0121 40.1 L  36.074  51.908 13.0  New  8 0.8                        1
 GAP=183        2.05       6.5     4.5  5.7  0.8710E+01 -0.8059E+01 -0.1738E+02E
 Action:ARG 22-06-18 17:45 OP:OBSP STATUS:               ID:20200101012140     I
 STAT SP IPHASW D HRMM SECON CODA AMPLIT PERI AZIMU VELO AIN AR TRES W  DIS CAZ7
 SRWZ    EP   0    12143.783                             132    0.1110 12.1 108 
 SRWZ    ES   0    12147.073                             132    0.7010 12.1 108 
 YXLK    EP   0    12152.271                              94   -0.6010 63.9  39 
 YXLK    ES   0    122 1.326                              94   -1.1410 63.9  39 
 EVSP    EP   0    12153.138                              94   -0.2710 66.8 291 
 EVSP    ES   0    122 3.144                              94   -0.2610 66.8 291 
 YIBA    EP   0    12154.717                              64    0.2410 72.6  11 
 YIBA    ES   0    122 6.832                              64    1.5510 72.6  11 
 ZSCP    EP   0    12158.313                              64    0.7610 91.1  79 
 ZSCP    ES   0    12210.420                              64   -0.2510 91.1  79 
 RVDG    EP   0    12156.839                              64   -1.4310 95.4  68 
 RVDG    ES   0    12211.010                              64   -0.9110 95.4  68 
 YAIP    EP   0    122 9.234                              53    0.12 8  169  58 
 YAIP    ES   0    12232.275                              53    1.39 8  169  58 
 ZGXN    EP   0    12210.161                              53    0.34 8  174  85 
 ZGXN    ES   0    12232.487                              53    0.35 8  174  85 
                                                                                
 2020  1 1 0123 20.4 L  36.176  51.819 27.2  New  4 0.4                        1
 GAP=194        0.96       7.1     6.0208.1 -0.2840E+02 -0.1118E+04  0.1087E+04E
 Action:ARG 22-06-18 17:45 OP:OBSP STATUS:               ID:20200101012320     I
 STAT SP IPHASW D HRMM SECON CODA AMPLIT PERI AZIMU VELO AIN AR TRES W  DIS CAZ7
 EVSP    EP   0    12331.969                              93    0.3110 55.8 283 
 EVSP    ES   0    12339.796                              93   -0.2810 55.8 283 
 YIBA    EP   0    12332.874                              92    0.0210 64.0  20 
 YIBA    ES   0    12342.046                              92   -0.1210 64.0  20 
 RVDG    EP   0    12338.382                              91    0.31 9 99.5  76 
 RVDG    ES   0    12351.758                              91    0.45 9 99.5  76 
 ZGXN    EP   0    12350.014                              90   -0.06 8  181  89 
 ZGXN    ES   0    12411.299                              90   -1.01 8  181  89 
                                                                                
