 2020  1 1 0001 39.3 L  35.874  52.386  3.3  New 10 1.0                        1
 GAP=219        2.53       7.3     4.7  9.6  0.2631E+01 -0.4378E+01 -0.1248E+02E
 Action:ARG 22-06-18 17:45 OP:OBSP STATUS:               ID:20200101000140     I
 STAT SP IPHASW D HRMM SECON CODA AMPLIT PERI AZIMU VELO AIN AR TRES W  DIS CAZ7
 SRWZ    EP   0    0 145.821                              64   -1.3210 36.7 300 
 SRWZ    ES   0    0 151.732                              64   -1.2510 36.7 300 
 TVCN    EP   0    0 148.790                              64   -0.1310 45.6 338 
 TVCN    ES   0    0 156.779                              64    0.6910 45.6 338 
 ZSCP    EP   0    0 152.947                              64    0.9610 60.9  49 
 ZSCP    ES   0    0 2 1.183                              64   -0.2910 60.9  49 
 YXLK    EP   0    0 155.392                              56    1.2610 71.8 358 
 YXLK    ES   0    0 2 5.209                              56   -0.0110 71.8 358 
 RVDG    EP   0    0 153.276                              56   -1.1310 73.3  38 
 RVDG    ES   0    0 2 5.454                              56   -0.2510 73.3  38 
 YIBA    EP   0    0 158.749                              56   -0.16 9 97.6 343 
 YIBA    ES   0    0 212.579                              56   -1.00 9 97.6 343 
 EVSP    EP   0    0 2 1.608                              41   -0.14 9  115 294 
 EVSP    ES   0    0 220.021                              41    1.47 9  115 294 
 XIVZ    EP   0    0 2 4.045                              41    1.03 9  124 345 
 XIVZ    ES   0    0 221.206                              41    0.44 9  124 345 
 ZGXN    EP   0    0 2 4.797                              41    0.15 9  135  75 
 ZGXN    ES   0    0 221.745                              41   -1.88 9  135  75 
 YAIP    EP   0    0 2 9.031                              41    2.22 8  150  42 
 YAIP    ES   0    0 227.437                              41    0.03 8  150  42 
                                                                                
 2020  1 1 0003 19.1 L  35.764  51.887 12.8  New  5 0.9                        1
 GAP=309        2.02      10.2    14.5  9.2  0.6293E+01 -0.2132E+02  0.1719E+02E
 Action:ARG 22-06-18 17:45 OP:OBSP STATUS:               ID:20200101000320     I
 STAT SP IPHASW D HRMM SECON CODA AMPLIT PERI AZIMU VELO AIN AR TRES W  DIS CAZ7
 TVCN    EP   0    0 332.382                              94    0.9110 61.5  27 
 TVCN    ES   0    0 340.407                              94   -0.3210 61.5  27 
 YXLK    EP   0    0 337.771                              64    0.6710 94.0  27 
 YXLK    ES   0    0 349.277                              64   -1.3110 94.0  27 
 ZSCP    EP   0    0 338.180                              53   -0.61 9  105  60 
 ZSCP    ES   0    0 354.531                              53    0.99 9  105  60 
 YIBA    EP   0    0 338.976                              53   -0.08 9  107   9 
 YIBA    ES   0    0 354.554                              53    0.56 9  107   9 
 YAIP    EP   0    0 349.711                              53   -1.67 7  191  50 
 YAIP    ES   0    0 415.845                              53    0.28 7  191  50 
                                                                                
 2020  1 1 0004 59.3 L  35.480  52.187 14.6  New 10 0.9                        1
 GAP=254        2.21       8.8     8.1  8.5  0.1928E+02 -0.2531E+02 -0.6547E+01E
 Action:ARG 22-06-18 17:45 OP:OBSP STATUS:               ID:20200101000500     I
 STAT SP IPHASW D HRMM SECON CODA AMPLIT PERI AZIMU VELO AIN AR TRES W  DIS CAZ7
 SRWZ    EP   0    0 511.845                              96   -0.2510 63.7 348 
 SRWZ    ES   0    0 522.302                              96    0.6110 63.7 348 
 TVCN    EP   0    0 515.029                              64   -0.8110 86.2   1 
 TVCN    ES   0    0 528.314                              64    0.0710 86.2   1 
 ZSCP    EP   0    0 518.666                              53   -0.15 9  105  38 
 ZSCP    ES   0    0 533.276                              53   -0.18 9  105  38 
 YXLK    EP   0    0 519.310                              53   -1.15 9  117   7 
 YXLK    ES   0    0 537.927                              53    1.59 9  117   7 
 RVDG    EP   0    0 521.500                              53    0.59 9  120  32 
 RVDG    ES   0    0 537.275                              53    0.16 9  120  32 
 EVSP    EP   0    0 523.469                              53    1.68 9  126 316 
 EVSP    ES   0    0 538.596                              53   -0.07 9  126 316 
 YIBA    EP   0    0 523.045                              53   -0.50 9  138 356 
 YIBA    ES   0    0 542.337                              53    0.60 9  138 356 
 XIVZ    EP   0    0 527.281                              53   -0.14 8  164 355 
 XIVZ    ES   0    0 545.502                              53   -3.02 8  164 355 
 ZGXN    EP   0    0 528.450                              53    0.38 8  168  62 
 ZGXN    ES   0    0 549.972                              53    0.33 8  168  62 
 YAIP    EP   0    0 531.471                              53   -0.50 7  195  38 
 YAIP    ES   0    0 556.758                              53    0.29 7  195  38 
                                                                                
 2020  1 1 0006 38.5 L  35.799  52.447  8.3  New  5 0.8                        1
 GAP=258        1.91       9.9     7.0 11.7 -0.1804E+00 -0.1534E+02 -0.2333E+02E
 Action:ARG 22-06-18 17:45 OP:OBSP STATUS:               ID:20200101000640     I
 STAT SP IPHASW D HRMM SECON CODA AMPLIT PERI AZIMU VELO AIN AR TRES W  DIS CAZ7
 SRWZ    EP   0    0 648.945                              68    0.8410 45.8 306 
 SRWZ    ES   0    0 656.139                              68    0.8710 45.8 306 
 TVCN    EP   0    0 649.110                              68   -0.7610 55.3 336 
 TVCN    ES   0    0 658.433                              68    0.0710 55.3 336 
 EVSP    EP   0    0 7 0.795                              47   -0.71 9  124 296 
 EVSP    ES   0    0 718.810                              47    0.09 9  124 296 
 XIVZ    EP   0    0 7 1.942                              47   -0.98 9  133 344 
 XIVZ    ES   0    0 720.070                              47   -1.13 9  133 344 
 YAIP    EP   0    0 7 6.029                              47    0.31 8  152  39 
 YAIP    ES   0    0 727.367                              47    1.27 8  152  39 
                                                                                
 2020  1 1 0008 20.1 L  35.964  52.036 15.1  New  5 0.5                        1
 GAP=301        1.36       9.8     8.1 15.3  0.4380E+02 -0.5612E+02 -0.9797E+02E
 Action:ARG 22-06-18 17:45 OP:OBSP STATUS:               ID:20200101000820     I
 STAT SP IPHASW D HRMM SECON CODA AMPLIT PERI AZIMU VELO AIN AR TRES W  DIS CAZ7
 YXLK    EP   0    0 832.740                              64   -0.8510 68.2  25 
 YXLK    ES   0    0 843.817                              64    0.1010 68.2  25 
 YIBA    EP   0    0 835.840                              64   -0.3010 83.5   2 
 YIBA    ES   0    0 848.850                              64    0.6810 83.5   2 
 RVDG    EP   0    0 837.553                              64    0.2310 90.5  58 
 RVDG    ES   0    0 850.094                              64   -0.1410 90.5  58 
 XIVZ    EP   0    0 841.045                              53    0.88 9  110 359 
 XIVZ    ES   0    0 854.381                              53   -0.84 9  110 359 
 YAIP    EP   0    0 848.706                              53    0.20 8  166  53 
 YAIP    ES   0    0 910.046                              53    0.23 8  166  53 
                                                                                
 2020  1 1 0010  0.8 L  35.566  52.357  8.9  New  8 0.6                        1
 GAP=269        1.53      11.5     7.8 12.6  0.6407E+02 -0.6994E+02 -0.1092E+03E
 Action:ARG 22-06-18 17:45 OP:OBSP STATUS:               ID:20200101001000     I
 STAT SP IPHASW D HRMM SECON CODA AMPLIT PERI AZIMU VELO AIN AR TRES W  DIS CAZ7
 SRWZ    EP   0    01013.193                              68    0.2110 60.2 331 
 SRWZ    ES   0    01022.591                              68    0.4910 60.2 331 
 ZSCP    EP   0    01017.721                              56   -0.5210 88.6  34 
 ZSCP    ES   0    01031.199                              56   -0.1210 88.6  34 
 RVDG    EP   0    01020.342                              47   -0.39 9  104  28 
 RVDG    ES   0    01036.099                              47    0.43 9  104  28 
 YXLK    EP   0    01021.868                              47    0.79 9  106 360 
 YXLK    ES   0    01034.837                              47   -1.44 9  106 360 
 YIBA    EP   0    01024.826                              47    0.19 9  130 349 
 YIBA    ES   0    01043.270                              47    0.77 9  130 349 
 ZGXN    EP   0    01027.033                              47   -0.55 8  150  62 
 ZGXN    ES   0    01048.514                              47    0.86 8  150  62 
 XIVZ    EP   0    01027.790                              47   -0.73 8  157 349 
 XIVZ    ES   0    01048.603                              47   -0.69 8  157 349 
 YAIP    EP   0    01031.968                              47    0.31 8  178  36 
 YAIP    ES   0    01055.187                              47    0.40 8  178  36 
                                                                                
 2020  1 1 0011 38.9 L  35.888  51.909 12.6  New 10 1.0                        1
 GAP=227        2.57       8.7     6.3  6.9  0.4628E+01  0.3100E+01  0.1267E+02E
 Action:ARG 22-06-18 17:45 OP:OBSP STATUS:               ID:20200101001140     I
 STAT SP IPHASW D HRMM SECON CODA AMPLIT PERI AZIMU VELO AIN AR TRES W  DIS CAZ7
 SRWZ    EP   0    01145.990                             113    2.1910 20.4  34 
 SRWZ    ES   0    01146.229                             113   -1.2210 20.4  34 
 TVCN    EP   0    01149.267                              95    0.3710 48.6  33 
 TVCN    ES   0    01156.564                              95    0.2010 48.6  33 
 EVSP    EP   0    01153.535                              64   -0.5410 76.8 306 
 EVSP    ES   0    012 5.589                              64    0.1510 76.8 306 
 YXLK    EP   0    01152.424                              64   -2.3410 80.9  30 
 YXLK    ES   0    012 7.873                              64    1.2410 80.9  30 
 YIBA    EP   0    01156.507                              64   -0.2610 93.0   9 
 YIBA    ES   0    01210.099                              64   -0.0410 93.0   9 
 ZSCP    EP   0    01157.720                              64    0.26 9 97.1  67 
 ZSCP    ES   0    012 9.893                              64   -1.45 9 97.1  67 
 RVDG    EP   0    01158.568                              53   -0.02 9  105  57 
 RVDG    ES   0    01213.142                              53   -0.18 9  105  57 
 XIVZ    EP   0    012 0.334                              53   -0.26 9  118   5 
 XIVZ    ES   0    01217.532                              53    0.69 9  118   5 
 ZGXN    EP   0    012 9.657                              53    0.52 8  176  78 
 ZGXN    ES   0    01233.458                              53    1.67 8  176  78 
 YAIP    EP   0    012 9.787                              53    0.06 8  180  53 
 YAIP    ES   0    01232.431                              53   -0.38 8  180  53 
                                                                                
 2020  1 1 0013 19.5 L  35.713  52.270 16.6  New  6 0.4                        1
 GAP=260        0.89       5.0     2.8  3.3 -0.5754E+00 -0.3755E+01  0.2360E+01E
 Action:ARG 22-06-18 17:45 OP:OBSP STATUS:               ID:20200101001320     I
 STAT SP IPHASW D HRMM SECON CODA AMPLIT PERI AZIMU VELO AIN AR TRES W  DIS CAZ7
 SRWZ    EP   0    01328.930                             105    0.5410 42.1 330 
 SRWZ    ES   0    01334.646                             105   -0.4410 42.1 330 
 ZSCP    EP   0    01334.827                              64   -0.1310 80.9  45 
 ZSCP    ES   0    01346.715                              64    0.1310 80.9  45 
 RVDG    EP   0    01336.946                              53   -0.1410 94.0  37 
 RVDG    ES   0    01350.128                              53   -0.1610 94.0  37 
 EVSP    EP   0    01339.893                              53   -0.24 9  115 304 
 EVSP    ES   0    01355.473                              53   -0.16 9  115 304 
 XIVZ    EP   0    01343.809                              53    0.08 8  139 351 
 XIVZ    ES   0    014 2.640                              53    0.71 8  139 351 
 YAIP    EP   0    01348.686                              53    0.42 8  170  41 
 YAIP    ES   0    014 9.325                              53   -0.53 8  170  41 
                                                                                
 2020  1 1 0014 59.3 L  35.832  51.983  0.3  New  5 0.6                        1
 GAP=230        1.42       5.4     4.0  8.7  0.2127E+01 -0.9723E+01 -0.3173E+01E
 Action:ARG 22-06-18 17:45 OP:OBSP STATUS:               ID:20200101001500     I
 STAT SP IPHASW D HRMM SECON CODA AMPLIT PERI AZIMU VELO AIN AR TRES W  DIS CAZ7
 TVCN    EP   0    015 9.397                              64   -0.8210 51.0  23 
 TVCN    ES   0    01518.842                              64    0.4110 51.0  23 
 EVSP    EP   0    01517.004                              56   -0.0110 85.8 306 
 EVSP    ES   0    01530.258                              56   -0.0710 85.8 306 
 YIBA    EP   0    01518.897                              56   -0.44 9 98.4   4 
 YIBA    ES   0    01534.881                              56    0.49 9 98.4   4 
 RVDG    EP   0    01521.086                              49    0.92 9  103  53 
 RVDG    ES   0    01535.021                              49   -0.82 9  103  53 
 ZGXN    EP   0    01531.130                              41    0.69 8  171  76 
 ZGXN    ES   0    01553.710                              41   -0.11 8  171  76 
                                                                                
 2020  1 1 0016 39.4 L  36.127  52.023  0.0  New  7 0.8                        1
 GAP=197        2.11       6.5     3.9  7.6 -0.7714E+00 -0.3294E+01  0.1607E+02E
 Action:ARG 22-06-18 17:45 OP:OBSP STATUS:               ID:20200101001640     I
 STAT SP IPHASW D HRMM SECON CODA AMPLIT PERI AZIMU VELO AIN AR TRES W  DIS CAZ7
 TVCN    EP   0    01642.666                              90   -1.4810 21.4  48 
 TVCN    ES   0    01648.368                              90    0.6510 21.4  48 
 YIBA    EP   0    01652.246                              64   -1.0010 65.4   4 
 YIBA    ES   0    017 4.483                              64    0.8410 65.4   4 
 EVSP    EP   0    01655.872                              64    0.7110 75.0 284 
 EVSP    ES   0    017 6.946                              64   -0.0410 75.0 284 
 ZSCP    EP   0    01656.722                              56    0.6710 79.8  81 
 ZSCP    ES   0    017 9.171                              56    0.6210 79.8  81 
 RVDG    EP   0    01655.444                              56   -1.3010 83.5  69 
 RVDG    ES   0    01710.193                              56    0.4310 83.5  69 
 YAIP    EP   0    017 8.140                              41   -0.34 8  157  58 
 YAIP    ES   0    01729.429                              41   -0.87 8  157  58 
 ZGXN    EP   0    01710.398                              41    1.04 8  163  87 
 ZGXN    ES   0    01731.870                              41    0.04 8  163  87 
                                                                                
 2020  1 1 0018 19.7 L  36.263  51.709 19.4  New  8 1.1                        1
 GAP=250        2.77       6.6    14.7 12.5  0.3653E+02 -0.5100E+02 -0.6672E+01E
 Action:ARG 22-06-18 17:45 OP:OBSP STATUS:               ID:20200101001820     I
 STAT SP IPHASW D HRMM SECON CODA AMPLIT PERI AZIMU VELO AIN AR TRES W  DIS CAZ7
 SRWZ    EP   0    01827.291                              98   -0.7110 38.3 130 
 SRWZ    ES   0    01834.052                              98   -0.1710 38.3 130 
 TVCN    EP   0    01830.500                              95    1.5310 44.1  91 
 TVCN    ES   0    01835.588                              95   -0.3310 44.1  91 
 YIBA    EP   0    01830.888                              93   -0.6610 59.7  33 
 YIBA    ES   0    01839.832                              93   -0.6110 59.7  33 
 YXLK    EP   0    01831.896                              92   -0.5010 64.7  64 
 YXLK    ES   0    01842.836                              92    0.9310 64.7  64 
 XIVZ    EP   0    01833.957                              92   -1.2110 81.4  20 
 XIVZ    ES   0    01847.403                              92    0.6410 81.4  20 
 ZSCP    EP   0    01839.510                              62    0.52 9  107  92 
 RVDG    EP   0    01839.550                              62    0.55 9  107  82 
 RVDG    ES   0    01854.104                              62    0.62 9  107  82 
 ZSCP    ES   0    01851.704                              62   -1.75 9  107  92 
 YAIP    EP   0    01852.166                              62    3.19 8  175  67 
 YAIP    ES   0    019 9.669                              62   -1.27 8  175  67 
                                                                                
 2020  1 1 0019 59.2 L  36.095  52.220 12.4  New  7 0.6                        1
 GAP=165        1.41       3.2     3.9  4.4 -0.1074E+01 -0.9994E+01 -0.5352E+00E
 Action:ARG 22-06-18 17:45 OP:OBSP STATUS:               ID:20200101002000     I
 STAT SP IPHASW D HRMM SECON CODA AMPLIT PERI AZIMU VELO AIN AR TRES W  DIS CAZ7
 SRWZ    EP   0    020 3.683                             118    0.0510 17.7 250 
 SRWZ    ES   0    020 6.870                             118   -0.0610 17.7 250 
 TVCN    EP   0    020 3.480                             117   -0.2010 17.9 354 
 TVCN    ES   0    020 7.185                             117    0.1710 17.9 354 
 RVDG    EP   0    02012.871                              93   -0.0910 68.9  61 
 RVDG    ES   0    02023.085                              93   -0.1610 68.9  61 
 YIBA    EP   0    02012.616                              93   -0.5710 70.2 349 
 YIBA    ES   0    02024.275                              93    0.6310 70.2 349 
 XIVZ    EP   0    02018.548                              64    0.87 9 96.6 350 
 XIVZ    ES   0    02030.732                              64   -0.78 9 96.6 350 
 YAIP    EP   0    02023.575                              53   -1.14 8  144  53 
 YAIP    ES   0    02044.322                              53    0.49 8  144  53 
 ZGXN    EP   0    02025.883                              53    0.99 8  146  85 
 ZGXN    ES   0    02044.027                              53   -0.11 8  146  85 
                                                                                
