 2020  1 1 0125  0.6 L  36.280  51.909 15.3  New  7 0.8                        1
 GAP=114        2.09       4.6     4.6  6.9 -0.2115E+01  0.4810E+01 -0.1401E+02E
 Action:ARG 22-06-18 17:45 OP:OBSP STATUS:               ID:20200101012500     I
 STAT SP IPHASW D HRMM SECON CODA AMPLIT PERI AZIMU VELO AIN AR TRES W  DIS CAZ7
 SRWZ    EP   0    125 8.048                             111    0.9510 28.8 157 
 SRWZ    ES   0    12511.742                             111   -0.2310 28.8 157 
 YXLK    EP   0    125 9.874                             100   -0.6910 48.3  56 
 YXLK    ES   0    12518.111                             100    0.0610 48.3  56 
 EVSP    EP   0    12514.542                              64    1.4310 62.4 271 
 EVSP    ES   0    12521.601                              64   -0.9110 62.4 271 
 XIVZ    EP   0    12514.669                              64   -0.5710 75.2   8 
 XIVZ    ES   0    12526.968                              64    0.7410 75.2   8 
 ZSCP    EP   0    12517.245                              64   -0.3610 89.4  93 
 ZSCP    ES   0    12531.051                              64    0.6910 89.4  93 
 YAIP    EP   0    12527.283                              53   -0.48 8  158  65 
 YAIP    ES   0    12548.786                              53    0.64 8  158  65 
 ZGXN    EP   0    12528.013                              53   -1.99 8  173  93 
 ZGXN    ES   0    12552.003                              53   -0.05 8  173  93 
                                                                                
 2020  1 1 0126 39.6 L  36.133  52.099 14.1  New  5 0.7                        1
 GAP=215        1.78       6.6     4.8  5.8 -0.1576E+01  0.7157E+01  0.1166E+02E
 Action:ARG 22-06-18 17:45 OP:OBSP STATUS:               ID:20200101012640     I
 STAT SP IPHASW D HRMM SECON CODA AMPLIT PERI AZIMU VELO AIN AR TRES W  DIS CAZ7
 TVCN    EP   0    12645.185                             125    1.1910 16.5  34 
 TVCN    ES   0    12646.657                             125   -0.6110 16.5  34 
 YIBA    EP   0    12652.006                              95   -0.5910 64.7 358 
 YIBA    ES   0    127 2.462                              95    0.1310 64.7 358 
 RVDG    EP   0    12654.704                              64    0.0310 76.9  68 
 RVDG    ES   0    127 5.821                              64   -0.1310 76.9  68 
 EVSP    EP   0    12654.227                              64   -1.2010 81.5 283 
 EVSP    ES   0    127 7.882                              64    0.6110 81.5 283 
 XIVZ    EP   0    12657.819                              64    0.8010 91.0 356 
 XIVZ    ES   0    127 9.856                              64   -0.2010 91.0 356 
                                                                                
 2020  1 1 0128 19.8 L  36.050  51.757 13.4  New  6 0.9                        1
 GAP=206        2.38      13.4     6.8  9.6  0.5612E+02 -0.3703E+02 -0.8654E+02E
 Action:ARG 22-06-18 17:45 OP:OBSP STATUS:               ID:20200101012820     I
 STAT SP IPHASW D HRMM SECON CODA AMPLIT PERI AZIMU VELO AIN AR TRES W  DIS CAZ7
 SRWZ    EP   0    12827.373                             110    1.8810 25.0  92 
 SRWZ    ES   0    12828.438                             110   -1.3510 25.0  92 
 EVSP    EP   0    12830.186                              96   -0.8710 55.6 299 
 EVSP    ES   0    12839.341                              96   -0.1710 55.6 299 
 YXLK    EP   0    12834.599                              64    0.0510 75.0  46 
 YXLK    ES   0    12846.057                              64    0.4310 75.0  46 
 XIVZ    EP   0    12840.690                              53    1.65 9  103  13 
 XIVZ    ES   0    12852.897                              53   -0.59 9  103  13 
 ZSCP    EP   0    12839.625                              53    0.28 9  105  79 
 ZSCP    ES   0    12853.521                              53   -0.51 9  105  79 
 RVDG    EP   0    12839.674                              53   -0.27 9  109  69 
 RVDG    ES   0    12854.524                              53   -0.55 9  109  69 
                                                                                
 2020  1 1 0130  0.5 L  35.796  52.174 17.3  New  8 1.1                        1
 GAP=229        2.69      10.0     8.4  8.3  0.1204E+02 -0.2850E+02  0.6004E+01E
 Action:ARG 22-06-18 17:45 OP:OBSP STATUS:               ID:20200101013000     I
 STAT SP IPHASW D HRMM SECON CODA AMPLIT PERI AZIMU VELO AIN AR TRES W  DIS CAZ7
 SRWZ    EP   0    130 9.255                             115    1.8910 29.9 335 
 SRWZ    ES   0    13010.647                             115   -1.8510 29.9 335 
 TVCN    EP   0    130 9.642                              64   -1.3610 51.1   3 
 TVCN    ES   0    13020.015                              64    1.1510 51.1   3 
 YXLK    EP   0    13018.087                              64    1.9210 82.1  11 
 YXLK    ES   0    13028.156                              64    0.2610 82.1  11 
 RVDG    EP   0    13018.202                              53    0.3510 92.5  44 
 RVDG    ES   0    13029.642                              53   -1.1910 92.5  44 
 EVSP    EP   0    13018.897                              53   -0.40 9  102 303 
 EVSP    ES   0    13033.272                              53   -0.11 9  102 303 
 XIVZ    EP   0    13022.482                              53   -0.71 9  129 354 
 XIVZ    ES   0    13040.304                              53    0.11 9  129 354 
 ZGXN    EP   0    13026.997                              53   -0.15 8  156  73 
 ZGXN    ES   0    13046.576                              53   -0.53 8  156  73 
 YAIP    EP   0    13029.438                              53    0.33 8  169  45 
 YAIP    ES   0    13050.516                              53   -0.03 8  169  45 
                                                                                
 2020  1 1 0131 40.2 L  36.042  51.922 11.8  New  5 0.8                        1
 GAP=274        1.89       8.9    10.5  6.0  0.1683E+02  0.1056E+02 -0.2916E+02E
 Action:ARG 22-06-18 17:45 OP:OBSP STATUS:               ID:20200101013140     I
 STAT SP IPHASW D HRMM SECON CODA AMPLIT PERI AZIMU VELO AIN AR TRES W  DIS CAZ7
 SRWZ    EP   0    13142.338                             134   -1.0710 10.2  91 
 SRWZ    ES   0    13146.224                             134    0.4210 10.2  91 
 YXLK    EP   0    13153.477                              92    0.1010 65.9  36 
 YXLK    ES   0    132 3.350                              92    0.1010 65.9  36 
 RVDG    EP   0    13159.565                              64    1.0310 95.6  66 
 RVDG    ES   0    13211.960                              64   -0.3310 95.6  66 
 XIVZ    EP   0    13158.828                              53   -0.61 9  101   5 
 XIVZ    ES   0    13214.011                              53    0.16 9  101   5 
 YAIP    EP   0    13211.068                              53    1.57 8  170  57 
 YAIP    ES   0    13230.232                              53   -1.23 8  170  57 
                                                                                
 2020  1 1 0133 21.2 L  36.065  51.683 25.1  New  4 0.7                        1
 GAP=229        1.67     146.6   350.0578.7  0.5098E+05 -0.2026E+06 -0.8426E+05E
 Action:ARG 22-06-18 17:45 OP:OBSP STATUS:               ID:20200101013320     I
 STAT SP IPHASW D HRMM SECON CODA AMPLIT PERI AZIMU VELO AIN AR TRES W  DIS CAZ7
 EVSP    EP   0    13331.991                             107    0.5110 49.0 301 
 EVSP    ES   0    13338.853                             107   -0.3210 49.0 301 
 YXLK    EP   0    13335.804                              62   -0.1010 78.9  50 
 YXLK    ES   0    13346.989                              62    0.0710 78.9  50 
 RVDG    EP   0    13339.890                              62   -1.29 9  115  71 
 RVDG    ES   0    13356.681                              62    0.54 9  115  71 
 YAIP    EP   0    13353.238                              62    1.45 7  187  61 
 YAIP    ES   0    13414.121                              62   -0.59 7  187  61 
                                                                                
 2020  1 1 0134 59.3 L  35.809  52.237  0.8  New 10 1.0                        1
 GAP=227        2.42       7.3     5.3 10.1  0.9948E+01 -0.1280E+02 -0.1733E+02E
 Action:ARG 22-06-18 17:45 OP:OBSP STATUS:               ID:20200101013500     I
 STAT SP IPHASW D HRMM SECON CODA AMPLIT PERI AZIMU VELO AIN AR TRES W  DIS CAZ7
 SRWZ    EP   0    135 6.683                              64    0.3410 31.5 325 
 SRWZ    ES   0    13512.536                              64    0.9410 31.5 325 
 TVCN    EP   0    135 8.824                              64   -1.1610 49.8 356 
 TVCN    ES   0    13518.581                              64    0.6010 49.8 356 
 ZSCP    EP   0    13514.090                              56   -1.1210 76.0  52 
 ZSCP    ES   0    13525.615                              56   -1.5010 76.0  52 
 YXLK    EP   0    13516.761                              56    0.8610 79.8   8 
 YXLK    ES   0    13528.045                              56   -0.2910 79.8   8 
 RVDG    EP   0    13517.136                              56   -0.2210 87.6  42 
 RVDG    ES   0    13530.826                              56   -0.0510 87.6  42 
 YIBA    EP   0    13520.992                              56    1.02 9  102 352 
 YIBA    ES   0    13535.964                              56    0.51 9  102 352 
 EVSP    EP   0    13520.766                              49    0.01 9  106 300 
 EVSP    ES   0    13535.458                              49   -1.37 9  106 300 
 XIVZ    EP   0    13523.667                              41   -0.41 9  128 352 
 XIVZ    ES   0    13542.146                              41   -0.48 9  128 352 
 ZGXN    EP   0    13528.370                              41    1.10 8  150  73 
 ZGXN    ES   0    13550.902                              41    2.67 8  150  73 
 YAIP    EP   0    13528.821                              41   -0.54 8  164  44 
 YAIP    ES   0    13551.707                              41   -0.18 8  164  44 
                                                                                
 2020  1 1 0136 41.1 L  35.738  52.044 14.8  New  4 0.5                        1
 GAP=306        1.18      31.9   101.7110.7  0.3170E+04 -0.1119E+05 -0.3442E+04E
 Action:ARG 22-06-18 17:45 OP:OBSP STATUS:               ID:20200101013640     I
 STAT SP IPHASW D HRMM SECON CODA AMPLIT PERI AZIMU VELO AIN AR TRES W  DIS CAZ7
 YXLK    EP   0    13658.850                              64    0.3610 91.3  18 
 YXLK    ES   0    13711.295                              64   -0.2310 91.3  18 
 ZSCP    EP   0    13659.511                              53    0.4810 94.7  54 
 ZSCP    ES   0    13712.176                              53   -0.2910 94.7  54 
 ZGXN    EP   0    137 8.821                              53   -1.13 8  169  72 
 ZGXN    ES   0    13732.325                              53    0.75 8  169  72 
 YAIP    EP   0    13711.949                              53    0.07 8  182  46 
 YAIP    ES   0    13734.761                              53   -0.19 8  182  46 
                                                                                
 2020  1 1 0138 19.6 L  35.620  52.036 13.3  New  8 0.9                        1
 GAP=291        2.05       8.9    12.8  8.8  0.5462E+02 -0.5780E+02 -0.1155E+02E
 Action:ARG 22-06-18 17:45 OP:OBSP STATUS:               ID:20200101013820     I
 STAT SP IPHASW D HRMM SECON CODA AMPLIT PERI AZIMU VELO AIN AR TRES W  DIS CAZ7
 SRWZ    EP   0    13827.956                              97   -1.2510 46.6 360 
 SRWZ    ES   0    13836.813                              97    0.3910 46.6 360 
 TVCN    EP   0    13833.819                              64   -0.0610 72.1  12 
 TVCN    ES   0    13845.402                              64    0.8110 72.1  12 
 ZSCP    EP   0    13839.132                              53    0.19 9  103  49 
 ZSCP    ES   0    13853.648                              53    0.19 9  103  49 
 YXLK    EP   0    13840.694                              53    1.65 9  104  16 
 YXLK    ES   0    13852.618                              53   -1.02 9  104  16 
 YIBA    EP   0    13841.793                              53    0.17 9  122   1 
 YIBA    ES   0    13859.103                              53    0.95 9  122   1 
 XIVZ    EP   0    13844.615                              53   -0.85 8  148 360 
 XIVZ    ES   0    139 3.605                              53   -1.27 8  148 360 
 ZGXN    EP   0    13850.206                              53    0.87 8  174  68 
 ZGXN    ES   0    13910.533                              53   -1.12 8  174  68 
 YAIP    EP   0    13852.024                              53    0.07 7  192  44 
 YAIP    ES   0    13916.074                              53   -0.16 7  192  44 
                                                                                
 2020  1 1 0140  0.2 L  36.137  52.239 13.4  New  5 0.9                        1
 GAP=160        2.28       5.5     5.3  7.7 -0.5665E+01  0.3818E+01  0.1843E+01E
 Action:ARG 22-06-18 17:45 OP:OBSP STATUS:               ID:20200101014000     I
 STAT SP IPHASW D HRMM SECON CODA AMPLIT PERI AZIMU VELO AIN AR TRES W  DIS CAZ7
 TVCN    EP   0    140 2.838                             129   -1.1910 13.7 345 
 TVCN    ES   0    140 7.473                             129    0.5410 13.7 345 
 SRWZ    EP   0    140 6.599                             115    1.3810 21.2 240 
 SRWZ    ES   0    140 8.393                             115   -0.6310 21.2 240 
 ZSCP    EP   0    14010.801                              95   -1.5210 60.5  80 
 ZSCP    ES   0    14022.449                              95    1.0010 60.5  80 
 YIBA    EP   0    14013.739                              94    0.4010 66.0 347 
 YIBA    ES   0    14023.161                              94   -0.0710 66.0 347 
 EVSP    EP   0    14018.282                              64    0.2410 93.7 281 
 EVSP    ES   0    14031.311                              64   -0.1410 93.7 281 
                                                                                
 2020  1 1 0141 41.3 L  35.853  52.034 10.3  New  6 1.2                        1
 GAP=227        2.97      12.1     8.9 14.8 -0.2820E+01  0.3305E+01  0.8121E+02E
 Action:ARG 22-06-18 17:45 OP:OBSP STATUS:               ID:20200101014140     I
 STAT SP IPHASW D HRMM SECON CODA AMPLIT PERI AZIMU VELO AIN AR TRES W  DIS CAZ7
 TVCN    EP   0    14152.276                              91    1.2710 47.2  19 
 TVCN    ES   0    14159.671                              91    1.4010 47.2  19 
 YXLK    EP   0    14155.275                              90   -1.7410 79.6  21 
 YXLK    ES   0    142 7.504                              90   -1.2710 79.6  21 
 EVSP    EP   0    14159.456                              64    0.9010 88.3 303 
 EVSP    ES   0    14210.822                              64   -0.6610 88.3 303 
 YIBA    EP   0    14159.487                              64   -0.3210 95.7   2 
 YIBA    ES   0    14214.057                              64    0.4010 95.7   2 
 ZGXN    EP   0    142 8.581                              53   -1.72 8  166  76 
 ZGXN    ES   0    14233.259                              53    1.23 8  166  76 
 YAIP    EP   0    14213.212                              53    1.77 8  174  49 
 YAIP    ES   0    14232.747                              53   -1.29 8  174  49 
                                                                                
 2020  1 1 0143 19.8 L  36.441  52.284 12.4  New  7 0.7                        1
 GAP= 99        1.92       3.6     3.8  4.5 -0.1366E+01 -0.9743E+00  0.1301E+01E
 Action:ARG 22-06-18 17:45 OP:OBSP STATUS:               ID:20200101014320     I
 STAT SP IPHASW D HRMM SECON CODA AMPLIT PERI AZIMU VELO AIN AR TRES W  DIS CAZ7
 YXLK    EP   0    14320.864                             133   -2.2810 11.1  36 
 YXLK    ES   0    14326.755                             133    1.0710 11.1  36 
 TVCN    EP   0    14324.685                             111   -0.1610 21.8 200 
 TVCN    ES   0    14328.959                             111    0.3010 21.8 200 
 RVDG    EP   0    14331.041                              94    0.1410 55.0  96 
 RVDG    ES   0    14339.521                              94    0.2610 55.0  96 
 XIVZ    EP   0    14332.054                              93   -0.0010 61.2 338 
 XIVZ    ES   0    14341.784                              93    0.5110 61.2 338 
 EVSP    EP   0    14338.573                              64    0.21 9 97.5 260 
 EVSP    ES   0    14352.143                              64   -0.17 9 97.5 260 
 YAIP    EP   0    14341.960                              53    0.29 9  120  67 
 YAIP    ES   0    14357.623                              53   -0.48 9  120  67 
 ZGXN    EP   0    14345.086                              53    0.21 8  142 101 
 ZGXN    ES   0    144 3.920                              53    0.20 8  142 101 
                                                                                
 2020  1 1 0144 59.9 L  36.247  51.573 22.5  New  8 0.8                        1
 GAP=160        1.96       6.3     5.1  8.1  0.1007E+02 -0.2152E+02 -0.2603E+02E
 Action:ARG 22-06-18 17:45 OP:OBSP STATUS:               ID:20200101014500     I
 STAT SP IPHASW D HRMM SECON CODA AMPLIT PERI AZIMU VELO AIN AR TRES W  DIS CAZ7
 EVSP    EP   0    145 7.317                             114   -0.1010 32.6 278 
 EVSP    ES   0    14512.836                             114   -0.2310 32.6 278 
 SRWZ    EP   0    145 9.747                             103   -0.0210 47.4 119 
 SRWZ    ES   0    14517.431                             103    0.2410 47.4 119 
 TVCN    EP   0    14512.922                              99    1.6910 56.4  89 
 TVCN    ES   0    14517.886                              99   -1.8710 56.4  89 
 YIBA    EP   0    14512.903                              62   -0.3210 68.4  40 
 YIBA    ES   0    14524.170                              62    0.9410 68.4  40 
 YXLK    EP   0    14514.680                              62    0.2610 76.6  66 
 YXLK    ES   0    14525.222                              62   -0.1110 76.6  66 
 XIVZ    EP   0    14516.038                              62   -0.0510 88.0  27 
 XIVZ    ES   0    14527.504                              62   -0.7510 88.0  27 
 YAIP    EP   0    14530.932                              62    0.25 7  187  68 
 YAIP    ES   0    14554.520                              62    0.74 7  187  68 
 ZGXN    EP   0    14532.732                              62   -0.31 7  203  91 
 ZGXN    ES   0    14557.693                              62   -0.23 7  203  91 
                                                                                
