 2020  1 1  1 6 40.0 L  36.170  52.051  7.8       5 0.0 2.5l                   1
 Action:ARG 22-06-18 17:45 OP:OBSP STATUS:               ID:20200101010640     I
 STAT SP IPHASW D HRMM SECON CODA AMPLIT PERI AZIMU VELO AIN AR TRES W  DIS CAZ7
 YAIP    EP   0    1 7 6.252                                            152  59 
 YAIP    ES   0    1 728.509                                            152  59 
 RVDG    EP   0    1 655.433                                           79.6  71 
 RVDG    ES   0    1 7 7.219                                           79.6  71 
 ZSCP    EP   0    1 654.989                                           76.7  84 
 ZSCP    ES   0    1 7 7.404                                           76.7  84 
 YIBA    EP   0    1 652.705                                           60.5   1 
 YIBA    ES   0    1 7 0.891                                           60.5   1 
 XIVZ    EP   0    1 657.498                                           86.7 358 
 XIVZ    ES   0    1 7 9.855                                           86.7 358 
                                                                                

 2020  1 1  1 8 20.0 L  35.955  51.950 19.9       7 0.0 3.5l                   1
 Action:ARG 22-06-18 17:45 OP:OBSP STATUS:               ID:20200101010820     I
 STAT SP IPHASW D HRMM SECON CODA AMPLIT PERI AZIMU VELO AIN AR TRES W  DIS CAZ7
 TVCN    EP   0    1 828.638                                           40.3  33 
 TVCN    ES   0    1 834.209                                           40.3  33 
 XIVZ    EP   0    1 839.719                                            110   3 
 XIVZ    ES   0    1 852.799                                            110   3 
 ZSCP    EP   0    1 835.281                                           90.9  70 
 ZSCP    ES   0    1 849.279                                           90.9  70 
 YIBA    EP   0    1 836.641                                           85.1   7 
 YIBA    ES   0    1 848.275                                           85.1   7 
 EVSP    EP   0    1 833.973                                           76.0 299 
 EVSP    ES   0    1 843.487                                           76.0 299 
 RVDG    EP   0    1 839.562                                           97.7  60 
 RVDG    ES   0    1 851.885                                           97.7  60 
 YAIP    EP   0    1 848.673                                            173  53 
 YAIP    ES   0    1 911.389                                            173  53 
                                                                                

 2020  1 1  110  0.0 L  36.092  52.042 17.9       7 0.0 3.5l                   1
 Action:ARG 22-06-18 17:45 OP:OBSP STATUS:               ID:20200101011000     I
 STAT SP IPHASW D HRMM SECON CODA AMPLIT PERI AZIMU VELO AIN AR TRES W  DIS CAZ7
 ZGXN    EP   0    11026.232                                            161  85 
 ZGXN    ES   0    11049.100                                            161  85 
 YXLK    EP   0    110 9.641                                           55.4  30 
 YXLK    ES   0    11018.774                                           55.4  30 
 EVSP    EP   0    11013.883                                           77.6 286 
 EVSP    ES   0    11024.440                                           77.6 286 
 XIVZ    EP   0    11017.174                                           95.4 359 
 XIVZ    ES   0    11031.215                                           95.4 359 
 YAIP    EP   0    11027.815                                            157  56 
 YAIP    ES   0    11048.319                                            157  56 
 SRWZ    EP   0    110 4.313                                           5.67 185 
 SRWZ    ES   0    110 7.550                                           5.67 185 
 TVCN    EP   0    110 5.459                                           23.2  37 
 TVCN    ES   0    110 9.758                                           23.2  37 
                                                                                

 2020  1 1  111 40.0 L  36.027  52.044  6.8       9 0.0 4.5l                   1
 Action:ARG 22-06-18 17:45 OP:OBSP STATUS:               ID:20200101011140     I
 STAT SP IPHASW D HRMM SECON CODA AMPLIT PERI AZIMU VELO AIN AR TRES W  DIS CAZ7
 YIBA    EP   0    11155.192                                           76.5   1 
 YIBA    ES   0    112 6.827                                           76.5   1 
 ZSCP    EP   0    11156.735                                           80.4  73 
 ZSCP    ES   0    112 8.634                                           80.4  73 
 YAIP    EP   0    112 7.741                                            161  54 
 YAIP    ES   0    11229.579                                            161  54 
 TVCN    EP   0    11145.881                                           29.1  28 
 TVCN    ES   0    11149.346                                           29.1  28 
 RVDG    EP   0    11156.288                                           86.4  61 
 RVDG    ES   0    11210.708                                           86.4  61 
 ZGXN    EP   0    112 8.480                                            161  83 
 ZGXN    ES   0    11232.448                                            161  83 
 XIVZ    EP   0    112 0.077                                            102 358 
 XIVZ    ES   0    11214.487                                            102 358 
 EVSP    EP   0    11155.383                                           80.2 291 
 EVSP    ES   0    112 8.548                                           80.2 291 
 YXLK    EP   0    11153.018                                           61.6  26 
 YXLK    ES   0    112 3.797                                           61.6  26 
                                                                                

 2020  1 1  113 20.0 L  36.084  51.850 10.0       4 0.0 2.0l                   1
 Action:ARG 22-06-18 17:45 OP:OBSP STATUS:               ID:20200101011320     I
 STAT SP IPHASW D HRMM SECON CODA AMPLIT PERI AZIMU VELO AIN AR TRES W  DIS CAZ7
 YAIP    EP   0    11349.159                                            172  59 
 YAIP    ES   0    11410.933                                            172  59 
 EVSP    EP   0    11331.287                                           61.6 291 
 EVSP    ES   0    11342.062                                           61.6 291 
 SRWZ    EP   0    11325.163                                           17.4 106 
 SRWZ    ES   0    11327.312                                           17.4 106 
 XIVZ    EP   0    11337.481                                           97.4   9 
 XIVZ    ES   0    11354.384                                           97.4   9 
                                                                                

 2020  1 1  115  0.0 L  36.253  52.027 15.8       7 0.0 3.5l                   1
 Action:ARG 22-06-18 17:45 OP:OBSP STATUS:               ID:20200101011500     I
 STAT SP IPHASW D HRMM SECON CODA AMPLIT PERI AZIMU VELO AIN AR TRES W  DIS CAZ7
 XIVZ    EP   0    11515.529                                           77.5 359 
 XIVZ    ES   0    11526.414                                           77.5 359 
 TVCN    EP   0    115 4.936                                           15.6  88 
 TVCN    ES   0    115 7.651                                           15.6  88 
 YIBA    EP   0    115 7.530                                           51.5   4 
 YIBA    ES   0    11518.183                                           51.5   4 
 SRWZ    EP   0    115 5.243                                           23.5 178 
 SRWZ    ES   0    115 8.854                                           23.5 178 
 YXLK    EP   0    115 7.535                                           42.0  44 
 YXLK    ES   0    11516.268                                           42.0  44 
 RVDG    EP   0    11515.163                                           79.3  78 
 RVDG    ES   0    11527.202                                           79.3  78 
 EVSP    EP   0    11515.077                                           73.2 273 
 EVSP    ES   0    11523.907                                           73.2 273 
                                                                                

 2020  1 1  116 40.0 L  36.041  52.268 15.7       6 0.0 3.0l                   1
 Action:ARG 22-06-18 17:45 OP:OBSP STATUS:               ID:20200101011640     I
 STAT SP IPHASW D HRMM SECON CODA AMPLIT PERI AZIMU VELO AIN AR TRES W  DIS CAZ7
 RVDG    EP   0    11654.655                                           68.4  55 
 RVDG    ES   0    117 3.811                                           68.4  55 
 SRWZ    EP   0    11646.537                                           21.0 269 
 SRWZ    ES   0    11650.254                                           21.0 269 
 YAIP    EP   0    117 7.069                                            144  50 
 YAIP    ES   0    11723.524                                            144  50 
 ZSCP    EP   0    11650.964                                           60.7  69 
 ZSCP    ES   0    11659.679                                           60.7  69 
 EVSP    EP   0    11659.172                                           98.8 286 
 EVSP    ES   0    11712.603                                           98.8 286 
 ZGXN    EP   0    117 5.229                                            141  82 
 ZGXN    ES   0    11722.995                                            141  82 
                                                                                

 2020  1 1  118 20.0 L  35.857  51.916 19.0       4 0.0 2.0l                   1
 Action:ARG 22-06-18 17:45 OP:OBSP STATUS:               ID:20200101011820     I
 STAT SP IPHASW D HRMM SECON CODA AMPLIT PERI AZIMU VELO AIN AR TRES W  DIS CAZ7
 RVDG    EP   0    11837.804                                            106  55 
 RVDG    ES   0    11853.333                                            106  55 
 ZSCP    EP   0    11838.166                                           98.0  64 
 ZSCP    ES   0    11851.285                                           98.0  64 
 YXLK    EP   0    11836.585                                           83.6  28 
 YXLK    ES   0    11848.001                                           83.6  28 
 ZGXN    EP   0    11850.364                                            176  77 
 ZGXN    ES   0    119 9.889                                            176  77 
                                                                                

 2020  1 1  120  0.0 L  36.017  52.095 11.3       6 0.0 3.0l                   1
 Action:ARG 22-06-18 17:45 OP:OBSP STATUS:               ID:20200101012000     I
 STAT SP IPHASW D HRMM SECON CODA AMPLIT PERI AZIMU VELO AIN AR TRES W  DIS CAZ7
 YIBA    EP   0    12014.268                                           77.5 358 
 YIBA    ES   0    12026.637                                           77.5 358 
 RVDG    EP   0    12017.269                                           83.0  59 
 RVDG    ES   0    12028.728                                           83.0  59 
 SRWZ    EP   0    120 3.072                                           5.97 295 
 SRWZ    ES   0    120 4.640                                           5.97 295 
 YAIP    EP   0    12027.450                                            158  53 
 YAIP    ES   0    12051.017                                            158  53 
 EVSP    EP   0    12015.324                                           84.8 291 
 EVSP    ES   0    12029.154                                           84.8 291 
 ZGXN    EP   0    12029.406                                            157  82 
 ZGXN    ES   0    12047.147                                            157  82 
                                                                                

 2020  1 1  121 40.0 L  36.010  51.923 17.5       8 0.0 4.0l                   1
 Action:ARG 22-06-18 17:45 OP:OBSP STATUS:               ID:20200101012140     I
 STAT SP IPHASW D HRMM SECON CODA AMPLIT PERI AZIMU VELO AIN AR TRES W  DIS CAZ7
 ZGXN    EP   0    12210.161                                            173  82 
 ZGXN    ES   0    12232.487                                            173  82 
 EVSP    EP   0    12153.138                                           71.0 296 
 EVSP    ES   0    122 3.144                                           71.0 296 
 YAIP    EP   0    122 9.234                                            171  55 
 YAIP    ES   0    12232.275                                            171  55 
 RVDG    EP   0    12156.839                                           97.0  63 
 RVDG    ES   0    12211.010                                           97.0  63 
 SRWZ    EP   0    12143.783                                           10.7  71 
 SRWZ    ES   0    12147.073                                           10.7  71 
 YIBA    EP   0    12154.717                                           79.4   9 
 YIBA    ES   0    122 6.832                                           79.4   9 
 YXLK    EP   0    12152.271                                           68.8  34 
 YXLK    ES   0    122 1.326                                           68.8  34 
 ZSCP    EP   0    12158.313                                           91.4  74 
 ZSCP    ES   0    12210.420                                           91.4  74 
                                                                                

 2020  1 1  123 20.0 L  36.156  51.861 15.1       4 0.0 2.0l                   1
 Action:ARG 22-06-18 17:45 OP:OBSP STATUS:               ID:20200101012320     I
 STAT SP IPHASW D HRMM SECON CODA AMPLIT PERI AZIMU VELO AIN AR TRES W  DIS CAZ7
 ZGXN    EP   0    12350.014                                            177  88 
 ZGXN    ES   0    12411.299                                            177  88 
 RVDG    EP   0    12338.382                                           96.4  73 
 RVDG    ES   0    12351.758                                           96.4  73 
 YIBA    EP   0    12332.874                                           64.8  16 
 YIBA    ES   0    12342.046                                           64.8  16 
 EVSP    EP   0    12331.969                                           60.1 284 
 EVSP    ES   0    12339.796                                           60.1 284 
                                                                                

 2020  1 1  125  0.0 L  36.274  51.900  9.6       7 0.0 3.5l                   1
 Action:ARG 22-06-18 17:45 OP:OBSP STATUS:               ID:20200101012500     I
 STAT SP IPHASW D HRMM SECON CODA AMPLIT PERI AZIMU VELO AIN AR TRES W  DIS CAZ7
 YAIP    EP   0    12527.283                                            158  65 
 YAIP    ES   0    12548.786                                            158  65 
 ZGXN    EP   0    12528.013                                            173  92 
 ZGXN    ES   0    12552.003                                            173  92 
 YXLK    EP   0    125 9.874                                           49.3  56 
 YXLK    ES   0    12518.111                                           49.3  56 
 XIVZ    EP   0    12514.669                                           76.0   8 
 XIVZ    ES   0    12526.968                                           76.0   8 
 SRWZ    EP   0    125 8.048                                           28.6 154 
 SRWZ    ES   0    12511.742                                           28.6 154 
 EVSP    EP   0    12514.542                                           61.7 271 
 EVSP    ES   0    12521.601                                           61.7 271 
 ZSCP    EP   0    12517.245                                           90.1  92 
 ZSCP    ES   0    12531.051                                           90.1  92 
                                                                                

 2020  1 1  126 40.0 L  36.133  52.090 13.8       5 0.0 2.5l                   1
 Action:ARG 22-06-18 17:45 OP:OBSP STATUS:               ID:20200101012640     I
 STAT SP IPHASW D HRMM SECON CODA AMPLIT PERI AZIMU VELO AIN AR TRES W  DIS CAZ7
 XIVZ    EP   0    12657.819                                           91.0 356 
 XIVZ    ES   0    127 9.856                                           91.0 356 
 TVCN    EP   0    12645.185                                           16.9  35 
 TVCN    ES   0    12646.657                                           16.9  35 
 EVSP    EP   0    12654.227                                           80.7 282 
 EVSP    ES   0    127 7.882                                           80.7 282 
 YIBA    EP   0    12652.006                                           64.7 358 
 YIBA    ES   0    127 2.462                                           64.7 358 
 RVDG    EP   0    12654.704                                           77.7  68 
 RVDG    ES   0    127 5.821                                           77.7  68 
                                                                                

 2020  1 1  128 20.0 L  36.038  51.755 18.2       6 0.0 3.0l                   1
 Action:ARG 22-06-18 17:45 OP:OBSP STATUS:               ID:20200101012820     I
 STAT SP IPHASW D HRMM SECON CODA AMPLIT PERI AZIMU VELO AIN AR TRES W  DIS CAZ7
 ZSCP    EP   0    12839.625                                            105  77 
 ZSCP    ES   0    12853.521                                            105  77 
 XIVZ    EP   0    12840.690                                            104  13 
 XIVZ    ES   0    12852.897                                            104  13 
 SRWZ    EP   0    12827.373                                           25.2  89 
 SRWZ    ES   0    12828.438                                           25.2  89 
 RVDG    EP   0    12839.674                                            109  68 
 RVDG    ES   0    12854.524                                            109  68 
 EVSP    EP   0    12830.186                                           56.1 299 
 EVSP    ES   0    12839.341                                           56.1 299 
 YXLK    EP   0    12834.599                                           76.1  45 
 YXLK    ES   0    12846.057                                           76.1  45 
                                                                                

