 2020  1 1  238 20.0 L  35.984  52.063 18.3       8 0.0 4.0l                   1
 Action:ARG 22-06-18 17:45 OP:OBSP STATUS:               ID:20200101023820     I
 STAT SP IPHASW D HRMM SECON CODA AMPLIT PERI AZIMU VELO AIN AR TRES W  DIS CAZ7
 EVSP    EP   0    23836.800                                           83.6 294 
 EVSP    ES   0    23847.324                                           83.6 294 
 YIBA    EP   0    23836.678                                           81.2   0 
 YIBA    ES   0    23844.762                                           81.2   0 
 YAIP    EP   0    23847.730                                            163  52 
 YAIP    ES   0    239 8.266                                            163  52 
 TVCN    EP   0    23824.986                                           32.7  22 
 TVCN    ES   0    23833.804                                           32.7  22 
 YXLK    EP   0    23831.020                                           65.2  23 
 YXLK    ES   0    23842.794                                           65.2  23 
 ZSCP    EP   0    23835.106                                           80.3  69 
 ZSCP    ES   0    23846.424                                           80.3  69 
 ZGXN    EP   0    23845.866                                            161  81 
 ZGXN    ES   0    239 8.026                                            161  81 
 XIVZ    EP   0    23839.675                                            107 358 
 XIVZ    ES   0    23854.379                                            107 358 
                                                                                

 2020  1 1  240  0.0 L  36.083  52.259 16.1      10 0.0 5.0l                   1
 Action:ARG 22-06-18 17:45 OP:OBSP STATUS:               ID:20200101024000     I
 STAT SP IPHASW D HRMM SECON CODA AMPLIT PERI AZIMU VELO AIN AR TRES W  DIS CAZ7
 XIVZ    EP   0    24018.422                                           98.6 347 
 XIVZ    ES   0    24031.770                                           98.6 347 
 TVCN    EP   0    240 4.878                                           20.0 344 
 TVCN    ES   0    240 7.606                                           20.0 344 
 EVSP    EP   0    24017.715                                           96.8 283 
 EVSP    ES   0    24031.234                                           96.8 283 
 YXLK    EP   0    240 9.872                                           49.4  10 
 YXLK    ES   0    24019.620                                           49.4  10 
 ZSCP    EP   0    24011.610                                           60.0  73 
 ZSCP    ES   0    24021.538                                           60.0  73 
 YIBA    EP   0    24013.385                                           72.3 346 
 YIBA    ES   0    24025.239                                           72.3 346 
 ZGXN    EP   0    24025.130                                            142  84 
 ZGXN    ES   0    24044.131                                            142  84 
 SRWZ    EP   0    240 5.196                                           20.7 257 
 SRWZ    ES   0    24010.620                                           20.7 257 
 RVDG    EP   0    24013.479                                           66.5  58 
 RVDG    ES   0    24023.273                                           66.5  58 
 YAIP    EP   0    24023.818                                            142  52 
 YAIP    ES   0    24044.390                                            142  52 
                                                                                

 2020  1 1  241 40.0 L  36.248  52.426 17.1       6 0.0 3.0l                   1
 Action:ARG 22-06-18 17:45 OP:OBSP STATUS:               ID:20200101024140     I
 STAT SP IPHASW D HRMM SECON CODA AMPLIT PERI AZIMU VELO AIN AR TRES W  DIS CAZ7
 ZGXN    EP   0    242 2.239                                            126  92 
 ZGXN    ES   0    24218.836                                            126  92 
 RVDG    EP   0    24148.704                                           44.9  69 
 RVDG    ES   0    24156.981                                           44.9  69 
 YXLK    EP   0    24146.946                                           30.9 348 
 YXLK    ES   0    24153.117                                           30.9 348 
 ZSCP    EP   0    24148.869                                           42.8  92 
 ZSCP    ES   0    24157.027                                           42.8  92 
 EVSP    EP   0    242 1.027                                            109 272 
 EVSP    ES   0    24214.603                                            109 272 
 XIVZ    EP   0    24157.399                                           85.9 335 
 XIVZ    ES   0    242 8.320                                           85.9 335 
                                                                                

 2020  1 1  243 20.0 L  35.636  52.147 12.8       5 0.0 2.5l                   1
 Action:ARG 22-06-18 17:45 OP:OBSP STATUS:               ID:20200101024320     I
 STAT SP IPHASW D HRMM SECON CODA AMPLIT PERI AZIMU VELO AIN AR TRES W  DIS CAZ7
 RVDG    EP   0    24339.789                                            107  38 
 RVDG    ES   0    24355.005                                            107  38 
 ZGXN    EP   0    24349.780                                            164  67 
 ZGXN    ES   0    244 8.474                                            164  67 
 ZSCP    EP   0    24337.885                                           94.8  45 
 ZSCP    ES   0    24352.041                                           94.8  45 
 YAIP    EP   0    24349.888                                            183  41 
 YAIP    ES   0    24415.290                                            183  41 
 SRWZ    EP   0    24329.774                                           46.0 347 
 SRWZ    ES   0    24335.866                                           46.0 347 
                                                                                

 2020  1 1  245  0.0 L  36.094  52.135 13.4       6 0.0 3.0l                   1
 Action:ARG 22-06-18 17:45 OP:OBSP STATUS:               ID:20200101024500     I
 STAT SP IPHASW D HRMM SECON CODA AMPLIT PERI AZIMU VELO AIN AR TRES W  DIS CAZ7
 TVCN    EP   0    245 4.298                                           19.0  18 
 TVCN    ES   0    245 9.970                                           19.0  18 
 ZSCP    EP   0    24512.363                                           70.6  77 
 ZSCP    ES   0    24523.921                                           70.6  77 
 ZGXN    EP   0    24527.515                                            153  85 
 ZGXN    ES   0    24546.125                                            153  85 
 YXLK    EP   0    245 9.447                                           51.4  22 
 YXLK    ES   0    24516.802                                           51.4  22 
 XIVZ    EP   0    24518.199                                           95.6 354 
 XIVZ    ES   0    24531.752                                           95.6 354 
 RVDG    EP   0    24515.306                                           75.8  63 
 RVDG    ES   0    24524.033                                           75.8  63 
                                                                                

 2020  1 1  246 40.0 L  36.234  52.181 11.4       7 0.0 3.5l                   1
 Action:ARG 22-06-18 17:45 OP:OBSP STATUS:               ID:20200101024640     I
 STAT SP IPHASW D HRMM SECON CODA AMPLIT PERI AZIMU VELO AIN AR TRES W  DIS CAZ7
 RVDG    EP   0    24653.175                                           66.3  74 
 RVDG    ES   0    247 4.054                                           66.3  74 
 YXLK    EP   0    24647.002                                           35.6  26 
 YXLK    ES   0    24651.988                                           35.6  26 
 EVSP    EP   0    24658.043                                           87.2 274 
 EVSP    ES   0    247 9.264                                           87.2 274 
 YIBA    EP   0    24649.767                                           54.4 349 
 YIBA    ES   0    24659.872                                           54.4 349 
 TVCN    EP   0    24642.829                                           3.06  34 
 TVCN    ES   0    24646.276                                           3.06  34 
 ZGXN    EP   0    247 5.513                                            148  91 
 ZGXN    ES   0    24726.572                                            148  91 
 ZSCP    EP   0    24652.647                                           64.7  90 
 ZSCP    ES   0    247 2.026                                           64.7  90 
                                                                                

