 2020  1 1  023 20.0 L  35.791  51.973  5.0       6 0.0 3.0l                   1
 Action:ARG 22-06-18 17:45 OP:OBSP STATUS:               ID:20200101002320     I
 STAT SP IPHASW D HRMM SECON CODA AMPLIT PERI AZIMU VELO AIN AR TRES W  DIS CAZ7
 YAIP    EP   0    02351.635                                            182  48 
 YAIP    ES   0    02415.575                                            182  48 
 EVSP    EP   0    02339.337                                           87.9 309 
 EVSP    ES   0    02351.620                                           87.9 309 
 YXLK    EP   0    02337.615                                           88.1  22 
 YXLK    ES   0    02350.597                                           88.1  22 
 ZGXN    EP   0    02351.720                                            173  74 
 ZGXN    ES   0    02414.729                                            173  74 
 YIBA    EP   0    02343.370                                            102   4 
 YIBA    ES   0    02355.354                                            102   4 
 RVDG    EP   0    02340.994                                            106  50 
 RVDG    ES   0    02356.007                                            106  50 
                                                                                

 2020  1 1  025  0.0 L  36.119  51.940 11.7       4 0.0 2.0l                   1
 Action:ARG 22-06-18 17:45 OP:OBSP STATUS:               ID:20200101002500     I
 STAT SP IPHASW D HRMM SECON CODA AMPLIT PERI AZIMU VELO AIN AR TRES W  DIS CAZ7
 TVCN    EP   0    025 6.034                                           28.0  56 
 TVCN    ES   0    025 9.868                                           28.0  56 
 XIVZ    EP   0    02518.863                                           92.7   4 
 XIVZ    ES   0    02531.781                                           92.7   4 
 YXLK    EP   0    025 9.699                                           58.2  39 
 YXLK    ES   0    02520.874                                           58.2  39 
 EVSP    EP   0    02511.771                                           68.0 286 
 EVSP    ES   0    02524.965                                           68.0 286 
                                                                                

 2020  1 1  026 40.0 L  35.911  51.845 15.8       5 0.0 2.5l                   1
 Action:ARG 22-06-18 17:45 OP:OBSP STATUS:               ID:20200101002640     I
 STAT SP IPHASW D HRMM SECON CODA AMPLIT PERI AZIMU VELO AIN AR TRES W  DIS CAZ7
 ZSCP    EP   0    027 0.893                                            101  69 
 ZSCP    ES   0    02713.202                                            101  69 
 XIVZ    EP   0    027 0.224                                            116   7 
 XIVZ    ES   0    02715.044                                            116   7 
 TVCN    EP   0    02650.979                                           49.9  39 
 TVCN    ES   0    02657.919                                           49.9  39 
 YIBA    EP   0    02656.529                                           91.5  12 
 YIBA    ES   0    02711.709                                           91.5  12 
 RVDG    EP   0    02659.704                                            108  60 
 RVDG    ES   0    02715.512                                            108  60 
                                                                                

 2020  1 1  028 20.0 L  35.811  51.846  8.4       6 0.0 3.0l                   1
 Action:ARG 22-06-18 17:45 OP:OBSP STATUS:               ID:20200101002820     I
 STAT SP IPHASW D HRMM SECON CODA AMPLIT PERI AZIMU VELO AIN AR TRES W  DIS CAZ7
 SRWZ    EP   0    02828.548                                           30.7  33 
 SRWZ    ES   0    02831.597                                           30.7  33 
 TVCN    EP   0    02831.808                                           58.8  32 
 TVCN    ES   0    02840.263                                           58.8  32 
 YAIP    EP   0    02852.860                                            190  51 
 YAIP    ES   0    02918.077                                            190  51 
 YXLK    EP   0    02838.515                                           91.2  30 
 YXLK    ES   0    02850.017                                           91.2  30 
 YIBA    EP   0    02841.070                                            102  11 
 YIBA    ES   0    02854.205                                            102  11 
 RVDG    EP   0    02842.237                                            114  55 
 RVDG    ES   0    02857.792                                            114  55 
                                                                                

 2020  1 1  030  0.0 L  35.997  51.850 19.2       8 0.0 4.0l                   1
 Action:ARG 22-06-18 17:45 OP:OBSP STATUS:               ID:20200101003000     I
 STAT SP IPHASW D HRMM SECON CODA AMPLIT PERI AZIMU VELO AIN AR TRES W  DIS CAZ7
 RVDG    EP   0    03019.406                                            103  64 
 RVDG    ES   0    03032.436                                            103  64 
 YAIP    EP   0    03030.087                                            177  56 
 YAIP    ES   0    03050.966                                            177  56 
 ZGXN    EP   0    03031.101                                            179  82 
 ZGXN    ES   0    03051.031                                            179  82 
 EVSP    EP   0    03011.836                                           65.8 299 
 EVSP    ES   0    03021.229                                           65.8 299 
 YIBA    EP   0    03015.445                                           82.1  13 
 YIBA    ES   0    03026.649                                           82.1  13 
 XIVZ    EP   0    03018.729                                            106   8 
 XIVZ    ES   0    03033.515                                            106   8 
 TVCN    EP   0    030 9.142                                           42.7  47 
 TVCN    ES   0    03015.062                                           42.7  47 
 ZSCP    EP   0    03018.863                                           98.1  74 
 ZSCP    ES   0    03030.583                                           98.1  74 
                                                                                

 2020  1 1  031 40.0 L  36.052  51.750 18.5       5 0.0 2.5l                   1
 Action:ARG 22-06-18 17:45 OP:OBSP STATUS:               ID:20200101003140     I
 STAT SP IPHASW D HRMM SECON CODA AMPLIT PERI AZIMU VELO AIN AR TRES W  DIS CAZ7
 YIBA    EP   0    03156.368                                           79.0  21 
 YIBA    ES   0    032 5.879                                           79.0  21 
 SRWZ    EP   0    03146.534                                           25.7  92 
 SRWZ    ES   0    03151.600                                           25.7  92 
 ZGXN    EP   0    03211.748                                            188  84 
 ZGXN    ES   0    03234.250                                            188  84 
 TVCN    EP   0    03150.005                                           46.4  60 
 TVCN    ES   0    03156.507                                           46.4  60 
 RVDG    EP   0    03158.016                                            109  69 
 RVDG    ES   0    03214.233                                            109  69 
                                                                                

 2020  1 1  033 20.0 L  36.166  52.371  5.5       9 0.0 4.5l                   1
 Action:ARG 22-06-18 17:45 OP:OBSP STATUS:               ID:20200101003320     I
 STAT SP IPHASW D HRMM SECON CODA AMPLIT PERI AZIMU VELO AIN AR TRES W  DIS CAZ7
 ZSCP    EP   0    03328.838                                           48.2  81 
 ZSCP    ES   0    03336.810                                           48.2  81 
 XIVZ    EP   0    03339.238                                           92.5 340 
 XIVZ    ES   0    03352.910                                           92.5 340 
 YIBA    EP   0    03335.532                                           66.8 336 
 YIBA    ES   0    03343.551                                           66.8 336 
 YAIP    EP   0    03344.384                                            128  52 
 YAIP    ES   0    034 0.018                                            128  52 
 SRWZ    EP   0    03328.390                                           33.3 245 
 SRWZ    ES   0    03332.477                                           33.3 245 
 YXLK    EP   0    03329.877                                           39.4 358 
 YXLK    ES   0    03332.878                                           39.4 358 
 EVSP    EP   0    03341.376                                            104 277 
 EVSP    ES   0    03356.681                                            104 277 
 RVDG    EP   0    03331.254                                           53.2  61 
 RVDG    ES   0    03338.944                                           53.2  61 
 ZGXN    EP   0    03344.631                                            131  88 
 ZGXN    ES   0    034 2.950                                            131  88 
                                                                                

 2020  1 1  035  0.0 L  35.802  51.957  5.4       9 0.0 4.5l                   1
 Action:ARG 22-06-18 17:45 OP:OBSP STATUS:               ID:20200101003500     I
 STAT SP IPHASW D HRMM SECON CODA AMPLIT PERI AZIMU VELO AIN AR TRES W  DIS CAZ7
 EVSP    EP   0    03516.925                                           86.1 309 
 EVSP    ES   0    03530.416                                           86.1 309 
 YAIP    EP   0    03532.884                                            183  49 
 YAIP    ES   0    03556.946                                            183  49 
 YIBA    EP   0    03519.144                                            101   5 
 YIBA    ES   0    03534.584                                            101   5 
 RVDG    EP   0    03521.270                                            106  51 
 RVDG    ES   0    03537.799                                            106  51 
 TVCN    EP   0    03510.985                                           55.0  23 
 TVCN    ES   0    03519.064                                           55.0  23 
 XIVZ    EP   0    03524.936                                            127   2 
 XIVZ    ES   0    03542.539                                            127   2 
 SRWZ    EP   0    035 6.415                                           27.5  14 
 SRWZ    ES   0    035 9.398                                           27.5  14 
 ZSCP    EP   0    03519.515                                           97.5  60 
 ZSCP    ES   0    03534.520                                           97.5  60 
 YXLK    EP   0    03517.649                                           87.6  24 
 YXLK    ES   0    03531.070                                           87.6  24 
                                                                                

 2020  1 1  036 40.0 L  36.378  51.833 13.1       5 0.0 2.5l                   1
 Action:ARG 22-06-18 17:45 OP:OBSP STATUS:               ID:20200101003640     I
 STAT SP IPHASW D HRMM SECON CODA AMPLIT PERI AZIMU VELO AIN AR TRES W  DIS CAZ7
 RVDG    EP   0    03659.259                                           95.2  88 
 RVDG    ES   0    03711.653                                           95.2  88 
 TVCN    EP   0    03648.207                                           35.7 112 
 TVCN    ES   0    03653.132                                           35.7 112 
 YAIP    EP   0    037 5.951                                            160  69 
 YAIP    ES   0    03728.148                                            160  69 
 YXLK    EP   0    03652.428                                           49.5  71 
 YXLK    ES   0    03657.905                                           49.5  71 
 YIBA    EP   0    03648.409                                           43.0  29 
 YIBA    ES   0    03655.842                                           43.0  29 
                                                                                

 2020  1 1  038 20.0 L  35.858  52.011 19.1       5 0.0 2.5l                   1
 Action:ARG 22-06-18 17:45 OP:OBSP STATUS:               ID:20200101003820     I
 STAT SP IPHASW D HRMM SECON CODA AMPLIT PERI AZIMU VELO AIN AR TRES W  DIS CAZ7
 YXLK    EP   0    03836.211                                           79.9  22 
 YXLK    ES   0    03847.527                                           79.9  22 
 ZSCP    EP   0    03835.602                                           90.2  62 
 ZSCP    ES   0    03851.114                                           90.2  62 
 SRWZ    EP   0    03825.757                                           20.4   6 
 SRWZ    ES   0    03832.083                                           20.4   6 
 YIBA    EP   0    03836.967                                           95.4   3 
 YIBA    ES   0    03851.925                                           95.4   3 
 ZGXN    EP   0    03849.638                                            168  76 
 ZGXN    ES   0    039 8.813                                            168  76 
                                                                                

 2020  1 1  040  0.0 L  36.470  52.043 10.7      10 0.0 5.0l                   1
 Action:ARG 22-06-18 17:45 OP:OBSP STATUS:               ID:20200101004000     I
 STAT SP IPHASW D HRMM SECON CODA AMPLIT PERI AZIMU VELO AIN AR TRES W  DIS CAZ7
 YAIP    EP   0    04024.801                                            138  71 
 YAIP    ES   0    04042.830                                            138  71 
 YIBA    EP   0    040 7.384                                           27.4   4 
 YIBA    ES   0    04010.619                                           27.4   4 
 ZSCP    EP   0    04016.399                                           81.5 108 
 ZSCP    ES   0    04027.753                                           81.5 108 
 TVCN    EP   0    040 7.198                                           27.6 149 
 TVCN    ES   0    04010.416                                           27.6 149 
 EVSP    EP   0    04016.585                                           77.0 255 
 EVSP    ES   0    04026.759                                           77.0 255 
 YXLK    EP   0    040 4.675                                           28.7  78 
 YXLK    ES   0    04011.626                                           28.7  78 
 RVDG    EP   0    04015.222                                           76.8  96 
 RVDG    ES   0    04026.770                                           76.8  96 
 ZGXN    EP   0    04028.125                                            163 100 
 ZGXN    ES   0    04050.400                                            163 100 
 XIVZ    EP   0    04011.165                                           53.4 358 
 XIVZ    ES   0    04020.530                                           53.4 358 
 SRWZ    EP   0    040 7.917                                           47.6 180 
 SRWZ    ES   0    04016.243                                           47.6 180 
                                                                                

 2020  1 1  041 40.0 L  36.138  52.027  8.2       9 0.0 4.5l                   1
 Action:ARG 22-06-18 17:45 OP:OBSP STATUS:               ID:20200101004140     I
 STAT SP IPHASW D HRMM SECON CODA AMPLIT PERI AZIMU VELO AIN AR TRES W  DIS CAZ7
 RVDG    EP   0    04156.707                                           82.8  69 
 RVDG    ES   0    042 7.980                                           82.8  69 
 EVSP    EP   0    04155.128                                           75.0 283 
 EVSP    ES   0    042 6.154                                           75.0 283 
 YXLK    EP   0    04149.119                                           51.8  34 
 YXLK    ES   0    04159.020                                           51.8  34 
 YIBA    EP   0    04152.826                                           64.2   3 
 YIBA    ES   0    042 2.545                                           64.2   3 
 TVCN    EP   0    04145.169                                           20.4  49 
 TVCN    ES   0    04149.064                                           20.4  49 
 ZGXN    EP   0    042 9.497                                            162  87 
 ZGXN    ES   0    04228.878                                            162  87 
 ZSCP    EP   0    04152.518                                           79.3  82 
 ZSCP    ES   0    042 7.626                                           79.3  82 
 XIVZ    EP   0    04157.468                                           90.2 359 
 XIVZ    ES   0    04210.382                                           90.2 359 
 SRWZ    EP   0    04141.706                                           10.8 176 
 SRWZ    ES   0    04144.034                                           10.8 176 
                                                                                

 2020  1 1  043 20.0 L  35.921  52.067 11.3       7 0.0 3.5l                   1
 Action:ARG 22-06-18 17:45 OP:OBSP STATUS:               ID:20200101004320     I
 STAT SP IPHASW D HRMM SECON CODA AMPLIT PERI AZIMU VELO AIN AR TRES W  DIS CAZ7
 ZSCP    EP   0    04337.455                                           82.6  65 
 ZSCP    ES   0    04348.625                                           82.6  65 
 YXLK    EP   0    04335.758                                           71.5  21 
 YXLK    ES   0    04345.855                                           71.5  21 
 YAIP    EP   0    04347.493                                            167  50 
 YAIP    ES   0    044 9.883                                            167  50 
 ZGXN    EP   0    04349.002                                            161  78 
 ZGXN    ES   0    04411.717                                            161  78 
 XIVZ    EP   0    04342.002                                            114 358 
 XIVZ    ES   0    04356.777                                            114 358 
 TVCN    EP   0    04329.246                                           39.1  17 
 TVCN    ES   0    04333.638                                           39.1  17 
 EVSP    EP   0    04335.725                                           87.0 298 
 EVSP    ES   0    04349.546                                           87.0 298 
                                                                                

