 2020  1 1  153 20.0 L  35.861  52.177 16.7       4 0.0 2.0l                   1
 Action:ARG 22-06-18 17:45 OP:OBSP STATUS:               ID:20200101015320     I
 STAT SP IPHASW D HRMM SECON CODA AMPLIT PERI AZIMU VELO AIN AR TRES W  DIS CAZ7
 YIBA    EP   0    15337.695                                           95.4 354 
 YIBA    ES   0    15352.556                                           95.4 354 
 RVDG    EP   0    15335.788                                           87.3  47 
 RVDG    ES   0    15349.105                                           87.3  47 
 SRWZ    EP   0    15326.814                                           23.8 327 
 SRWZ    ES   0    15329.073                                           23.8 327 
 YXLK    EP   0    15334.134                                           75.0  12 
 YXLK    ES   0    15344.759                                           75.0  12 
                                                                                

 2020  1 1  155  0.0 L  35.744  52.116 12.8       9 0.0 4.5l                   1
 Action:ARG 22-06-18 17:45 OP:OBSP STATUS:               ID:20200101015500     I
 STAT SP IPHASW D HRMM SECON CODA AMPLIT PERI AZIMU VELO AIN AR TRES W  DIS CAZ7
 SRWZ    EP   0    155 6.914                                           33.7 347 
 SRWZ    ES   0    15511.118                                           33.7 347 
 XIVZ    EP   0    15522.813                                            134 356 
 XIVZ    ES   0    15542.461                                            134 356 
 YIBA    EP   0    15520.846                                            107 357 
 YIBA    ES   0    15536.468                                            107 357 
 YAIP    EP   0    15530.365                                            176  44 
 YAIP    ES   0    15552.467                                            176  44 
 RVDG    EP   0    15517.909                                            100  44 
 RVDG    ES   0    15532.943                                            100  44 
 TVCN    EP   0    15511.759                                           57.3   7 
 TVCN    ES   0    15519.932                                           57.3   7 
 YXLK    EP   0    15517.338                                           88.9  13 
 YXLK    ES   0    15529.450                                           88.9  13 
 ZGXN    EP   0    15528.168                                            162  71 
 ZGXN    ES   0    15549.167                                            162  71 
 EVSP    EP   0    15519.686                                            101 306 
 EVSP    ES   0    15532.597                                            101 306 
                                                                                

 2020  1 1  156 40.0 L  36.010  52.179 10.9       9 0.0 4.5l                   1
 Action:ARG 22-06-18 17:45 OP:OBSP STATUS:               ID:20200101015640     I
 STAT SP IPHASW D HRMM SECON CODA AMPLIT PERI AZIMU VELO AIN AR TRES W  DIS CAZ7
 ZSCP    EP   0    15652.751                                           69.4  69 
 ZSCP    ES   0    157 4.355                                           69.4  69 
 YIBA    EP   0    15654.409                                           78.9 352 
 YIBA    ES   0    157 7.640                                           78.9 352 
 EVSP    EP   0    15656.197                                           92.2 289 
 EVSP    ES   0    15710.641                                           92.2 289 
 TVCN    EP   0    15647.984                                           27.4   3 
 TVCN    ES   0    15652.953                                           27.4   3 
 YAIP    EP   0    157 7.724                                            152  51 
 YAIP    ES   0    15727.519                                            152  51 
 SRWZ    EP   0    15644.508                                           13.4 284 
 SRWZ    ES   0    15648.973                                           13.4 284 
 ZGXN    EP   0    157 7.108                                            150  81 
 ZGXN    ES   0    15728.665                                            150  81 
 YXLK    EP   0    15653.945                                           58.9  15 
 YXLK    ES   0    15659.815                                           58.9  15 
 XIVZ    EP   0    15659.285                                            105 352 
 XIVZ    ES   0    15714.931                                            105 352 
                                                                                

 2020  1 1  158 20.0 L  35.977  51.958 12.3       4 0.0 2.0l                   1
 Action:ARG 22-06-18 17:45 OP:OBSP STATUS:               ID:20200101015820     I
 STAT SP IPHASW D HRMM SECON CODA AMPLIT PERI AZIMU VELO AIN AR TRES W  DIS CAZ7
 YAIP    EP   0    15849.200                                            171  54 
 YAIP    ES   0    15911.892                                            171  54 
 SRWZ    EP   0    15823.842                                           9.89  44 
 SRWZ    ES   0    15824.250                                           9.89  44 
 XIVZ    EP   0    15840.481                                            108   3 
 XIVZ    ES   0    15856.754                                            108   3 
 YIBA    EP   0    15836.367                                           82.5   6 
 YIBA    ES   0    15847.521                                           82.5   6 
                                                                                

 2020  1 1  2 0  0.0 L  36.168  52.194  5.4       6 0.0 3.0l                   1
 Action:ARG 22-06-18 17:45 OP:OBSP STATUS:               ID:20200101020000     I
 STAT SP IPHASW D HRMM SECON CODA AMPLIT PERI AZIMU VELO AIN AR TRES W  DIS CAZ7
 XIVZ    EP   0    2 018.674                                           88.2 350 
 XIVZ    ES   0    2 031.510                                           88.2 350 
 ZSCP    EP   0    2 012.165                                           64.0  83 
 ZSCP    ES   0    2 022.344                                           64.0  83 
 YAIP    EP   0    2 026.432                                            141  56 
 YAIP    ES   0    2 044.306                                            141  56 
 YIBA    EP   0    2 013.733                                           61.8 349 
 YIBA    ES   0    2 021.810                                           61.8 349 
 RVDG    EP   0    2 014.812                                           67.6  68 
 RVDG    ES   0    2 025.248                                           67.6  68 
 EVSP    EP   0    2 019.152                                           89.2 278 
 EVSP    ES   0    2 031.506                                           89.2 278 
                                                                                

 2020  1 1  2 1 40.0 L  36.031  52.118  5.7       4 0.0 2.0l                   1
 Action:ARG 22-06-18 17:45 OP:OBSP STATUS:               ID:20200101020140     I
 STAT SP IPHASW D HRMM SECON CODA AMPLIT PERI AZIMU VELO AIN AR TRES W  DIS CAZ7
 TVCN    EP   0    2 144.654                                           26.1  16 
 TVCN    ES   0    2 149.510                                           26.1  16 
 EVSP    EP   0    2 157.193                                           86.3 289 
 EVSP    ES   0    2 2 8.746                                           86.3 289 
 ZGXN    EP   0    2 2 5.765                                            155  82 
 ZGXN    ES   0    2 227.392                                            155  82 
 SRWZ    EP   0    2 141.733                                           7.58 278 
 SRWZ    ES   0    2 142.624                                           7.58 278 
                                                                                

 2020  1 1  2 3 20.0 L  36.138  52.017 15.6       6 0.0 3.0l                   1
 Action:ARG 22-06-18 17:45 OP:OBSP STATUS:               ID:20200101020320     I
 STAT SP IPHASW D HRMM SECON CODA AMPLIT PERI AZIMU VELO AIN AR TRES W  DIS CAZ7
 YIBA    EP   0    2 332.712                                           64.2   4 
 YIBA    ES   0    2 342.825                                           64.2   4 
 XIVZ    EP   0    2 336.173                                           90.2   0 
 XIVZ    ES   0    2 350.675                                           90.2   0 
 SRWZ    EP   0    2 323.547                                           10.9 171 
 SRWZ    ES   0    2 326.624                                           10.9 171 
 YAIP    EP   0    2 345.301                                            156  58 
 YAIP    ES   0    2 4 8.229                                            156  58 
 TVCN    EP   0    2 324.080                                           21.0  51 
 TVCN    ES   0    2 329.715                                           21.0  51 
 YXLK    EP   0    2 327.602                                           52.3  35 
 YXLK    ES   0    2 338.713                                           52.3  35 
                                                                                

 2020  1 1  2 5  0.0 L  36.153  52.052 19.7      10 0.0 5.0l                   1
 Action:ARG 22-06-18 17:45 OP:OBSP STATUS:               ID:20200101020500     I
 STAT SP IPHASW D HRMM SECON CODA AMPLIT PERI AZIMU VELO AIN AR TRES W  DIS CAZ7
 TVCN    EP   0    2 5 4.054                                           17.6  49 
 TVCN    ES   0    2 5 9.295                                           17.6  49 
 XIVZ    EP   0    2 517.519                                           88.6 358 
 XIVZ    ES   0    2 528.470                                           88.6 358 
 YIBA    EP   0    2 511.797                                           62.5   1 
 YIBA    ES   0    2 522.538                                           62.5   1 
 EVSP    EP   0    2 515.847                                           76.9 281 
 EVSP    ES   0    2 525.657                                           76.9 281 
 ZSCP    EP   0    2 515.943                                           76.9  83 
 ZSCP    ES   0    2 526.969                                           76.9  83 
 RVDG    EP   0    2 512.906                                           80.1  70 
 RVDG    ES   0    2 527.534                                           80.1  70 
 SRWZ    EP   0    2 5 3.781                                           12.5 186 
 SRWZ    ES   0    2 5 8.214                                           12.5 186 
 ZGXN    EP   0    2 529.107                                            160  87 
 ZGXN    ES   0    2 547.319                                            160  87 
 YXLK    EP   0    2 512.888                                           49.2  33 
 YXLK    ES   0    2 517.580                                           49.2  33 
 YAIP    EP   0    2 527.507                                            153  58 
 YAIP    ES   0    2 543.834                                            153  58 
                                                                                

 2020  1 1  2 6 40.0 L  35.456  51.931 13.9       7 0.0 3.5l                   1
 Action:ARG 22-06-18 17:45 OP:OBSP STATUS:               ID:20200101020640     I
 STAT SP IPHASW D HRMM SECON CODA AMPLIT PERI AZIMU VELO AIN AR TRES W  DIS CAZ7
 TVCN    EP   0    2 658.899                                           92.1  15 
 TVCN    ES   0    2 710.044                                           92.1  15 
 RVDG    EP   0    2 7 5.120                                            135  39 
 RVDG    ES   0    2 720.578                                            135  39 
 SRWZ    EP   0    2 654.323                                           65.6   8 
 SRWZ    ES   0    2 7 3.797                                           65.6   8 
 ZSCP    EP   0    2 7 3.713                                            122  45 
 ZSCP    ES   0    2 718.113                                            122  45 
 ZGXN    EP   0    2 711.865                                            190  64 
 ZGXN    ES   0    2 737.769                                            190  64 
 YAIP    EP   0    2 714.580                                            211  41 
 YAIP    ES   0    2 740.563                                            211  41 
 YXLK    EP   0    2 7 1.404                                            124  17 
 YXLK    ES   0    2 719.336                                            124  17 
                                                                                

 2020  1 1  2 8 20.0 L  36.489  52.232 10.9       6 0.0 3.0l                   1
 Action:ARG 22-06-18 17:45 OP:OBSP STATUS:               ID:20200101020820     I
 STAT SP IPHASW D HRMM SECON CODA AMPLIT PERI AZIMU VELO AIN AR TRES W  DIS CAZ7
 SRWZ    EP   0    2 831.144                                           52.8 199 
 SRWZ    ES   0    2 838.044                                           52.8 199 
 RVDG    EP   0    2 832.107                                           60.3 100 
 RVDG    ES   0    2 840.085                                           60.3 100 
 YXLK    EP   0    2 823.337                                           11.7  72 
 YXLK    ES   0    2 826.547                                           11.7  72 
 EVSP    EP   0    2 837.900                                           94.1 256 
 EVSP    ES   0    2 852.688                                           94.1 256 
 ZSCP    EP   0    2 833.126                                           66.5 115 
 ZSCP    ES   0    2 843.160                                           66.5 115 
 TVCN    EP   0    2 823.904                                           26.0 186 
 TVCN    ES   0    2 831.151                                           26.0 186 
                                                                                

 2020  1 1  210  0.0 L  35.978  52.099  7.6      10 0.0 5.0l                   1
 Action:ARG 22-06-18 17:45 OP:OBSP STATUS:               ID:20200101021000     I
 STAT SP IPHASW D HRMM SECON CODA AMPLIT PERI AZIMU VELO AIN AR TRES W  DIS CAZ7
 YAIP    EP   0    21027.156                                            160  51 
 YAIP    ES   0    21049.434                                            160  51 
 ZGXN    EP   0    21028.909                                            157  80 
 ZGXN    ES   0    21049.185                                            157  80 
 YXLK    EP   0    21013.731                                           64.6  20 
 YXLK    ES   0    21021.973                                           64.6  20 
 YIBA    EP   0    21016.510                                           81.9 358 
 YIBA    ES   0    21027.967                                           81.9 358 
 RVDG    EP   0    21017.891                                           85.0  57 
 RVDG    ES   0    21029.563                                           85.0  57 
 ZSCP    EP   0    21015.281                                           77.5  68 
 ZSCP    ES   0    21027.609                                           77.5  68 
 EVSP    EP   0    21016.502                                           86.8 293 
 EVSP    ES   0    21029.927                                           86.8 293 
 XIVZ    EP   0    21020.093                                            108 356 
 XIVZ    ES   0    21036.530                                            108 356 
 TVCN    EP   0    210 8.602                                           32.3  16 
 TVCN    ES   0    21012.852                                           32.3  16 
 SRWZ    EP   0    210 1.760                                           9.06 320 
 SRWZ    ES   0    210 2.271                                           9.06 320 
                                                                                

 2020  1 1  211 40.0 L  35.973  51.969 12.5      10 0.0 5.0l                   1
 Action:ARG 22-06-18 17:45 OP:OBSP STATUS:               ID:20200101021140     I
 STAT SP IPHASW D HRMM SECON CODA AMPLIT PERI AZIMU VELO AIN AR TRES W  DIS CAZ7
 YXLK    EP   0    21153.967                                           70.0  29 
 YXLK    ES   0    212 3.648                                           70.0  29 
 YIBA    EP   0    21155.847                                           82.8   6 
 YIBA    ES   0    212 7.377                                           82.8   6 
 YAIP    EP   0    212 7.508                                            170  54 
 YAIP    ES   0    21230.778                                            170  54 
 ZGXN    EP   0    212 9.236                                            169  81 
 ZGXN    ES   0    21231.681                                            169  81 
 RVDG    EP   0    21155.765                                           95.2  60 
 RVDG    ES   0    21213.149                                           95.2  60 
 EVSP    EP   0    21153.488                                           76.5 297 
 EVSP    ES   0    212 7.467                                           76.5 297 
 TVCN    EP   0    21148.675                                           37.7  33 
 TVCN    ES   0    21155.337                                           37.7  33 
 ZSCP    EP   0    21157.732                                           88.6  70 
 ZSCP    ES   0    212 9.243                                           88.6  70 
 SRWZ    EP   0    21143.288                                           9.54  38 
 SRWZ    ES   0    21145.976                                           9.54  38 
 XIVZ    EP   0    212 0.738                                            108   2 
 XIVZ    ES   0    21216.050                                            108   2 
                                                                                

 2020  1 1  213 20.0 L  35.749  52.004 19.7       5 0.0 2.5l                   1
 Action:ARG 22-06-18 17:45 OP:OBSP STATUS:               ID:20200101021320     I
 STAT SP IPHASW D HRMM SECON CODA AMPLIT PERI AZIMU VELO AIN AR TRES W  DIS CAZ7
 SRWZ    EP   0    21327.113                                           32.5   4 
 SRWZ    ES   0    21331.632                                           32.5   4 
 ZGXN    EP   0    21349.037                                            172  72 
 ZGXN    ES   0    21410.519                                            172  72 
 EVSP    EP   0    21338.443                                           93.1 310 
 EVSP    ES   0    21351.130                                           93.1 310 
 YIBA    EP   0    21339.187                                            107   3 
 YIBA    ES   0    21353.194                                            107   3 
 RVDG    EP   0    21337.774                                            107  48 
 RVDG    ES   0    21353.938                                            107  48 
                                                                                

