 2020  1 1  130  0.0 L  35.787  52.166 17.7       8 0.0 4.0l                   1
 Action:ARG 22-06-18 17:45 OP:OBSP STATUS:               ID:20200101013000     I
 STAT SP IPHASW D HRMM SECON CODA AMPLIT PERI AZIMU VELO AIN AR TRES W  DIS CAZ7
 YXLK    EP   0    13018.087                                           83.3  11 
 YXLK    ES   0    13028.156                                           83.3  11 
 SRWZ    EP   0    130 9.255                                           30.6 337 
 SRWZ    ES   0    13010.647                                           30.6 337 
 XIVZ    EP   0    13022.482                                            129 354 
 XIVZ    ES   0    13040.304                                            129 354 
 ZGXN    EP   0    13026.997                                            156  72 
 ZGXN    ES   0    13046.576                                            156  72 
 YAIP    EP   0    13029.438                                            170  45 
 YAIP    ES   0    13050.516                                            170  45 
 EVSP    EP   0    13018.897                                            102 303 
 EVSP    ES   0    13033.272                                            102 303 
 TVCN    EP   0    130 9.642                                           52.2   3 
 TVCN    ES   0    13020.015                                           52.2   3 
 RVDG    EP   0    13018.202                                           93.8  44 
 RVDG    ES   0    13029.642                                           93.8  44 
                                                                                

 2020  1 1  131 40.0 L  36.007  51.940 12.6       5 0.0 2.5l                   1
 Action:ARG 22-06-18 17:45 OP:OBSP STATUS:               ID:20200101013140     I
 STAT SP IPHASW D HRMM SECON CODA AMPLIT PERI AZIMU VELO AIN AR TRES W  DIS CAZ7
 SRWZ    EP   0    13142.338                                           9.31  66 
 SRWZ    ES   0    13146.224                                           9.31  66 
 XIVZ    EP   0    13158.828                                            104   4 
 XIVZ    ES   0    13214.011                                            104   4 
 YAIP    EP   0    13211.068                                            170  55 
 YAIP    ES   0    13230.232                                            170  55 
 YXLK    EP   0    13153.477                                           68.2  33 
 YXLK    ES   0    132 3.350                                           68.2  33 
 RVDG    EP   0    13159.565                                           95.7  63 
 RVDG    ES   0    13211.960                                           95.7  63 
                                                                                

 2020  1 1  133 20.0 L  36.070  51.693 13.8       4 0.0 2.0l                   1
 Action:ARG 22-06-18 17:45 OP:OBSP STATUS:               ID:20200101013320     I
 STAT SP IPHASW D HRMM SECON CODA AMPLIT PERI AZIMU VELO AIN AR TRES W  DIS CAZ7
 YXLK    EP   0    13335.804                                           77.8  49 
 YXLK    ES   0    13346.989                                           77.8  49 
 EVSP    EP   0    13331.991                                           49.5 299 
 EVSP    ES   0    13338.853                                           49.5 299 
 YAIP    EP   0    13353.238                                            185  61 
 YAIP    ES   0    13414.121                                            185  61 
 RVDG    EP   0    13339.890                                            113  71 
 RVDG    ES   0    13356.681                                            113  71 
                                                                                

 2020  1 1  135  0.0 L  35.808  52.189  5.5      10 0.0 5.0l                   1
 Action:ARG 22-06-18 17:45 OP:OBSP STATUS:               ID:20200101013500     I
 STAT SP IPHASW D HRMM SECON CODA AMPLIT PERI AZIMU VELO AIN AR TRES W  DIS CAZ7
 XIVZ    EP   0    13523.667                                            127 353 
 XIVZ    ES   0    13542.146                                            127 353 
 ZSCP    EP   0    13514.090                                           79.5  53 
 ZSCP    ES   0    13525.615                                           79.5  53 
 SRWZ    EP   0    135 6.683                                           29.4 331 
 SRWZ    ES   0    13512.536                                           29.4 331 
 ZGXN    EP   0    13528.370                                            154  73 
 ZGXN    ES   0    13550.902                                            154  73 
 YAIP    EP   0    13528.821                                            167  45 
 YAIP    ES   0    13551.707                                            167  45 
 EVSP    EP   0    13520.766                                            102 301 
 EVSP    ES   0    13535.458                                            102 301 
 YXLK    EP   0    13516.761                                           80.6  10 
 YXLK    ES   0    13528.045                                           80.6  10 
 RVDG    EP   0    13517.136                                           90.7  44 
 RVDG    ES   0    13530.826                                           90.7  44 
 TVCN    EP   0    135 8.824                                           49.8   1 
 TVCN    ES   0    13518.581                                           49.8   1 
 YIBA    EP   0    13520.992                                            101 353 
 YIBA    ES   0    13535.964                                            101 353 
                                                                                

 2020  1 1  136 40.0 L  35.707  52.078  8.6       4 0.0 2.0l                   1
 Action:ARG 22-06-18 17:45 OP:OBSP STATUS:               ID:20200101013640     I
 STAT SP IPHASW D HRMM SECON CODA AMPLIT PERI AZIMU VELO AIN AR TRES W  DIS CAZ7
 ZGXN    EP   0    137 8.821                                            167  70 
 ZGXN    ES   0    13732.325                                            167  70 
 ZSCP    EP   0    13659.511                                           94.3  51 
 ZSCP    ES   0    13712.176                                           94.3  51 
 YXLK    EP   0    13658.850                                           93.8  15 
 YXLK    ES   0    13711.295                                           93.8  15 
 YAIP    EP   0    13711.949                                            182  44 
 YAIP    ES   0    13734.761                                            182  44 
                                                                                

 2020  1 1  138 20.0 L  35.639  51.991 17.0       8 0.0 4.0l                   1
 Action:ARG 22-06-18 17:45 OP:OBSP STATUS:               ID:20200101013820     I
 STAT SP IPHASW D HRMM SECON CODA AMPLIT PERI AZIMU VELO AIN AR TRES W  DIS CAZ7
 YXLK    EP   0    13840.694                                            103  18 
 YXLK    ES   0    13852.618                                            103  18 
 TVCN    EP   0    13833.819                                           71.1  15 
 TVCN    ES   0    13845.402                                           71.1  15 
 XIVZ    EP   0    13844.615                                            145   1 
 XIVZ    ES   0    139 3.605                                            145   1 
 ZSCP    EP   0    13839.132                                            105  51 
 ZSCP    ES   0    13853.648                                            105  51 
 YIBA    EP   0    13841.793                                            119   3 
 YIBA    ES   0    13859.103                                            119   3 
 SRWZ    EP   0    13827.956                                           44.8   5 
 SRWZ    ES   0    13836.813                                           44.8   5 
 YAIP    EP   0    13852.024                                            193  44 
 YAIP    ES   0    13916.074                                            193  44 
 ZGXN    EP   0    13850.206                                            177  69 
 ZGXN    ES   0    13910.533                                            177  69 
                                                                                

 2020  1 1  140  0.0 L  36.091  52.251 11.2       5 0.0 2.5l                   1
 Action:ARG 22-06-18 17:45 OP:OBSP STATUS:               ID:20200101014000     I
 STAT SP IPHASW D HRMM SECON CODA AMPLIT PERI AZIMU VELO AIN AR TRES W  DIS CAZ7
 YIBA    EP   0    14013.739                                           71.2 346 
 YIBA    ES   0    14023.161                                           71.2 346 
 SRWZ    EP   0    140 6.599                                           20.2 253 
 SRWZ    ES   0    140 8.393                                           20.2 253 
 ZSCP    EP   0    14010.801                                           60.5  75 
 ZSCP    ES   0    14022.449                                           60.5  75 
 TVCN    EP   0    140 2.838                                           18.8 346 
 TVCN    ES   0    140 7.473                                           18.8 346 
 EVSP    EP   0    14018.282                                           95.8 283 
 EVSP    ES   0    14031.311                                           95.8 283 
                                                                                

 2020  1 1  141 40.0 L  35.827  51.994  7.6       6 0.0 3.0l                   1
 Action:ARG 22-06-18 17:45 OP:OBSP STATUS:               ID:20200101014140     I
 STAT SP IPHASW D HRMM SECON CODA AMPLIT PERI AZIMU VELO AIN AR TRES W  DIS CAZ7
 YAIP    EP   0    14213.212                                            178  49 
 YAIP    ES   0    14232.747                                            178  49 
 EVSP    EP   0    14159.456                                           87.1 306 
 EVSP    ES   0    14210.822                                           87.1 306 
 TVCN    EP   0    14152.276                                           51.2  21 
 TVCN    ES   0    14159.671                                           51.2  21 
 YIBA    EP   0    14159.487                                           98.9   3 
 YIBA    ES   0    14214.057                                           98.9   3 
 YXLK    EP   0    14155.275                                           83.7  22 
 YXLK    ES   0    142 7.504                                           83.7  22 
 ZGXN    EP   0    142 8.581                                            170  75 
 ZGXN    ES   0    14233.259                                            170  75 
                                                                                

 2020  1 1  143 20.0 L  36.440  52.285 13.2       7 0.0 3.5l                   1
 Action:ARG 22-06-18 17:45 OP:OBSP STATUS:               ID:20200101014320     I
 STAT SP IPHASW D HRMM SECON CODA AMPLIT PERI AZIMU VELO AIN AR TRES W  DIS CAZ7
 EVSP    EP   0    14338.573                                           97.6 260 
 EVSP    ES   0    14352.143                                           97.6 260 
 XIVZ    EP   0    14332.054                                           61.3 337 
 XIVZ    ES   0    14341.784                                           61.3 337 
 YXLK    EP   0    14320.864                                           11.1  35 
 YXLK    ES   0    14326.755                                           11.1  35 
 RVDG    EP   0    14331.041                                           54.9  95 
 RVDG    ES   0    14339.521                                           54.9  95 
 TVCN    EP   0    14324.685                                           21.7 200 
 TVCN    ES   0    14328.959                                           21.7 200 
 ZGXN    EP   0    14345.086                                            141 100 
 ZGXN    ES   0    144 3.920                                            141 100 
 YAIP    EP   0    14341.960                                            119  66 
 YAIP    ES   0    14357.623                                            119  66 
                                                                                

 2020  1 1  145  0.0 L  36.276  51.585 15.5       8 0.0 4.0l                   1
 Action:ARG 22-06-18 17:45 OP:OBSP STATUS:               ID:20200101014500     I
 STAT SP IPHASW D HRMM SECON CODA AMPLIT PERI AZIMU VELO AIN AR TRES W  DIS CAZ7
 EVSP    EP   0    145 7.317                                           33.3 272 
 EVSP    ES   0    14512.836                                           33.3 272 
 YIBA    EP   0    14512.903                                           65.3  41 
 YIBA    ES   0    14524.170                                           65.3  41 
 YXLK    EP   0    14514.680                                           74.4  68 
 YXLK    ES   0    14525.222                                           74.4  68 
 SRWZ    EP   0    145 9.747                                           48.2 122 
 SRWZ    ES   0    14517.431                                           48.2 122 
 TVCN    EP   0    14512.922                                           55.4  92 
 TVCN    ES   0    14517.886                                           55.4  92 
 ZGXN    EP   0    14532.732                                            202  92 
 ZGXN    ES   0    14557.693                                            202  92 
 XIVZ    EP   0    14516.038                                           84.6  27 
 XIVZ    ES   0    14527.504                                           84.6  27 
 YAIP    EP   0    14530.932                                            184  68 
 YAIP    ES   0    14554.520                                            184  68 
                                                                                

 2020  1 1  146 40.0 L  36.076  52.364 15.1       7 0.0 3.5l                   1
 Action:ARG 22-06-18 17:45 OP:OBSP STATUS:               ID:20200101014640     I
 STAT SP IPHASW D HRMM SECON CODA AMPLIT PERI AZIMU VELO AIN AR TRES W  DIS CAZ7
 SRWZ    EP   0    14646.661                                           29.9 262 
 SRWZ    ES   0    14651.261                                           29.9 262 
 YAIP    EP   0    147 3.960                                            135  49 
 YAIP    ES   0    14722.103                                            135  49 
 XIVZ    EP   0    14657.559                                            101 342 
 XIVZ    ES   0    14711.674                                            101 342 
 YXLK    EP   0    14649.615                                           49.4 359 
 YXLK    ES   0    14657.322                                           49.4 359 
 ZGXN    EP   0    147 4.583                                            132  84 
 ZGXN    ES   0    14719.351                                            132  84 
 ZSCP    EP   0    14650.123                                           51.3  70 
 ZSCP    ES   0    14659.083                                           51.3  70 
 RVDG    EP   0    14650.708                                           59.1  53 
 RVDG    ES   0    14658.524                                           59.1  53 
                                                                                

 2020  1 1  148 20.0 L  36.193  51.732 10.6       7 0.0 3.5l                   1
 Action:ARG 22-06-18 17:45 OP:OBSP STATUS:               ID:20200101014820     I
 STAT SP IPHASW D HRMM SECON CODA AMPLIT PERI AZIMU VELO AIN AR TRES W  DIS CAZ7
 YIBA    EP   0    14833.943                                           65.4  27 
 YIBA    ES   0    14843.309                                           65.4  27 
 RVDG    EP   0    14840.240                                            106  77 
 RVDG    ES   0    14855.509                                            106  77 
 ZSCP    EP   0    14838.153                                            105  87 
 ZSCP    ES   0    14856.193                                            105  87 
 TVCN    EP   0    14829.390                                           42.7  80 
 TVCN    ES   0    14835.186                                           42.7  80 
 EVSP    EP   0    14827.676                                           47.8 283 
 EVSP    ES   0    14835.830                                           47.8 283 
 XIVZ    EP   0    14837.086                                           88.1  17 
 XIVZ    ES   0    14851.337                                           88.1  17 
 YAIP    EP   0    14850.638                                            176  64 
 YAIP    ES   0    14913.383                                            176  64 
                                                                                

 2020  1 1  150  0.0 L  35.865  51.960 11.6       7 0.0 3.5l                   1
 Action:ARG 22-06-18 17:45 OP:OBSP STATUS:               ID:20200101015000     I
 STAT SP IPHASW D HRMM SECON CODA AMPLIT PERI AZIMU VELO AIN AR TRES W  DIS CAZ7
 YAIP    EP   0    15029.753                                            178  51 
 YAIP    ES   0    15053.289                                            178  51 
 TVCN    EP   0    150 8.520                                           48.6  26 
 TVCN    ES   0    15015.665                                           48.6  26 
 YXLK    EP   0    15017.080                                           81.1  25 
 YXLK    ES   0    15028.435                                           81.1  25 
 SRWZ    EP   0    150 4.676                                           20.7  19 
 SRWZ    ES   0    150 9.863                                           20.7  19 
 RVDG    EP   0    15019.209                                            102  54 
 RVDG    ES   0    15033.787                                            102  54 
 XIVZ    EP   0    15023.041                                            120   2 
 XIVZ    ES   0    15039.495                                            120   2 
 ZGXN    EP   0    15030.877                                            172  77 
 ZGXN    ES   0    15050.674                                            172  77 
                                                                                

 2020  1 1  151 40.0 L  36.123  51.725 12.6       4 0.0 2.0l                   1
 Action:ARG 22-06-18 17:45 OP:OBSP STATUS:               ID:20200101015140     I
 STAT SP IPHASW D HRMM SECON CODA AMPLIT PERI AZIMU VELO AIN AR TRES W  DIS CAZ7
 YAIP    EP   0    15210.073                                            180  62 
 YAIP    ES   0    15234.152                                            180  62 
 RVDG    EP   0    152 1.139                                            109  73 
 RVDG    ES   0    15214.568                                            109  73 
 YXLK    EP   0    15154.142                                           71.9  51 
 YXLK    ES   0    152 2.611                                           71.9  51 
 XIVZ    EP   0    15157.173                                           95.7  16 
 XIVZ    ES   0    15212.062                                           95.7  16 
                                                                                

