 2020  1 1  0 1 40.0 L  35.863  52.363  7.0      10 0.0 5.0l                   1
 Action:ARG 22-06-18 17:45 OP:OBSP STATUS:               ID:20200101000140     I
 STAT SP IPHASW D HRMM SECON CODA AMPLIT PERI AZIMU VELO AIN AR TRES W  DIS CAZ7
 RVDG    EP   0    0 153.276                                           75.6  39 
 RVDG    ES   0    0 2 5.454                                           75.6  39 
 TVCN    EP   0    0 148.790                                           46.0 341 
 TVCN    ES   0    0 156.779                                           46.0 341 
 ZSCP    EP   0    0 152.947                                           63.3  49 
 ZSCP    ES   0    0 2 1.183                                           63.3  49 
 EVSP    EP   0    0 2 1.608                                            113 294 
 EVSP    ES   0    0 220.021                                            113 294 
 YAIP    EP   0    0 2 9.031                                            151  42 
 YAIP    ES   0    0 227.437                                            151  42 
 YXLK    EP   0    0 155.392                                           73.0 359 
 YXLK    ES   0    0 2 5.209                                           73.0 359 
 ZGXN    EP   0    0 2 4.797                                            137  74 
 ZGXN    ES   0    0 221.745                                            137  74 
 YIBA    EP   0    0 158.749                                           98.2 344 
 YIBA    ES   0    0 212.579                                           98.2 344 
 XIVZ    EP   0    0 2 4.045                                            124 345 
 XIVZ    ES   0    0 221.206                                            124 345 
 SRWZ    EP   0    0 145.821                                           35.6 303 
 SRWZ    ES   0    0 151.732                                           35.6 303 
                                                                                

 2020  1 1  0 3 20.0 L  35.760  51.882 17.7       5 0.0 2.5l                   1
 Action:ARG 22-06-18 17:45 OP:OBSP STATUS:               ID:20200101000320     I
 STAT SP IPHASW D HRMM SECON CODA AMPLIT PERI AZIMU VELO AIN AR TRES W  DIS CAZ7
 TVCN    EP   0    0 332.382                                           62.1  27 
 TVCN    ES   0    0 340.407                                           62.1  27 
 YIBA    EP   0    0 338.976                                            107   8 
 YIBA    ES   0    0 354.554                                            107   8 
 YAIP    EP   0    0 349.711                                            191  49 
 YAIP    ES   0    0 415.845                                            191  49 
 ZSCP    EP   0    0 338.180                                            105  60 
 ZSCP    ES   0    0 354.531                                            105  60 
 YXLK    EP   0    0 337.771                                           94.6  26 
 YXLK    ES   0    0 349.277                                           94.6  26 
                                                                                

 2020  1 1  0 5  0.0 L  35.485  52.194 16.5      10 0.0 5.0l                   1
 Action:ARG 22-06-18 17:45 OP:OBSP STATUS:               ID:20200101000500     I
 STAT SP IPHASW D HRMM SECON CODA AMPLIT PERI AZIMU VELO AIN AR TRES W  DIS CAZ7
 ZSCP    EP   0    0 518.666                                            104  37 
 ZSCP    ES   0    0 533.276                                            104  37 
 YIBA    EP   0    0 523.045                                            136 355 
 YIBA    ES   0    0 542.337                                            136 355 
 XIVZ    EP   0    0 527.281                                            163 354 
 XIVZ    ES   0    0 545.502                                            163 354 
 EVSP    EP   0    0 523.469                                            125 315 
 EVSP    ES   0    0 538.596                                            125 315 
 SRWZ    EP   0    0 511.845                                           63.3 346 
 SRWZ    ES   0    0 522.302                                           63.3 346 
 RVDG    EP   0    0 521.500                                            118  31 
 RVDG    ES   0    0 537.275                                            118  31 
 YAIP    EP   0    0 531.471                                            193  37 
 YAIP    ES   0    0 556.758                                            193  37 
 YXLK    EP   0    0 519.310                                            115   7 
 YXLK    ES   0    0 537.927                                            115   7 
 TVCN    EP   0    0 515.029                                           85.5   0 
 TVCN    ES   0    0 528.314                                           85.5   0 
 ZGXN    EP   0    0 528.450                                            167  61 
 ZGXN    ES   0    0 549.972                                            167  61 
                                                                                

 2020  1 1  0 6 40.0 L  35.830  52.390  8.8       5 0.0 2.5l                   1
 Action:ARG 22-06-18 17:45 OP:OBSP STATUS:               ID:20200101000640     I
 STAT SP IPHASW D HRMM SECON CODA AMPLIT PERI AZIMU VELO AIN AR TRES W  DIS CAZ7
 TVCN    EP   0    0 649.110                                           50.3 340 
 TVCN    ES   0    0 658.433                                           50.3 340 
 XIVZ    EP   0    0 7 1.942                                            128 345 
 XIVZ    ES   0    0 720.070                                            128 345 
 EVSP    EP   0    0 7 0.795                                            117 296 
 EVSP    ES   0    0 718.810                                            117 296 
 SRWZ    EP   0    0 648.945                                           39.7 306 
 SRWZ    ES   0    0 656.139                                           39.7 306 
 YAIP    EP   0    0 7 6.029                                            153  41 
 YAIP    ES   0    0 727.367                                            153  41 
                                                                                

 2020  1 1  0 8 20.0 L  35.944  52.071 12.4       5 0.0 2.5l                   1
 Action:ARG 22-06-18 17:45 OP:OBSP STATUS:               ID:20200101000820     I
 STAT SP IPHASW D HRMM SECON CODA AMPLIT PERI AZIMU VELO AIN AR TRES W  DIS CAZ7
 YAIP    EP   0    0 848.706                                            165  51 
 YAIP    ES   0    0 910.046                                            165  51 
 YIBA    EP   0    0 835.840                                           85.6 359 
 YIBA    ES   0    0 848.850                                           85.6 359 
 RVDG    EP   0    0 837.553                                           89.1  55 
 RVDG    ES   0    0 850.094                                           89.1  55 
 YXLK    EP   0    0 832.740                                           69.0  21 
 YXLK    ES   0    0 843.817                                           69.0  21 
 XIVZ    EP   0    0 841.045                                            111 357 
 XIVZ    ES   0    0 854.381                                            111 357 
                                                                                

 2020  1 1  010  0.0 L  35.539  52.327 11.7       8 0.0 4.0l                   1
 Action:ARG 22-06-18 17:45 OP:OBSP STATUS:               ID:20200101001000     I
 STAT SP IPHASW D HRMM SECON CODA AMPLIT PERI AZIMU VELO AIN AR TRES W  DIS CAZ7
 YAIP    EP   0    01031.968                                            181  35 
 YAIP    ES   0    01055.187                                            181  35 
 ZGXN    EP   0    01027.033                                            153  61 
 ZGXN    ES   0    01048.514                                            153  61 
 ZSCP    EP   0    01017.721                                           92.6  33 
 ZSCP    ES   0    01031.199                                           92.6  33 
 RVDG    EP   0    01020.342                                            107  28 
 RVDG    ES   0    01036.099                                            107  28 
 YXLK    EP   0    01021.868                                            108   1 
 YXLK    ES   0    01034.837                                            108   1 
 YIBA    EP   0    01024.826                                            132 349 
 YIBA    ES   0    01043.270                                            132 349 
 SRWZ    EP   0    01013.193                                           61.6 334 
 SRWZ    ES   0    01022.591                                           61.6 334 
 XIVZ    EP   0    01027.790                                            158 350 
 XIVZ    ES   0    01048.603                                            158 350 
                                                                                

 2020  1 1  011 40.0 L  35.914  51.928 14.8      10 0.0 5.0l                   1
 Action:ARG 22-06-18 17:45 OP:OBSP STATUS:               ID:20200101001140     I
 STAT SP IPHASW D HRMM SECON CODA AMPLIT PERI AZIMU VELO AIN AR TRES W  DIS CAZ7
 TVCN    EP   0    01149.267                                           45.2  32 
 TVCN    ES   0    01156.564                                           45.2  32 
 YIBA    EP   0    01156.507                                           89.8   8 
 YIBA    ES   0    01210.099                                           89.8   8 
 SRWZ    EP   0    01145.990                                           17.1  34 
 SRWZ    ES   0    01146.229                                           17.1  34 
 RVDG    EP   0    01158.568                                            101  58 
 RVDG    ES   0    01213.142                                            101  58 
 EVSP    EP   0    01153.535                                           76.6 303 
 EVSP    ES   0    012 5.589                                           76.6 303 
 ZSCP    EP   0    01157.720                                           94.5  67 
 ZSCP    ES   0    012 9.893                                           94.5  67 
 YAIP    EP   0    012 9.787                                            177  53 
 YAIP    ES   0    01232.431                                            177  53 
 YXLK    EP   0    01152.424                                           77.6  29 
 YXLK    ES   0    012 7.873                                           77.6  29 
 XIVZ    EP   0    012 0.334                                            115   4 
 XIVZ    ES   0    01217.532                                            115   4 
 ZGXN    EP   0    012 9.657                                            174  79 
 ZGXN    ES   0    01233.458                                            174  79 
                                                                                

 2020  1 1  013 20.0 L  35.754  52.254 16.8       6 0.0 3.0l                   1
 Action:ARG 22-06-18 17:45 OP:OBSP STATUS:               ID:20200101001320     I
 STAT SP IPHASW D HRMM SECON CODA AMPLIT PERI AZIMU VELO AIN AR TRES W  DIS CAZ7
 EVSP    EP   0    01339.893                                            110 302 
 EVSP    ES   0    01355.473                                            110 302 
 RVDG    EP   0    01336.946                                           91.3  39 
 RVDG    ES   0    01350.128                                           91.3  39 
 ZSCP    EP   0    01334.827                                           78.8  47 
 ZSCP    ES   0    01346.715                                           78.8  47 
 SRWZ    EP   0    01328.930                                           37.4 328 
 SRWZ    ES   0    01334.646                                           37.4 328 
 YAIP    EP   0    01348.686                                            167  42 
 YAIP    ES   0    014 9.325                                            167  42 
 XIVZ    EP   0    01343.809                                            134 351 
 XIVZ    ES   0    014 2.640                                            134 351 
                                                                                

 2020  1 1  015  0.0 L  35.804  51.961  6.4       5 0.0 2.5l                   1
 Action:ARG 22-06-18 17:45 OP:OBSP STATUS:               ID:20200101001500     I
 STAT SP IPHASW D HRMM SECON CODA AMPLIT PERI AZIMU VELO AIN AR TRES W  DIS CAZ7
 ZGXN    EP   0    01531.130                                            174  75 
 ZGXN    ES   0    01553.710                                            174  75 
 RVDG    EP   0    01521.086                                            106  51 
 RVDG    ES   0    01535.021                                            106  51 
 EVSP    EP   0    01517.004                                           86.2 308 
 EVSP    ES   0    01530.258                                           86.2 308 
 YIBA    EP   0    01518.897                                            101   5 
 YIBA    ES   0    01534.881                                            101   5 
 TVCN    EP   0    015 9.397                                           54.6  23 
 TVCN    ES   0    01518.842                                           54.6  23 
                                                                                

 2020  1 1  016 40.0 L  36.130  52.009  5.4       7 0.0 3.5l                   1
 Action:ARG 22-06-18 17:45 OP:OBSP STATUS:               ID:20200101001640     I
 STAT SP IPHASW D HRMM SECON CODA AMPLIT PERI AZIMU VELO AIN AR TRES W  DIS CAZ7
 TVCN    EP   0    01642.666                                           22.2  50 
 TVCN    ES   0    01648.368                                           22.2  50 
 ZGXN    EP   0    01710.398                                            164  87 
 ZGXN    ES   0    01731.870                                            164  87 
 YAIP    EP   0    017 8.140                                            157  58 
 YAIP    ES   0    01729.429                                            157  58 
 YIBA    EP   0    01652.246                                           65.2   4 
 YIBA    ES   0    017 4.483                                           65.2   4 
 RVDG    EP   0    01655.444                                           84.6  69 
 RVDG    ES   0    01710.193                                           84.6  69 
 ZSCP    EP   0    01656.722                                           81.0  81 
 ZSCP    ES   0    017 9.171                                           81.0  81 
 EVSP    EP   0    01655.872                                           73.7 284 
 EVSP    ES   0    017 6.946                                           73.7 284 
                                                                                

 2020  1 1  018 20.0 L  36.256  51.754 17.5       8 0.0 4.0l                   1
 Action:ARG 22-06-18 17:45 OP:OBSP STATUS:               ID:20200101001820     I
 STAT SP IPHASW D HRMM SECON CODA AMPLIT PERI AZIMU VELO AIN AR TRES W  DIS CAZ7
 ZSCP    EP   0    01839.510                                            103  91 
 ZSCP    ES   0    01851.704                                            103  91 
 RVDG    EP   0    01839.550                                            103  81 
 RVDG    ES   0    01854.104                                            103  81 
 SRWZ    EP   0    01827.291                                           34.8 133 
 SRWZ    ES   0    01834.052                                           34.8 133 
 YAIP    EP   0    01852.166                                            171  66 
 YAIP    ES   0    019 9.669                                            171  66 
 TVCN    EP   0    01830.500                                           40.1  89 
 TVCN    ES   0    01835.588                                           40.1  89 
 YIBA    EP   0    01830.888                                           58.3  28 
 YIBA    ES   0    01839.832                                           58.3  28 
 YXLK    EP   0    01831.896                                           61.5  61 
 YXLK    ES   0    01842.836                                           61.5  61 
 XIVZ    EP   0    01833.957                                           80.8  17 
 XIVZ    ES   0    01847.403                                           80.8  17 
                                                                                

 2020  1 1  020  0.0 L  36.112  52.202 11.5       7 0.0 3.5l                   1
 Action:ARG 22-06-18 17:45 OP:OBSP STATUS:               ID:20200101002000     I
 STAT SP IPHASW D HRMM SECON CODA AMPLIT PERI AZIMU VELO AIN AR TRES W  DIS CAZ7
 XIVZ    EP   0    02018.548                                           94.4 350 
 XIVZ    ES   0    02030.732                                           94.4 350 
 SRWZ    EP   0    020 3.683                                           17.0 242 
 SRWZ    ES   0    020 6.870                                           17.0 242 
 TVCN    EP   0    020 3.480                                           16.0 359 
 TVCN    ES   0    020 7.185                                           16.0 359 
 YAIP    EP   0    02023.575                                            144  54 
 YAIP    ES   0    02044.322                                            144  54 
 RVDG    EP   0    02012.871                                           69.5  63 
 RVDG    ES   0    02023.085                                           69.5  63 
 YIBA    EP   0    02012.616                                           68.0 349 
 YIBA    ES   0    02024.275                                           68.0 349 
 ZGXN    EP   0    02025.883                                            146  86 
 ZGXN    ES   0    02044.027                                            146  86 
                                                                                

 2020  1 1  021 40.0 L  35.847  52.201 16.4       7 0.0 3.5l                   1
 Action:ARG 22-06-18 17:45 OP:OBSP STATUS:               ID:20200101002140     I
 STAT SP IPHASW D HRMM SECON CODA AMPLIT PERI AZIMU VELO AIN AR TRES W  DIS CAZ7
 YAIP    EP   0    022 6.411                                            163  45 
 YAIP    ES   0    02228.874                                            163  45 
 XIVZ    EP   0    022 0.037                                            123 352 
 XIVZ    ES   0    02218.949                                            123 352 
 ZGXN    EP   0    022 6.147                                            151  74 
 ZGXN    ES   0    02225.799                                            151  74 
 YIBA    EP   0    02156.127                                           97.1 352 
 YIBA    ES   0    022 9.715                                           97.1 352 
 YXLK    EP   0    02154.110                                           76.1  10 
 YXLK    ES   0    022 6.444                                           76.1  10 
 ZSCP    EP   0    02155.047                                           76.1  55 
 ZSCP    ES   0    022 7.040                                           76.1  55 
 EVSP    EP   0    02159.122                                            101 299 
 EVSP    ES   0    02213.951                                            101 299 
                                                                                

