 2020  1 1  215  0.0 L  35.777  51.884 16.6       6 0.0 3.0l                   1
 Action:ARG 22-06-18 17:45 OP:OBSP STATUS:               ID:20200101021500     I
 STAT SP IPHASW D HRMM SECON CODA AMPLIT PERI AZIMU VELO AIN AR TRES W  DIS CAZ7
 RVDG    EP   0    21520.336                                            113  52 
 RVDG    ES   0    21536.039                                            113  52 
 XIVZ    EP   0    21523.234                                            130   5 
 XIVZ    ES   0    21537.889                                            130   5 
 TVCN    EP   0    21511.575                                           60.3  28 
 TVCN    ES   0    21521.648                                           60.3  28 
 EVSP    EP   0    21515.131                                           82.9 313 
 EVSP    ES   0    21527.094                                           82.9 313 
 SRWZ    EP   0    215 7.739                                           32.3  24 
 SRWZ    ES   0    21513.576                                           32.3  24 
 YAIP    EP   0    21532.829                                            189  50 
 YAIP    ES   0    21555.643                                            189  50 
                                                                                

 2020  1 1  216 40.0 L  35.934  52.056 13.1       8 0.0 4.0l                   1
 Action:ARG 22-06-18 17:45 OP:OBSP STATUS:               ID:20200101021640     I
 STAT SP IPHASW D HRMM SECON CODA AMPLIT PERI AZIMU VELO AIN AR TRES W  DIS CAZ7
 SRWZ    EP   0    21642.720                                           12.0 351 
 SRWZ    ES   0    21644.627                                           12.0 351 
 ZGXN    EP   0    217 8.923                                            162  79 
 ZGXN    ES   0    21729.094                                            162  79 
 RVDG    EP   0    21657.296                                           90.9  55 
 RVDG    ES   0    217 9.806                                           90.9  55 
 YXLK    EP   0    21653.447                                           70.6  22 
 YXLK    ES   0    217 3.274                                           70.6  22 
 ZSCP    EP   0    21656.509                                           83.0  66 
 ZSCP    ES   0    217 9.818                                           83.0  66 
 YIBA    EP   0    21657.648                                           86.8   0 
 YIBA    ES   0    217 8.399                                           86.8   0 
 YAIP    EP   0    217 9.540                                            166  51 
 YAIP    ES   0    21732.003                                            166  51 
 TVCN    EP   0    21647.900                                           38.1  19 
 TVCN    ES   0    21653.420                                           38.1  19 
                                                                                

 2020  1 1  218 20.0 L  35.961  52.111 17.9       5 0.0 2.5l                   1
 Action:ARG 22-06-18 17:45 OP:OBSP STATUS:               ID:20200101021820     I
 STAT SP IPHASW D HRMM SECON CODA AMPLIT PERI AZIMU VELO AIN AR TRES W  DIS CAZ7
 SRWZ    EP   0    21824.448                                           11.2 322 
 SRWZ    ES   0    21825.663                                           11.2 322 
 XIVZ    EP   0    21841.109                                            110 355 
 XIVZ    ES   0    21856.639                                            110 355 
 YAIP    EP   0    21846.182                                            161  51 
 YAIP    ES   0    219 8.468                                            161  51 
 RVDG    EP   0    21836.829                                           85.1  55 
 RVDG    ES   0    21848.742                                           85.1  55 
 YIBA    EP   0    21836.203                                           83.8 357 
 YIBA    ES   0    21847.437                                           83.8 357 
                                                                                

 2020  1 1  220  0.0 L  36.048  52.221  8.5       7 0.0 3.5l                   1
 Action:ARG 22-06-18 17:45 OP:OBSP STATUS:               ID:20200101022000     I
 STAT SP IPHASW D HRMM SECON CODA AMPLIT PERI AZIMU VELO AIN AR TRES W  DIS CAZ7
 SRWZ    EP   0    220 4.231                                           16.7 267 
 SRWZ    ES   0    220 7.639                                           16.7 267 
 YIBA    EP   0    22015.190                                           75.4 349 
 YIBA    ES   0    22026.036                                           75.4 349 
 EVSP    EP   0    22018.955                                           94.5 286 
 EVSP    ES   0    22033.029                                           94.5 286 
 YXLK    EP   0    22011.508                                           53.9  13 
 YXLK    ES   0    22018.338                                           53.9  13 
 ZSCP    EP   0    22011.536                                           64.5  71 
 ZSCP    ES   0    22021.300                                           64.5  71 
 ZGXN    EP   0    22026.343                                            145  83 
 ZGXN    ES   0    22046.939                                            145  83 
 XIVZ    EP   0    22020.552                                            101 350 
 XIVZ    ES   0    22035.957                                            101 350 
                                                                                

 2020  1 1  221 40.0 L  35.576  52.490 12.7       9 0.0 4.5l                   1
 Action:ARG 22-06-18 17:45 OP:OBSP STATUS:               ID:20200101022140     I
 STAT SP IPHASW D HRMM SECON CODA AMPLIT PERI AZIMU VELO AIN AR TRES W  DIS CAZ7
 YAIP    EP   0    22210.308                                            170  32 
 YAIP    ES   0    22229.925                                            170  32 
 ZSCP    EP   0    22155.573                                           81.6  26 
 ZSCP    ES   0    222 8.349                                           81.6  26 
 SRWZ    EP   0    22154.623                                           65.9 321 
 SRWZ    ES   0    222 2.444                                           65.9 321 
 XIVZ    EP   0    222 6.527                                            158 344 
 XIVZ    ES   0    22228.003                                            158 344 
 TVCN    EP   0    22156.379                                           79.9 341 
 TVCN    ES   0    222 6.881                                           79.9 341 
 EVSP    EP   0    222 5.081                                            139 304 
 EVSP    ES   0    22224.845                                            139 304 
 YIBA    EP   0    222 2.488                                            132 343 
 YIBA    ES   0    22221.623                                            132 343 
 YXLK    EP   0    222 0.078                                            105 353 
 YXLK    ES   0    22214.703                                            105 353 
 ZGXN    EP   0    222 3.888                                            139  60 
 ZGXN    ES   0    22223.087                                            139  60 
                                                                                

 2020  1 1  223 20.0 L  36.202  51.855 19.3       5 0.0 2.5l                   1
 Action:ARG 22-06-18 17:45 OP:OBSP STATUS:               ID:20200101022320     I
 STAT SP IPHASW D HRMM SECON CODA AMPLIT PERI AZIMU VELO AIN AR TRES W  DIS CAZ7
 TVCN    EP   0    22325.498                                           31.6  78 
 TVCN    ES   0    22332.954                                           31.6  78 
 YIBA    EP   0    22332.974                                           60.2  18 
 YIBA    ES   0    22340.049                                           60.2  18 
 ZGXN    EP   0    22349.143                                            177  89 
 ZGXN    ES   0    22410.780                                            177  89 
 XIVZ    EP   0    22336.335                                           84.5  10 
 XIVZ    ES   0    22347.293                                           84.5  10 
 RVDG    EP   0    22337.034                                           95.6  76 
 RVDG    ES   0    22349.524                                           95.6  76 
                                                                                

 2020  1 1  225  0.0 L  35.944  52.565 13.7      10 0.0 5.0l                   1
 Action:ARG 22-06-18 17:45 OP:OBSP STATUS:               ID:20200101022500     I
 STAT SP IPHASW D HRMM SECON CODA AMPLIT PERI AZIMU VELO AIN AR TRES W  DIS CAZ7
 ZSCP    EP   0    225 9.956                                           43.9  43 
 ZSCP    ES   0    22515.087                                           43.9  43 
 XIVZ    EP   0    22523.076                                            121 336 
 XIVZ    ES   0    22538.516                                            121 336 
 ZGXN    EP   0    22523.108                                            117  76 
 ZGXN    ES   0    22537.454                                            117  76 
 SRWZ    EP   0    22510.238                                           49.0 282 
 SRWZ    ES   0    22518.457                                           49.0 282 
 TVCN    EP   0    22510.201                                           47.7 316 
 TVCN    ES   0    22515.138                                           47.7 316 
 RVDG    EP   0    225 9.937                                           57.7  30 
 RVDG    ES   0    22521.627                                           57.7  30 
 EVSP    EP   0    22522.480                                            127 287 
 EVSP    ES   0    22540.149                                            127 287 
 YXLK    EP   0    22513.828                                           66.7 343 
 YXLK    ES   0    22523.215                                           66.7 343 
 YIBA    EP   0    22518.702                                           96.5 332 
 YIBA    ES   0    22531.191                                           96.5 332 
 YAIP    EP   0    22522.842                                            133  39 
 YAIP    ES   0    22541.940                                            133  39 
                                                                                

 2020  1 1  226 40.0 L  35.949  52.010 11.9       5 0.0 2.5l                   1
 Action:ARG 22-06-18 17:45 OP:OBSP STATUS:               ID:20200101022640     I
 STAT SP IPHASW D HRMM SECON CODA AMPLIT PERI AZIMU VELO AIN AR TRES W  DIS CAZ7
 YXLK    EP   0    22653.024                                           70.7  26 
 YXLK    ES   0    227 3.243                                           70.7  26 
 XIVZ    EP   0    227 2.315                                            111   0 
 XIVZ    ES   0    22714.764                                            111   0 
 YIBA    EP   0    22656.777                                           85.2   3 
 YIBA    ES   0    227 9.014                                           85.2   3 
 EVSP    EP   0    22655.578                                           81.0 297 
 EVSP    ES   0    227 8.120                                           81.0 297 
 RVDG    EP   0    22656.626                                           93.4  58 
 RVDG    ES   0    22711.550                                           93.4  58 
                                                                                

 2020  1 1  228 20.0 L  35.936  52.298  9.0       7 0.0 3.5l                   1
 Action:ARG 22-06-18 17:45 OP:OBSP STATUS:               ID:20200101022820     I
 STAT SP IPHASW D HRMM SECON CODA AMPLIT PERI AZIMU VELO AIN AR TRES W  DIS CAZ7
 YXLK    EP   0    22833.992                                           65.2   4 
 YXLK    ES   0    22841.672                                           65.2   4 
 ZGXN    EP   0    22847.387                                            141  78 
 ZGXN    ES   0    229 6.687                                            141  78 
 EVSP    EP   0    22840.461                                            105 292 
 EVSP    ES   0    22855.500                                            105 292 
 XIVZ    EP   0    22842.029                                            115 347 
 XIVZ    ES   0    22858.631                                            115 347 
 ZSCP    EP   0    22832.494                                           63.4  58 
 ZSCP    ES   0    22841.849                                           63.4  58 
 YAIP    EP   0    22847.280                                            150  46 
 YAIP    ES   0    229 7.690                                            150  46 
 RVDG    EP   0    22834.887                                           73.7  46 
 RVDG    ES   0    22845.388                                           73.7  46 
                                                                                

 2020  1 1  230  0.0 L  35.928  52.152 13.2       4 0.0 2.0l                   1
 Action:ARG 22-06-18 17:45 OP:OBSP STATUS:               ID:20200101023000     I
 STAT SP IPHASW D HRMM SECON CODA AMPLIT PERI AZIMU VELO AIN AR TRES W  DIS CAZ7
 TVCN    EP   0    230 8.101                                           36.6   6 
 TVCN    ES   0    23013.125                                           36.6   6 
 YAIP    EP   0    23025.925                                            160  49 
 YAIP    ES   0    23049.657                                            160  49 
 EVSP    EP   0    23017.384                                           93.5 295 
 EVSP    ES   0    23032.680                                           93.5 295 
 SRWZ    EP   0    230 6.004                                           16.3 319 
 SRWZ    ES   0    230 8.346                                           16.3 319 
                                                                                

 2020  1 1  231 40.0 L  36.070  51.715 19.4       5 0.0 2.5l                   1
 Action:ARG 22-06-18 17:45 OP:OBSP STATUS:               ID:20200101023140     I
 STAT SP IPHASW D HRMM SECON CODA AMPLIT PERI AZIMU VELO AIN AR TRES W  DIS CAZ7
 YIBA    EP   0    23155.335                                           78.3  23 
 YIBA    ES   0    232 4.831                                           78.3  23 
 SRWZ    EP   0    23147.588                                           29.0  96 
 SRWZ    ES   0    23151.646                                           29.0  96 
 YAIP    EP   0    232 9.622                                            184  60 
 YAIP    ES   0    23233.583                                            184  60 
 ZGXN    EP   0    23211.070                                            190  85 
 ZGXN    ES   0    23235.142                                            190  85 
 EVSP    EP   0    23151.793                                           51.3 298 
 EVSP    ES   0    23157.983                                           51.3 298 
                                                                                

 2020  1 1  233 20.0 L  36.289  52.113  5.1       4 0.0 2.0l                   1
 Action:ARG 22-06-18 17:45 OP:OBSP STATUS:               ID:20200101023320     I
 STAT SP IPHASW D HRMM SECON CODA AMPLIT PERI AZIMU VELO AIN AR TRES W  DIS CAZ7
 TVCN    EP   0    23324.031                                           8.71 114 
 TVCN    ES   0    23323.244                                           8.71 114 
 EVSP    EP   0    23336.215                                           80.7 270 
 EVSP    ES   0    23347.355                                           80.7 270 
 XIVZ    EP   0    23335.342                                           73.9 353 
 XIVZ    ES   0    23345.580                                           73.9 353 
 YXLK    EP   0    23326.349                                           33.8  40 
 YXLK    ES   0    23331.869                                           33.8  40 
                                                                                

 2020  1 1  235  0.0 L  35.862  51.975 16.8       7 0.0 3.5l                   1
 Action:ARG 22-06-18 17:45 OP:OBSP STATUS:               ID:20200101023500     I
 STAT SP IPHASW D HRMM SECON CODA AMPLIT PERI AZIMU VELO AIN AR TRES W  DIS CAZ7
 XIVZ    EP   0    23522.612                                            120   2 
 XIVZ    ES   0    23539.369                                            120   2 
 TVCN    EP   0    23511.299                                           48.2  24 
 TVCN    ES   0    23518.182                                           48.2  24 
 YAIP    EP   0    23529.767                                            177  50 
 YAIP    ES   0    23552.620                                            177  50 
 RVDG    EP   0    23520.779                                            101  54 
 RVDG    ES   0    23533.108                                            101  54 
 ZGXN    EP   0    23529.611                                            171  77 
 ZGXN    ES   0    23548.847                                            171  77 
 ZSCP    EP   0    23518.220                                           92.9  63 
 ZSCP    ES   0    23531.747                                           92.9  63 
 YXLK    EP   0    23515.344                                           80.8  24 
 YXLK    ES   0    23526.004                                           80.8  24 
                                                                                

 2020  1 1  236 40.0 L  36.054  52.126 17.3      10 0.0 5.0l                   1
 Action:ARG 22-06-18 17:45 OP:OBSP STATUS:               ID:20200101023640     I
 STAT SP IPHASW D HRMM SECON CODA AMPLIT PERI AZIMU VELO AIN AR TRES W  DIS CAZ7
 SRWZ    EP   0    23642.578                                           8.30 260 
 SRWZ    ES   0    23645.949                                           8.30 260 
 ZGXN    EP   0    237 7.605                                            154  83 
 ZGXN    ES   0    23725.289                                            154  83 
 YIBA    EP   0    23654.740                                           73.6 356 
 YIBA    ES   0    237 4.028                                           73.6 356 
 ZSCP    EP   0    23654.308                                           72.5  74 
 ZSCP    ES   0    237 4.835                                           72.5  74 
 EVSP    EP   0    23656.925                                           86.1 287 
 EVSP    ES   0    237 8.263                                           86.1 287 
 TVCN    EP   0    23646.005                                           23.5  16 
 TVCN    ES   0    23651.511                                           23.5  16 
 YAIP    EP   0    237 4.977                                            153  53 
 YAIP    ES   0    23726.188                                            153  53 
 YXLK    EP   0    23650.506                                           55.8  21 
 YXLK    ES   0    23659.196                                           55.8  21 
 RVDG    EP   0    23655.934                                           78.6  61 
 RVDG    ES   0    237 5.630                                           78.6  61 
 XIVZ    EP   0    23658.701                                          100.0 354 
 XIVZ    ES   0    23712.315                                          100.0 354 
                                                                                

