 2020  1 1  045  0.0 L  35.922  51.745  5.4       9 0.0 4.5l                   1
 Action:ARG 22-06-18 17:45 OP:OBSP STATUS:               ID:20200101004500     I
 STAT SP IPHASW D HRMM SECON CODA AMPLIT PERI AZIMU VELO AIN AR TRES W  DIS CAZ7
 YXLK    EP   0    04517.119                                           86.3  39 
 YXLK    ES   0    04528.878                                           86.3  39 
 TVCN    EP   0    04511.925                                           55.3  47 
 TVCN    ES   0    04520.922                                           55.3  47 
 RVDG    EP   0    04522.257                                            115  62 
 RVDG    ES   0    04540.471                                            115  62 
 YAIP    EP   0    04533.010                                            190  56 
 YAIP    ES   0    04557.349                                            190  56 
 SRWZ    EP   0    045 5.537                                           29.3  63 
 SRWZ    ES   0    045 9.064                                           29.3  63 
 ZSCP    EP   0    04520.299                                            109  71 
 ZSCP    ES   0    04535.543                                            109  71 
 YIBA    EP   0    04518.916                                           92.8  18 
 YIBA    ES   0    04532.903                                           92.8  18 
 XIVZ    EP   0    04520.649                                            116  12 
 XIVZ    ES   0    04539.280                                            116  12 
 ZGXN    EP   0    04532.581                                            190  80 
 ZGXN    ES   0    04558.498                                            190  80 
                                                                                

 2020  1 1  046 40.0 L  36.131  51.953  8.3       9 0.0 4.5l                   1
 Action:ARG 22-06-18 17:45 OP:OBSP STATUS:               ID:20200101004640     I
 STAT SP IPHASW D HRMM SECON CODA AMPLIT PERI AZIMU VELO AIN AR TRES W  DIS CAZ7
 SRWZ    EP   0    04643.106                                           12.4 143 
 SRWZ    ES   0    04647.390                                           12.4 143 
 YAIP    EP   0    047 7.960                                            162  59 
 YAIP    ES   0    04730.446                                            162  59 
 XIVZ    EP   0    04658.047                                           91.2   3 
 XIVZ    ES   0    04713.232                                           91.2   3 
 YIBA    EP   0    04653.076                                           65.7   9 
 YIBA    ES   0    047 1.788                                           65.7   9 
 ZSCP    EP   0    04656.233                                           86.0  82 
 ZSCP    ES   0    047 8.640                                           86.0  82 
 ZGXN    EP   0    047 8.695                                            169  87 
 ZGXN    ES   0    04732.311                                            169  87 
 EVSP    EP   0    04654.847                                           68.8 284 
 EVSP    ES   0    047 4.553                                           68.8 284 
 YXLK    EP   0    04650.408                                           56.4  39 
 YXLK    ES   0    047 1.760                                           56.4  39 
 RVDG    EP   0    04658.066                                           89.3  70 
 RVDG    ES   0    047 9.771                                           89.3  70 
                                                                                

 2020  1 1  048 20.0 L  36.208  52.188 11.6       4 0.0 2.0l                   1
 Action:ARG 22-06-18 17:45 OP:OBSP STATUS:               ID:20200101004820     I
 STAT SP IPHASW D HRMM SECON CODA AMPLIT PERI AZIMU VELO AIN AR TRES W  DIS CAZ7
 EVSP    EP   0    04837.857                                           88.0 276 
 EVSP    ES   0    04850.766                                           88.0 276 
 XIVZ    EP   0    04835.785                                           83.7 349 
 XIVZ    ES   0    04849.026                                           83.7 349 
 TVCN    EP   0    04821.073                                           5.47  12 
 TVCN    ES   0    04825.700                                           5.47  12 
 YIBA    EP   0    04831.950                                           57.3 349 
 YIBA    ES   0    04840.621                                           57.3 349 
                                                                                

 2020  1 1  050  0.0 L  36.198  52.064 12.4       8 0.0 4.0l                   1
 Action:ARG 22-06-18 17:45 OP:OBSP STATUS:               ID:20200101005000     I
 STAT SP IPHASW D HRMM SECON CODA AMPLIT PERI AZIMU VELO AIN AR TRES W  DIS CAZ7
 YIBA    EP   0    05011.808                                           57.5   0 
 YIBA    ES   0    05020.249                                           57.5   0 
 ZGXN    EP   0    05028.479                                            159  89 
 ZGXN    ES   0    05047.188                                            159  89 
 YAIP    EP   0    05026.418                                            149  59 
 YAIP    ES   0    05045.590                                            149  59 
 ZSCP    EP   0    05012.650                                           75.4  87 
 ZSCP    ES   0    05026.079                                           75.4  87 
 SRWZ    EP   0    050 2.523                                           17.6 188 
 SRWZ    ES   0    050 7.128                                           17.6 188 
 EVSP    EP   0    05016.049                                           77.1 277 
 EVSP    ES   0    05029.194                                           77.1 277 
 YXLK    EP   0    050 9.491                                           44.4  36 
 YXLK    ES   0    05017.744                                           44.4  36 
 TVCN    EP   0    050 3.072                                           13.9  62 
 TVCN    ES   0    050 5.242                                           13.9  62 
                                                                                

 2020  1 1  051 40.0 L  36.280  51.831  8.5       8 0.0 4.0l                   1
 Action:ARG 22-06-18 17:45 OP:OBSP STATUS:               ID:20200101005140     I
 STAT SP IPHASW D HRMM SECON CODA AMPLIT PERI AZIMU VELO AIN AR TRES W  DIS CAZ7
 YAIP    EP   0    052 9.180                                            164  66 
 YAIP    ES   0    05230.892                                            164  66 
 ZSCP    EP   0    05159.995                                           96.3  92 
 ZSCP    ES   0    05212.931                                           96.3  92 
 YXLK    EP   0    05151.331                                           54.2  60 
 YXLK    ES   0    05159.371                                           54.2  60 
 EVSP    EP   0    05153.557                                           55.5 271 
 EVSP    ES   0    05159.897                                           55.5 271 
 XIVZ    EP   0    05155.742                                           76.4  12 
 XIVZ    ES   0    052 5.557                                           76.4  12 
 SRWZ    EP   0    05145.362                                           32.3 145 
 SRWZ    ES   0    05153.169                                           32.3 145 
 TVCN    EP   0    05145.901                                           33.3  94 
 TVCN    ES   0    05154.108                                           33.3  94 
 RVDG    EP   0    05158.143                                           96.2  82 
 RVDG    ES   0    05213.272                                           96.2  82 
                                                                                

 2020  1 1  053 20.0 L  35.933  52.115  8.5       4 0.0 2.0l                   1
 Action:ARG 22-06-18 17:45 OP:OBSP STATUS:               ID:20200101005320     I
 STAT SP IPHASW D HRMM SECON CODA AMPLIT PERI AZIMU VELO AIN AR TRES W  DIS CAZ7
 SRWZ    EP   0    05323.179                                           13.9 329 
 SRWZ    ES   0    05325.448                                           13.9 329 
 YIBA    EP   0    05337.730                                           86.9 357 
 YIBA    ES   0    05350.537                                           86.9 357 
 RVDG    EP   0    05337.146                                           86.6  53 
 RVDG    ES   0    05349.399                                           86.6  53 
 XIVZ    EP   0    05341.306                                            113 355 
 XIVZ    ES   0    05355.969                                            113 355 
                                                                                

 2020  1 1  055  0.0 L  35.983  52.109  8.3       4 0.0 2.0l                   1
 Action:ARG 22-06-18 17:45 OP:OBSP STATUS:               ID:20200101005500     I
 STAT SP IPHASW D HRMM SECON CODA AMPLIT PERI AZIMU VELO AIN AR TRES W  DIS CAZ7
 YXLK    EP   0    05513.838                                           63.7  20 
 YXLK    ES   0    05521.872                                           63.7  20 
 EVSP    EP   0    05517.191                                           87.5 293 
 EVSP    ES   0    05529.787                                           87.5 293 
 YAIP    EP   0    05526.315                                            159  51 
 YAIP    ES   0    05549.306                                            159  51 
 ZGXN    EP   0    05525.430                                            156  81 
 ZGXN    ES   0    05548.326                                            156  81 
                                                                                

 2020  1 1  056 40.0 L  36.340  52.253 11.9       8 0.0 4.0l                   1
 Action:ARG 22-06-18 17:45 OP:OBSP STATUS:               ID:20200101005640     I
 STAT SP IPHASW D HRMM SECON CODA AMPLIT PERI AZIMU VELO AIN AR TRES W  DIS CAZ7
 EVSP    EP   0    057 0.005                                           93.5 266 
 EVSP    ES   0    05710.197                                           93.5 266 
 YXLK    EP   0    05644.408                                           22.2  24 
 YXLK    ES   0    05650.239                                           22.2  24 
 YAIP    EP   0    057 2.277                                            127  62 
 YAIP    ES   0    05720.498                                            127  62 
 XIVZ    EP   0    05653.837                                           70.8 343 
 XIVZ    ES   0    057 4.190                                           70.8 343 
 ZGXN    EP   0    057 4.342                                            142  96 
 ZGXN    ES   0    05725.035                                            142  96 
 SRWZ    EP   0    05649.373                                           38.5 210 
 SRWZ    ES   0    05653.102                                           38.5 210 
 YIBA    EP   0    05650.168                                           44.8 338 
 YIBA    ES   0    05654.959                                           44.8 338 
 TVCN    EP   0    05643.468                                           10.4 207 
 TVCN    ES   0    05644.759                                           10.4 207 
                                                                                

 2020  1 1  058 20.0 L  35.688  52.489  9.3       8 0.0 4.0l                   1
 Action:ARG 22-06-18 17:45 OP:OBSP STATUS:               ID:20200101005820     I
 STAT SP IPHASW D HRMM SECON CODA AMPLIT PERI AZIMU VELO AIN AR TRES W  DIS CAZ7
 ZGXN    EP   0    05845.098                                            133  64 
 ZGXN    ES   0    059 2.134                                            133  64 
 ZSCP    EP   0    05832.515                                           70.8  31 
 ZSCP    ES   0    05843.778                                           70.8  31 
 YXLK    EP   0    05838.910                                           93.2 352 
 YXLK    ES   0    05852.296                                           93.2 352 
 XIVZ    EP   0    05846.685                                            146 343 
 XIVZ    ES   0    059 5.690                                            146 343 
 SRWZ    EP   0    05829.728                                           56.7 313 
 SRWZ    ES   0    05839.868                                           56.7 313 
 EVSP    EP   0    05843.027                                            132 300 
 EVSP    ES   0    059 3.456                                            132 300 
 RVDG    EP   0    05836.856                                           86.2  24 
 RVDG    ES   0    05849.337                                           86.2  24 
 YIBA    EP   0    05841.809                                            120 341 
 YIBA    ES   0    05859.362                                            120 341 
                                                                                

 2020  1 1  1 0  0.0 L  35.887  51.677  5.3       8 0.0 4.0l                   1
 Action:ARG 22-06-18 17:45 OP:OBSP STATUS:               ID:20200101010000     I
 STAT SP IPHASW D HRMM SECON CODA AMPLIT PERI AZIMU VELO AIN AR TRES W  DIS CAZ7
 ZGXN    EP   0    1 032.618                                            197  79 
 ZGXN    ES   0    1 059.056                                            197  79 
 EVSP    EP   0    1 012.648                                           61.1 317 
 EVSP    ES   0    1 019.706                                           61.1 317 
 TVCN    EP   0    1 012.709                                           62.5  48 
 TVCN    ES   0    1 023.436                                           62.5  48 
 RVDG    EP   0    1 022.963                                            122  62 
 RVDG    ES   0    1 039.360                                            122  62 
 YIBA    EP   0    1 019.467                                           98.4  20 
 YIBA    ES   0    1 033.117                                           98.4  20 
 XIVZ    EP   0    1 023.246                                            122  14 
 XIVZ    ES   0    1 040.387                                            122  14 
 YXLK    EP   0    1 018.385                                           93.2  40 
 YXLK    ES   0    1 031.525                                           93.2  40 
 SRWZ    EP   0    1 0 9.143                                           36.5  62 
 SRWZ    ES   0    1 013.644                                           36.5  62 
                                                                                

 2020  1 1  1 1 40.0 L  36.196  52.036 17.6       6 0.0 3.0l                   1
 Action:ARG 22-06-18 17:45 OP:OBSP STATUS:               ID:20200101010140     I
 STAT SP IPHASW D HRMM SECON CODA AMPLIT PERI AZIMU VELO AIN AR TRES W  DIS CAZ7
 ZSCP    EP   0    1 154.415                                           77.9  86 
 ZSCP    ES   0    1 2 5.612                                           77.9  86 
 TVCN    EP   0    1 144.563                                           16.3  65 
 TVCN    ES   0    1 147.157                                           16.3  65 
 YAIP    EP   0    1 2 4.886                                            152  60 
 YAIP    ES   0    1 225.124                                            152  60 
 XIVZ    EP   0    1 154.252                                           83.8 359 
 XIVZ    ES   0    1 2 6.995                                           83.8 359 
 RVDG    EP   0    1 156.213                                           80.1  74 
 RVDG    ES   0    1 2 6.669                                           80.1  74 
 SRWZ    EP   0    1 145.548                                           17.2 180 
 SRWZ    ES   0    1 146.473                                           17.2 180 
                                                                                

 2020  1 1  1 3 20.0 L  35.548  52.071 13.3       9 0.0 4.5l                   1
 Action:ARG 22-06-18 17:45 OP:OBSP STATUS:               ID:20200101010320     I
 STAT SP IPHASW D HRMM SECON CODA AMPLIT PERI AZIMU VELO AIN AR TRES W  DIS CAZ7
 TVCN    EP   0    1 334.870                                           79.5   8 
 TVCN    ES   0    1 346.695                                           79.5   8 
 YIBA    EP   0    1 342.020                                            129 359 
 YIBA    ES   0    1 4 1.729                                            129 359 
 ZSCP    EP   0    1 337.443                                            106  44 
 ZSCP    ES   0    1 355.562                                            106  44 
 ZGXN    EP   0    1 351.658                                            174  65 
 ZGXN    ES   0    1 411.771                                            174  65 
 EVSP    EP   0    1 341.076                                            112 317 
 EVSP    ES   0    1 356.517                                            112 317 
 YXLK    EP   0    1 340.244                                            111  13 
 YXLK    ES   0    1 356.746                                            111  13 
 SRWZ    EP   0    1 330.559                                           54.8 356 
 SRWZ    ES   0    1 337.597                                           54.8 356 
 RVDG    EP   0    1 340.394                                            119  38 
 RVDG    ES   0    1 357.452                                            119  38 
 XIVZ    EP   0    1 346.813                                            155 358 
 XIVZ    ES   0    1 4 7.218                                            155 358 
                                                                                

 2020  1 1  1 5  0.0 L  36.185  51.932 14.6       9 0.0 4.5l                   1
 Action:ARG 22-06-18 17:45 OP:OBSP STATUS:               ID:20200101010500     I
 STAT SP IPHASW D HRMM SECON CODA AMPLIT PERI AZIMU VELO AIN AR TRES W  DIS CAZ7
 RVDG    EP   0    1 516.350                                           89.4  74 
 RVDG    ES   0    1 529.452                                           89.4  74 
 TVCN    EP   0    1 5 5.484                                           25.4  71 
 TVCN    ES   0    1 5 8.851                                           25.4  71 
 YIBA    EP   0    1 511.009                                           60.1  11 
 YIBA    ES   0    1 524.013                                           60.1  11 
 ZSCP    EP   0    1 516.845                                           87.4  86 
 ZSCP    ES   0    1 528.322                                           87.4  86 
 EVSP    EP   0    1 513.481                                           65.5 280 
 EVSP    ES   0    1 522.752                                           65.5 280 
 YXLK    EP   0    1 5 9.768                                           53.3  45 
 YXLK    ES   0    1 519.044                                           53.3  45 
 ZGXN    EP   0    1 529.193                                            170  89 
 ZGXN    ES   0    1 552.028                                            170  89 
 XIVZ    EP   0    1 516.055                                           85.4   5 
 XIVZ    ES   0    1 526.600                                           85.4   5 
 YAIP    EP   0    1 529.749                                            160  61 
 YAIP    ES   0    1 546.058                                            160  61 
                                                                                

