 2020  1 1 0021 38.2 L  35.762  52.207 12.6  New  7 0.4                        1
 GAP=232        0.53      10.4     3.6 10.1  0.2986E+01  0.5610E+01 -0.9334E+01E
 Action:ARG 22-06-19 14:49 OP:OBSP STATUS:               ID:20200101002140     I
 STAT SP IPHASW D HRMM SECON CODA AMPLIT PERI AZIMU VELO AIN AR TRES W  DIS CAZ7
 ZSCP    EP   4    02156.447                              64    2.30 0 81.4  50 
 ZSCP    ES   2    022 6.438                              64    0.37 5 81.4  50 
 YXLK    EP   4    02155.863                              64    1.06 0 85.3   9 
 YXLK    ES   4    022 7.623                              64    0.40 0 85.3   9 
 RVDG    EP   2    02155.971                              64   -0.16 5 93.3  41 
 RVDG    ES   3    022 9.752                              64    0.20 2 93.3  41 
 EVSP    EP   4    022 0.108                              53    1.89 0  107 303 
 EVSP    ES   2    02213.499                              53    0.30 5  107 303 
 YIBA    EP   2    02158.749                              53    0.58 5  107 353 
 YIBA    ES   3    02212.512                              53   -0.59 2  107 353 
 XIVZ    EP   1    022 1.479                              53   -0.57 6  133 353 
 XIVZ    ES   4    02217.191                              53   -2.71 0  133 353 
 ZGXN    EP   4    022 4.764                              53   -0.38 0  154  72 
 ZGXN    ES   2    02225.216                              53   -0.11 4  154  72 
 YAIP    EP   1    022 7.564                              53    0.11 6  170  44 
 YAIP    ES   4    02230.519                              53    1.15 0  170  44 
                                                                                
 2020  1 1 0023 19.8 L  35.764  51.971  6.1  New  6 0.3                        1
 GAP=237        0.41       3.6     3.6  6.6  0.5329E+01 -0.1942E+02 -0.5839E+01E
 Action:ARG 22-06-19 14:49 OP:OBSP STATUS:               ID:20200101002320     I
 STAT SP IPHASW D HRMM SECON CODA AMPLIT PERI AZIMU VELO AIN AR TRES W  DIS CAZ7
 TVCN    EP   2    02332.119                              68    0.25 5 58.4  21 
 TVCN    ES   4    02338.319                              68   -2.58 0 58.4  21 
 EVSP    EP   0    02337.779                              68    0.1110 89.7 311 
 EVSP    ES   3    02351.602                              68    0.54 2 89.7 311 
 YXLK    EP   4    02335.890                              68   -1.99 0 90.9  22 
 YXLK    ES   3    02351.639                              68    0.21 2 90.9  22 
 YIBA    EP   0    02340.130                              56   -0.3110  106   5 
 YIBA    ES   2    02355.949                              56    0.03 5  106   5 
 RVDG    EP   4    02342.038                              47    1.22 0  108  50 
 RVDG    ES   4    02355.053                              47   -1.51 0  108  50 
 ZGXN    EP   0    02350.523                              47    0.01 8  174  74 
 ZGXN    ES   0    02413.539                              47   -0.00 8  174  74 
 YAIP    EP   3    02352.884                              47    0.82 2  185  48 
 YAIP    ES   3    02416.972                              47    0.71 2  185  48 
                                                                                
 2020  1 1 0025  0.2 L  36.159  51.933 10.0  New  5 0.1                        1
 GAP=194        0.36       3.1     1.3  6.3 -0.1525E+01  0.2782E+01 -0.1064E+02E
 Action:ARG 22-06-19 14:49 OP:OBSP STATUS:               ID:20200101002500     I
 STAT SP IPHASW D HRMM SECON CODA AMPLIT PERI AZIMU VELO AIN AR TRES W  DIS CAZ7
 TVCN    EP   0    025 6.052                              68    0.0310 26.3  66 
 TVCN    ES   4    02512.321                              68    1.93 0 26.3  66 
 YXLK    EP   1    02511.282                              68   -0.10 7 55.3  43 
 YXLK    ES   3    02519.531                              68   -0.24 2 55.3  43 
 EVSP    EP   0    02513.577                              68    0.1610 66.2 283 
 EVSP    ES   1    02523.116                              68   -0.21 7 66.2 283 
 XIVZ    EP   1    02517.420                              56   -0.03 7 88.2   5 
 XIVZ    ES   2    02530.587                              56    0.20 5 88.2   5 
 ZGXN    EP   1    02529.793                              47   -0.08 6  171  88 
 ZGXN    ES   4    02553.630                              47    1.51 0  171  88 
                                                                                
 2020  1 1 0026 39.3 L  35.897  51.819 13.7  New  6 0.5                        1
 GAP=300        0.62       4.8     6.8  3.3  0.9955E+01  0.9415E+01  0.7939E+00E
 Action:ARG 22-06-19 14:49 OP:OBSP STATUS:               ID:20200101002640     I
 STAT SP IPHASW D HRMM SECON CODA AMPLIT PERI AZIMU VELO AIN AR TRES W  DIS CAZ7
 SRWZ    EP   2    02646.018                             111    0.91 5 25.2  51 
 SRWZ    ES   1    02649.170                             111   -0.26 8 25.2  51 
 TVCN    EP   1    02649.903                              96   -0.18 8 52.6  41 
 TVCN    ES   1    02658.289                              96    0.16 8 52.6  41 
 YIBA    EP   3    02656.437                              64   -0.76 2 93.6  14 
 YIBA    ES   0    02710.571                              64   -0.0110 93.6  14 
 ZSCP    EP   4    027 0.548                              53    1.74 0  104  69 
 ZSCP    ES   2    02713.596                              53    0.20 5  104  69 
 RVDG    EP   2    02659.137                              53   -0.69 5  111  60 
 RVDG    ES   2    02715.320                              53    0.14 5  111  60 
 XIVZ    EP   3    027 1.976                              53    1.09 2  118   9 
 XIVZ    ES   4    02718.067                              53    1.03 0  118   9 
                                                                                
 2020  1 1 0028 19.7 L  35.796  51.816 10.0  New  7 0.3                        1
 GAP=309        0.49       4.2     6.0  4.6 -0.1877E+01 -0.1091E+02 -0.2329E+01E
 Action:ARG 22-06-19 14:49 OP:OBSP STATUS:               ID:20200101002820     I
 STAT SP IPHASW D HRMM SECON CODA AMPLIT PERI AZIMU VELO AIN AR TRES W  DIS CAZ7
 SRWZ    EP   4    02825.353                              68   -1.52 0 33.6  36 
 SRWZ    ES   3    02832.314                              68    0.06 2 33.6  36 
 TVCN    EP   0    02831.908                              68   -0.1710 61.7  34 
 TVCN    ES   4    02842.395                              68    1.03 0 61.7  34 
 YXLK    EP   1    02837.645                              56   -0.27 7 94.0  31 
 YXLK    ES   1    02851.854                              56    0.28 7 94.0  31 
 YIBA    EP   0    02839.739                              47    0.13 9  105  13 
 YIBA    ES   3    02853.750                              47   -0.79 2  105  13 
 ZSCP    EP   0    02840.268                              47   -0.01 9  109  63 
 ZSCP    ES   4    02857.669                              47    1.95 0  109  63 
 RVDG    EP   2    02842.149                              47    0.64 5  117  55 
 RVDG    ES   4    02855.268                              47   -2.59 0  117  55 
 YAIP    EP   3    02853.561                              47    0.88 2  193  52 
 YAIP    ES   0    02917.305                              47   -0.11 7  193  52 
                                                                                
 2020  1 1 0029 59.9 L  36.004  51.840 19.6  New  8 0.6                        1
 GAP=217        0.67       9.2     6.4  9.5 -0.6670E+01 -0.3717E+02  0.3401E+02E
 Action:ARG 22-06-19 14:49 OP:OBSP STATUS:               ID:20200101003000     I
 STAT SP IPHASW D HRMM SECON CODA AMPLIT PERI AZIMU VELO AIN AR TRES W  DIS CAZ7
 TVCN    EP   2    030 9.653                              97    0.70 5 42.8  49 
 TVCN    ES   4    03017.656                              97    1.92 0 42.8  49 
 EVSP    EP   2    03012.157                              93   -0.42 5 64.6 299 
 EVSP    ES   4    03020.932                              93   -1.15 0 64.6 299 
 YXLK    EP   1    03013.789                              92   -0.31 8 73.7  39 
 YXLK    ES   3    03023.925                              92   -0.82 3 73.7  39 
 YIBA    EP   3    03016.354                              92    0.96 3 81.5  15 
 YIBA    ES   3    03028.149                              92    1.14 3 81.5  15 
 ZSCP    EP   4    03016.188                              62   -1.74 0 98.8  75 
 ZSCP    ES   1    03031.043                              62   -0.41 8 98.8  75 
 RVDG    EP   0    03018.762                              62    0.0610  104  65 
 RVDG    ES   4    03034.649                              62    1.84 0  104  65 
 XIVZ    EP   4    03020.380                              62    1.34 0  106   9 
 XIVZ    ES   4    03035.052                              62    1.65 0  106   9 
 YAIP    EP   4    03027.937                              62   -1.67 0  178  57 
 YAIP    ES   3    03052.882                              62    1.00 2  178  57 
 ZGXN    EP   1    03030.418                              62    0.46 6  181  83 
 ZGXN    ES   4    03051.067                              62   -1.44 0  181  83 
                                                                                
 2020  1 1 0031 39.9 L  36.071  51.751 17.2  New  6 0.4                        1
 GAP=284        0.56       4.2     7.6  6.3  0.1116E+02 -0.1940E+02 -0.1531E+02E
 Action:ARG 22-06-19 14:49 OP:OBSP STATUS:               ID:20200101003140     I
 STAT SP IPHASW D HRMM SECON CODA AMPLIT PERI AZIMU VELO AIN AR TRES W  DIS CAZ7
 SRWZ    EP   2    03145.603                             119   -0.46 5 25.8  97 
 SRWZ    ES   4    03152.839                             119    2.17 0 25.8  97 
 TVCN    EP   3    03150.497                              64    1.05 3 45.4  63 
 TVCN    ES   3    03157.624                              64    1.03 3 45.4  63 
 YXLK    EP   4    03156.204                              64    2.01 0 73.8  47 
 YXLK    ES   1    032 4.860                              64   -0.03 8 73.8  47 
 YIBA    EP   1    03154.584                              64   -0.13 8 77.0  22 
 YIBA    ES   1    032 5.839                              64    0.02 8 77.0  22 
 RVDG    EP   0    03159.744                              53    0.1110  109  71 
 RVDG    ES   2    03213.850                              53   -0.57 5  109  71 
 ZGXN    EP   2    03211.959                              53    0.70 4  188  85 
 ZGXN    ES   4    03236.702                              53    1.93 0  188  85 
                                                                                
 2020  1 1 0033 20.3 L  36.176  52.382  5.4  New  8 0.3                        1
 GAP=188        0.58       2.6     2.0  2.3  0.2565E+01  0.7334E+00  0.2583E+01E
 Action:ARG 22-06-19 14:49 OP:OBSP STATUS:               ID:20200101003320     I
 STAT SP IPHASW D HRMM SECON CODA AMPLIT PERI AZIMU VELO AIN AR TRES W  DIS CAZ7
 TVCN    EP   4    03322.315                              97   -2.14 0 18.6 299 
 TVCN    ES   3    03327.993                              97    0.45 2 18.6 299 
 SRWZ    EP   4    03325.498                              93   -2.16 0 34.7 244 
 SRWZ    ES   4    03330.894                              93   -2.27 0 34.7 244 
 YXLK    EP   1    03328.676                              93    0.29 7 38.3 357 
 YXLK    ES   0    03334.191                              93   -0.2410 38.3 357 
 ZSCP    EP   1    03329.602                              92   -0.54 7 47.1  83 
 ZSCP    ES   1    03337.224                              92   -0.27 7 47.1  83 
 RVDG    EP   1    03331.401                              92    0.32 7 51.8  62 
 RVDG    ES   0    03339.439                              92    0.2910 51.8  62 
 YIBA    EP   3    03334.546                              68    0.68 2 66.1 335 
 YIBA    ES   4    03342.444                              68   -1.57 0 66.1 335 
 XIVZ    EP   4    03336.203                              68   -2.41 0 91.7 340 
 XIVZ    ES   4    03353.645                              68    1.32 0 91.7 340 
 EVSP    EP   4    03338.616                              56   -2.40 0  106 277 
 EVSP    ES   2    03356.510                              56   -0.01 5  106 277 
 YAIP    EP   0    03344.245                              47    0.05 9  127  53 
 YAIP    ES   0    034 1.999                              47   -0.10 9  127  53 
 ZGXN    EP   4    03345.789                              47    1.11 0  130  89 
 ZGXN    ES   0    034 2.982                              47    0.05 9  130  89 
                                                                                
 2020  1 1 0034 59.6 L  35.788  51.963  4.3  New  8 0.4                        1
 GAP=235        0.57       2.4     1.8  3.0  0.4131E+00 -0.4315E+00  0.1788E+01E
 Action:ARG 22-06-19 14:49 OP:OBSP STATUS:               ID:20200101003500     I
 STAT SP IPHASW D HRMM SECON CODA AMPLIT PERI AZIMU VELO AIN AR TRES W  DIS CAZ7
 SRWZ    EP   1    035 5.448                              91   -0.29 7 28.8  13 
 SRWZ    ES   0    03510.273                              91   -0.0910 28.8  13 
 TVCN    EP   2    03510.818                              90   -0.40 5 56.2  22 
 TVCN    ES   3    03520.782                              90    0.83 2 56.2  22 
 EVSP    EP   1    03517.721                              68    0.56 7 87.5 310 
 EVSP    ES   0    03530.180                              68   -0.1610 87.5 310 
 YXLK    EP   2    03518.063                              68    0.67 5 88.7  23 
 YXLK    ES   1    03531.034                              68    0.28 7 88.7  23 
 ZSCP    EP   0    03519.073                              56    0.02 9 97.8  60 
 ZSCP    ES   0    03533.684                              56    0.02 9 97.8  60 
 YIBA    EP   2    03519.395                              56   -0.59 5  103   5 
 YIBA    ES   0    03535.298                              56    0.01 9  103   5 
 RVDG    EP   3    03519.943                              56   -0.69 2  107  51 
 RVDG    ES   4    03538.463                              56    2.04 0  107  51 
 XIVZ    EP   4    03522.669                              47   -1.22 0  129   2 
 XIVZ    ES   4    03540.573                              47   -1.54 0  129   2 
 ZGXN    EP   1    03530.523                              47   -0.01 6  174  75 
 ZGXN    ES   3    03553.147                              47   -0.59 2  174  75 
 YAIP    EP   4    03531.052                              47   -0.86 0  184  49 
 YAIP    ES   4    03558.365                              47    2.21 0  184  49 
                                                                                
 2020  1 1 0036 40.2 L  36.382  51.849 11.9  New  6 0.3                        1
 GAP=260        0.58       2.3     3.7  3.3  0.5667E+01 -0.1371E+01 -0.6369E+00E
 Action:ARG 22-06-19 14:49 OP:OBSP STATUS:               ID:20200101003640     I
 STAT SP IPHASW D HRMM SECON CODA AMPLIT PERI AZIMU VELO AIN AR TRES W  DIS CAZ7
 TVCN    EP   2    03646.853                              98   -0.74 5 34.5 114 
 TVCN    ES   0    03653.254                              98    0.1410 34.5 114 
 YIBA    EP   0    03649.110                              95    0.1510 41.9  28 
 YIBA    ES   2    03654.899                              95   -0.60 5 41.9  28 
 YXLK    EP   1    03649.787                              94   -0.30 7 48.0  71 
 YXLK    ES   0    03657.506                              94    0.0410 48.0  71 
 XIVZ    EP   0    03653.145                              93   -0.0810 65.0  14 
 XIVZ    ES   1    037 3.243                              93    0.27 7 65.0  14 
 RVDG    EP   1    03658.553                              64    0.31 7 93.7  89 
 RVDG    ES   4    03710.606                              64   -1.14 0 93.7  89 
 YAIP    EP   3    037 8.650                              53    0.78 2  159  70 
 YAIP    ES   0    03728.471                              53   -0.13 8  159  70 
                                                                                
 2020  1 1 0038 20.3 L  35.868  52.038 19.2  New  6 0.3                        1
 GAP=282        0.49       4.6     5.6  2.6  0.1847E+02 -0.9087E+01 -0.4735E+01E
 Action:ARG 22-06-19 14:49 OP:OBSP STATUS:               ID:20200101003820     I
 STAT SP IPHASW D HRMM SECON CODA AMPLIT PERI AZIMU VELO AIN AR TRES W  DIS CAZ7
 SRWZ    EP   0    03825.428                             125   -0.1910 19.1 359 
 SRWZ    ES   1    03829.884                             125    0.29 7 19.1 359 
 YXLK    EP   0    03835.022                              91   -0.1610 77.9  21 
 YXLK    ES   4    03844.480                              91   -1.86 0 77.9  21 
 ZSCP    EP   0    03836.897                              62    0.1810 87.5  62 
 ZSCP    ES   1    03848.989                              62   -0.04 7 87.5  62 
 YIBA    EP   2    03838.161                              62    0.49 5 94.0   2 
 YIBA    ES   0    03850.602                              62   -0.1010 94.0   2 
 XIVZ    EP   4    03839.484                              62   -2.03 0  120 359 
 XIVZ    ES   3    03858.264                              62    0.85 2  120 359 
 ZGXN    EP   4    03846.714                              62   -1.48 0  166  77 
 ZGXN    ES   2    039 8.921                              62   -0.19 4  166  77 
                                                                                
 2020  1 1 0040  0.1 L  36.460  52.041 12.0  New  7 0.3                        1
 GAP=109        0.56       1.6     2.7  3.7 -0.6071E+00 -0.6768E+01  0.1198E+01E
 Action:ARG 22-06-19 14:49 OP:OBSP STATUS:               ID:20200101004000     I
 STAT SP IPHASW D HRMM SECON CODA AMPLIT PERI AZIMU VELO AIN AR TRES W  DIS CAZ7
 YIBA    EP   1    040 6.444                             101    0.04 7 28.5   5 
 YIBA    ES   1    04010.973                             101   -0.12 7 28.5   5 
 YXLK    EP   4    040 7.584                             101    1.08 0 29.1  76 
 YXLK    ES   3    04011.716                             101    0.43 2 29.1  76 
 SRWZ    EP   0    040 9.641                              94   -0.0710 46.5 181 
 SRWZ    ES   3    04016.098                              94   -0.79 2 46.5 181 
 EVSP    EP   4    04016.825                              92    1.54 0 76.6 256 
 EVSP    ES   2    04027.205                              92    0.56 5 76.6 256 
 RVDG    EP   4    04014.093                              92   -1.24 0 76.9  95 
 RVDG    ES   2    04027.082                              92    0.36 5 76.9  95 
 ZSCP    EP   2    04015.349                              64   -0.73 5 81.3 108 
 ZSCP    ES   0    04028.268                              64    0.2310 81.3 108 
 YAIP    EP   0    04024.705                              53   -0.27 8  139  71 
 YAIP    ES   0    04043.673                              53    0.08 8  139  71 
                                                                                
