 2020  1 1 0059 59.9 L  35.888  51.679  4.3  New  7 0.3                        1
 GAP=237        0.52       3.4     2.0  4.2  0.2558E+01 -0.1984E+01 -0.8544E+01E
 Action:ARG 22-06-19 14:49 OP:OBSP STATUS:               ID:20200101010000     I
 STAT SP IPHASW D HRMM SECON CODA AMPLIT PERI AZIMU VELO AIN AR TRES W  DIS CAZ7
 SRWZ    EP   0    1 0 7.515                              91   -0.0410 36.3  62 
 SRWZ    ES   1    1 013.118                              91   -0.18 7 36.3  62 
 EVSP    EP   2    1 013.299                              90    0.80 5 61.1 317 
 EVSP    ES   1    1 021.662                              90   -0.29 7 61.1 317 
 TVCN    EP   4    1 011.790                              90   -0.95 0 62.3  49 
 TVCN    ES   4    1 023.673                              90    1.30 0 62.3  49 
 YXLK    EP   0    1 018.397                              68   -0.0910 93.0  41 
 YXLK    ES   0    1 032.639                              68    0.2110 93.0  41 
 YIBA    EP   4    1 017.825                              56   -1.62 0 98.3  21 
 YIBA    ES   4    1 035.946                              56    1.84 0 98.3  21 
 ZSCP    EP   0    1 022.395                              47    0.06 9  117  71 
 ZSCP    ES   3    1 039.926                              47    0.76 2  117  71 
 XIVZ    EP   4    1 024.697                              47    1.56 0  122  15 
 XIVZ    ES   0    1 040.542                              47   -0.02 9  122  15 
 RVDG    EP   4    1 021.800                              47   -1.46 0  123  63 
 RVDG    ES   3    1 039.808                              47   -0.97 2  123  63 
 ZGXN    EP   0    1 034.106                              47   -0.06 7  197  80 
 ZGXN    ES   4    1 058.055                              47   -1.81 0  197  80 
                                                                                
 2020  1 1 0101 40.1 L  36.167  52.050 19.1  New  5 0.3                        1
 GAP=176        0.47       3.7     7.0  3.9 -0.9728E+01 -0.1294E+02 -0.3596E+01E
 Action:ARG 22-06-19 14:49 OP:OBSP STATUS:               ID:20200101010140     I
 STAT SP IPHASW D HRMM SECON CODA AMPLIT PERI AZIMU VELO AIN AR TRES W  DIS CAZ7
 SRWZ    EP   3    1 145.590                             136    0.87 3 14.0 185 
 SRWZ    ES   2    1 147.802                             136   -0.41 5 14.0 185 
 TVCN    EP   4    1 143.525                             130   -1.54 0 16.8  54 
 TVCN    ES   2    1 148.741                             130   -0.06 5 16.8  54 
 YIBA    EP   3    1 152.416                              92    0.28 3 60.9   2 
 YIBA    ES   3    1 2 1.086                              92   -0.09 3 60.9   2 
 ZSCP    EP   0    1 154.966                              91    0.1710 76.9  84 
 ZSCP    ES   4    1 2 7.771                              91    1.94 0 76.9  84 
 RVDG    EP   4    1 154.275                              91   -1.00 0 79.8  72 
 RVDG    ES   4    1 2 8.270                              91    1.59 0 79.8  72 
 XIVZ    EP   4    1 157.236                              62    0.80 0 87.1 358 
 XIVZ    ES   4    1 2 5.360                              62   -3.34 0 87.1 358 
 YAIP    EP   4    1 2 4.786                              62   -1.28 0  153  59 
 YAIP    ES   1    1 225.237                              62   -0.33 6  153  59 
                                                                                
 2020  1 1 0103 19.6 L  35.550  52.057 11.4  New  9 0.5                        1
 GAP=252        0.61       5.5     4.5  5.5  0.9235E+01 -0.6416E+01  0.1008E+01E
 Action:ARG 22-06-19 14:49 OP:OBSP STATUS:               ID:20200101010320     I
 STAT SP IPHASW D HRMM SECON CODA AMPLIT PERI AZIMU VELO AIN AR TRES W  DIS CAZ7
 SRWZ    EP   3    1 330.269                              92   -0.35 3 54.5 358 
 SRWZ    ES   2    1 338.895                              92   -0.00 7 54.5 358 
 TVCN    EP   4    1 337.924                              91    2.69 0 79.4   9 
 TVCN    ES   4    1 345.960                              91   -1.02 0 79.4   9 
 ZSCP    EP   2    1 340.490                              53    0.76 6  107  45 
 ZSCP    ES   4    1 352.634                              53   -2.21 0  107  45 
 YXLK    EP   2    1 339.837                              53   -0.45 6  111  14 
 YXLK    ES   3    1 354.973                              53   -0.85 3  111  14 
 EVSP    EP   4    1 338.526                              53   -1.88 0  112 317 
 EVSP    ES   2    1 355.678                              53   -0.35 6  112 317 
 RVDG    EP   2    1 340.976                              53   -0.63 6  120  39 
 RVDG    ES   4    1 355.450                              53   -2.68 0  120  39 
 YIBA    EP   1    1 342.705                              53   -0.27 9  129   0 
 YIBA    ES   1    1 4 0.860                              53    0.34 9  129   0 
 XIVZ    EP   1    1 347.537                              53    0.72 9  155 359 
 XIVZ    ES   4    1 4 6.033                              53   -1.21 0  155 359 
 ZGXN    EP   3    1 350.763                              53    1.02 3  175  66 
 ZGXN    ES   1    1 412.430                              53    0.07 8  175  66 
 YAIP    EP   1    1 352.553                              53   -0.26 7  196  42 
 YAIP    ES   0    1 417.586                              53   -0.1610  196  42 
                                                                                
 2020  1 1 0105  0.2 L  36.192  51.947 14.3  New  7 0.4                        1
 GAP=125        0.62       1.7     2.8  2.7 -0.5521E+00  0.9213E+00 -0.1678E+01E
 Action:ARG 22-06-19 14:49 OP:OBSP STATUS:               ID:20200101010500     I
 STAT SP IPHASW D HRMM SECON CODA AMPLIT PERI AZIMU VELO AIN AR TRES W  DIS CAZ7
 SRWZ    EP   1    1 5 4.971                             122    0.09 7 18.5 155 
 SRWZ    ES   1    1 5 8.574                             122    0.16 7 18.5 155 
 TVCN    EP   2    1 5 5.212                             114   -0.55 5 23.9  72 
 TVCN    ES   2    1 5 9.607                             114   -0.35 5 23.9  72 
 YXLK    EP   2    1 510.144                              98   -0.63 5 51.8  45 
 YXLK    ES   1    1 519.258                              98    0.53 7 51.8  45 
 YIBA    EP   4    1 513.788                              96    1.66 0 59.2  11 
 YIBA    ES   0    1 521.062                              96   -0.0210 59.2  11 
 EVSP    EP   3    1 514.096                              64    0.59 2 66.8 280 
 EVSP    ES   2    1 523.508                              64    0.01 5 66.8 280 
 XIVZ    EP   4    1 518.113                              64    1.65 0 84.5   5 
 XIVZ    ES   4    1 527.686                              64   -1.00 0 84.5   5 
 ZSCP    EP   4    1 514.867                              64   -1.83 0 85.9  87 
 ZSCP    ES   4    1 530.691                              64    1.60 0 85.9  87 
 RVDG    EP   2    1 516.360                              64   -0.67 5 87.9  75 
 RVDG    ES   4    1 531.320                              64    1.66 0 87.9  75 
 YAIP    EP   4    1 528.868                              53    1.21 0  159  62 
 YAIP    ES   0    1 548.396                              53    0.13 8  159  62 
 ZGXN    EP   4    1 528.002                              53   -1.17 0  170  89 
 ZGXN    ES   4    1 552.143                              53    1.23 0  170  89 
                                                                                
 2020  1 1 0106 40.2 L  36.149  52.035 10.1  New  6 0.4                        1
 GAP=276        0.53       4.1     6.8  6.1  0.1986E+02 -0.2231E+02 -0.1249E+02E
 Action:ARG 22-06-19 14:49 OP:OBSP STATUS:               ID:20200101010640     I
 STAT SP IPHASW D HRMM SECON CODA AMPLIT PERI AZIMU VELO AIN AR TRES W  DIS CAZ7
 YXLK    EP   2    1 650.638                              68    0.28 6 50.3  35 
 YXLK    ES   2    1 657.934                              68   -0.01 6 50.3  35 
 YIBA    EP   4    1 653.852                              68    1.16 0 62.9   3 
 YIBA    ES   1    1 7 1.912                              68   -0.10 9 62.9   3 
 ZSCP    EP   2    1 654.754                              68   -0.81 6 78.5  83 
 ZSCP    ES   4    1 7 4.463                              68   -2.59 0 78.5  83 
 RVDG    EP   1    1 656.355                              68    0.18 9 81.7  71 
 RVDG    ES   4    1 7 6.395                              68   -1.72 0 81.7  71 
 XIVZ    EP   2    1 657.757                              56    0.37 6 88.9 359 
 XIVZ    ES   3    1 7 9.336                              56   -0.91 3 88.9 359 
 YAIP    EP   0    1 7 7.257                              47   -0.0110  155  59 
 YAIP    ES   0    1 727.622                              47    0.1010  155  59 
                                                                                
 2020  1 1 0108 19.9 L  35.950  51.953 18.7  New  8 0.3                        1
 GAP=230        0.59       7.2     2.9  7.0  0.1085E+01 -0.1384E+02  0.1333E+02E
 Action:ARG 22-06-19 14:49 OP:OBSP STATUS:               ID:20200101010820     I
 STAT SP IPHASW D HRMM SECON CODA AMPLIT PERI AZIMU VELO AIN AR TRES W  DIS CAZ7
 TVCN    EP   1    1 828.298                              94   -0.32 8 40.6  33 
 TVCN    ES   4    1 836.638                              94    1.51 0 40.6  33 
 YXLK    EP   1    1 834.238                              91    0.23 8 73.0  30 
 YXLK    ES   4    1 842.921                              91   -1.64 0 73.0  30 
 EVSP    EP   0    1 834.686                              91    0.1110 76.4 300 
 EVSP    ES   1    1 845.097                              91   -0.46 7 76.4 300 
 YIBA    EP   1    1 836.481                              91    0.38 7 85.6   7 
 YIBA    ES   4    1 849.527                              91    1.30 0 85.6   7 
 ZSCP    EP   0    1 836.861                              62   -0.0310 90.9  70 
 ZSCP    ES   1    1 849.211                              62   -0.40 7 90.9  70 
 RVDG    EP   0    1 838.115                              62    0.21 9 97.8  60 
 RVDG    ES   3    1 850.467                              62   -0.91 2 97.8  60 
 XIVZ    EP   2    1 840.311                              62    0.43 5  111   3 
 XIVZ    ES   4    1 853.534                              62   -1.30 0  111   3 
 YAIP    EP   0    1 848.964                              62   -0.03 8  173  54 
 YAIP    ES   3    1 911.576                              62    0.79 2  173  54 
                                                                                
 2020  1 1 0110  0.0 L  36.102  52.042 16.4  New  7 0.3                        1
 GAP=128        0.48       2.5     1.8  1.8 -0.2922E+01  0.1565E+01 -0.2753E+01E
 Action:ARG 22-06-19 14:49 OP:OBSP STATUS:               ID:20200101011000     I
 STAT SP IPHASW D HRMM SECON CODA AMPLIT PERI AZIMU VELO AIN AR TRES W  DIS CAZ7
 SRWZ    EP   0    110 3.518                             156   -0.0310 6.78 185 
 SRWZ    ES   4    110 7.815                             156    1.61 0 6.78 185 
 TVCN    EP   1    110 5.277                             121   -0.23 7 22.3  40 
 TVCN    ES   1    110 9.745                             121    0.11 7 22.3  40 
 YXLK    EP   3    11011.942                              64    0.84 2 54.4  31 
 YXLK    ES   0    11019.624                              64    0.2010 54.4  31 
 YIBA    EP   3    11012.593                              64   -0.80 2 68.2   2 
 YIBA    ES   2    11023.071                              64   -0.36 5 68.2   2 
 EVSP    EP   0    11015.084                              64    0.1610 77.4 286 
 EVSP    ES   0    11026.062                              64   -0.0510 77.4 286 
 XIVZ    EP   4    11020.501                              53    2.82 0 94.3 359 
 XIVZ    ES   3    11030.070                              53   -0.87 2 94.3 359 
 YAIP    EP   3    11027.741                              53    0.83 2  157  57 
 YAIP    ES   0    11046.913                              53   -0.17 8  157  57 
 ZGXN    EP   4    11028.454                              53    0.90 0  161  86 
 ZGXN    ES   4    11046.656                              53   -1.56 0  161  86 
                                                                                
 2020  1 1 0111 40.1 L  36.028  52.053  6.3  New  9 0.4                        1
 GAP=218        0.69       2.9     2.3  2.7 -0.5119E+00 -0.1054E+01 -0.2999E+01E
 Action:ARG 22-06-19 14:49 OP:OBSP STATUS:               ID:20200101011140     I
 STAT SP IPHASW D HRMM SECON CODA AMPLIT PERI AZIMU VELO AIN AR TRES W  DIS CAZ7
 SRWZ    EP   2    11140.692                             160   -0.83 5 2.15 311 
 SRWZ    ES   2    11143.059                             160    0.48 5 2.15 311 
 TVCN    EP   1    11145.896                              96   -0.33 7 28.6  28 
 TVCN    ES   3    11149.871                              96   -0.96 2 28.6  28 
 YXLK    EP   0    11152.690                              68    0.0410 61.1  26 
 YXLK    ES   1    112 1.676                              68   -0.38 7 61.1  26 
 YIBA    EP   1    11155.841                              68    0.38 7 76.3   1 
 YIBA    ES   0    112 7.052                              68    0.0810 76.3   1 
 ZSCP    EP   0    11156.277                              68    0.2110 79.6  73 
 ZSCP    ES   4    112 9.579                              68    1.54 0 79.6  73 
 EVSP    EP   0    11155.975                              68   -0.3410 80.9 291 
 EVSP    ES   2    112 8.856                              68    0.39 5 80.9 291 
 RVDG    EP   3    11156.476                              68   -0.72 2 85.7  62 
 RVDG    ES   1    11210.432                              68    0.42 7 85.7  62 
 XIVZ    EP   2    112 0.608                              56    0.48 5  102 359 
 XIVZ    ES   3    11215.959                              56    0.80 2  102 359 
 YAIP    EP   4    112 7.299                              47   -1.49 0  161  54 
 ZGXN    EP   4    112 9.985                              47    1.14 0  161  83 
 YAIP    ES   2    11229.751                              47   -0.56 4  161  54 
 ZGXN    ES   4    11229.228                              47   -1.18 0  161  83 
                                                                                
 2020  1 1 0113 19.7 L  36.089  51.846  9.8  New  3 0.1                        1
 GAP=184        0.39     224.1    25.5134.5  0.5662E+04 -0.3392E+04 -0.3013E+05E
 Action:ARG 22-06-19 14:49 OP:OBSP STATUS:               ID:20200101011320     I
 STAT SP IPHASW D HRMM SECON CODA AMPLIT PERI AZIMU VELO AIN AR TRES W  DIS CAZ7
 SRWZ    EP   4    11322.800                             115   -1.14 0 17.9 107 
 SRWZ    ES   0    11327.068                             115   -0.0610 17.9 107 
 EVSP    EP   4    11331.297                              68   -0.67 0 61.0 291 
 EVSP    ES   3    11340.925                              68   -0.24 2 61.0 291 
 XIVZ    EP   4    11337.121                              56   -1.31 0 97.0   9 
 XIVZ    ES   4    11351.269                              56   -1.21 0 97.0   9 
 YAIP    EP   0    11349.855                              47    0.17 8  173  60 
 YAIP    ES   1    11412.070                              47   -0.10 6  173  60 
 ZGXN    EP   4    11352.745                              47    2.13 0  179  86 
 ZGXN    ES   4    11412.450                              47   -1.34 0  179  86 
                                                                                
 2020  1 1 0114 59.7 L  36.239  52.031 11.7  New  7 0.3                        1
 GAP= 95        0.57       2.9     1.6  5.5  0.4632E+00 -0.1242E+01 -0.5585E+01E
 Action:ARG 22-06-19 14:49 OP:OBSP STATUS:               ID:20200101011500     I
 STAT SP IPHASW D HRMM SECON CODA AMPLIT PERI AZIMU VELO AIN AR TRES W  DIS CAZ7
 TVCN    EP   4    115 5.749                             119    2.11 0 15.3  83 
 TVCN    ES   4    115 8.634                             119    2.03 0 15.3  83 
 SRWZ    EP   3    115 4.692                             107   -0.09 2 22.0 179 
 SRWZ    ES   3    115 8.771                             107    0.18 2 22.0 179 
 YXLK    EP   0    115 8.954                              94    0.3710 42.8  43 
 YXLK    ES   4    11513.925                              94   -1.32 0 42.8  43 
 YIBA    EP   1    11510.219                              93   -0.25 7 53.0   4 
 YIBA    ES   3    11517.655                              93   -0.89 2 53.0   4 
 EVSP    EP   0    11514.203                              92   -0.0910 73.7 275 
 EVSP    ES   2    11525.646                              92    0.40 5 73.7 275 
 ZSCP    EP   4    11513.894                              92   -1.24 0 78.2  90 
 ZSCP    ES   0    11526.553                              92   -0.1510 78.2  90 
 XIVZ    EP   0    11515.245                              64   -0.0310 79.0 360 
 XIVZ    ES   4    11527.604                              64    0.64 0 79.0 360 
 RVDG    EP   2    11514.771                              64   -0.55 5 79.3  77 
 RVDG    ES   2    11527.562                              64    0.53 5 79.3  77 
                                                                                
 2020  1 1 0116 39.9 L  36.044  52.239 21.5  New  6 0.2                        1
 GAP=186        0.44       6.6     4.3  4.7 -0.2476E+02 -0.1739E+02  0.2029E+02E
 Action:ARG 22-06-19 14:49 OP:OBSP STATUS:               ID:20200101011640     I
 STAT SP IPHASW D HRMM SECON CODA AMPLIT PERI AZIMU VELO AIN AR TRES W  DIS CAZ7
 SRWZ    EP   0    11645.068                             132   -0.2610 18.3 269 
 SRWZ    ES   1    11649.543                             132    0.13 7 18.3 269 
 TVCN    EP   3    11646.684                             123    0.63 2 23.9 352 
 TVCN    ES   4    11648.793                             123   -1.89 0 23.9 352 
 ZSCP    EP   4    11653.596                              96    1.26 0 63.1  71 
 ZSCP    ES   1    117 1.718                              96    0.04 7 63.1  71 
 RVDG    EP   0    11653.649                              95    0.1110 70.4  57 
 RVDG    ES   0    117 3.721                              95   -0.0610 70.4  57 
 EVSP    EP   4    11659.622                              62    2.23 0 96.2 287 
 EVSP    ES   4    11713.615                              62    3.09 0 96.2 287 
 ZGXN    EP   0    117 4.713                              62    0.23 8  144  83 
 ZGXN    ES   2    11722.660                              62   -0.27 4  144  83 
 YAIP    EP   2    117 4.558                              62   -0.23 4  146  51 
 YAIP    ES   4    11725.587                              62    2.13 0  146  51 
                                                                                
