 2020  1 1 0041 40.0 L  36.137  52.036  8.5  New 10 0.4                        1
 GAP=103        0.65       2.6     2.8  3.2 -0.6307E+00 -0.1816E+00 -0.5354E+01E
 Action:ARG 22-06-19 14:49 OP:OBSP STATUS:               ID:20200101004140     I
 STAT SP IPHASW D HRMM SECON CODA AMPLIT PERI AZIMU VELO AIN AR TRES W  DIS CAZ7
 SRWZ    EP   1    04142.466                             125   -0.42 7 10.7 180 
 SRWZ    ES   3    04145.764                             125    0.73 2 10.7 180 
 TVCN    EP   0    04144.527                             109   -0.0110 19.8  48 
 TVCN    ES   4    04146.968                             109   -0.95 0 19.8  48 
 YXLK    EP   1    04151.178                              68    0.58 7 51.4  34 
 YXLK    ES   0    04158.660                              68    0.1210 51.4  34 
 YIBA    EP   4    04150.479                              68   -2.50 0 64.3   3 
 YIBA    ES   1    042 2.457                              68   -0.25 7 64.3   3 
 EVSP    EP   4    04153.117                              68   -2.01 0 75.8 283 
 EVSP    ES   2    042 6.951                              68    0.50 5 75.8 283 
 ZSCP    EP   4    04157.236                              68    1.61 0 78.5  82 
 ZSCP    ES   3    042 8.483                              68    1.16 2 78.5  82 
 RVDG    EP   1    04156.152                              68   -0.13 7 82.1  70 
 RVDG    ES   4    042 7.063                              68   -1.41 0 82.1  70 
 XIVZ    EP   1    04158.086                              56    0.30 7 90.3 359 
 XIVZ    ES   1    04210.600                              56   -0.51 7 90.3 359 
 YAIP    EP   3    042 6.764                              47   -0.85 2  155  58 
 YAIP    ES   0    04228.203                              47   -0.10 8  155  58 
 ZGXN    EP   3    042 7.813                              47   -0.73 2  162  87 
 ZGXN    ES   4    04232.457                              47    2.52 0  162  87 
                                                                                
 2020  1 1 0043 19.5 L  35.908  52.070  9.9  New  7 0.4                        1
 GAP=221        0.61       3.8     2.0  2.6  0.6759E+00 -0.2167E+00  0.6699E+01E
 Action:ARG 22-06-19 14:49 OP:OBSP STATUS:               ID:20200101004320     I
 STAT SP IPHASW D HRMM SECON CODA AMPLIT PERI AZIMU VELO AIN AR TRES W  DIS CAZ7
 SRWZ    EP   4    04325.018                             120    1.74 0 15.0 348 
 SRWZ    ES   0    04326.089                             120   -0.0010 15.0 348 
 TVCN    EP   1    04328.542                              68    0.58 7 40.4  17 
 TVCN    ES   3    04335.110                              68    0.83 2 40.4  17 
 YXLK    EP   1    04333.692                              68   -0.26 7 72.7  21 
 YXLK    ES   1    04344.459                              68   -0.31 7 72.7  21 
 ZSCP    EP   1    04335.834                              68   -0.02 7 83.0  64 
 ZSCP    ES   3    04349.333                              68    1.24 2 83.0  64 
 EVSP    EP   1    04336.481                              56   -0.25 7 87.9 299 
 EVSP    ES   0    04349.740                              56    0.1010 87.9 299 
 XIVZ    EP   4    04339.862                              47   -1.24 0  116 358 
 XIVZ    ES   4    04355.751                              47   -1.54 0  116 358 
 ZGXN    EP   4    04346.389                              47   -1.49 0  162  78 
 ZGXN    ES   0    044 9.147                              47    0.00 8  162  78 
 YAIP    EP   2    04348.196                              47   -0.55 4  168  50 
 YAIP    ES   4    044 8.882                              47   -1.78 0  168  50 
                                                                                
 2020  1 1 0045  0.3 L  35.954  51.736  4.9  New  7 0.3                        1
 GAP=227        0.47       4.9     2.1  2.7 -0.3323E+01 -0.1024E+01  0.5819E+01E
 Action:ARG 22-06-19 14:49 OP:OBSP STATUS:               ID:20200101004500     I
 STAT SP IPHASW D HRMM SECON CODA AMPLIT PERI AZIMU VELO AIN AR TRES W  DIS CAZ7
 SRWZ    EP   2    045 6.889                              92    0.45 5 28.6  70 
 SRWZ    ES   1    04510.636                              92   -0.39 7 28.6  70 
 TVCN    EP   4    04512.446                              91    1.02 0 53.6  51 
 TVCN    ES   0    04519.903                              91    0.1410 53.6  51 
 EVSP    EP   1    04512.582                              91   -0.12 7 60.0 308 
 EVSP    ES   4    04523.813                              91    1.82 0 60.0 308 
 YXLK    EP   4    04515.658                              68   -1.56 0 84.1  41 
 YXLK    ES   4    04528.401                              68   -1.49 0 84.1  41 
 YIBA    EP   4    04519.813                              68    1.56 0 89.6  19 
 YIBA    ES   4    04530.228                              68   -1.47 0 89.6  19 
 ZSCP    EP   3    04522.207                              47    0.58 2  109  73 
 ZSCP    ES   3    04538.222                              47    0.62 2  109  73 
 XIVZ    EP   4    04521.108                              47   -1.15 0  114  13 
 XIVZ    ES   4    04540.513                              47    1.80 0  114  13 
 RVDG    EP   3    04523.158                              47    0.71 2  115  65 
 RVDG    ES   4    04537.355                              47   -1.68 0  115  65 
 YAIP    EP   0    04533.385                              47    0.03 7  189  57 
 YAIP    ES   0    04557.964                              47   -0.16 7  189  57 
 ZGXN    EP   4    04535.734                              47    2.15 0  191  81 
 ZGXN    ES   2    04558.522                              47   -0.00 4  191  81 
                                                                                
 2020  1 1 0046 39.2 L  36.129  51.943  3.6  New  8 0.4                        1
 GAP=277        0.61       3.4     3.9  9.4  0.5630E+01 -0.6994E+01 -0.1769E+02E
 Action:ARG 22-06-19 14:49 OP:OBSP STATUS:               ID:20200101004640     I
 STAT SP IPHASW D HRMM SECON CODA AMPLIT PERI AZIMU VELO AIN AR TRES W  DIS CAZ7
 SRWZ    EP   4    04641.863                             106   -0.35 0 12.8 140 
 SRWZ    ES   4    04646.815                             106    2.38 0 12.8 140 
 TVCN    EP   2    04645.028                              64   -0.06 5 27.1  59 
 TVCN    ES   2    04649.416                              64   -0.06 5 27.1  59 
 YXLK    EP   4    04654.240                              64    3.14 0 57.2  40 
 YXLK    ES   0    047 0.401                              64    0.4010 57.2  40 
 YIBA    EP   4    04654.391                              64    1.52 0 66.0  10 
 YIBA    ES   2    047 2.557                              64   -0.54 5 66.0  10 
 EVSP    EP   4    04652.107                              64   -1.14 0 67.9 285 
 EVSP    ES   4    047 1.581                              64   -2.17 0 67.9 285 
 ZSCP    EP   4    04658.691                              56    1.90 0 87.0  82 
 ZSCP    ES   3    04710.679                              56    0.73 2 87.0  82 
 RVDG    EP   1    04657.130                              56   -0.27 7 90.3  71 
 RVDG    ES   2    04710.219                              56   -0.80 5 90.3  71 
 XIVZ    EP   1    04657.545                              56   -0.08 7 91.5   5 
 XIVZ    ES   0    04711.402                              56   -0.0110 91.5   5 
 YAIP    EP   3    047 9.471                              41    0.85 2  163  60 
 YAIP    ES   4    04732.017                              41    1.36 0  163  60 
 ZGXN    EP   1    047 9.878                              41    0.21 6  170  87 
 ZGXN    ES   4    04730.218                              41   -2.28 0  170  87 
                                                                                
 2020  1 1 0048 19.5 L  36.238  52.206  0.0  New  3 0.2                        1
 GAP=273        0.42       8.9     5.7 15.2  0.4833E+02 -0.7616E+02 -0.1229E+03E
 Action:ARG 22-06-19 14:49 OP:OBSP STATUS:               ID:20200101004820     I
 STAT SP IPHASW D HRMM SECON CODA AMPLIT PERI AZIMU VELO AIN AR TRES W  DIS CAZ7
 TVCN    EP   4    04823.864                              91    3.87 0 2.04 346 
 TVCN    ES   4    04826.619                              91    6.29 0 2.04 346 
 YIBA    EP   2    04830.986                              64   -0.19 5 54.4 347 
 YIBA    ES   1    04839.733                              64   -0.18 7 54.4 347 
 RVDG    EP   1    04832.915                              64   -0.20 7 64.1  74 
 RVDG    ES   0    04843.369                              64    0.0610 64.1  74 
 XIVZ    EP   0    04836.523                              56    0.1510 80.7 348 
 XIVZ    ES   2    04849.224                              56    0.23 5 80.7 348 
 EVSP    EP   4    04836.006                              56   -1.96 0 89.3 274 
 EVSP    ES   4    04848.645                              56   -3.15 0 89.3 274 
                                                                                
 2020  1 1 0050  0.2 L  36.203  52.062 13.1  New  8 0.4                        1
 GAP= 98        0.68       2.6     2.0  3.5  0.2963E+00  0.1305E+01  0.4879E+01E
 Action:ARG 22-06-19 14:49 OP:OBSP STATUS:               ID:20200101005000     I
 STAT SP IPHASW D HRMM SECON CODA AMPLIT PERI AZIMU VELO AIN AR TRES W  DIS CAZ7
 TVCN    EP   1    050 4.108                             128    0.05 7 13.8  65 
 TVCN    ES   4    050 5.351                             128   -1.60 0 13.8  65 
 SRWZ    EP   4    050 2.941                             119   -1.79 0 18.2 188 
 SRWZ    ES   3    050 8.410                             119    0.27 2 18.2 188 
 YXLK    EP   3    050 8.219                              97   -1.13 2 44.1  37 
 YXLK    ES   1    05016.438                              97    0.23 7 44.1  37 
 YIBA    EP   1    05012.015                              95    0.31 7 56.9   1 
 YIBA    ES   0    05020.143                              95   -0.1910 56.9   1 
 ZSCP    EP   2    05014.229                              64   -0.85 5 75.5  87 
 ZSCP    ES   4    05027.251                              64    1.01 0 75.5  87 
 EVSP    EP   2    05014.611                              64   -0.69 5 76.8 277 
 EVSP    ES   0    05026.783                              64    0.1610 76.8 277 
 RVDG    EP   1    05015.771                              64    0.35 7 77.6  74 
 RVDG    ES   4    05028.150                              64    1.31 0 77.6  74 
 YAIP    EP   4    05024.140                              53   -2.25 0  150  60 
 YAIP    ES   4    05048.951                              53    2.92 0  150  60 
 ZGXN    EP   2    05026.973                              53   -0.83 4  159  90 
 ZGXN    ES   0    05048.620                              53    0.12 8  159  90 
                                                                                
 2020  1 1 0051 39.7 L  36.270  51.823  8.1  New  7 0.2                        1
 GAP=277        0.44       1.9     3.6  2.0  0.1921E+00 -0.8133E-01 -0.2088E+01E
 Action:ARG 22-06-19 14:49 OP:OBSP STATUS:               ID:20200101005140     I
 STAT SP IPHASW D HRMM SECON CODA AMPLIT PERI AZIMU VELO AIN AR TRES W  DIS CAZ7
 SRWZ    EP   4    05148.337                             100    1.80 0 31.8 143 
 SRWZ    ES   1    05151.823                             100    0.17 7 31.8 143 
 TVCN    EP   1    05146.735                              99   -0.24 7 34.0  92 
 TVCN    ES   0    05152.341                              99   -0.0610 34.0  92 
 EVSP    EP   4    05152.400                              68    1.45 0 54.8 272 
 EVSP    ES   4    052 1.519                              68    2.14 0 54.8 272 
 YXLK    EP   0    05151.140                              68    0.0710 55.4  60 
 YXLK    ES   1    05159.853                              68    0.27 7 55.4  60 
 XIVZ    EP   4    05153.435                              68   -1.77 0 77.7  13 
 XIVZ    ES   4    052 5.375                              68   -1.44 0 77.7  13 
 ZSCP    EP   4    052 1.909                              56    3.26 0 97.0  92 
 ZSCP    ES   0    05212.744                              56   -0.10 9 97.0  92 
 RVDG    EP   4    052 0.548                              56    1.89 0 97.1  82 
 RVDG    ES   1    05213.100                              56    0.23 7 97.1  82 
 YAIP    EP   4    05210.016                              47    1.16 0  165  66 
 YAIP    ES   0    05230.507                              47   -0.20 8  165  66 
 ZGXN    EP   3    05210.434                              47   -0.68 2  181  92 
 ZGXN    ES   4    05233.161                              47   -1.50 0  181  92 
                                                                                
 2020  1 1 0053 20.8 L  35.969  52.161  7.5  New  4 0.0                        1
 GAP=225        0.31       3.2     4.5  3.3  0.1202E+02 -0.1200E+02 -0.7722E+01E
 Action:ARG 22-06-19 14:49 OP:OBSP STATUS:               ID:20200101005320     I
 STAT SP IPHASW D HRMM SECON CODA AMPLIT PERI AZIMU VELO AIN AR TRES W  DIS CAZ7
 SRWZ    EP   4    05325.759                             114    1.66 0 13.9 305 
 SRWZ    ES   2    05326.606                             114    0.01 5 13.9 305 
 RVDG    EP   4    05338.928                              68    2.05 0 80.8  54 
 RVDG    ES   4    05352.138                              68    3.19 0 80.8  54 
 YIBA    EP   4    05335.639                              68   -1.68 0 83.2 354 
 YIBA    ES   1    05349.719                              68   -0.00 8 83.2 354 
 XIVZ    EP   1    05341.739                              47   -0.02 7  110 354 
 XIVZ    ES   0    05357.513                              47    0.0110  110 354 
 ZGXN    EP   0    05348.072                              47    0.01 9  152  80 
 ZGXN    ES   4    05410.403                              47    1.87 0  152  80 
                                                                                
 2020  1 1 0055  0.4 L  35.985  52.126 10.0  New  5 0.3                        1
 GAP=212        0.51       3.0     3.3  8.3 -0.1349E+01 -0.1172E+02  0.1352E+01E
 Action:ARG 22-06-19 14:49 OP:OBSP STATUS:               ID:20200101005500     I
 STAT SP IPHASW D HRMM SECON CODA AMPLIT PERI AZIMU VELO AIN AR TRES W  DIS CAZ7
 YXLK    EP   4    05511.294                              68   -1.70 0 63.0  19 
 YXLK    ES   0    05522.597                              68    0.1510 63.0  19 
 YIBA    EP   0    05516.130                              68   -0.2410 81.2 356 
 YIBA    ES   0    05528.305                              68   -0.0610 81.2 356 
 EVSP    EP   3    05518.241                              56    0.53 2 88.8 293 
 EVSP    ES   2    05530.941                              56    0.22 5 88.8 293 
 ZGXN    EP   4    05529.754                              47    2.00 0  155  81 
 ZGXN    ES   2    05547.966                              47   -0.33 4  155  81 
 YAIP    EP   2    05528.908                              47    0.69 4  158  52 
 YAIP    ES   4    05548.399                              47   -0.69 0  158  52 
                                                                                
 2020  1 1 0056 39.8 L  36.347  52.242 10.8  New  8 0.3                        1
 GAP=104        0.52       2.2     1.5  2.6 -0.1140E+01  0.2787E+00 -0.1718E+01E
 Action:ARG 22-06-19 14:49 OP:OBSP STATUS:               ID:20200101005640     I
 STAT SP IPHASW D HRMM SECON CODA AMPLIT PERI AZIMU VELO AIN AR TRES W  DIS CAZ7
 TVCN    EP   4    05641.724                             129   -1.24 0 10.7 200 
 TVCN    ES   2    05644.985                             129   -0.34 5 10.7 200 
 YXLK    EP   4    05642.808                             103   -2.04 0 21.9  28 
 YXLK    ES   3    05649.673                             103    1.06 2 21.9  28 
 SRWZ    EP   0    05647.952                              93    0.0210 38.7 209 
 SRWZ    ES   4    05653.031                              93   -0.98 0 38.7 209 
 YIBA    EP   4    05650.518                              92    1.65 0 43.8 339 
 YIBA    ES   4    05654.234                              92   -1.42 0 43.8 339 
 RVDG    EP   1    05651.853                              91    0.21 7 58.7  85 
 RVDG    ES   0    057 0.532                              91    0.0210 58.7  85 
 XIVZ    EP   1    05653.589                              91   -0.10 7 69.8 344 
 XIVZ    ES   4    057 5.620                              91    1.52 0 69.8 344 
 EVSP    EP   4    05659.219                              64    1.50 0 92.5 266 
 EVSP    ES   1    05711.284                              64    0.15 7 92.5 266 
 YAIP    EP   2    057 2.528                              53   -0.53 4  128  63 
 YAIP    ES   2    05719.763                              53   -0.73 4  128  63 
 ZGXN    EP   4    057 6.671                              53    1.24 0  144  96 
 ZGXN    ES   1    05724.855                              53    0.21 6  144  96 
                                                                                
 2020  1 1 0058 20.0 L  35.680  52.495 10.0  New  8 0.4                        1
 GAP=236        0.60       4.4     3.2  7.1 -0.5788E+01  0.4884E+01 -0.1930E+02E
 Action:ARG 22-06-19 14:49 OP:OBSP STATUS:               ID:20200101005820     I
 STAT SP IPHASW D HRMM SECON CODA AMPLIT PERI AZIMU VELO AIN AR TRES W  DIS CAZ7
 SRWZ    EP   1    05831.809                              68    0.23 7 57.6 314 
 SRWZ    ES   3    05839.226                              68   -1.07 2 57.6 314 
 ZSCP    EP   0    05834.319                              68    0.2210 71.2  31 
 ZSCP    ES   1    05844.310                              68   -0.39 7 71.2  31 
 RVDG    EP   3    05837.874                              56    0.92 2 86.7  24 
 RVDG    ES   1    05850.037                              56    0.33 7 86.7  24 
 YXLK    EP   0    05838.120                              56   -0.0710 94.1 352 
 YXLK    ES   0    05851.815                              56   -0.0610 94.1 352 
 YIBA    EP   4    05843.282                              47    0.97 0  121 342 
 YIBA    ES   4    059 0.729                              47    1.66 0  121 342 
 ZGXN    EP   2    05843.502                              47   -0.60 4  133  64 
 ZGXN    ES   4    059 3.499                              47    1.29 0  133  64 
 EVSP    EP   0    05844.044                              47   -0.13 9  134 301 
 EVSP    ES   4    059 0.695                              47   -1.64 0  134 301 
 XIVZ    EP   2    05846.790                              47    0.64 4  147 343 
 XIVZ    ES   4    059 6.692                              47    0.91 0  147 343 
 YAIP    EP   1    05847.762                              47   -0.32 6  160  35 
 YAIP    ES   3    05910.127                              47    0.96 2  160  35 
                                                                                
