 2020  1 1 0118 20.7 L  35.886  51.991 13.4  New  5 0.3                        1
 GAP=307        0.41       4.6     5.6  6.9  0.2055E+01 -0.2863E+02 -0.2810E+01E
 Action:ARG 22-06-19 14:49 OP:OBSP STATUS:               ID:20200101011820     I
 STAT SP IPHASW D HRMM SECON CODA AMPLIT PERI AZIMU VELO AIN AR TRES W  DIS CAZ7
 YXLK    EP   1    11836.080                              64    0.10 8 77.8  25 
 YXLK    ES   4    11846.248                              64   -1.15 0 77.8  25 
 ZSCP    EP   0    11838.005                              64   -0.0910 90.5  65 
 ZSCP    ES   0    11851.133                              64    0.0310 90.5  65 
 RVDG    EP   2    11839.840                              53    0.42 5 98.7  55 
 RVDG    ES   4    11854.478                              53    1.06 0 98.7  55 
 ZGXN    EP   0    11849.725                              53   -0.07 8  169  78 
 ZGXN    ES   0    11911.687                              53    0.10 8  169  78 
 YAIP    EP   3    11849.497                              53   -1.11 2  175  51 
 YAIP    ES   1    11912.761                              53   -0.24 6  175  51 
                                                                                
 2020  1 1 0119 59.7 L  35.998  52.081 13.9  New  7 0.2                        1
 GAP=211        0.37       2.6     1.7  1.4  0.1699E+01 -0.1447E+01 -0.1888E+01E
 Action:ARG 22-06-19 14:49 OP:OBSP STATUS:               ID:20200101012000     I
 STAT SP IPHASW D HRMM SECON CODA AMPLIT PERI AZIMU VELO AIN AR TRES W  DIS CAZ7
 SRWZ    EP   2    120 3.239                             153    0.46 5 6.31 319 
 SRWZ    ES   1    120 5.041                             153   -0.06 7 6.31 319 
 YXLK    EP   0    12012.283                              95   -0.0810 63.1  23 
 YXLK    ES   4    12022.438                              95    0.57 0 63.1  23 
 YIBA    EP   0    12015.038                              64   -0.1610 79.7 359 
 YIBA    ES   0    12026.896                              64    0.0710 79.7 359 
 EVSP    EP   4    12014.436                              64   -1.56 0 84.5 293 
 EVSP    ES   2    12028.363                              64    0.14 5 84.5 293 
 RVDG    EP   0    12016.071                              64   -0.0410 85.2  59 
 RVDG    ES   0    12028.571                              64    0.1410 85.2  59 
 ZGXN    EP   4    12028.589                              53    1.40 0  159  82 
 ZGXN    ES   3    12047.439                              53   -0.38 2  159  82 
 YAIP    EP   4    12028.795                              53    1.36 0  161  53 
 YAIP    ES   0    12048.185                              53   -0.05 8  161  53 
                                                                                
 2020  1 1 0121 40.0 L  35.991  51.935 18.6  New  9 0.3                        1
 GAP=215        0.55       2.9     3.9  2.0  0.3541E+01 -0.2097E+01 -0.7492E+00E
 Action:ARG 22-06-19 14:49 OP:OBSP STATUS:               ID:20200101012140     I
 STAT SP IPHASW D HRMM SECON CODA AMPLIT PERI AZIMU VELO AIN AR TRES W  DIS CAZ7
 SRWZ    EP   0    12144.098                             145   -0.1210 10.6  59 
 SRWZ    ES   1    12147.413                             145    0.02 7 10.6  59 
 YXLK    EP   1    12153.695                              91    0.14 7 69.9  33 
 YXLK    ES   1    122 3.942                              91    0.22 7 69.9  33 
 EVSP    EP   4    12154.909                              91    0.87 0 72.8 297 
 EVSP    ES   3    122 5.023                              91    0.46 2 72.8 297 
 YIBA    EP   4    12156.273                              91    0.83 0 81.3   8 
 YIBA    ES   1    122 7.043                              91    0.02 7 81.3   8 
 ZSCP    EP   1    12156.865                              62   -0.10 7 91.0  73 
 ZSCP    ES   3    122 9.194                              62   -0.49 2 91.0  73 
 RVDG    EP   1    12158.299                              62    0.45 7 97.0  62 
 RVDG    ES   1    12210.956                              62   -0.28 7 97.0  62 
 XIVZ    EP   1    12158.623                              62   -0.67 7  107   4 
 XIVZ    ES   3    12214.204                              62    0.45 2  107   4 
 YAIP    EP   0    122 9.159                              62    0.30 8  172  55 
 YAIP    ES   4    12231.782                              62    1.28 0  172  55 
 ZGXN    EP   4    12211.126                              62    2.20 0  172  82 
 ZGXN    ES   1    12230.560                              62   -0.05 6  172  82 
                                                                                
 2020  1 1 0123 19.5 L  36.073  51.824 18.5  New  5 0.2                        1
 GAP=209        0.30       6.0     6.0 13.1  0.6345E+01 -0.7169E+02 -0.3749E+01E
 Action:ARG 22-06-19 14:49 OP:OBSP STATUS:               ID:20200101012320     I
 STAT SP IPHASW D HRMM SECON CODA AMPLIT PERI AZIMU VELO AIN AR TRES W  DIS CAZ7
 EVSP    EP   3    12331.304                              91   -0.07 3 59.9 294 
 EVSP    ES   3    12340.334                              91    0.05 3 59.9 294 
 YIBA    EP   3    12333.845                              91    0.01 3 74.7  17 
 YIBA    ES   4    12343.964                              91   -0.63 0 74.7  17 
 RVDG    EP   4    12339.661                              62    1.50 0  102  69 
 RVDG    ES   1    12352.119                              62   -0.04 9  102  69 
 YAIP    EP   3    12349.453                              62    0.56 3  175  59 
 YAIP    ES   4    124 9.005                              62   -1.93 0  175  59 
 ZGXN    EP   1    12349.680                              62   -0.06 7  181  85 
 ZGXN    ES   0    12412.473                              62    0.0410  181  85 
                                                                                
 2020  1 1 0124 59.8 L  36.276  51.897  7.6  New  6 0.4                        1
 GAP=117        0.58       2.0     3.4  3.9  0.9492E+00  0.1734E+01 -0.4634E+01E
 Action:ARG 22-06-19 14:49 OP:OBSP STATUS:               ID:20200101012500     I
 STAT SP IPHASW D HRMM SECON CODA AMPLIT PERI AZIMU VELO AIN AR TRES W  DIS CAZ7
 TVCN    EP   4    125 7.435                             100    1.69 0 27.3  95 
 TVCN    ES   1    12510.034                             100   -0.15 7 27.3  95 
 SRWZ    EP   3    125 7.112                             100    1.05 2 28.9 155 
 SRWZ    ES   0    12510.751                             100    0.0210 28.9 155 
 YXLK    EP   4    12511.408                              68    1.32 0 49.3  56 
 YXLK    ES   4    12515.252                              68   -2.53 0 49.3  56 
 EVSP    EP   4    12511.346                              68   -0.98 0 61.4 272 
 EVSP    ES   3    12520.929                              68   -0.78 2 61.4 272 
 XIVZ    EP   1    12514.804                              68   -0.17 7 75.7   9 
 XIVZ    ES   2    12526.975                              68    0.64 5 75.7   9 
 ZSCP    EP   4    12516.164                              68   -1.52 0 90.4  93 
 ZSCP    ES   4    12529.198                              68   -1.88 0 90.4  93 
 YAIP    EP   2    12527.358                              47   -0.72 4  159  65 
 YAIP    ES   4    12550.326                              47    1.06 0  159  65 
 ZGXN    EP   1    12530.672                              47    0.37 6  174  93 
 ZGXN    ES   1    12553.102                              47   -0.05 6  174  93 
                                                                                
 2020  1 1 0126 39.6 L  36.129  52.083 12.0  New  6 0.3                        1
 GAP=215        0.47       5.4     2.6  3.3 -0.7014E+01 -0.3247E+01  0.1165E+02E
 Action:ARG 22-06-19 14:49 OP:OBSP STATUS:               ID:20200101012640     I
 STAT SP IPHASW D HRMM SECON CODA AMPLIT PERI AZIMU VELO AIN AR TRES W  DIS CAZ7
 TVCN    EP   4    12643.273                             116   -0.69 0 17.6  37 
 TVCN    ES   1    12647.258                             116    0.03 8 17.6  37 
 YIBA    EP   3    12652.105                              93   -0.52 3 65.1 359 
 YIBA    ES   4    127 3.826                              93    1.44 0 65.1 359 
 RVDG    EP   2    12654.620                              64   -0.45 5 78.4  68 
 RVDG    ES   2    127 7.185                              64    0.52 5 78.4  68 
 EVSP    EP   1    12655.325                              64   -0.04 8 80.2 283 
 EVSP    ES   4    127 6.384                              64   -0.79 0 80.2 283 
 XIVZ    EP   0    12657.364                              64    0.1410 91.4 357 
 XIVZ    ES   4    12712.531                              64    2.09 0 91.4 357 
 YAIP    EP   0    127 6.384                              53    0.06 9  152  57 
 YAIP    ES   0    12726.125                              53   -0.23 9  152  57 
                                                                                
 2020  1 1 0128 19.9 L  36.027  51.747 21.4  New  7 0.2                        1
 GAP=215        0.39       2.9     1.5  2.6  0.2643E+01 -0.2849E+01 -0.4890E+01E
 Action:ARG 22-06-19 14:49 OP:OBSP STATUS:               ID:20200101012820     I
 STAT SP IPHASW D HRMM SECON CODA AMPLIT PERI AZIMU VELO AIN AR TRES W  DIS CAZ7
 SRWZ    EP   1    12826.493                             119    0.08 7 26.0  87 
 SRWZ    ES   3    12831.546                             119    0.28 2 26.0  87 
 TVCN    EP   0    12829.769                             100   -0.1410 48.1  58 
 TVCN    ES   3    12837.722                             100    0.35 2 48.1  58 
 EVSP    EP   0    12831.105                              97   -0.1310 56.1 301 
 EVSP    ES   0    12839.732                              97    0.0410 56.1 301 
 YXLK    EP   2    12835.106                              62    0.40 5 77.4  45 
 YXLK    ES   1    12845.728                              62   -0.05 7 77.4  45 
 XIVZ    EP   4    12839.942                              62    1.11 0  105  14 
 XIVZ    ES   0    12853.060                              62    0.07 9  105  14 
 ZSCP    EP   2    12839.603                              62    0.65 5  106  77 
 ZSCP    ES   1    12853.118                              62   -0.09 7  106  77 
 RVDG    EP   0    12839.538                              62   -0.07 9  111  68 
 RVDG    ES   0    12854.314                              62   -0.03 9  111  68 
                                                                                
 2020  1 1 0130  0.3 L  35.796  52.176 19.8  New  8 0.3                        1
 GAP=229        0.46       2.3     2.0  3.7 -0.3874E-01 -0.2037E+01  0.2536E+01E
 Action:ARG 22-06-19 14:49 OP:OBSP STATUS:               ID:20200101013000     I
 STAT SP IPHASW D HRMM SECON CODA AMPLIT PERI AZIMU VELO AIN AR TRES W  DIS CAZ7
 SRWZ    EP   4    130 8.571                             109    1.27 0 30.0 335 
 SRWZ    ES   4    13015.082                             109    2.56 0 30.0 335 
 TVCN    EP   4    130 9.211                              95   -1.56 0 51.1   2 
 TVCN    ES   0    13018.577                              95   -0.0110 51.1   2 
 ZSCP    EP   1    13016.053                              62    0.27 7 81.2  53 
 ZSCP    ES   0    13027.474                              62    0.1110 81.2  53 
 YXLK    EP   0    13016.002                              62    0.1010 82.1  11 
 YXLK    ES   0    13027.495                              62   -0.0810 82.1  11 
 RVDG    EP   2    13016.875                              62   -0.55 5 92.4  44 
 RVDG    ES   4    13031.938                              62    1.70 0 92.4  44 
 EVSP    EP   0    13018.803                              62   -0.11 9  102 303 
 EVSP    ES   2    13033.320                              62    0.49 5  102 303 
 XIVZ    EP   0    13022.762                              62   -0.02 9  129 354 
 XIVZ    ES   3    13039.083                              62   -0.54 2  129 354 
 ZGXN    EP   0    13026.719                              62   -0.00 8  156  73 
 ZGXN    ES   2    13046.199                              62   -0.31 4  156  73 
 YAIP    EP   2    13028.059                              62   -0.63 4  169  45 
 YAIP    ES   3    13051.137                              62    1.18 2  169  45 
                                                                                
 2020  1 1 0131 40.1 L  36.022  51.923 12.8  New  6 0.3                        1
 GAP=282        0.45       5.9     4.7  2.4  0.1622E+02 -0.5567E+01 -0.9078E+01E
 Action:ARG 22-06-19 14:49 OP:OBSP STATUS:               ID:20200101013140     I
 STAT SP IPHASW D HRMM SECON CODA AMPLIT PERI AZIMU VELO AIN AR TRES W  DIS CAZ7
 SRWZ    EP   0    13143.306                             137   -0.1610 10.3  78 
 SRWZ    ES   3    13146.360                             137    0.38 2 10.3  78 
 YXLK    EP   1    13153.894                              93    0.28 7 67.7  35 
 YXLK    ES   4    132 4.798                              93    1.06 0 67.7  35 
 RVDG    EP   1    13158.643                              64    0.14 7 96.4  65 
 RVDG    ES   4    13210.996                              64   -1.30 0 96.4  65 
 XIVZ    EP   0    13159.456                              53   -0.09 9  103   5 
 XIVZ    ES   4    13212.439                              53   -1.68 0  103   5 
 YAIP    EP   2    132 9.999                              53    0.54 4  171  56 
 YAIP    ES   0    13231.218                              53   -0.24 8  171  56 
 ZGXN    EP   3    13210.250                              53    0.49 2  173  83 
 ZGXN    ES   1    13232.088                              53    0.10 6  173  83 
                                                                                
 2020  1 1 0133 20.2 L  36.114  51.640 19.8  New  5 0.4                        1
 GAP=214        0.43      13.8     7.6  7.2 -0.3474E+02 -0.4355E+02  0.4897E+02E
 Action:ARG 22-06-19 14:49 OP:OBSP STATUS:               ID:20200101013320     I
 STAT SP IPHASW D HRMM SECON CODA AMPLIT PERI AZIMU VELO AIN AR TRES W  DIS CAZ7
 EVSP    EP   3    13329.148                              97   -0.09 3 43.0 297 
 EVSP    ES   4    13338.963                              97    2.92 0 43.0 297 
 YXLK    EP   0    13335.230                              92    0.0610 78.6  55 
 YXLK    ES   3    13345.835                              92   -0.59 2 78.6  55 
 ZSCP    EP   4    13339.025                              62   -1.42 0  114  83 
 ZSCP    ES   3    13356.499                              62    0.83 2  114  83 
 RVDG    EP   3    13339.902                              62   -0.93 2  117  74 
 RVDG    ES   0    13356.258                              62   -0.08 9  117  74 
 YAIP    EP   4    13352.905                              62    1.64 0  188  63 
 YAIP    ES   1    13414.747                              62    0.15 6  188  63 
                                                                                
 2020  1 1 0134 60.0 L  35.806  52.195  4.2  New  9 0.4                        1
 GAP=258        0.65       3.7     3.7  3.9  0.2506E+01 -0.8820E+01 -0.2017E+01E
 Action:ARG 22-06-19 14:49 OP:OBSP STATUS:               ID:20200101013500     I
 STAT SP IPHASW D HRMM SECON CODA AMPLIT PERI AZIMU VELO AIN AR TRES W  DIS CAZ7
 SRWZ    EP   0    135 6.190                              91   -0.1210 29.8 331 
 SRWZ    ES   4    13512.214                              91    1.15 0 29.8 331 
 TVCN    EP   0    13510.542                              90    0.1910 50.0   1 
 TVCN    ES   2    13518.700                              90    0.56 5 50.0   1 
 ZSCP    EP   2    13515.370                              68   -0.65 5 79.2  53 
 ZSCP    ES   2    13527.455                              68   -0.61 5 79.2  53 
 YXLK    EP   3    13517.124                              68    0.83 2 80.7  10 
 YXLK    ES   1    13527.985                              68   -0.55 7 80.7  10 
 RVDG    EP   4    13519.341                              68    1.24 0 90.4  44 
 RVDG    ES   1    13532.115                              68    0.41 7 90.4  44 
 YIBA    EP   0    13519.952                              56   -0.13 9  102 354 
 YIBA    ES   1    13535.350                              56    0.18 7  102 354 
 XIVZ    EP   3    13524.916                              47    0.80 2  128 353 
 XIVZ    ES   4    13543.024                              47    0.81 0  128 353 
 ZGXN    EP   1    13528.203                              47    0.31 6  154  73 
 ZGXN    ES   3    13549.571                              47    0.74 2  154  73 
 YAIP    EP   4    13531.036                              47    1.18 0  167  45 
 YAIP    ES   0    13552.235                              47   -0.04 8  167  45 
                                                                                
 2020  1 1 0136 40.3 L  35.702  52.067 12.1  New  5 0.2                        1
 GAP=240        0.38       2.9     2.2  5.0  0.1301E+01 -0.2822E+01  0.5907E+00E
 Action:ARG 22-06-19 14:49 OP:OBSP STATUS:               ID:20200101013640     I
 STAT SP IPHASW D HRMM SECON CODA AMPLIT PERI AZIMU VELO AIN AR TRES W  DIS CAZ7
 YXLK    EP   0    13658.511                              64    0.1210 94.5  16 
 YXLK    ES   0    13712.006                              64    0.0310 94.5  16 
 ZSCP    EP   4    13659.847                              64    1.32 0 95.4  52 
 ZSCP    ES   0    13712.053                              64   -0.1810 95.4  52 
 EVSP    EP   3    13658.825                              53   -0.56 2  101 310 
 EVSP    ES   2    13713.708                              53   -0.01 5  101 310 
 ZGXN    EP   3    13710.133                              53    0.84 2  168  71 
 ZGXN    ES   0    13731.177                              53    0.11 8  168  71 
 YAIP    EP   0    13711.440                              53   -0.08 8  183  45 
 YAIP    ES   4    13734.009                              53   -0.95 0  183  45 
                                                                                
 2020  1 1 0138 20.5 L  35.640  51.986 20.0  New  9 0.4                        1
 GAP=247        0.57       4.5     3.6  6.7 -0.3194E+01 -0.9321E+01  0.1200E+02E
 Action:ARG 22-06-19 14:49 OP:OBSP STATUS:               ID:20200101013820     I
 STAT SP IPHASW D HRMM SECON CODA AMPLIT PERI AZIMU VELO AIN AR TRES W  DIS CAZ7
 SRWZ    EP   3    13828.570                              97   -1.29 3 44.7   6 
 SRWZ    ES   4    13835.141                              97   -1.75 0 44.7   6 
 TVCN    EP   4    13832.575                              93   -1.67 0 71.0  16 
 TVCN    ES   1    13844.737                              93    0.18 8 71.0  16 
 EVSP    EP   1    13838.940                              62    0.23 8  100 316 
 EVSP    ES   3    13853.326                              62    0.96 3  100 316 
 YXLK    EP   1    13839.263                              62    0.10 8  103  19 
 YXLK    ES   2    13852.518                              62   -0.65 5  103  19 
 ZSCP    EP   2    13839.961                              62    0.48 5  105  51 
 ZSCP    ES   0    13853.779                              62    0.0610  105  51 
 YIBA    EP   0    13841.440                              62   -0.1210  120   4 
 YIBA    ES   4    13856.375                              62   -0.98 0  120   4 
 XIVZ    EP   1    13844.948                              62   -0.43 7  145   1 
 XIVZ    ES   4    139 5.434                              62    1.40 0  145   1 
 ZGXN    EP   0    13849.993                              62   -0.08 8  177  69 
 ZGXN    ES   3    13911.395                              62   -0.86 2  177  69 
 YAIP    EP   4    13853.834                              62    1.41 0  193  45 
 YAIP    ES   2    13917.038                              62    0.68 4  193  45 
                                                                                
