 2020  1 1 0220  0.0 L  36.040  52.223 10.0  New  7 0.3                        1
 GAP=200        0.51       3.9     4.2  6.3  0.1118E+02 -0.2329E+02 -0.2144E+02E
 Action:ARG 22-06-19 14:49 OP:OBSP STATUS:               ID:20200101022000     I
 STAT SP IPHASW D HRMM SECON CODA AMPLIT PERI AZIMU VELO AIN AR TRES W  DIS CAZ7
 SRWZ    EP   0    220 4.101                             117   -0.0410 16.9 270 
 SRWZ    ES   1    220 7.210                             117   -0.01 7 16.9 270 
 YXLK    EP   2    22011.600                              68    0.48 5 54.7  13 
 YXLK    ES   4    22021.068                              68    1.64 0 54.7  13 
 ZSCP    EP   2    22012.436                              68   -0.52 5 64.6  71 
 ZSCP    ES   4    22020.619                              68   -2.02 0 64.6  71 
 YIBA    EP   4    22016.068                              68    0.96 0 76.2 350 
 YIBA    ES   0    22026.193                              68   -0.2110 76.2 350 
 EVSP    EP   3    22017.700                              56   -0.71 2 94.9 287 
 EVSP    ES   4    22033.357                              56    1.17 0 94.9 287 
 XIVZ    EP   0    22019.919                              47    0.24 9  103 350 
 XIVZ    ES   0    22034.515                              47    0.11 9  103 350 
 ZGXN    EP   4    22027.329                              47    1.30 0  146  83 
 ZGXN    ES   4    22043.523                              47   -1.99 0  146  83 
 YAIP    EP   4    22027.522                              47    1.21 0  148  51 
 YAIP    ES   0    22046.016                              47   -0.00 8  148  51 
                                                                                
 2020  1 1 0221 39.6 L  35.559  52.499 10.8  New  9 0.5                        1
 GAP=246        0.62       5.6     2.9  5.4  0.2433E+01 -0.6092E+01  0.8323E+01E
 Action:ARG 22-06-19 14:49 OP:OBSP STATUS:               ID:20200101022140     I
 STAT SP IPHASW D HRMM SECON CODA AMPLIT PERI AZIMU VELO AIN AR TRES W  DIS CAZ7
 SRWZ    EP   4    22151.059                              91   -2.03 0 67.9 322 
 SRWZ    ES   1    222 3.392                              91    0.16 8 67.9 322 
 TVCN    EP   4    22157.333                              91    1.65 0 81.9 341 
 TVCN    ES   4    222 9.107                              91    1.34 0 81.9 341 
 ZSCP    EP   0    22155.985                              64    0.1210 82.9  26 
 ZSCP    ES   3    222 7.148                              64   -0.94 2 82.9  26 
 RVDG    EP   2    22157.854                              64   -0.69 5 99.0  21 
 RVDG    ES   1    22212.925                              64    0.15 7 99.0  21 
 YXLK    EP   1    22159.304                              53   -0.52 7  108 353 
 YXLK    ES   4    22213.475                              53   -1.55 0  108 353 
 YIBA    EP   2    222 4.365                              53    0.64 4  134 343 
 YIBA    ES   3    22222.373                              53    0.52 2  134 343 
 ZGXN    EP   2    222 5.376                              53    0.88 4  139  59 
 ZGXN    ES   0    22223.285                              53    0.08 9  139  59 
 EVSP    EP   4    222 6.557                              53    1.74 0  141 305 
 EVSP    ES   1    22223.898                              53    0.14 6  141 305 
 XIVZ    EP   0    222 7.315                              53   -0.26 8  160 345 
 XIVZ    ES   4    22226.821                              53   -1.77 0  160 345 
 YAIP    EP   3    222 8.315                              53   -0.90 2  171  32 
 YAIP    ES   3    22230.463                              53   -0.99 2  171  32 
                                                                                
 2020  1 1 0223 19.3 L  36.168  51.852 30.3  New  5 0.3                        1
 GAP=295        0.58       5.3     6.9 19.6  0.1244E+02  0.1188E+02 -0.4399E+02E
 Action:ARG 22-06-19 14:49 OP:OBSP STATUS:               ID:20200101022320     I
 STAT SP IPHASW D HRMM SECON CODA AMPLIT PERI AZIMU VELO AIN AR TRES W  DIS CAZ7
 TVCN    EP   1    22327.496                             119    0.15 7 32.8  73 
 TVCN    ES   4    22330.631                             119   -2.78 0 32.8  73 
 YXLK    EP   1    22330.992                              99   -0.13 7 59.8  49 
 YXLK    ES   1    22339.610                              99   -0.40 7 59.8  49 
 YIBA    EP   1    22331.465                              98   -0.23 7 63.7  18 
 YIBA    ES   2    22341.356                              98    0.34 5 63.7  18 
 XIVZ    EP   4    22334.244                              95   -1.02 0 88.2  10 
 XIVZ    ES   1    22347.479                              95    0.21 7 88.2  10 
 RVDG    EP   4    22336.464                              94   -0.06 0 96.8  75 
 RVDG    ES   2    22350.096                              94    0.62 5 96.8  75 
 ZGXN    EP   4    22348.273                              92   -0.20 0  178  89 
 ZGXN    ES   4    22413.269                              92    2.89 0  178  89 
                                                                                
 2020  1 1 0224 59.9 L  35.939  52.564 18.1  New  4 0.0                        1
 GAP=208        0.31       4.3     2.2  9.2 -0.7955E+01  0.1059E+02 -0.2824E+02E
 Action:ARG 22-06-19 14:49 OP:OBSP STATUS:               ID:20200101022500     I
 STAT SP IPHASW D HRMM SECON CODA AMPLIT PERI AZIMU VELO AIN AR TRES W  DIS CAZ7
 ZSCP    EP   4    225 7.578                              64   -1.65 0 44.3  43 
 ZSCP    ES   4    22517.316                              64    1.13 0 44.3  43 
 SRWZ    EP   0    225 9.994                              64   -0.0110 49.0 283 
 SRWZ    ES   0    22517.542                              64   -0.0110 49.0 283 
 RVDG    EP   4    225 8.655                              64   -2.89 0 58.3  31 
 RVDG    ES   0    22520.238                              64   -0.0110 58.3  31 
 ZGXN    EP   2    22520.870                              53    0.01 4  118  76 
 ZGXN    ES   4    22538.959                              53    2.41 0  118  76 
 XIVZ    EP   1    22521.622                              53    0.07 7  122 337 
 XIVZ    ES   4    22537.010                              53   -0.75 0  122 337 
                                                                                
 2020  1 1 0226 40.1 L  35.955  52.037 10.6  New  4 0.4                        1
 GAP=244        0.48       4.6     4.3  7.7  0.9904E+01 -0.2322E+02 -0.2111E+02E
 Action:ARG 22-06-19 14:49 OP:OBSP STATUS:               ID:20200101022640     I
 STAT SP IPHASW D HRMM SECON CODA AMPLIT PERI AZIMU VELO AIN AR TRES W  DIS CAZ7
 YXLK    EP   2    22653.413                              91   -0.47 5 69.1  24 
 YXLK    ES   4    227 2.495                              91   -1.69 0 69.1  24 
 EVSP    EP   3    22656.895                              91    0.46 3 82.9 297 
 EVSP    ES   2    227 8.460                              91   -0.20 5 82.9 297 
 YIBA    EP   3    22657.620                              64    0.90 2 84.5   2 
 YIBA    ES   0    227 9.216                              64    0.0610 84.5   2 
 RVDG    EP   4    22656.849                              64   -0.96 0 91.0  58 
 RVDG    ES   4    22710.487                              64   -0.57 0 91.0  58 
 XIVZ    EP   4    227 2.496                              53    1.62 0  111 359 
 XIVZ    ES   4    22715.092                              53   -1.33 0  111 359 
 YAIP    EP   0    227 9.288                              53    0.14 8  167  52 
 YAIP    ES   2    22730.504                              53   -0.39 4  167  52 
                                                                                
 2020  1 1 0228 20.4 L  35.955  52.297  9.0  New  8 0.3                        1
 GAP=212        0.56       3.0     1.8  3.7  0.2332E+00 -0.7531E+00  0.3761E+01E
 Action:ARG 22-06-19 14:49 OP:OBSP STATUS:               ID:20200101022820     I
 STAT SP IPHASW D HRMM SECON CODA AMPLIT PERI AZIMU VELO AIN AR TRES W  DIS CAZ7
 ZSCP    EP   1    22833.141                              68    0.18 7 62.4  60 
 ZSCP    ES   1    22842.789                              68    0.39 7 62.4  60 
 YXLK    EP   0    22832.867                              68   -0.2110 63.1   5 
 YXLK    ES   1    22842.393                              68   -0.21 7 63.1   5 
 RVDG    EP   4    22836.665                              68    1.87 0 72.3  48 
 RVDG    ES   3    22846.457                              68    0.86 2 72.3  48 
 YIBA    EP   0    22837.469                              68   -0.0210 86.9 346 
 YIBA    ES   4    22852.573                              68    2.25 0 86.9 346 
 EVSP    EP   1    22840.457                              47    0.06 7  104 291 
 EVSP    ES   1    22855.594                              47    0.19 7  104 291 
 XIVZ    EP   4    22840.295                              47   -1.41 0  113 348 
 XIVZ    ES   3    22858.516                              47    0.82 2  113 348 
 ZGXN    EP   2    22845.856                              47    0.11 4  141  79 
 ZGXN    ES   0    229 4.330                              47   -0.45 8  141  79 
 YAIP    EP   4    22844.765                              47   -2.19 0  149  47 
 YAIP    ES   1    229 7.173                              47    0.29 6  149  47 
                                                                                
 2020  1 1 0230  0.5 L  35.944  52.140 16.4  New  5 0.4                        1
 GAP=230        0.51       7.0     1.9  2.8 -0.5319E+01 -0.1197E+01  0.6824E+01E
 Action:ARG 22-06-19 14:49 OP:OBSP STATUS:               ID:20200101023000     I
 STAT SP IPHASW D HRMM SECON CODA AMPLIT PERI AZIMU VELO AIN AR TRES W  DIS CAZ7
 SRWZ    EP   2    230 4.963                             135    0.15 5 14.3 319 
 SRWZ    ES   3    230 6.564                             135   -1.50 3 14.3 319 
 TVCN    EP   2    230 8.372                             109    0.24 5 35.1   9 
 TVCN    ES   3    23014.418                             109    0.54 3 35.1   9 
 ZSCP    EP   2    23015.397                              64    0.29 5 75.6  65 
 ZSCP    ES   0    23025.982                              64   -0.0910 75.6  65 
 EVSP    EP   0    23017.682                              53   -0.1110 91.8 295 
 EVSP    ES   1    23030.878                              53    0.10 7 91.8 295 
 YAIP    EP   2    23028.433                              53    0.56 4  160  50 
 YAIP    ES   2    23048.072                              53   -0.36 4  160  50 
                                                                                
 2020  1 1 0231 42.0 L  35.952  52.212  0.0  New  3 1.1                        1
 GAP=253        0.82      18.1    40.9 50.2 -0.1156E+03 -0.1976E+04 -0.7266E+01E
 Action:ARG 22-06-19 14:49 OP:OBSP STATUS:               ID:20200101023140     I
 STAT SP IPHASW D HRMM SECON CODA AMPLIT PERI AZIMU VELO AIN AR TRES W  DIS CAZ7
 SRWZ    EP   1    23146.344                              90    0.13 7 18.8 302 
 SRWZ    ES   4    23152.894                              90    3.54 0 18.8 302 
 YXLK    EP   3    23153.732                              64   -1.98 2 64.5  12 
 YXLK    ES   3    232 6.214                              64    0.24 2 64.5  12 
 YIBA    EP   4    23152.546                              56   -7.26 0 85.7 351 
 YIBA    ES   4    232 4.844                              56   -8.29 0 85.7 351 
 EVSP    EP   4    23148.395                              56   -13.6 0 97.4 293 
 EVSP    ES   4    23155.921                              56   -21.0 0 97.4 293 
 ZGXN    EP   4    23213.312                              41    3.45 0  148  79 
 ZGXN    ES   4    23237.475                              41    6.75 0  148  79 
 YAIP    EP   3    232 9.720                              41   -1.10 2  155  49 
 YAIP    ES   3    23234.431                              41    2.03 2  155  49 
                                                                                
 2020  1 1 0233 20.6 L  36.306  52.120  8.4  New  5 0.4                        1
 GAP=142        0.48       3.6     1.5  5.7 -0.1046E-02  0.4357E-01  0.7188E+01E
 Action:ARG 22-06-19 14:49 OP:OBSP STATUS:               ID:20200101023320     I
 STAT SP IPHASW D HRMM SECON CODA AMPLIT PERI AZIMU VELO AIN AR TRES W  DIS CAZ7
 TVCN    ES   4    23322.483                             130   -2.72 0 9.14 127 
 TVCN    EP   3    23323.120                             130   -0.12 2 9.14 127 
 YXLK    EP   3    23326.318                             100   -1.18 2 31.9  42 
 YXLK    ES   3    23333.294                             100    0.66 2 31.9  42 
 RVDG    EP   2    23335.153                              68    0.46 5 70.1  82 
 RVDG    ES   0    23345.171                              68   -0.0710 70.1  82 
 XIVZ    EP   0    23335.048                              68   -0.0010 72.1 353 
 XIVZ    ES   4    23347.600                              68    1.74 0 72.1 353 
 EVSP    EP   4    23334.440                              68   -2.34 0 81.4 269 
 EVSP    ES   1    23348.877                              68   -0.01 7 81.4 269 
                                                                                
 2020  1 1 0235  0.5 L  35.857  52.112  2.6  New  7 0.4                        1
 GAP=265        0.52       6.0     7.6 14.9  0.3262E+02 -0.9928E+02 -0.6071E+02E
 Action:ARG 22-06-19 14:49 OP:OBSP STATUS:               ID:20200101023500     I
 STAT SP IPHASW D HRMM SECON CODA AMPLIT PERI AZIMU VELO AIN AR TRES W  DIS CAZ7
 SRWZ    EP   1    235 5.503                              97    0.20 7 21.6 341 
 SRWZ    ES   4    235 7.559                              97   -1.36 0 21.6 341 
 TVCN    EP   4    235 8.721                              64   -1.28 0 45.1  10 
 TVCN    ES   2    23516.861                              64   -0.29 5 45.1  10 
 YXLK    EP   4    23514.105                              56   -2.18 0 76.9  17 
 YXLK    ES   3    23528.011                              56   -0.13 2 76.9  17 
 ZSCP    EP   1    23517.016                              56   -0.27 7 82.4  60 
 ZSCP    ES   1    23530.223                              56    0.32 7 82.4  60 
 RVDG    EP   3    23517.833                              56   -1.25 2 92.1  50 
 RVDG    ES   4    23531.667                              56   -1.38 0 92.1  50 
 XIVZ    EP   4    23523.341                              41   -0.60 0  122 356 
 XIVZ    ES   4    23534.965                              41   -6.58 0  122 356 
 ZGXN    EP   2    23529.668                              41    0.18 4  159  76 
 ZGXN    ES   4    23551.878                              41    0.62 0  159  76 
 YAIP    EP   4    23531.765                              41    0.92 0  169  48 
 YAIP    ES   3    23553.124                              41   -0.50 2  169  48 
                                                                                
 2020  1 1 0236 39.7 L  36.024  52.110 16.5  New  6 0.2                        1
 GAP=203        0.39       3.2     4.2  2.4  0.8149E+00 -0.4207E+01  0.3045E+01E
 Action:ARG 22-06-19 14:49 OP:OBSP STATUS:               ID:20200101023640     I
 STAT SP IPHASW D HRMM SECON CODA AMPLIT PERI AZIMU VELO AIN AR TRES W  DIS CAZ7
 SRWZ    EP   3    23642.797                             155   -0.44 2 6.99 285 
 SRWZ    ES   4    23645.290                             155   -0.63 0 6.99 285 
 TVCN    EP   1    23646.182                             116    0.24 7 27.0  18 
 TVCN    ES   1    23650.482                             116   -0.17 7 27.0  18 
 YXLK    EP   1    23651.699                              64    0.11 7 59.4  22 
 YXLK    ES   2    237 0.419                              64   -0.11 5 59.4  22 
 ZSCP    EP   4    23652.566                              64   -1.59 0 74.8  72 
 ZSCP    ES   4    237 6.174                              64    1.15 0 74.8  72 
 YIBA    EP   4    23655.245                              64    0.76 0 76.8 357 
 YIBA    ES   3    237 5.843                              64    0.24 2 76.8 357 
 EVSP    EP   3    23655.341                              64   -0.65 2 85.8 290 
 EVSP    ES   4    237 7.106                              64   -1.13 0 85.8 290 
 ZGXN    EP   4    237 7.629                              53    1.19 0  156  83 
 ZGXN    ES   1    23726.436                              53   -0.08 6  156  83 
 YAIP    EP   4    237 9.466                              53    2.92 0  157  53 
 YAIP    ES   4    23724.829                              53   -1.88 0  157  53 
                                                                                
 2020  1 1 0238 20.1 L  35.987  52.068 19.5  New  8 0.3                        1
 GAP=212        0.61       4.3     3.8  5.0  0.6986E+01 -0.2112E+01  0.1095E+02E
 Action:ARG 22-06-19 14:49 OP:OBSP STATUS:               ID:20200101023820     I
 STAT SP IPHASW D HRMM SECON CODA AMPLIT PERI AZIMU VELO AIN AR TRES W  DIS CAZ7
 TVCN    EP   4    23828.387                             105    0.99 0 32.2  22 
 TVCN    ES   1    23832.538                             105   -0.34 8 32.2  22 
 YXLK    EP   1    23833.176                              92    0.40 8 64.7  24 
 YXLK    ES   4    23840.864                              92   -1.43 0 64.7  24 
 ZSCP    EP   4    23836.325                              92    1.04 0 79.7  70 
 ZSCP    ES   1    23847.005                              92    0.33 8 79.7  70 
 YIBA    EP   0    23835.596                              92    0.1210 80.9   0 
 YIBA    ES   0    23846.904                              92   -0.1010 80.9   0 
 EVSP    EP   4    23834.083                              62   -1.86 0 83.9 294 
 EVSP    ES   3    23848.460                              62    0.62 2 83.9 294 
 RVDG    EP   1    23835.939                              62   -0.43 7 86.8  59 
 RVDG    ES   4    23850.187                              62    1.60 0 86.8  59 
 XIVZ    EP   4    23840.389                              62    1.03 0  107 358 
 XIVZ    ES   4    23855.026                              62    1.22 0  107 358 
 ZGXN    EP   1    23846.905                              62   -0.30 6  160  81 
 ZGXN    ES   1    239 7.257                              62   -0.29 6  160  81 
 YAIP    EP   4    23848.636                              62    1.14 0  162  53 
 YAIP    ES   0    239 8.332                              62    0.28 8  162  53 
                                                                                
