 2020  1 1 0140  0.2 L  36.101  52.234 11.8  New  6 0.3                        1
 GAP=173        0.47       2.0     2.9  3.6  0.6008E+00 -0.1699E+01 -0.3526E+01E
 Action:ARG 22-06-19 14:49 OP:OBSP STATUS:               ID:20200101014000     I
 STAT SP IPHASW D HRMM SECON CODA AMPLIT PERI AZIMU VELO AIN AR TRES W  DIS CAZ7
 TVCN    EP   0    140 4.602                             115    0.0710 17.5 350 
 TVCN    ES   4    140 6.242                             115   -1.53 0 17.5 350 
 SRWZ    EP   1    140 5.186                             112    0.39 7 19.1 250 
 SRWZ    ES   3    140 7.410                             112   -0.83 2 19.1 250 
 ZSCP    EP   1    14012.540                              93   -0.05 7 61.7  76 
 ZSCP    ES   4    14020.031                              93   -1.84 0 61.7  76 
 YIBA    EP   0    14014.012                              92   -0.0810 69.8 348 
 YIBA    ES   0    14024.501                              92   -0.0110 69.8 348 
 EVSP    EP   3    14017.615                              64   -0.68 2 94.1 283 
 EVSP    ES   4    14033.475                              64    1.61 0 94.1 283 
 XIVZ    EP   4    14020.755                              64    2.11 0 96.2 349 
 XIVZ    ES   1    14032.290                              64   -0.18 7 96.2 349 
                                                                                
 2020  1 1 0141 40.5 L  35.832  51.995 10.0  New  6 0.3                        1
 GAP=230        0.61       3.2     2.2  5.5 -0.1230E-01  0.2396E+00 -0.1673E+01E
 Action:ARG 22-06-19 14:49 OP:OBSP STATUS:               ID:20200101014140     I
 STAT SP IPHASW D HRMM SECON CODA AMPLIT PERI AZIMU VELO AIN AR TRES W  DIS CAZ7
 TVCN    EP   1    14150.986                              68    0.19 8 50.6  21 
 TVCN    ES   1    14158.139                              68   -0.40 8 50.6  21 
 YXLK    EP   3    14157.485                              68    0.67 3 83.1  23 
 YXLK    ES   2    142 8.537                              68   -0.54 5 83.1  23 
 EVSP    EP   1    14157.668                              56    0.19 7 86.7 306 
 EVSP    ES   0    14210.036                              56   -0.2010 86.7 306 
 YIBA    EP   4    142 0.679                              56    1.27 0 98.3   4 
 YIBA    ES   1    14214.214                              56    0.61 7 98.3   4 
 XIVZ    EP   4    142 1.967                              47   -1.32 0  124   1 
 XIVZ    ES   4    14219.399                              47   -0.99 0  124   1 
 ZGXN    EP   0    142 9.874                              47   -0.19 8  170  76 
 ZGXN    ES   2    14231.895                              47   -0.36 4  170  76 
 YAIP    EP   1    14211.454                              47    0.20 6  178  50 
 YAIP    ES   0    14234.498                              47    0.17 8  178  50 
                                                                                
 2020  1 1 0143 20.2 L  36.439  52.286 12.4  New  8 0.4                        1
 GAP=100        0.52       1.4     1.4  1.6 -0.1664E+00  0.4891E+00  0.4435E+00E
 Action:ARG 22-06-19 14:49 OP:OBSP STATUS:               ID:20200101014320     I
 STAT SP IPHASW D HRMM SECON CODA AMPLIT PERI AZIMU VELO AIN AR TRES W  DIS CAZ7
 YXLK    EP   3    14324.379                             133    0.82 2 11.0  35 
 YXLK    ES   0    14325.958                             133   -0.1510 11.0  35 
 TVCN    EP   2    14325.643                             111    0.39 5 21.7 201 
 TVCN    ES   1    14329.305                             111    0.24 7 21.7 201 
 SRWZ    EP   4    14331.493                              95    1.16 0 49.6 207 
 SRWZ    ES   3    14336.822                              95   -1.13 2 49.6 207 
 RVDG    EP   4    14332.280                              94    1.01 0 54.8  95 
 RVDG    ES   0    14339.471                              94   -0.1310 54.8  95 
 XIVZ    EP   4    14333.304                              93    0.80 0 61.4 338 
 XIVZ    ES   1    14341.940                              93    0.19 7 61.4 338 
 EVSP    EP   3    14339.420                              53    0.62 2 97.7 260 
 EVSP    ES   0    14352.530                              53   -0.25 9 97.7 260 
 YAIP    EP   2    14342.484                              53    0.43 4  120  66 
 YAIP    ES   2    14358.845                              53    0.37 4  120  66 
 ZGXN    EP   4    14346.767                              53    1.51 0  142 101 
 ZGXN    ES   1    144 4.014                              53   -0.05 6  142 101 
                                                                                
 2020  1 1 0145  1.1 L  36.280  51.645 14.2  New  8 0.4                        1
 GAP=257        0.53       1.9     8.3  2.7  0.9481E+01 -0.1587E+01 -0.6642E+00E
 Action:ARG 22-06-19 14:49 OP:OBSP STATUS:               ID:20200101014500     I
 STAT SP IPHASW D HRMM SECON CODA AMPLIT PERI AZIMU VELO AIN AR TRES W  DIS CAZ7
 EVSP    EP   4    145 8.614                             102   -0.66 0 38.8 272 
 EVSP    ES   4    14514.885                             102   -0.55 0 38.8 272 
 SRWZ    EP   4    145 8.224                             100   -1.99 0 44.0 127 
 SRWZ    ES   0    14517.193                             100    0.1110 44.0 127 
 TVCN    EP   2    14510.519                              98   -0.80 5 49.9  93 
 TVCN    ES   4    14520.811                              98    1.81 0 49.9  93 
 YIBA    EP   2    14513.609                              96    0.18 5 61.5  38 
 YIBA    ES   0    14522.693                              96   -0.0110 61.5  38 
 YXLK    EP   3    14515.327                              64    0.53 2 69.2  67 
 YXLK    ES   3    14526.196                              64    1.11 2 69.2  67 
 XIVZ    EP   4    14517.317                              64    0.42 0 81.8  24 
 XIVZ    ES   2    14528.972                              64    0.19 5 81.8  24 
 ZSCP    EP   3    14522.126                              53    0.39 2  113  92 
 ZSCP    ES   1    14537.008                              53   -0.24 7  113  92 
 YAIP    EP   4    14529.840                              53   -1.71 0  180  68 
 YAIP    ES   2    14553.924                              53   -0.50 4  180  68 
 ZGXN    EP   1    14534.034                              53   -0.03 5  197  92 
 ZGXN    ES   2    14559.495                              53    0.67 4  197  92 
                                                                                
 2020  1 1 0146 40.3 L  36.080  52.355 19.6  New  8 0.3                        1
 GAP=177        0.51       3.3     2.0  3.6 -0.1356E+01 -0.1533E+01  0.3908E+01E
 Action:ARG 22-06-19 14:49 OP:OBSP STATUS:               ID:20200101014640     I
 STAT SP IPHASW D HRMM SECON CODA AMPLIT PERI AZIMU VELO AIN AR TRES W  DIS CAZ7
 SRWZ    EP   4    14647.954                             109    0.85 0 29.1 262 
 SRWZ    ES   2    14652.353                             109    0.13 5 29.1 262 
 YXLK    EP   4    14651.527                              95    1.18 0 49.0   0 
 YXLK    ES   2    14658.321                              95    0.42 5 49.0   0 
 ZSCP    EP   0    14650.629                              94   -0.2110 51.9  71 
 ZSCP    ES   4    14659.723                              94    0.97 0 51.9  71 
 RVDG    EP   1    14652.201                              93    0.10 7 59.5  54 
 RVDG    ES   0    147 0.955                              93   -0.0110 59.5  54 
 XIVZ    EP   2    14658.311                              62   -0.34 5  101 343 
 XIVZ    ES   4    14714.612                              62    2.17 0  101 343 
 EVSP    EP   4    147 0.649                              62    1.38 0  105 283 
 EVSP    ES   2    14713.427                              62   -0.08 5  105 283 
 ZGXN    EP   1    147 3.933                              62    0.52 6  134  84 
 ZGXN    ES   0    14720.840                              62    0.07 9  134  84 
 YAIP    EP   1    147 3.370                              62   -0.38 6  136  50 
 YAIP    ES   4    14723.539                              62    2.18 0  136  50 
                                                                                
 2020  1 1 0148 20.2 L  36.186  51.734 12.3  New  8 0.3                        1
 GAP=163        0.55       2.4     1.7  2.3  0.1671E+01 -0.9200E+00 -0.1536E+01E
 Action:ARG 22-06-19 14:49 OP:OBSP STATUS:               ID:20200101014820     I
 STAT SP IPHASW D HRMM SECON CODA AMPLIT PERI AZIMU VELO AIN AR TRES W  DIS CAZ7
 SRWZ    EP   2    14826.315                             100   -0.72 5 31.5 121 
 SRWZ    ES   1    14832.438                             100    0.29 7 31.5 121 
 TVCN    EP   1    14829.268                              96    0.19 7 42.7  79 
 TVCN    ES   0    14835.643                              96   -0.0910 42.7  79 
 EVSP    EP   4    14831.049                              95    0.96 0 48.1 284 
 EVSP    ES   1    14837.476                              95   -0.02 7 48.1 284 
 YIBA    EP   2    14833.726                              93    0.33 5 66.0  27 
 YIBA    ES   3    14841.986                              93   -1.30 2 66.0  27 
 XIVZ    EP   0    14837.323                              64   -0.0510 88.8  17 
 XIVZ    ES   2    14850.747                              64    0.50 5 88.8  17 
 ZSCP    EP   0    14839.915                              53   -0.03 9  105  87 
 ZSCP    ES   0    14854.838                              53    0.09 9  105  87 
 RVDG    EP   0    14840.094                              53   -0.08 9  107  77 
 RVDG    ES   1    14854.887                              53   -0.27 7  107  77 
 YAIP    EP   2    14851.111                              53    0.64 4  177  64 
 YAIP    ES   4    14911.680                              53   -1.49 0  177  64 
                                                                                
 2020  1 1 0150  0.3 L  35.853  52.037  9.9  New  6 0.4                        1
 GAP=307        0.57       5.3    15.0  9.3  0.3278E+02 -0.1259E+03 -0.2225E+02E
 Action:ARG 22-06-19 14:49 OP:OBSP STATUS:               ID:20200101015000     I
 STAT SP IPHASW D HRMM SECON CODA AMPLIT PERI AZIMU VELO AIN AR TRES W  DIS CAZ7
 SRWZ    EP   1    150 5.176                             112    0.08 7 20.8 360 
 SRWZ    ES   4    150 9.478                             112    0.79 0 20.8 360 
 TVCN    EP   2    150 9.235                              68   -0.74 5 47.1  18 
 TVCN    ES   1    15017.593                              68    0.36 7 47.1  18 
 YXLK    EP   3    15016.769                              68    0.79 2 79.5  21 
 YXLK    ES   2    15027.135                              68   -0.60 5 79.5  21 
 EVSP    EP   4    15017.175                              56   -0.43 0 88.5 303 
 EVSP    ES   4    15029.244                              56   -1.34 0 88.5 303 
 RVDG    EP   1    15019.167                              56    0.05 7 97.6  52 
 RVDG    ES   2    15033.276                              56    0.04 5 97.6  52 
 XIVZ    EP   3    15022.994                              47    0.23 2  122 359 
 XIVZ    ES   4    15040.071                              47    0.46 0  122 359 
 ZGXN    EP   4    15030.754                              47    1.47 0  166  76 
 ZGXN    ES   4    15053.204                              47    2.19 0  166  76 
 YAIP    EP   4    15032.291                              47    1.85 0  174  49 
 YAIP    ES   3    15052.747                              47   -0.29 2  174  49 
                                                                                
 2020  1 1 0151 40.7 L  36.130  51.785 11.4  New  4 0.2                        1
 GAP=259        0.36       8.6     9.5  8.0  0.7139E+02 -0.6150E+02 -0.5116E+02E
 Action:ARG 22-06-19 14:49 OP:OBSP STATUS:               ID:20200101015140     I
 STAT SP IPHASW D HRMM SECON CODA AMPLIT PERI AZIMU VELO AIN AR TRES W  DIS CAZ7
 SRWZ    EP   4    15147.787                             103    1.51 0 24.6 114 
 SRWZ    ES   3    15150.428                             103    0.00 3 24.6 114 
 YXLK    EP   4    15155.504                              92    1.37 0 67.2  50 
 YXLK    ES   4    152 3.456                              92   -0.72 0 67.2  50 
 XIVZ    EP   1    15158.786                              64    0.01 8 93.6  13 
 XIVZ    ES   4    15213.139                              64    0.85 0 93.6  13 
 RVDG    EP   0    152 0.405                              53    0.0310  104  73 
 RVDG    ES   1    15215.110                              53    0.01 7  104  73 
 YAIP    EP   3    15210.041                              53   -0.87 2  175  62 
 YAIP    ES   4    15236.560                              53    3.03 0  175  62 
                                                                                
 2020  1 1 0153 19.8 L  35.848  52.179 16.8  New  4 0.3                        1
 GAP=288        0.57       4.3     3.7  2.0 -0.8796E+01 -0.6444E+00  0.6359E-01E
 Action:ARG 22-06-19 14:49 OP:OBSP STATUS:               ID:20200101015320     I
 STAT SP IPHASW D HRMM SECON CODA AMPLIT PERI AZIMU VELO AIN AR TRES W  DIS CAZ7
 SRWZ    EP   0    15325.792                             119   -0.0110 24.9 329 
 SRWZ    ES   1    15330.267                             119   -0.01 7 24.9 329 
 YXLK    EP   0    15334.670                              64    0.1110 76.3  12 
 YXLK    ES   0    15345.708                              64    0.1110 76.3  12 
 RVDG    EP   4    15334.973                              64   -1.56 0 88.2  47 
 RVDG    ES   4    15347.490                              64   -1.56 0 88.2  47 
 YIBA    EP   3    15338.834                              53    0.99 2 96.7 354 
 YIBA    ES   1    15350.857                              53   -0.48 7 96.7 354 
 EVSP    EP   1    15337.885                              53   -0.39 7 99.7 300 
 EVSP    ES   0    15352.324                              53    0.22 9 99.7 300 
                                                                                
 2020  1 1 0155  0.3 L  35.751  52.127 13.4  New 10 0.3                        1
 GAP=234        0.58       3.0     2.6  2.7 -0.1285E+00 -0.1307E+01  0.2503E+01E
 Action:ARG 22-06-19 14:49 OP:OBSP STATUS:               ID:20200101015500     I
 STAT SP IPHASW D HRMM SECON CODA AMPLIT PERI AZIMU VELO AIN AR TRES W  DIS CAZ7
 SRWZ    EP   4    155 6.020                             103   -1.42 0 33.2 346 
 SRWZ    ES   1    15513.072                             103    0.25 7 33.2 346 
 TVCN    EP   0    15511.698                              95   -0.0010 56.4   7 
 TVCN    ES   2    15519.576                              95   -0.70 5 56.4   7 
 ZSCP    EP   2    15516.631                              64   -0.54 5 87.8  52 
 ZSCP    ES   4    15528.941                              64   -0.91 0 87.8  52 
 YXLK    EP   0    15517.189                              64   -0.0010 87.9  14 
 YXLK    ES   0    15529.960                              64    0.0810 87.9  14 
 RVDG    EP   0    15519.236                              53    0.24 9 99.1  44 
 RVDG    ES   1    15533.018                              53   -0.02 7 99.1  44 
 EVSP    EP   1    15518.796                              53   -0.58 7  102 306 
 EVSP    ES   1    15533.908                              53    0.20 7  102 306 
 YIBA    EP   0    15520.217                              53    0.03 9  107 357 
 YIBA    ES   2    15534.710                              53   -0.41 5  107 357 
 XIVZ    EP   2    15524.712                              53    0.66 4  133 356 
 XIVZ    ES   4    15543.232                              53    1.35 0  133 356 
 ZGXN    EP   2    15528.672                              53    0.52 4  161  72 
 ZGXN    ES   3    15548.319                              53   -0.75 2  161  72 
 YAIP    EP   4    15529.171                              53   -1.09 0  176  45 
 YAIP    ES   1    15552.647                              53   -0.11 6  176  45 
                                                                                
 2020  1 1 0156 40.2 L  36.012  52.174 12.6  New 10 0.4                        1
 GAP=202        0.55       3.5     2.2  2.3 -0.1068E+01 -0.8159E+00 -0.1390E+01E
 Action:ARG 22-06-19 14:49 OP:OBSP STATUS:               ID:20200101015640     I
 STAT SP IPHASW D HRMM SECON CODA AMPLIT PERI AZIMU VELO AIN AR TRES W  DIS CAZ7
 SRWZ    EP   2    15644.047                             129    0.14 5 12.9 284 
 SRWZ    ES   2    15646.811                             129    0.15 5 12.9 284 
 TVCN    EP   3    15645.140                             105   -1.15 2 27.2   5 
 TVCN    ES   2    15651.003                             105    0.18 5 27.2   5 
 YXLK    EP   0    15651.875                              94   -0.2110 58.8  16 
 YXLK    ES   4    15659.088                              94   -1.88 0 58.8  16 
 ZSCP    EP   2    15654.398                              93    0.28 5 69.8  69 
 ZSCP    ES   4    157 2.984                              93   -1.55 0 69.8  69 
 RVDG    EP   4    15654.107                              64   -1.33 0 77.2  57 
 RVDG    ES   3    157 7.452                              64    0.62 2 77.2  57 
 YIBA    EP   1    15655.955                              64    0.29 7 78.6 353 
 YIBA    ES   3    157 6.408                              64   -0.84 2 78.6 353 
 EVSP    EP   4    15656.860                              64   -0.99 0 91.7 290 
 EVSP    ES   1    15710.988                              64   -0.08 7 91.7 290 
 XIVZ    EP   0    157 0.157                              53    0.24 9  105 353 
 XIVZ    ES   1    15714.518                              53   -0.17 7  105 353 
 ZGXN    EP   2    157 6.054                              53   -0.57 4  151  82 
 ZGXN    ES   4    15725.108                              53   -1.31 0  151  82 
 YAIP    EP   1    157 6.484                              53   -0.52 6  153  52 
 YAIP    ES   1    15727.485                              53    0.41 6  153  52 
                                                                                
 2020  1 1 0158 19.4 L  35.957  51.977  9.9  New  5 0.4                        1
 GAP=245        0.61       6.9     2.8  4.0  0.1357E+00 -0.2172E+01 -0.2395E+01E
 Action:ARG 22-06-19 14:49 OP:OBSP STATUS:               ID:20200101015820     I
 STAT SP IPHASW D HRMM SECON CODA AMPLIT PERI AZIMU VELO AIN AR TRES W  DIS CAZ7
 SRWZ    EP   2    15822.584                             130    0.13 5 10.6  30 
 SRWZ    ES   4    15824.409                             130   -0.32 0 10.6  30 
 EVSP    EP   3    15835.676                              68    0.86 3 77.9 298 
 EVSP    ES   1    15846.443                              68    0.08 8 77.9 298 
 YIBA    EP   2    15835.379                              68   -0.66 5 84.5   6 
 YIBA    ES   2    15848.899                              68    0.40 5 84.5   6 
 XIVZ    EP   0    15839.943                              47   -0.2710  110   2 
 XIVZ    ES   4    15854.296                              47   -1.50 0  110   2 
 YAIP    EP   2    15849.988                              47    0.86 4  171  54 
 YAIP    ES   0    15911.446                              47    0.04 8  171  54 
                                                                                
