 2020  1 1 0001 40.4 L  35.871  52.369  8.7  New  7 0.4                        1
 GAP=220        0.61       3.2     2.1  4.3  0.2097E+00  0.2319E+01  0.6218E+00E
 Action:ARG 22-06-19 14:49 OP:OBSP STATUS:               ID:20200101000140     I
 STAT SP IPHASW D HRMM SECON CODA AMPLIT PERI AZIMU VELO AIN AR TRES W  DIS CAZ7
 SRWZ    EP   3    0 148.418                             100    0.44 2 35.5 302 
 SRWZ    ES   4    0 150.337                             100   -3.33 0 35.5 302 
 ZSCP    EP   0    0 153.004                              68   -0.0010 62.4  50 
 ZSCP    ES   2    0 2 3.107                              68    0.65 5 62.4  50 
 YXLK    EP   4    0 153.157                              68   -1.66 0 72.2 359 
 YXLK    ES   1    0 2 5.388                              68   -0.24 7 72.2 359 
 RVDG    EP   4    0 153.844                              68   -1.43 0 74.6  39 
 RVDG    ES   4    0 2 8.188                              68    1.77 0 74.6  39 
 YIBA    EP   2    0 159.733                              56    0.38 5 97.6 344 
 YIBA    ES   2    0 212.891                              56   -0.67 5 97.6 344 
 EVSP    EP   1    0 2 1.933                              47    0.07 7  114 294 
 EVSP    ES   0    0 218.056                              47    0.09 9  114 294 
 ZGXN    EP   1    0 2 4.615                              47   -0.58 6  137  75 
 ZGXN    ES   1    0 223.532                              47   -0.26 6  137  75 
 YAIP    EP   1    0 2 7.504                              47    0.19 6  151  43 
 YAIP    ES   1    0 227.977                              47    0.48 6  151  43 
                                                                                
 2020  1 1 0003 21.0 L  35.787  51.890 23.4  New  5 0.4                        1
 GAP=294        0.51       5.6     8.2  5.7 -0.5977E+01  0.7955E+01  0.1932E+02E
 Action:ARG 22-06-19 14:49 OP:OBSP STATUS:               ID:20200101000320     I
 STAT SP IPHASW D HRMM SECON CODA AMPLIT PERI AZIMU VELO AIN AR TRES W  DIS CAZ7
 TVCN    EP   3    0 331.341                             100   -1.43 2 59.1  28 
 TVCN    ES   0    0 341.704                             100    0.0610 59.1  28 
 YXLK    EP   1    0 337.343                              62   -0.29 7 91.6  27 
 YXLK    ES   2    0 350.069                              62   -0.08 5 91.6  27 
 YIBA    EP   1    0 339.764                              62    0.27 7  104   9 
 ZSCP    EP   4    0 337.900                              62   -1.50 0  104  61 
 ZSCP    ES   4    0 352.591                              62   -0.64 0  104  61 
 YIBA    ES   4    0 355.204                              62    1.80 0  104   9 
 ZGXN    EP   1    0 350.917                              62    0.17 6  181  75 
 ZGXN    ES   4    0 412.087                              62   -1.00 0  181  75 
 YAIP    EP   3    0 352.600                              62    0.67 2  189  50 
 YAIP    ES   2    0 415.067                              62   -0.09 4  189  50 
                                                                                
 2020  1 1 0004 59.2 L  35.484  52.190 10.0  New  5 0.5                        1
 GAP=293        0.53      14.9    12.0 11.0  0.2949E+02 -0.6359E+02  0.5422E+01E
 Action:ARG 22-06-19 14:49 OP:OBSP STATUS:               ID:20200101000500     I
 STAT SP IPHASW D HRMM SECON CODA AMPLIT PERI AZIMU VELO AIN AR TRES W  DIS CAZ7
 TVCN    EP   1    0 515.807                              68   -0.17 9 85.7   1 
 TVCN    ES   4    0 529.796                              68    1.21 0 85.7   1 
 RVDG    EP   2    0 521.847                              47    0.64 5  119  32 
 RVDG    ES   3    0 538.113                              47    0.38 3  119  32 
 YIBA    EP   0    0 523.821                              47   -0.0410  137 355 
 YIBA    ES   4    0 540.433                              47   -1.95 0  137 355 
 XIVZ    EP   4    0 526.572                              47   -1.16 0  163 355 
 XIVZ    ES   3    0 549.693                              47    0.53 2  163 355 
 ZGXN    EP   4    0 527.398                              47   -0.98 0  168  62 
 ZGXN    ES   3    0 548.933                              47   -1.35 2  168  62 
                                                                                
 2020  1 1 0006 39.7 L  35.838  52.406  6.4  New  6 0.3                        1
 GAP=254        0.44       2.4     2.6  2.2 -0.1610E+01 -0.2825E+01  0.1316E+01E
 Action:ARG 22-06-19 14:49 OP:OBSP STATUS:               ID:20200101000640     I
 STAT SP IPHASW D HRMM SECON CODA AMPLIT PERI AZIMU VELO AIN AR TRES W  DIS CAZ7
 SRWZ    EP   4    0 649.503                              94    1.29 0 40.4 304 
 SRWZ    ES   0    0 654.624                              94    0.0510 40.4 304 
 TVCN    EP   1    0 650.152                              93    0.01 7 50.0 338 
 TVCN    ES   1    0 657.958                              93    0.01 7 50.0 338 
 YXLK    EP   1    0 654.946                              68   -0.07 7 76.0 357 
 YXLK    ES   1    0 7 6.362                              68   -0.12 7 76.0 357 
 EVSP    EP   0    0 7 1.994                              47   -0.19 9  119 295 
 EVSP    ES   2    0 719.296                              47    0.27 4  119 295 
 XIVZ    EP   4    0 7 5.566                              47    1.96 0  128 345 
 XIVZ    ES   0    0 721.575                              47    0.06 9  128 345 
 YAIP    EP   2    0 7 7.839                              47    0.82 4  151  41 
 YAIP    ES   3    0 726.715                              47   -0.77 2  151  41 
                                                                                
 2020  1 1 0008 20.4 L  35.959  52.087 11.0  New  6 0.4                        1
 GAP=290        0.52       3.2     4.1  3.7  0.3670E+01  0.4472E+01  0.3421E+01E
 Action:ARG 22-06-19 14:49 OP:OBSP STATUS:               ID:20200101000820     I
 STAT SP IPHASW D HRMM SECON CODA AMPLIT PERI AZIMU VELO AIN AR TRES W  DIS CAZ7
 YXLK    EP   3    0 832.894                              91   -0.80 2 66.9  21 
 YXLK    ES   0    0 843.754                              91    0.0510 66.9  21 
 ZSCP    EP   2    0 836.404                              91    0.41 5 79.3  67 
 ZSCP    ES   4    0 850.056                              91    2.33 0 79.3  67 
 YIBA    EP   4    0 838.189                              64    1.37 0 84.0 359 
 YIBA    ES   3    0 848.217                              64   -0.94 2 84.0 359 
 RVDG    EP   0    0 837.273                              64   -0.0510 87.0  56 
 RVDG    ES   2    0 849.410                              64   -0.64 5 87.0  56 
 XIVZ    EP   0    0 840.918                              53   -0.07 9  110 357 
 XIVZ    ES   1    0 856.640                              53    0.18 7  110 357 
 YAIP    EP   3    0 849.463                              53    0.71 2  163  52 
 YAIP    ES   1    0 910.350                              53    0.30 6  163  52 
                                                                                
 2020  1 1 0009 60.0 L  35.561  52.322  9.1  New  7 0.4                        1
 GAP=247        0.57       5.2     2.7  5.0  0.4550E+01  0.5673E+00 -0.1012E+02E
 Action:ARG 22-06-19 14:49 OP:OBSP STATUS:               ID:20200101001000     I
 STAT SP IPHASW D HRMM SECON CODA AMPLIT PERI AZIMU VELO AIN AR TRES W  DIS CAZ7
 SRWZ    EP   3    01011.501                              68   -0.46 3 59.2 334 
 SRWZ    ES   2    01020.798                              68   -0.14 5 59.2 334 
 ZSCP    EP   0    01017.873                              56    0.1110 90.8  35 
 ZSCP    ES   4    01032.892                              56    1.80 0 90.8  35 
 RVDG    EP   2    01019.643                              47   -0.52 5  106  29 
 RVDG    ES   1    01035.653                              47    0.36 7  106  29 
 YXLK    EP   2    01021.062                              47    0.75 5  107   2 
 YXLK    ES   2    01034.957                              47   -0.59 5  107   2 
 EVSP    EP   4    01025.272                              47    1.73 0  129 309 
 EVSP    ES   0    01041.270                              47    0.06 9  129 309 
 YIBA    EP   0    01023.894                              47    0.12 9  130 350 
 YIBA    ES   1    01041.379                              47   -0.23 7  130 350 
 ZGXN    EP   1    01026.667                              47   -0.50 6  153  62 
 ZGXN    ES   1    01047.577                              47    0.02 6  153  62 
 XIVZ    EP   4    01029.555                              47    1.90 0  157 350 
 XIVZ    ES   4    01050.538                              47    2.13 0  157 350 
 YAIP    EP   4    01029.721                              47   -1.42 0  180  36 
 YAIP    ES   4    01055.905                              47    1.41 0  180  36 
                                                                                
 2020  1 1 0011 39.3 L  35.891  51.925 14.2  New  7 0.2                        1
 GAP=298        0.43       2.6     3.1  1.4  0.2855E+01 -0.1866E+00  0.7322E+00E
 Action:ARG 22-06-19 14:49 OP:OBSP STATUS:               ID:20200101001140     I
 STAT SP IPHASW D HRMM SECON CODA AMPLIT PERI AZIMU VELO AIN AR TRES W  DIS CAZ7
 SRWZ    EP   2    01143.798                             120   -0.37 5 19.3  31 
 SRWZ    ES   0    01147.853                             120    0.0710 19.3  31 
 TVCN    EP   0    01149.160                              98    0.0110 47.5  31 
 TVCN    ES   4    01154.911                              98   -1.59 0 47.5  31 
 EVSP    EP   4    01152.255                              64   -2.27 0 77.8 305 
 EVSP    ES   4    012 7.578                              64    1.67 0 77.8 305 
 YXLK    EP   1    01154.802                              64   -0.07 7 79.9  29 
 YXLK    ES   1    012 6.212                              64   -0.31 7 79.9  29 
 YIBA    EP   0    01157.081                              64    0.1310 92.4   8 
 YIBA    ES   0    01210.244                              64    0.0810 92.4   8 
 ZSCP    EP   1    01157.483                              53    0.01 7 95.7  67 
 ZSCP    ES   0    01211.246                              53    0.1710 95.7  67 
 RVDG    EP   4    01157.570                              53   -1.04 0  103  57 
 RVDG    ES   2    01212.649                              53   -0.41 5  103  57 
 XIVZ    EP   2    012 0.334                              53   -0.42 4  118   4 
 XIVZ    ES   3    01217.532                              53    0.71 2  118   4 
 YAIP    EP   4    01211.647                              53    1.89 0  179  52 
 YAIP    ES   4    01231.127                              53   -1.43 0  179  52 
                                                                                
 2020  1 1 0013 19.3 L  35.725  52.235 15.8  New  6 0.4                        1
 GAP=286        0.49       4.5     5.8  5.4  0.1144E+02 -0.2752E+02 -0.5611E+01E
 Action:ARG 22-06-19 14:49 OP:OBSP STATUS:               ID:20200101001320     I
 STAT SP IPHASW D HRMM SECON CODA AMPLIT PERI AZIMU VELO AIN AR TRES W  DIS CAZ7
 SRWZ    EP   1    01327.713                             105    0.02 7 39.4 333 
 SRWZ    ES   0    01333.969                             105   -0.0210 39.4 333 
 TVCN    EP   4    01332.592                              64    1.38 0 59.1 357 
 TVCN    ES   2    01340.391                              64    0.24 5 59.1 357 
 ZSCP    EP   2    01334.529                              64   -0.54 5 82.2  47 
 ZSCP    ES   1    01346.926                              64    0.02 7 82.2  47 
 RVDG    EP   0    01337.315                              53    0.1910 94.9  39 
 RVDG    ES   1    01350.555                              53    0.06 7 94.9  39 
 EVSP    EP   4    01338.219                              53   -1.33 0  111 305 
 EVSP    ES   4    01354.125                              53   -0.61 0  111 305 
 XIVZ    EP   3    01342.672                              53   -0.71 2  137 352 
 XIVZ    ES   3    014 0.287                              53   -1.16 2  137 352 
 YAIP    EP   4    01346.222                              53   -2.11 0  171  42 
 YAIP    ES   3    014 8.810                              53   -1.31 2  171  42 
                                                                                
 2020  1 1 0015  0.3 L  35.783  51.924 11.5  New  6 0.3                        1
 GAP=237        0.47       5.1     3.8  5.4  0.9869E+01 -0.1219E+02 -0.1275E+02E
 Action:ARG 22-06-19 14:49 OP:OBSP STATUS:               ID:20200101001500     I
 STAT SP IPHASW D HRMM SECON CODA AMPLIT PERI AZIMU VELO AIN AR TRES W  DIS CAZ7
 TVCN    EP   2    01511.978                              92   -0.06 5 58.1  25 
 TVCN    ES   4    01521.549                              92    0.73 0 58.1  25 
 EVSP    EP   2    01516.509                              64   -0.43 5 85.2 311 
 EVSP    ES   3    01529.250                              64   -0.16 3 85.2 311 
 ZSCP    EP   2    01519.745                              53    0.18 5  101  60 
 ZSCP    ES   1    01533.864                              53   -0.13 8  101  60 
 YIBA    EP   4    01518.770                              53   -1.26 0  104   7 
 YIBA    ES   1    01535.142                              53    0.33 8  104   7 
 RVDG    EP   2    01521.326                              53    0.40 5  110  52 
 RVDG    ES   0    01536.118                              53   -0.2610  110  52 
 ZGXN    EP   2    01531.256                              53    0.40 4  178  75 
 ZGXN    ES   1    01553.947                              53    0.20 6  178  75 
                                                                                
 2020  1 1 0016 40.4 L  36.144  52.006  8.1  New  5 0.3                        1
 GAP=314        0.50       2.6     4.1  3.3  0.1193E+01  0.1720E+01  0.1136E+01E
 Action:ARG 22-06-19 14:49 OP:OBSP STATUS:               ID:20200101001640     I
 STAT SP IPHASW D HRMM SECON CODA AMPLIT PERI AZIMU VELO AIN AR TRES W  DIS CAZ7
 TVCN    EP   4    01643.477                             106   -1.71 0 21.5  55 
 TVCN    ES   1    01648.713                             106   -0.08 7 21.5  55 
 YXLK    EP   1    01651.393                              68    0.23 7 52.4  37 
 YXLK    ES   0    01659.282                              68    0.0310 52.4  37 
 YIBA    EP   4    01654.549                              68    1.29 0 63.7   5 
 YIBA    ES   4    017 5.523                              68    2.60 0 63.7   5 
 EVSP    EP   4    01656.325                              68    1.34 0 73.0 283 
 EVSP    ES   4    017 7.681                              68    1.74 0 73.0 283 
 ZSCP    EP   0    01656.475                              68   -0.0210 81.1  83 
 ZSCP    ES   1    017 8.838                              68    0.26 7 81.1  83 
 RVDG    EP   3    01657.978                              68    0.88 2 84.4  71 
 RVDG    ES   1    017 9.399                              68   -0.24 7 84.4  71 
 YAIP    EP   1    017 7.857                              47   -0.45 6  157  59 
 YAIP    ES   4    01728.087                              47   -1.17 0  157  59 
 ZGXN    EP   4    017 8.104                              47   -1.25 0  164  88 
 ZGXN    ES   4    01733.280                              47    2.20 0  164  88 
                                                                                
 2020  1 1 0018 19.6 L  36.250  51.727 20.2  New  8 0.4                        1
 GAP=249        0.57       2.9     7.3  5.4  0.4339E+01 -0.2888E+02 -0.5035E+01E
 Action:ARG 22-06-19 14:49 OP:OBSP STATUS:               ID:20200101001820     I
 STAT SP IPHASW D HRMM SECON CODA AMPLIT PERI AZIMU VELO AIN AR TRES W  DIS CAZ7
 SRWZ    EP   0    01827.647                             104    0.0810 36.1 130 
 SRWZ    ES   4    01835.854                             104    2.30 0 36.1 130 
 TVCN    EP   3    01829.461                              99    0.84 2 42.5  89 
 TVCN    ES   4    01833.993                              99   -1.39 0 42.5  89 
 EVSP    EP   4    01831.212                              97    1.97 0 46.3 276 
 EVSP    ES   4    01838.884                              97    2.41 0 46.3 276 
 YIBA    EP   2    01831.068                              94   -0.45 5 60.1  31 
 YIBA    ES   2    01840.977                              94    0.51 5 60.1  31 
 YXLK    EP   2    01831.708                              94   -0.46 5 64.0  62 
 YXLK    ES   3    01840.386                              94   -1.22 2 64.0  62 
 XIVZ    EP   2    01834.846                              62   -0.30 5 82.2  19 
 XIVZ    ES   4    01845.640                              62   -1.17 0 82.2  19 
 ZSCP    EP   1    01838.524                              62   -0.06 7  106  91 
 RVDG    EP   3    01838.018                              62   -0.62 2  106  81 
 RVDG    ES   0    01852.963                              62    0.05 9  106  81 
 ZSCP    ES   1    01852.522                              62   -0.30 7  106  91 
 YAIP    EP   1    01849.247                              62    0.57 6  174  66 
 YAIP    ES   0    01910.646                              62    0.15 8  174  66 
                                                                                
 2020  1 1 0019 59.9 L  36.091  52.223 15.1  New  8 0.2                        1
 GAP=167        0.41       2.5     2.1  2.7 -0.2016E+01  0.6190E+00 -0.4403E+01E
 Action:ARG 22-06-19 14:49 OP:OBSP STATUS:               ID:20200101002000     I
 STAT SP IPHASW D HRMM SECON CODA AMPLIT PERI AZIMU VELO AIN AR TRES W  DIS CAZ7
 SRWZ    EP   1    020 4.591                             125    0.04 8 17.8 252 
 SRWZ    ES   4    020 8.293                             125    0.24 0 17.8 252 
 TVCN    EP   3    020 4.784                             124    0.13 3 18.4 354 
 TVCN    ES   3    020 7.971                             124   -0.26 3 18.4 354 
 RVDG    EP   3    02012.935                              64   -0.58 3 68.9  61 
 RVDG    ES   2    02023.524                              64   -0.20 5 68.9  61 
 YIBA    EP   4    02011.921                              64   -1.88 0 70.7 349 
 YIBA    ES   1    02024.085                              64   -0.15 8 70.7 349 
 EVSP    EP   0    02017.778                              64    0.1910 93.4 284 
 EVSP    ES   1    02030.493                              64   -0.37 7 93.4 284 
 XIVZ    EP   4    02016.806                              53   -1.33 0 97.1 349 
 XIVZ    ES   0    02032.014                              53    0.2010 97.1 349 
 YAIP    EP   4    02026.711                              53    1.63 0  144  53 
 YAIP    ES   3    02043.927                              53   -0.05 2  144  53 
 ZGXN    EP   3    02025.163                              53   -0.06 2  145  85 
 ZGXN    ES   4    02044.342                              53    0.12 0  145  85 
                                                                                
