 2020  1 1 0159 59.7 L  36.162  52.191  2.4  New  7 0.3                        1
 GAP=196        0.57       2.2     1.2  2.8  0.3985E+00  0.5273E+00  0.2167E+01E
 Action:ARG 22-06-19 14:49 OP:OBSP STATUS:               ID:20200101020000     I
 STAT SP IPHASW D HRMM SECON CODA AMPLIT PERI AZIMU VELO AIN AR TRES W  DIS CAZ7
 TVCN    EP   1    2 0 2.021                             103   -0.04 7 10.5   5 
 TVCN    ES   2    2 0 3.692                             103   -0.17 5 10.5   5 
 YIBA    EP   2    2 013.407                              64    0.71 5 62.4 350 
 YIBA    ES   4    2 020.725                              64   -1.75 0 62.4 350 
 ZSCP    EP   0    2 013.224                              64    0.1510 64.3  83 
 ZSCP    ES   0    2 023.215                              64    0.0810 64.3  83 
 RVDG    EP   1    2 013.473                              64   -0.35 7 68.1  68 
 RVDG    ES   1    2 024.686                              64    0.24 7 68.1  68 
 XIVZ    EP   0    2 017.754                              56    0.0410 88.8 350 
 XIVZ    ES   1    2 031.208                              56   -0.05 7 88.8 350 
 EVSP    EP   0    2 017.680                              56   -0.0710 89.0 279 
 EVSP    ES   0    2 031.395                              56    0.0810 89.0 279 
 YAIP    EP   1    2 025.622                              41   -0.57 6  142  56 
 YAIP    ES   3    2 044.545                              41   -1.54 2  142  56 
                                                                                
 2020  1 1 0201 40.1 L  36.063  52.089  5.1  New  4 0.1                        1
 GAP=188        0.31       2.6     3.5  2.2 -0.6364E+01 -0.5540E+01  0.1200E+01E
 Action:ARG 22-06-19 14:49 OP:OBSP STATUS:               ID:20200101020140     I
 STAT SP IPHASW D HRMM SECON CODA AMPLIT PERI AZIMU VELO AIN AR TRES W  DIS CAZ7
 SRWZ    EP   0    2 141.755                             127    0.0510 5.48 243 
 SRWZ    ES   2    2 142.815                             127   -0.11 5 5.48 243 
 TVCN    EP   2    2 144.961                              94   -0.25 5 23.6  25 
 TVCN    ES   2    2 149.188                              94    0.14 5 23.6  25 
 EVSP    EP   2    2 156.706                              68   -0.00 5 82.6 288 
 EVSP    ES   4    2 2 7.409                              68   -1.77 0 82.6 288 
 YAIP    EP   0    2 2 8.218                              47    0.01 8  156  55 
 YAIP    ES   0    2 229.310                              47    0.00 8  156  55 
 ZGXN    EP   4    2 210.082                              47    1.63 0  158  84 
 ZGXN    ES   4    2 231.182                              47    1.45 0  158  84 
                                                                                
 2020  1 1 0203 20.1 L  36.152  52.026 15.3  New  6 0.4                        1
 GAP=184        0.52       2.1     3.5  2.4  0.9563E-01 -0.1236E+01 -0.3377E+01E
 Action:ARG 22-06-19 14:49 OP:OBSP STATUS:               ID:20200101020320     I
 STAT SP IPHASW D HRMM SECON CODA AMPLIT PERI AZIMU VELO AIN AR TRES W  DIS CAZ7
 SRWZ    EP   2    2 324.338                             138    0.26 5 12.3 176 
 SRWZ    ES   1    2 327.050                             138    0.01 8 12.3 176 
 TVCN    EP   2    2 324.555                             123   -0.55 5 19.5  53 
 TVCN    ES   3    2 329.908                             123    1.09 3 19.5  53 
 YXLK    EP   4    2 329.665                             100   -0.88 0 50.6  36 
 YXLK    ES   1    2 338.330                             100   -0.01 8 50.6  36 
 YIBA    EP   3    2 331.839                              64   -0.86 3 62.7   3 
 YIBA    ES   2    2 341.852                              64   -0.27 5 62.7   3 
 EVSP    EP   4    2 335.931                              64    1.24 0 74.6 282 
 EVSP    ES   4    2 343.495                              64   -2.11 0 74.6 282 
 XIVZ    EP   2    2 336.477                              64   -0.56 5 88.7 360 
 XIVZ    ES   0    2 349.933                              64    0.2210 88.7 360 
 YAIP    EP   0    2 347.010                              53    0.10 8  155  59 
 YAIP    ES   0    2 4 6.971                              53   -0.02 8  155  59 
                                                                                
 2020  1 1 0204 59.5 L  36.141  52.042 18.7  New  8 0.4                        1
 GAP=271        0.65       4.9     6.0  5.7  0.2342E+02  0.1796E+02  0.1123E+02E
 Action:ARG 22-06-19 14:49 OP:OBSP STATUS:               ID:20200101020500     I
 STAT SP IPHASW D HRMM SECON CODA AMPLIT PERI AZIMU VELO AIN AR TRES W  DIS CAZ7
 TVCN    EP   4    2 5 2.793                             123   -2.00 0 19.1  48 
 TVCN    ES   3    2 5 9.833                             123    1.10 2 19.1  48 
 YXLK    EP   4    2 512.074                              92    2.19 0 50.7  34 
 YXLK    ES   0    2 517.516                              92   -0.1410 50.7  34 
 YIBA    EP   3    2 513.220                              91    1.16 2 63.8   2 
 YIBA    ES   1    2 520.950                              91   -0.51 7 63.8   2 
 EVSP    EP   4    2 515.942                              91    1.80 0 76.3 283 
 EVSP    ES   4    2 526.967                              91    1.86 0 76.3 283 
 ZSCP    EP   4    2 515.848                              91    1.43 0 77.9  82 
 ZSCP    ES   0    2 525.659                              91    0.0710 77.9  82 
 RVDG    EP   4    2 518.041                              91    3.04 0 81.4  70 
 RVDG    ES   0    2 526.601                              91   -0.0010 81.4  70 
 XIVZ    EP   4    2 515.522                              62   -0.81 0 89.9 359 
 XIVZ    ES   1    2 529.365                              62    0.44 7 89.9 359 
 YAIP    EP   2    2 525.358                              62   -0.50 4  155  58 
 YAIP    ES   1    2 545.972                              62    0.37 6  155  58 
 ZGXN    EP   1    2 526.618                              62   -0.20 6  161  88 
 ZGXN    ES   4    2 548.472                              62    1.20 0  161  88 
                                                                                
 2020  1 1 0206 39.9 L  35.491  51.930 10.0  New  8 0.4                        1
 GAP=259        0.55      12.8     4.3 15.7  0.1862E+02 -0.1092E+02 -0.1771E+03E
 Action:ARG 22-06-19 14:49 OP:OBSP STATUS:               ID:20200101020640     I
 STAT SP IPHASW D HRMM SECON CODA AMPLIT PERI AZIMU VELO AIN AR TRES W  DIS CAZ7
 SRWZ    EP   3    2 652.270                              68   -0.04 3 61.8   9 
 SRWZ    ES   4    2 7 0.756                              68   -0.84 0 61.8   9 
 TVCN    EP   3    2 656.795                              56   -0.41 3 88.4  16 
 TVCN    ES   4    2 7 9.104                              56   -1.05 0 88.4  16 
 EVSP    EP   4    2 659.278                              47   -1.31 0  110 324 
 EVSP    ES   1    2 715.911                              47   -0.17 8  110 324 
 ZSCP    EP   0    2 7 2.242                              47    0.1110  120  47 
 ZSCP    ES   3    2 718.058                              47   -0.73 2  120  47 
 YXLK    EP   3    2 7 1.606                              47   -0.60 2  121  18 
 YXLK    ES   2    2 719.774                              47    0.87 5  121  18 
 RVDG    EP   0    2 7 4.257                              47    0.3110  132  41 
 RVDG    ES   1    2 721.687                              47   -0.27 7  132  41 
 ZGXN    EP   1    2 711.834                              47   -0.36 6  189  65 
 ZGXN    ES   4    2 734.741                              47   -1.66 0  189  65 
 YAIP    EP   3    2 714.375                              47   -0.81 2  209  43 
 YAIP    ES   2    2 741.020                              47   -0.61 4  209  43 
                                                                                
 2020  1 1 0208 19.8 L  36.473  52.219  9.5  New  6 0.4                        1
 GAP= 93        0.64       3.4     2.3  4.6  0.2650E+01  0.2385E+00  0.1154E+02E
 Action:ARG 22-06-19 14:49 OP:OBSP STATUS:               ID:20200101020820     I
 STAT SP IPHASW D HRMM SECON CODA AMPLIT PERI AZIMU VELO AIN AR TRES W  DIS CAZ7
 YXLK    EP   1    2 822.800                             122   -0.41 7 13.5  66 
 YXLK    ES   2    2 826.382                             122    0.59 5 13.5  66 
 TVCN    EP   4    2 827.152                             108    2.01 0 24.0 184 
 TVCN    ES   4    2 829.002                             108   -0.17 0 24.0 184 
 YIBA    EP   2    2 825.761                             104   -0.56 5 30.1 334 
 YIBA    ES   1    2 831.530                             104    0.30 7 30.1 334 
 SRWZ    EP   1    2 830.369                              68    0.24 7 50.7 199 
 SRWZ    ES   4    2 840.364                              68    2.46 0 50.7 199 
 RVDG    EP   2    2 831.418                              68   -0.67 5 61.2  98 
 RVDG    ES   1    2 841.433                              68    0.11 7 61.2  98 
 ZSCP    EP   4    2 834.278                              68    1.14 0 66.9 113 
 ZSCP    ES   0    2 843.235                              68    0.0710 66.9 113 
 EVSP    EP   2    2 837.575                              56   -0.20 5 92.4 258 
 EVSP    ES   4    2 852.906                              56    1.63 0 92.4 258 
                                                                                
 2020  1 1 0209 59.3 L  35.942  52.081  8.5  New  5 0.2                        1
 GAP=273        0.52       6.7     3.2  2.5  0.1442E+02 -0.3096E+01 -0.4847E+01E
 Action:ARG 22-06-19 14:49 OP:OBSP STATUS:               ID:20200101021000     I
 STAT SP IPHASW D HRMM SECON CODA AMPLIT PERI AZIMU VELO AIN AR TRES W  DIS CAZ7
 SRWZ    EP   2    210 1.774                             123   -0.57 5 11.7 339 
 SRWZ    ES   2    210 4.884                             123    0.26 5 11.7 339 
 YXLK    EP   0    21013.228                              68    0.1210 68.9  21 
 YXLK    ES   4    21024.251                              68    0.79 0 68.9  21 
 ZSCP    EP   4    21013.753                              68   -1.51 0 80.5  66 
 ZSCP    ES   0    21027.205                              68   -0.0410 80.5  66 
 YIBA    EP   1    21015.983                              68   -0.27 7 85.9 359 
 YIBA    ES   4    21030.462                              68    1.49 0 85.9 359 
 EVSP    EP   4    21018.498                              68    2.03 0 87.0 297 
 EVSP    ES   4    21033.426                              68    4.08 0 87.0 297 
 XIVZ    EP   0    21020.759                              47    0.25 9  112 357 
 XIVZ    ES   0    21036.335                              47   -0.09 9  112 357 
 ZGXN    EP   4    21031.951                              47    4.37 0  160  80 
 ZGXN    ES   4    21048.002                              47   -0.79 0  160  80 
                                                                                
 2020  1 1 0211 39.6 L  35.985  51.959 10.0  New  5 0.5                        1
 GAP=281        0.59       6.3     7.7  8.4  0.2768E+02 -0.1800E+02 -0.9588E+01E
 Action:ARG 22-06-19 14:49 OP:OBSP STATUS:               ID:20200101021140     I
 STAT SP IPHASW D HRMM SECON CODA AMPLIT PERI AZIMU VELO AIN AR TRES W  DIS CAZ7
 YXLK    EP   4    21155.281                              68    1.89 0 69.4  31 
 YXLK    ES   3    212 3.516                              68   -0.22 3 69.4  31 
 YIBA    EP   4    21155.004                              68   -0.66 0 81.6   7 
 YIBA    ES   4    212 6.574                              68   -1.14 0 81.6   7 
 ZSCP    EP   2    21156.608                              56   -0.38 6 89.1  72 
 ZSCP    ES   2    21210.724                              56    0.68 6 89.1  72 
 XIVZ    EP   3    212 1.223                              47    1.31 3  107   3 
 XIVZ    ES   2    21214.868                              47   -0.29 6  107   3 
 ZGXN    EP   0    212 9.315                              47    0.1510  170  82 
 ZGXN    ES   0    21231.043                              47   -0.3010  170  82 
 YAIP    EP   4    212 8.127                              47   -1.08 0  170  55 
 YAIP    ES   3    21232.179                              47    0.77 2  170  55 
                                                                                
 2020  1 1 0213 19.4 L  35.703  52.003 21.1  New  4 0.4                        1
 GAP=241        0.48       8.9     4.3  6.0 -0.6174E+01  0.1332E+02 -0.6852E+01E
 Action:ARG 22-06-19 14:49 OP:OBSP STATUS:               ID:20200101021320     I
 STAT SP IPHASW D HRMM SECON CODA AMPLIT PERI AZIMU VELO AIN AR TRES W  DIS CAZ7
 SRWZ    EP   2    21327.827                             105    0.21 5 37.6   4 
 SRWZ    ES   3    21333.553                             105   -0.25 3 37.6   4 
 YXLK    EP   2    21336.379                              62   -0.53 5 96.2  19 
 YXLK    ES   2    21350.190                              62    0.13 5 96.2  19 
 EVSP    EP   3    21336.344                              62   -0.59 2 96.4 313 
 EVSP    ES   0    21350.153                              62    0.0410 96.4 313 
 RVDG    EP   4    21338.046                              62   -1.01 0  111  46 
 RVDG    ES   4    21355.121                              62    1.30 0  111  46 
 YIBA    EP   4    21337.728                              62   -1.58 0  113   3 
 YIBA    ES   4    21354.803                              62    0.54 0  113   3 
 ZGXN    EP   3    21349.640                              62    1.34 2  174  71 
 ZGXN    ES   4    21412.997                              62    3.00 0  174  71 
                                                                                
 2020  1 1 0215  1.1 L  35.826  51.892 16.0  New  5 0.4                        1
 GAP=255        0.46       6.0     2.5  3.0 -0.5012E+01  0.2724E+01  0.4390E+01E
 Action:ARG 22-06-19 14:49 OP:OBSP STATUS:               ID:20200101021500     I
 STAT SP IPHASW D HRMM SECON CODA AMPLIT PERI AZIMU VELO AIN AR TRES W  DIS CAZ7
 SRWZ    EP   4    215 8.357                             115    0.96 0 27.1  29 
 SRWZ    ES   1    21512.074                             115   -0.01 8 27.1  29 
 TVCN    EP   4    21514.225                              99    1.81 0 55.2  30 
 TVCN    ES   4    21520.151                              99   -0.71 0 55.2  30 
 EVSP    EP   2    21516.563                              64    0.06 5 79.8 310 
 EVSP    ES   0    21528.014                              64   -0.0110 79.8 310 
 YXLK    EP   2    21518.130                              64    0.30 5 87.7  28 
 YXLK    ES   1    21530.278                              64   -0.05 7 87.7  28 
 RVDG    EP   3    21519.627                              53   -1.54 2  110  55 
 RVDG    ES   3    21536.804                              53    0.62 2  110  55 
 XIVZ    EP   4    21524.762                              53    1.31 0  125   5 
 XIVZ    ES   4    21537.708                              53   -2.46 0  125   5 
 YAIP    EP   3    21532.594                              53    0.24 2  186  51 
 YAIP    ES   4    21556.639                              53    0.87 0  186  51 
                                                                                
 2020  1 1 0216 40.2 L  35.947  52.053 12.8  New  8 0.4                        1
 GAP=271        0.64       3.1     4.1  2.3  0.2879E+01 -0.2667E+01  0.1046E+01E
 Action:ARG 22-06-19 14:49 OP:OBSP STATUS:               ID:20200101021640     I
 STAT SP IPHASW D HRMM SECON CODA AMPLIT PERI AZIMU VELO AIN AR TRES W  DIS CAZ7
 SRWZ    EP   2    21644.302                             136    0.70 5 10.5 351 
 SRWZ    ES   1    21645.868                             136   -0.26 7 10.5 351 
 TVCN    EP   2    21648.613                              99    0.58 5 36.8  21 
 TVCN    ES   1    21653.613                              99   -0.26 7 36.8  21 
 YXLK    EP   3    21653.168                              93   -0.85 2 69.3  23 
 YXLK    ES   0    217 4.440                              93    0.0810 69.3  23 
 ZSCP    EP   4    21653.878                              64   -2.44 0 82.6  67 
 ZSCP    ES   4    217 6.975                              64   -1.40 0 82.6  67 
 YIBA    EP   4    21658.477                              64    1.72 0 85.2   1 
 YIBA    ES   0    217 9.245                              64    0.1010 85.2   1 
 RVDG    EP   1    21657.693                              64    0.10 7 90.3  57 
 RVDG    ES   1    21710.794                              64    0.18 7 90.3  57 
 XIVZ    EP   1    217 1.087                              53    0.26 7  111 359 
 XIVZ    ES   2    21715.644                              53   -0.63 5  111 359 
 ZGXN    EP   2    217 7.515                              53   -0.84 4  163  80 
 ZGXN    ES   2    21729.750                              53    0.31 4  163  80 
 YAIP    EP   1    217 8.215                              53   -0.67 6  166  52 
 YAIP    ES   3    21731.075                              53    0.69 2  166  52 
                                                                                
 2020  1 1 0218 19.8 L  35.960  52.139 15.3  New  6 0.4                        1
 GAP=234        0.53       6.2     7.5  5.5  0.3795E+02 -0.3812E+02 -0.2859E+02E
 Action:ARG 22-06-19 14:49 OP:OBSP STATUS:               ID:20200101021820     I
 STAT SP IPHASW D HRMM SECON CODA AMPLIT PERI AZIMU VELO AIN AR TRES W  DIS CAZ7
 SRWZ    EP   0    21823.823                             136    0.0310 12.9 314 
 SRWZ    ES   2    21826.596                             136   -0.20 5 12.9 314 
 RVDG    EP   2    21835.459                              64   -0.29 5 83.1  55 
 RVDG    ES   4    21850.038                              64    2.31 0 83.1  55 
 YIBA    EP   1    21836.222                              64    0.31 7 84.0 356 
 YIBA    ES   1    21848.166                              64    0.16 7 84.0 356 
 XIVZ    EP   3    21840.796                              53    0.83 2  110 355 
 XIVZ    ES   2    21854.245                              53   -0.86 5  110 355 
 ZGXN    EP   1    21846.371                              53   -0.10 6  155  80 
 ZGXN    ES   3    219 7.714                              53    1.22 2  155  80 
 YAIP    EP   1    21846.993                              53   -0.16 6  159  51 
 YAIP    ES   0    219 7.704                              53    0.03 8  159  51 
                                                                                
