 2020  1 1 0043 20.6 L  35.957  52.064 11.5  New  6 0.3                        1
 GAP=216        0.46       4.3     1.7  5.0 -0.5082E+00  0.6941E+00  0.6429E+01E
 Action:ARG 22-06-18 16:58 OP:OBSP STATUS:               ID:20200101004320     I
 STAT SP IPHASW D HRMM SECON CODA AMPLIT PERI AZIMU VELO AIN AR TRES W  DIS CAZ7
 TVCN    EP   4    04329.246                              95    1.15 0 35.4  20 
 TVCN    ES   2    04333.638                              95   -0.10 5 35.4  20 
 YXLK    EP   4    04335.758                              92    1.66 0 67.9  23 
 YXLK    ES   4    04345.855                              92    1.61 0 67.9  23 
 ZSCP    EP   4    04337.455                              64    0.91 0 81.3  68 
 ZSCP    ES   1    04348.625                              64    0.10 8 81.3  68 
 EVSP    EP   4    04335.725                              64   -1.43 0 84.9 296 
 EVSP    ES   0    04349.546                              64   -0.0410 84.9 296 
 XIVZ    EP   3    04342.002                              53    0.83 2  110 358 
 XIVZ    ES   1    04356.777                              53    0.15 7  110 358 
 ZGXN    EP   3    04349.002                              53    0.33 2  161  80 
 ZGXN    ES   4    04411.717                              53    1.97 0  161  80 
 YAIP    EP   4    04347.493                              53   -1.68 0  165  52 
 YAIP    ES   2    044 9.883                              53   -0.74 4  165  52 
                                                                                
 2020  1 1 0044 59.5 L  35.898  51.730  5.4  New  9 0.4                        1
 GAP=293        0.59       4.5     7.7  3.5  0.2070E+02 -0.7725E+00 -0.2714E+01E
 Action:ARG 22-06-18 16:58 OP:OBSP STATUS:               ID:20200101004500     I
 STAT SP IPHASW D HRMM SECON CODA AMPLIT PERI AZIMU VELO AIN AR TRES W  DIS CAZ7
 SRWZ    EP   2    045 5.537                              93   -0.72 5 31.8  60 
 SRWZ    ES   4    045 9.064                              93   -2.26 0 31.8  60 
 TVCN    EP   2    04511.925                              92    0.40 5 58.1  47 
 TVCN    ES   3    04520.922                              92    0.38 3 58.1  47 
 YXLK    EP   0    04517.119                              68   -0.2010 89.2  39 
 YXLK    ES   4    04528.878                              68   -1.81 0 89.2  39 
 YIBA    EP   1    04518.916                              56    0.40 7 95.7  18 
 YIBA    ES   2    04532.903                              56    0.13 5 95.7  18 
 ZSCP    EP   3    04520.299                              47   -0.81 2  112  70 
 ZSCP    ES   4    04535.543                              47   -1.77 0  112  70 
 RVDG    EP   0    04522.257                              47    0.21 9  118  62 
 RVDG    ES   4    04540.471                              47    1.51 0  118  62 
 XIVZ    EP   4    04520.649                              47   -1.64 0  120  13 
 XIVZ    ES   0    04539.280                              47   -0.10 9  120  13 
 ZGXN    EP   2    04532.581                              47   -0.35 4  192  80 
 ZGXN    ES   1    04558.498                              47    0.49 6  192  80 
 YAIP    EP   0    04533.010                              47   -0.04 7  193  56 
 YAIP    ES   2    04557.349                              47   -0.86 4  193  56 
                                                                                
 2020  1 1 0046 40.0 L  36.140  51.957  6.3  New  8 0.4                        1
 GAP=137        0.53       2.4     2.0  3.3  0.1499E+01 -0.1487E+01 -0.4671E+01E
 Action:ARG 22-06-18 16:58 OP:OBSP STATUS:               ID:20200101004640     I
 STAT SP IPHASW D HRMM SECON CODA AMPLIT PERI AZIMU VELO AIN AR TRES W  DIS CAZ7
 SRWZ    EP   0    04643.106                             109   -0.0110 13.1 148 
 SRWZ    ES   4    04647.390                             109    1.96 0 13.1 148 
 YXLK    EP   4    04650.408                              93   -1.10 0 55.4  40 
 YXLK    ES   4    047 1.760                              93    1.64 0 55.4  40 
 YIBA    EP   0    04653.076                              68   -0.1510 64.6   9 
 YIBA    ES   4    047 1.788                              68   -1.33 0 64.6   9 
 EVSP    EP   4    04654.847                              68    0.84 0 68.9 284 
 EVSP    ES   1    047 4.553                              68    0.06 7 68.9 284 
 ZSCP    EP   3    04656.233                              68   -0.85 2 85.5  83 
 ZSCP    ES   4    047 8.640                              68   -1.24 0 85.5  83 
 RVDG    EP   1    04658.066                              68    0.40 7 88.6  71 
 RVDG    ES   4    047 9.771                              68   -1.13 0 88.6  71 
 XIVZ    EP   0    04658.047                              68    0.1010 90.2   4 
 XIVZ    ES   4    04713.232                              68    1.84 0 90.2   4 
 YAIP    EP   2    047 7.960                              47   -0.82 4  161  60 
 YAIP    ES   1    04730.446                              47    0.10 6  161  60 
 ZGXN    EP   3    047 8.695                              47   -1.19 2  169  88 
 ZGXN    ES   1    04732.311                              47    0.03 6  169  88 
                                                                                
 2020  1 1 0048 19.7 L  36.196  52.243 12.7  New  3 0.3                        1
 GAP=290        0.48       4.4     9.9  4.8 -0.1175E+02  0.7846E+01  0.3320E+00E
 Action:ARG 22-06-18 16:58 OP:OBSP STATUS:               ID:20200101004820     I
 STAT SP IPHASW D HRMM SECON CODA AMPLIT PERI AZIMU VELO AIN AR TRES W  DIS CAZ7
 TVCN    EP   4    04821.073                             145   -1.66 0 7.72 330 
 TVCN    ES   4    04825.700                             145    0.70 0 7.72 330 
 YIBA    EP   1    04831.950                              94    0.22 7 59.7 345 
 YIBA    ES   1    04840.621                              94   -0.13 7 59.7 345 
 XIVZ    EP   2    04835.785                              64   -0.59 5 86.0 347 
 XIVZ    ES   1    04849.026                              64    0.15 7 86.0 347 
 EVSP    EP   3    04837.857                              64    0.31 2 93.1 277 
 EVSP    ES   3    04850.766                              64   -0.16 2 93.1 277 
                                                                                
 2020  1 1 0049 59.9 L  36.192  52.065 11.7  New  8 0.4                        1
 GAP= 99        0.57       1.7     2.7  3.5  0.1223E+01 -0.4222E+01 -0.2621E+01E
 Action:ARG 22-06-18 16:58 OP:OBSP STATUS:               ID:20200101005000     I
 STAT SP IPHASW D HRMM SECON CODA AMPLIT PERI AZIMU VELO AIN AR TRES W  DIS CAZ7
 TVCN    EP   2    050 3.072                             123   -0.58 5 14.1  60 
 TVCN    ES   4    050 5.242                             123   -1.24 0 14.1  60 
 SRWZ    EP   4    050 2.523                             116   -1.59 0 17.0 189 
 SRWZ    ES   1    050 7.128                             116   -0.16 7 17.0 189 
 YXLK    EP   1    050 9.491                              94    0.32 7 44.9  36 
 YXLK    ES   4    05017.744                              94    1.62 0 44.9  36 
 YIBA    EP   1    05011.808                              93    0.20 7 58.1   0 
 YIBA    ES   0    05020.249                              93   -0.1410 58.1   0 
 ZSCP    EP   4    05012.650                              92   -2.15 0 75.3  87 
 ZSCP    ES   0    05026.079                              92    0.1110 75.3  87 
 EVSP    EP   3    05016.049                              92    0.90 2 77.2 278 
 EVSP    ES   4    05029.194                              92    2.60 0 77.2 278 
 YAIP    EP   0    05026.418                              53    0.12 8  150  60 
 YAIP    ES   1    05045.590                              53   -0.51 6  150  60 
 ZGXN    EP   3    05028.479                              53    0.87 2  159  90 
 ZGXN    ES   4    05047.188                              53   -1.21 0  159  90 
                                                                                
 2020  1 1 0051 40.0 L  36.270  51.832  7.7  New  6 0.3                        1
 GAP=180        0.54       4.2     1.5  5.9 -0.3009E+01 -0.4421E+01  0.1439E+02E
 Action:ARG 22-06-18 16:58 OP:OBSP STATUS:               ID:20200101005140     I
 STAT SP IPHASW D HRMM SECON CODA AMPLIT PERI AZIMU VELO AIN AR TRES W  DIS CAZ7
 SRWZ    EP   4    05145.362                              99   -1.32 0 31.3 144 
 SRWZ    ES   4    05153.169                              99    1.47 0 31.3 144 
 TVCN    EP   4    05145.901                              98   -1.14 0 33.1  92 
 TVCN    ES   4    05154.108                              98    1.76 0 33.1  92 
 YXLK    EP   0    05151.331                              68    0.1110 54.7  59 
 YXLK    ES   0    05159.371                              68   -0.2810 54.7  59 
 EVSP    EP   4    05153.557                              68    2.16 0 55.6 272 
 EVSP    ES   0    05159.897                              68   -0.0710 55.6 272 
 XIVZ    EP   1    05155.742                              68    0.29 7 77.5  13 
 XIVZ    ES   4    052 5.557                              68   -1.51 0 77.5  13 
 ZSCP    EP   4    05159.995                              56    1.19 0 96.2  92 
 ZSCP    ES   0    05212.931                              56    0.0110 96.2  92 
 RVDG    EP   2    05158.143                              56   -0.68 5 96.3  82 
 RVDG    ES   1    05213.272                              56    0.32 7 96.3  82 
 YAIP    EP   1    052 9.180                              47    0.13 6  165  66 
 YAIP    ES   1    05230.892                              47    0.04 6  165  66 
                                                                                
 2020  1 1 0053 19.7 L  35.927  52.120  6.0  New  4 0.3                        1
 GAP=275        0.57       4.5     4.4  4.4  0.1040E+02 -0.1330E+02 -0.5222E+01E
 Action:ARG 22-06-18 16:58 OP:OBSP STATUS:               ID:20200101005320     I
 STAT SP IPHASW D HRMM SECON CODA AMPLIT PERI AZIMU VELO AIN AR TRES W  DIS CAZ7
 SRWZ    EP   0    05323.179                             105    0.0610 14.8 329 
 SRWZ    ES   1    05325.448                             105   -0.22 7 14.8 329 
 RVDG    EP   0    05337.146                              68    0.1510 86.6  53 
 RVDG    ES   2    05349.399                              68   -0.56 5 86.6  53 
 YIBA    EP   2    05337.730                              68    0.54 5 87.6 357 
 YIBA    ES   1    05350.537                              68    0.24 7 87.6 357 
 XIVZ    EP   0    05341.306                              47   -0.24 9  114 356 
 XIVZ    ES   4    05355.969                              47   -1.96 0  114 356 
                                                                                
 2020  1 1 0055  0.3 L  35.995  52.102 11.1  New  4 0.3                        1
 GAP=211        0.49       4.9     2.3  5.7 -0.5617E+01 -0.7526E+01  0.1452E+02E
 Action:ARG 22-06-18 16:58 OP:OBSP STATUS:               ID:20200101005500     I
 STAT SP IPHASW D HRMM SECON CODA AMPLIT PERI AZIMU VELO AIN AR TRES W  DIS CAZ7
 YXLK    EP   3    05513.838                              91    0.95 3 62.7  21 
 YXLK    ES   2    05521.872                              91   -0.43 5 62.7  21 
 EVSP    EP   0    05517.191                              64    0.0110 86.3 292 
 EVSP    ES   1    05529.787                              64   -0.02 7 86.3 292 
 ZGXN    EP   4    05525.430                              53   -2.46 0  157  82 
 ZGXN    ES   1    05548.326                              53   -0.23 6  157  82 
 YAIP    EP   4    05526.315                              53   -1.89 0  159  52 
 YAIP    ES   0    05549.306                              53    0.20 8  159  52 
                                                                                
 2020  1 1 0056 39.8 L  36.342  52.242 11.2  New  7 0.5                        1
 GAP=130        0.63       2.8     4.4  4.1  0.5980E+01 -0.1338E+02 -0.8149E+01E
 Action:ARG 22-06-18 16:58 OP:OBSP STATUS:               ID:20200101005640     I
 STAT SP IPHASW D HRMM SECON CODA AMPLIT PERI AZIMU VELO AIN AR TRES W  DIS CAZ7
 TVCN    EP   1    05643.468                             132    0.50 7 10.2 201 
 TVCN    ES   2    05644.759                             132   -0.54 5 10.2 201 
 YXLK    EP   2    05644.408                             104   -0.57 5 22.4  27 
 YXLK    ES   4    05650.239                             104    1.42 0 22.4  27 
 SRWZ    EP   4    05649.373                              94    1.49 0 38.2 209 
 SRWZ    ES   3    05653.102                              94   -0.80 2 38.2 209 
 YIBA    EP   3    05650.168                              93    1.17 2 44.3 340 
 YIBA    ES   4    05654.959                              93   -0.91 0 44.3 340 
 XIVZ    EP   0    05653.837                              91    0.0110 70.4 344 
 XIVZ    ES   1    057 4.190                              91   -0.12 7 70.4 344 
 EVSP    EP   4    057 0.005                              64    2.29 0 92.5 267 
 EVSP    ES   4    05710.197                              64   -0.92 0 92.5 267 
 YAIP    EP   3    057 2.277                              53   -0.81 2  128  63 
 YAIP    ES   0    05720.498                              53   -0.02 9  128  63 
 ZGXN    EP   4    057 4.342                              53   -1.07 0  144  96 
 ZGXN    ES   2    05725.035                              53    0.45 4  144  96 
                                                                                
 2020  1 1 0058 19.8 L  35.692  52.497  7.8  New  7 0.4                        1
 GAP=248        0.56       4.6     2.6  4.3  0.3166E+01  0.4693E+00 -0.3722E+01E
 Action:ARG 22-06-18 16:58 OP:OBSP STATUS:               ID:20200101005820     I
 STAT SP IPHASW D HRMM SECON CODA AMPLIT PERI AZIMU VELO AIN AR TRES W  DIS CAZ7
 SRWZ    EP   4    05829.728                              68   -1.69 0 56.9 313 
 SRWZ    ES   1    05839.868                              68   -0.28 8 56.9 313 
 ZSCP    EP   4    05832.515                              68   -1.33 0 70.0  31 
 ZSCP    ES   3    05843.778                              68   -0.63 3 70.0  31 
 RVDG    EP   0    05836.856                              68    0.1510 85.5  25 
 RVDG    ES   1    05849.337                              68   -0.07 7 85.5  25 
 YXLK    EP   3    05838.910                              56    0.88 2 92.9 352 
 YXLK    ES   2    05852.296                              56    0.56 5 92.9 352 
 YIBA    EP   1    05841.809                              47   -0.43 7  120 341 
 YIBA    ES   1    05859.362                              47    0.27 7  120 341 
 EVSP    EP   4    05843.027                              47   -1.18 0  133 300 
 EVSP    ES   4    059 3.456                              47    0.92 0  133 300 
 ZGXN    EP   3    05845.098                              47    1.01 2  133  65 
 ZGXN    ES   1    059 2.134                              47   -0.20 7  133  65 
 XIVZ    EP   2    05846.685                              47    0.61 4  146 343 
 XIVZ    ES   0    059 5.690                              47   -0.12 9  146 343 
                                                                                
 2020  1 1 0059 59.9 L  35.868  51.683  7.4  New  8 0.3                        1
 GAP=239        0.41       3.5     1.8  2.3 -0.1085E+01  0.1711E+01 -0.2055E+01E
 Action:ARG 22-06-18 16:58 OP:OBSP STATUS:               ID:20200101010000     I
 STAT SP IPHASW D HRMM SECON CODA AMPLIT PERI AZIMU VELO AIN AR TRES W  DIS CAZ7
 SRWZ    EP   4    1 0 9.143                              97    1.40 0 37.1  59 
 SRWZ    ES   0    1 013.644                              97    0.0210 37.1  59 
 EVSP    EP   0    1 012.648                              68   -0.0510 63.0 318 
 EVSP    ES   4    1 019.706                              68   -2.59 0 63.0 318 
 TVCN    EP   0    1 012.709                              68   -0.0810 63.5  47 
 TVCN    ES   3    1 023.436                              68    0.97 2 63.5  47 
 YXLK    EP   0    1 018.385                              56   -0.0810 94.4  40 
 YXLK    ES   3    1 031.525                              56   -0.87 2 94.4  40 
 YIBA    EP   0    1 019.467                              56    0.04 9  100  20 
 YIBA    ES   3    1 033.117                              56   -0.97 2  100  20 
 RVDG    EP   1    1 022.963                              47    0.02 7  123  62 
 RVDG    ES   4    1 039.360                              47   -0.88 0  123  62 
 XIVZ    EP   0    1 023.246                              47    0.23 9  124  14 
 XIVZ    ES   0    1 040.387                              47    0.02 9  124  14 
 ZGXN    EP   4    1 032.618                              47   -1.13 0  197  79 
 ZGXN    ES   2    1 059.056                              47   -0.09 4  197  79 
                                                                                
 2020  1 1 0101 40.1 L  36.223  52.043 17.3  New  6 0.3                        1
 GAP=177        0.50       4.6     5.9  3.4 -0.2352E+01 -0.1417E+02 -0.4859E+01E
 Action:ARG 22-06-18 16:58 OP:OBSP STATUS:               ID:20200101010140     I
 STAT SP IPHASW D HRMM SECON CODA AMPLIT PERI AZIMU VELO AIN AR TRES W  DIS CAZ7
 TVCN    EP   0    1 144.563                             137   -0.0410 14.7  75 
 TVCN    ES   4    1 147.157                             137   -0.83 0 14.7  75 
 SRWZ    EP   2    1 145.548                             126    0.17 5 20.2 182 
 SRWZ    ES   4    1 146.473                             126   -2.87 0 20.2 182 
 ZSCP    EP   2    1 154.415                              64   -0.50 5 77.2  89 
 ZSCP    ES   2    1 2 5.612                              64   -0.42 5 77.2  89 
 RVDG    EP   3    1 156.213                              64    1.05 2 78.7  76 
 RVDG    ES   0    1 2 6.669                              64    0.2010 78.7  76 
 XIVZ    EP   4    1 154.252                              64   -1.26 0 80.8 359 
 XIVZ    ES   3    1 2 6.995                              64   -0.08 2 80.8 359 
 YAIP    EP   4    1 2 4.886                              53   -0.99 0  150  61 
 YAIP    ES   1    1 225.124                              53   -0.09 6  150  61 
                                                                                
