 2020  1 1 0146 40.0 L  36.089  52.355 13.6  New  4 0.3                        1
 GAP=187        0.53       2.5     2.4  3.7 -0.2643E+01 -0.5120E+01  0.1548E+00E
 Action:ARG 22-06-18 16:58 OP:OBSP STATUS:               ID:20200101014640     I
 STAT SP IPHASW D HRMM SECON CODA AMPLIT PERI AZIMU VELO AIN AR TRES W  DIS CAZ7
 SRWZ    EP   0    14646.661                             106    0.1710 29.3 260 
 SRWZ    ES   1    14651.261                             106   -0.10 7 29.3 260 
 YXLK    EP   2    14649.615                              97   -0.26 5 47.9   0 
 YXLK    ES   1    14657.322                              97    0.05 7 47.9   0 
 ZSCP    EP   1    14650.123                              97   -0.42 7 51.6  72 
 ZSCP    ES   2    14659.083                              97    0.64 5 51.6  72 
 RVDG    EP   4    14650.708                              95   -1.18 0 58.9  55 
 RVDG    ES   4    14658.524                              95   -2.28 0 58.9  55 
 XIVZ    EP   4    14657.559                              53   -1.31 0  100 343 
 XIVZ    ES   4    14711.674                              53   -1.33 0  100 343 
 ZGXN    EP   4    147 4.583                              53    0.83 0  133  85 
 ZGXN    ES   4    14719.351                              53   -2.21 0  133  85 
 YAIP    EP   0    147 3.960                              53   -0.05 9  135  50 
 YAIP    ES   1    14722.103                              53    0.10 6  135  50 
                                                                                
 2020  1 1 0148 20.0 L  36.184  51.732 10.0  New  5 0.3                        1
 GAP=298        0.52       3.2     4.4  5.2  0.4713E+01 -0.1243E+02 -0.4525E+00E
 Action:ARG 22-06-18 16:58 OP:OBSP STATUS:               ID:20200101014820     I
 STAT SP IPHASW D HRMM SECON CODA AMPLIT PERI AZIMU VELO AIN AR TRES W  DIS CAZ7
 TVCN    EP   2    14829.390                              68    0.54 5 42.9  79 
 TVCN    ES   1    14835.186                              68   -0.33 8 42.9  79 
 EVSP    EP   4    14827.676                              68   -2.13 0 48.0 284 
 EVSP    ES   4    14835.830                              68   -1.36 0 48.0 284 
 YIBA    EP   3    14833.943                              68    0.75 3 66.3  27 
 YIBA    ES   1    14843.309                              68    0.20 8 66.3  27 
 XIVZ    EP   0    14837.086                              56   -0.2710 89.1  17 
 XIVZ    ES   4    14851.337                              56    0.94 0 89.1  17 
 ZSCP    EP   4    14838.153                              47   -1.83 0  105  87 
 ZSCP    ES   4    14856.193                              47    1.20 0  105  87 
 RVDG    EP   0    14840.240                              47    0.0210  107  77 
 RVDG    ES   0    14855.509                              47    0.1010  107  77 
 YAIP    EP   0    14850.638                              47    0.12 8  177  64 
 YAIP    ES   0    14913.383                              47   -0.05 8  177  64 
                                                                                
 2020  1 1 0149 59.5 L  35.831  51.987 10.0  New  5 0.2                        1
 GAP=309        0.38       3.9     9.0  7.6  0.6903E+01 -0.6198E+02 -0.4466E+01E
 Action:ARG 22-06-18 16:58 OP:OBSP STATUS:               ID:20200101015000     I
 STAT SP IPHASW D HRMM SECON CODA AMPLIT PERI AZIMU VELO AIN AR TRES W  DIS CAZ7
 SRWZ    EP   0    150 4.676                              68   -0.1210 23.7  11 
 SRWZ    ES   4    150 9.863                              68    1.07 0 23.7  11 
 TVCN    EP   4    150 8.520                              68   -1.32 0 50.9  22 
 TVCN    ES   4    15015.665                              68   -1.96 0 50.9  22 
 YXLK    EP   4    15017.080                              68    1.21 0 83.4  23 
 YXLK    ES   2    15028.435                              68    0.27 5 83.4  23 
 RVDG    EP   0    15019.209                              47    0.12 9  103  52 
 RVDG    ES   0    15033.787                              47   -0.02 9  103  52 
 XIVZ    EP   3    15023.041                              47    0.76 2  124   2 
 XIVZ    ES   3    15039.495                              47    0.10 2  124   2 
 ZGXN    EP   4    15030.877                              47    1.72 0  171  76 
 ZGXN    ES   4    15050.674                              47   -0.75 0  171  76 
 YAIP    EP   3    15029.753                              47   -0.57 2  179  50 
 YAIP    ES   1    15053.289                              47   -0.17 6  179  50 
                                                                                
 2020  1 1 0151 39.1 L  36.093  51.688 13.5  New  4 0.4                        1
 GAP=305        0.49      17.7    20.6 16.5  0.3358E+03 -0.2897E+03 -0.2731E+03E
 Action:ARG 22-06-18 16:58 OP:OBSP STATUS:               ID:20200101015140     I
 STAT SP IPHASW D HRMM SECON CODA AMPLIT PERI AZIMU VELO AIN AR TRES W  DIS CAZ7
 YXLK    EP   0    15154.142                              64   -0.0110 76.6  51 
 YXLK    ES   4    152 2.611                              64   -2.80 0 76.6  51 
 XIVZ    EP   4    15157.173                              53   -0.78 0 99.8  17 
 XIVZ    ES   0    15212.062                              53   -0.00 9 99.8  17 
 RVDG    EP   3    152 1.139                              53    1.20 2  113  73 
 RVDG    ES   3    15214.568                              53   -0.97 2  113  73 
 YAIP    EP   2    15210.073                              53   -0.40 4  185  62 
 YAIP    ES   1    15234.152                              53    0.17 6  185  62 
                                                                                
 2020  1 1 0153 19.6 L  35.876  52.182 10.6  New  4 0.2                        1
 GAP=276        0.38       6.5     4.1  6.2 -0.1328E+02 -0.1977E+02  0.2349E+02E
 Action:ARG 22-06-18 16:58 OP:OBSP STATUS:               ID:20200101015320     I
 STAT SP IPHASW D HRMM SECON CODA AMPLIT PERI AZIMU VELO AIN AR TRES W  DIS CAZ7
 SRWZ    EP   4    15326.814                             100    2.07 0 22.6 324 
 SRWZ    ES   3    15329.073                             100    0.46 3 22.6 324 
 YXLK    EP   1    15334.134                              91    0.01 8 73.3  12 
 YXLK    ES   2    15344.759                              91   -0.26 5 73.3  12 
 RVDG    EP   3    15335.788                              64   -0.62 2 85.9  48 
 RVDG    ES   0    15349.105                              64    0.0910 85.9  48 
 YIBA    EP   0    15337.695                              64   -0.0210 93.8 354 
 YIBA    ES   4    15352.556                              64    1.25 0 93.8 354 
                                                                                
 2020  1 1 0155  0.3 L  35.759  52.138 11.7  New  9 0.4                        1
 GAP=233        0.54       2.9     3.1  3.2  0.1927E+01 -0.4722E+01  0.1891E+01E
 Action:ARG 22-06-18 16:58 OP:OBSP STATUS:               ID:20200101015500     I
 STAT SP IPHASW D HRMM SECON CODA AMPLIT PERI AZIMU VELO AIN AR TRES W  DIS CAZ7
 SRWZ    EP   1    155 6.914                              97   -0.43 7 32.6 344 
 SRWZ    ES   4    15511.118                              97   -1.47 0 32.6 344 
 TVCN    EP   0    15511.759                              93    0.2010 55.5   6 
 TVCN    ES   1    15519.932                              93   -0.04 7 55.5   6 
 YXLK    EP   0    15517.338                              64    0.1210 86.8  13 
 YXLK    ES   2    15529.450                              64   -0.42 5 86.8  13 
 RVDG    EP   4    15517.909                              64   -1.13 0 97.8  44 
 RVDG    ES   1    15532.943                              64   -0.13 7 97.8  44 
 EVSP    EP   2    15519.686                              53    0.01 5  102 305 
 EVSP    ES   3    15532.597                              53   -1.59 2  102 305 
 YIBA    EP   2    15520.846                              53    0.52 5  106 357 
 YIBA    ES   4    15536.468                              53    1.16 0  106 357 
 XIVZ    EP   4    15522.813                              53   -1.38 0  133 356 
 XIVZ    ES   1    15542.461                              53    0.38 6  133 356 
 ZGXN    EP   0    15528.168                              53   -0.07 8  160  72 
 ZGXN    ES   0    15549.167                              53    0.01 8  160  72 
 YAIP    EP   0    15530.365                              53    0.04 8  174  45 
 YAIP    ES   2    15552.467                              53   -0.36 4  174  45 
                                                                                
 2020  1 1 0156 40.0 L  36.003  52.170 11.3  New  8 0.5                        1
 GAP=208        0.58       3.8     2.6  3.5  0.4172E+01  0.3282E+01  0.6465E+00E
 Action:ARG 22-06-18 16:58 OP:OBSP STATUS:               ID:20200101015640     I
 STAT SP IPHASW D HRMM SECON CODA AMPLIT PERI AZIMU VELO AIN AR TRES W  DIS CAZ7
 SRWZ    EP   3    15644.508                             124    1.04 2 12.8 289 
 SRWZ    ES   4    15648.973                             124    2.86 0 12.8 289 
 TVCN    EP   4    15647.984                              98    1.83 0 28.2   6 
 TVCN    ES   4    15652.953                              98    2.16 0 28.2   6 
 YXLK    EP   4    15653.945                              92    1.95 0 59.9  16 
 YXLK    ES   3    15659.815                              92   -1.21 2 59.9  16 
 ZSCP    EP   4    15652.751                              91   -1.21 0 70.5  69 
 ZSCP    ES   0    157 4.355                              91   -0.1210 70.5  69 
 YIBA    EP   4    15654.409                              91   -1.23 0 79.6 353 
 YIBA    ES   1    157 7.640                              91    0.23 7 79.6 353 
 EVSP    EP   4    15656.197                              64   -1.48 0 91.7 291 
 EVSP    ES   2    15710.641                              64   -0.33 5 91.7 291 
 XIVZ    EP   2    15659.285                              53   -0.65 5  106 353 
 XIVZ    ES   0    15714.931                              53    0.01 9  106 353 
 ZGXN    EP   2    157 7.108                              53    0.54 4  151  82 
 ZGXN    ES   4    15728.665                              53    2.13 0  151  82 
 YAIP    EP   3    157 7.724                              53    0.72 2  154  51 
 YAIP    ES   1    15727.519                              53    0.22 6  154  51 
                                                                                
 2020  1 1 0158 20.5 L  35.993  51.957 13.6  New  4 0.3                        1
 GAP=308        0.59       8.3     8.4  5.4  0.3850E+02 -0.2282E+02 -0.2669E+02E
 Action:ARG 22-06-18 16:58 OP:OBSP STATUS:               ID:20200101015820     I
 STAT SP IPHASW D HRMM SECON CODA AMPLIT PERI AZIMU VELO AIN AR TRES W  DIS CAZ7
 SRWZ    EP   2    15823.842                             144    0.09 6 8.78  53 
 SRWZ    ES   4    15824.250                             144   -1.96 0 8.78  53 
 YIBA    EP   1    15836.367                              64    0.1710 80.8   7 
 YIBA    ES   2    15847.521                              64   -0.46 6 80.8   7 
 XIVZ    EP   1    15840.481                              53    0.22 9  106   3 
 XIVZ    ES   4    15856.754                              53    1.66 0  106   3 
 YAIP    EP   0    15849.200                              53   -0.4210  170  55 
 YAIP    ES   1    15911.892                              53    0.42 7  170  55 
                                                                                
 2020  1 1 0159 59.4 L  36.175  52.199  0.5  New  6 0.5                        1
 GAP=194        0.65       3.3     3.6 20.5  0.1907E+01  0.5174E+02  0.6985E+01E
 Action:ARG 22-06-18 16:58 OP:OBSP STATUS:               ID:20200101020000     I
 STAT SP IPHASW D HRMM SECON CODA AMPLIT PERI AZIMU VELO AIN AR TRES W  DIS CAZ7
 YIBA    EP   4    2 013.733                              64    1.37 0 61.2 349 
 YIBA    ES   1    2 021.810                              64   -0.27 7 61.2 349 
 ZSCP    EP   3    2 012.165                              64   -0.65 2 63.4  84 
 ZSCP    ES   2    2 022.344                              64   -0.53 5 63.4  84 
 RVDG    EP   3    2 014.812                              64    1.31 2 66.9  69 
 RVDG    ES   4    2 025.248                              64    1.18 0 66.9  69 
 XIVZ    EP   4    2 018.674                              56    1.23 0 87.6 350 
 XIVZ    ES   2    2 031.510                              56    0.54 5 87.6 350 
 EVSP    EP   4    2 019.152                              56    1.35 0 89.5 278 
 EVSP    ES   1    2 031.506                              56   -0.09 7 89.5 278 
 YAIP    EP   1    2 026.432                              41    0.41 6  141  57 
 YAIP    ES   4    2 044.306                              41   -1.69 0  141  57 
                                                                                
 2020  1 1 0201 39.8 L  36.038  52.117  3.6  New  3 0.2                        1
 GAP=255        0.38       9.1    10.6  3.1 -0.9244E+02  0.2008E+01 -0.7117E+01E
 Action:ARG 22-06-18 16:58 OP:OBSP STATUS:               ID:20200101020140     I
 STAT SP IPHASW D HRMM SECON CODA AMPLIT PERI AZIMU VELO AIN AR TRES W  DIS CAZ7
 SRWZ    EP   1    2 141.733                             116    0.08 8 7.34 272 
 SRWZ    ES   3    2 142.624                             116   -0.39 3 7.34 272 
 TVCN    EP   3    2 144.654                              64   -0.69 3 25.4  17 
 TVCN    ES   1    2 149.510                              64    0.04 8 25.4  17 
 EVSP    EP   0    2 157.193                              56    0.0010 85.9 289 
 EVSP    ES   4    2 2 8.746                              56   -1.46 0 85.9 289 
 ZGXN    EP   4    2 2 5.765                              41   -2.35 0  155  83 
 ZGXN    ES   4    2 227.392                              41   -1.92 0  155  83 
                                                                                
 2020  1 1 0203 19.5 L  36.099  52.050 19.4  New  5 0.2                        1
 GAP=167        0.44       3.5     5.1  4.1 -0.1229E+02  0.1037E+02 -0.1282E+02E
 Action:ARG 22-06-18 16:58 OP:OBSP STATUS:               ID:20200101020320     I
 STAT SP IPHASW D HRMM SECON CODA AMPLIT PERI AZIMU VELO AIN AR TRES W  DIS CAZ7
 SRWZ    EP   0    2 323.547                             158   -0.0110 6.55 192 
 SRWZ    ES   0    2 326.624                             158    0.0510 6.55 192 
 TVCN    EP   4    2 324.080                             120   -1.21 0 22.1  38 
 TVCN    ES   2    2 329.715                             120    0.12 5 22.1  38 
 YXLK    EP   4    2 327.602                              93   -2.90 0 54.4  30 
 YXLK    ES   0    2 338.713                              93   -0.0110 54.4  30 
 YIBA    EP   0    2 332.712                              92   -0.1410 68.5   1 
 YIBA    ES   1    2 342.825                              92   -0.02 7 68.5   1 
 XIVZ    EP   3    2 336.173                              62   -0.80 2 94.6 359 
 XIVZ    ES   2    2 350.675                              62    0.62 5 94.6 359 
 YAIP    EP   4    2 345.301                              62   -0.79 0  157  57 
 YAIP    ES   4    2 4 8.229                              62    2.22 0  157  57 
                                                                                
 2020  1 1 0204 59.9 L  36.157  52.047 20.5  New  8 0.4                        1
 GAP= 97        0.60       2.2     1.9  2.4 -0.7439E+00 -0.2685E-01 -0.2187E+01E
 Action:ARG 22-06-18 16:58 OP:OBSP STATUS:               ID:20200101020500     I
 STAT SP IPHASW D HRMM SECON CODA AMPLIT PERI AZIMU VELO AIN AR TRES W  DIS CAZ7
 SRWZ    EP   2    2 5 3.781                             142   -0.82 5 12.9 185 
 SRWZ    ES   1    2 5 8.214                             142    0.09 7 12.9 185 
 TVCN    EP   4    2 5 4.054                             131   -1.09 0 17.7  51 
 TVCN    ES   1    2 5 9.295                             131    0.21 7 17.7  51 
 YXLK    EP   4    2 512.888                              97    2.89 0 49.1  34 
 YXLK    ES   0    2 517.580                              97    0.0010 49.1  34 
 YIBA    EP   1    2 511.797                              94   -0.36 7 62.0   2 
 YIBA    ES   4    2 522.538                              94    1.19 0 62.0   2 
 EVSP    EP   4    2 515.847                              93    1.32 0 76.3 281 
 EVSP    ES   0    2 525.657                              93    0.1510 76.3 281 
 ZSCP    EP   4    2 515.943                              93    1.25 0 77.3  84 
 ZSCP    ES   4    2 526.969                              93    1.19 0 77.3  84 
 RVDG    EP   4    2 512.906                              62   -2.26 0 80.4  71 
 RVDG    ES   3    2 527.534                              62    0.91 2 80.4  71 
 XIVZ    EP   3    2 517.519                              62    1.21 2 88.2 359 
 XIVZ    ES   1    2 528.470                              62   -0.14 7 88.2 359 
 YAIP    EP   4    2 527.507                              62    1.61 0  153  59 
 YAIP    ES   4    2 543.834                              62   -1.57 0  153  59 
 ZGXN    EP   4    2 529.107                              62    2.14 0  161  88 
 ZGXN    ES   0    2 547.319                              62    0.05 8  161  88 
                                                                                
 2020  1 1 0206 40.6 L  35.453  52.004 14.3  New  6 0.3                        1
 GAP=299        0.44       6.8    15.4  7.6  0.8119E+02 -0.5145E+02 -0.3035E+02E
 Action:ARG 22-06-18 16:58 OP:OBSP STATUS:               ID:20200101020640     I
 STAT SP IPHASW D HRMM SECON CODA AMPLIT PERI AZIMU VELO AIN AR TRES W  DIS CAZ7
 SRWZ    EP   4    2 654.323                              95    0.64 0 65.2   2 
 SRWZ    ES   3    2 7 3.797                              95    0.32 3 65.2   2 
 TVCN    EP   4    2 658.899                              64    0.95 0 90.8  11 
 TVCN    ES   3    2 710.044                              64   -0.90 3 90.8  11 
 ZSCP    EP   4    2 7 3.713                              53    1.65 0  118  43 
 ZSCP    ES   2    2 718.113                              53   -0.04 5  118  43 
 YXLK    EP   4    2 7 1.404                              53   -1.30 0  123  15 
 YXLK    ES   0    2 719.336                              53    0.0710  123  15 
 RVDG    EP   4    2 7 5.120                              53    1.13 0  131  37 
 RVDG    ES   4    2 720.578                              53   -0.95 0  131  37 
 ZGXN    EP   0    2 711.865                              53    0.10 8  184  63 
 ZGXN    ES   4    2 737.769                              53    2.64 0  184  63 
 YAIP    EP   2    2 714.580                              53   -0.60 4  208  41 
 YAIP    ES   4    2 740.563                              53   -0.54 0  208  41 
                                                                                
