 2020  1 1 0238 19.5 L  35.939  52.044 26.1  New  4 0.3                        1
 GAP=307        0.45       6.6     8.6 21.1  0.1202E+02 -0.9801E+02 -0.6506E+02E
 Action:ARG 22-06-16 12:10 OP:OBSP STATUS:               ID:20200101023820     I
 STAT SP IPHASW D HRMM SECON CODA AMPLIT PERI AZIMU VELO AIN AR TRES W  DIS CAZ7
 YXLK    EP   4    23831.218                              90   -1.66 0 70.5  23 
 YXLK    ES   2    23842.942                              90    0.03 5 70.5  23 
 ZSCP    EP   4    23833.847                              90   -0.98 0 83.8  67 
 ZSCP    ES   4    23848.455                              90    2.13 0 83.8  67 
 YIBA    EP   1    23835.030                              90   -0.16 8 86.3   2 
 YIBA    ES   3    23846.065                              90   -0.90 3 86.3   2 
 XIVZ    EP   0    23839.202                              90    0.1710  112 359 
 XIVZ    ES   4    23855.158                              90    1.48 0  112 359 
 YAIP    EP   1    23847.111                              90   -0.03 6  167  52 
 YAIP    ES   4    239 9.509                              90    1.64 0  167  52 
                                                                                
 2020  1 1 0239 59.8 L  36.129  52.239 10.0  New  5 0.2                        1
 GAP=163        0.43       7.9     2.6  5.1 -0.1509E+02  0.9777E+01 -0.3172E+02E
 Action:ARG 22-06-16 12:10 OP:OBSP STATUS:               ID:20200101024000     I
 STAT SP IPHASW D HRMM SECON CODA AMPLIT PERI AZIMU VELO AIN AR TRES W  DIS CAZ7
 SRWZ    EP   4    240 4.095                              68   -0.45 0 20.8 242 
 SRWZ    ES   3    240 8.317                              68    0.17 2 20.8 242 
 ZSCP    EP   0    24012.157                              68    0.2310 60.6  79 
 ZSCP    ES   1    24020.808                              68   -0.25 7 60.6  79 
 RVDG    EP   1    24012.799                              68   -0.05 7 65.6  63 
 RVDG    ES   1    24022.632                              68   -0.05 7 65.6  63 
 XIVZ    EP   1    24017.977                              56    0.15 7 93.2 348 
 XIVZ    ES   4    24033.803                              56    2.41 0 93.2 348 
 EVSP    EP   0    24017.808                              56   -0.1310 93.9 281 
 EVSP    ES   4    24030.234                              56   -1.35 0 93.9 281 
                                                                                
 2020  1 1 0241 39.8 L  36.248  52.414 16.7  New  6 0.3                        1
 GAP=180        0.52       5.1     2.4  3.4  0.8519E+01  0.6137E+01  0.1211E+02E
 Action:ARG 22-06-16 12:10 OP:OBSP STATUS:               ID:20200101024140     I
 STAT SP IPHASW D HRMM SECON CODA AMPLIT PERI AZIMU VELO AIN AR TRES W  DIS CAZ7
 YXLK    EP   0    24146.783                             113    0.0410 30.8 350 
 YXLK    ES   4    24153.377                             113    1.44 0 30.8 350 
 SRWZ    EP   4    24150.246                             106    1.69 0 41.1 236 
 SRWZ    ES   4    24154.413                             106   -0.69 0 41.1 236 
 ZSCP    EP   4    24150.369                             104    1.32 0 43.9  92 
 ZSCP    ES   0    24155.951                             104   -0.0210 43.9  92 
 RVDG    EP   0    24149.400                             103   -0.0310 45.9  70 
 RVDG    ES   3    24157.413                             103    0.78 2 45.9  70 
 XIVZ    EP   2    24155.626                              64   -0.44 5 85.5 336 
 XIVZ    ES   4    242 9.847                              64    1.59 0 85.5 336 
 EVSP    EP   4    242 0.861                              53    1.38 0  108 273 
 EVSP    ES   0    24214.374                              53    0.15 9  108 273 
 YAIP    EP   4    24159.984                              53   -1.30 0  120  55 
 YAIP    ES   4    24218.950                              53    1.57 0  120  55 
 ZGXN    EP   2    242 1.580                              53   -0.80 4  128  92 
 ZGXN    ES   1    24219.513                              53    0.21 7  128  92 
                                                                                
 2020  1 1 0243 19.9 L  35.626  52.144 13.2  New  6 0.3                        1
 GAP=281        0.52       6.3    20.9 20.6  0.4156E+02 -0.4070E+03 -0.5963E+02E
 Action:ARG 22-06-16 12:10 OP:OBSP STATUS:               ID:20200101024320     I
 STAT SP IPHASW D HRMM SECON CODA AMPLIT PERI AZIMU VELO AIN AR TRES W  DIS CAZ7
 SRWZ    EP   3    24328.592                              97   -0.99 3 47.1 348 
 SRWZ    ES   4    24338.506                              97    1.65 0 47.1 348 
 TVCN    EP   2    24334.379                              94    0.54 5 70.1   4 
 TVCN    ES   4    24345.496                              94    1.20 0 70.1   4 
 ZSCP    EP   4    24339.548                              64    1.41 0 95.8  45 
 ZSCP    ES   0    24351.990                              64    0.1710 95.8  45 
 RVDG    EP   0    24340.088                              53    0.0610  109  38 
 RVDG    ES   0    24354.928                              53   -0.2110  109  38 
 ZGXN    EP   0    24348.343                              53    0.05 8  165  67 
 ZGXN    ES   3    244 8.864                              53   -0.74 2  165  67 
 YAIP    EP   1    24350.788                              53   -0.45 6  185  42 
 YAIP    ES   0    24414.808                              53    0.06 8  185  42 
                                                                                
 2020  1 1 0245  0.4 L  36.098  52.121 14.8  New  7 0.4                        1
 GAP=199        0.41       3.1     2.8  3.1 -0.3121E+01  0.2806E+01 -0.4831E+01E
 Action:ARG 22-06-16 12:10 OP:OBSP STATUS:               ID:20200101024500     I
 STAT SP IPHASW D HRMM SECON CODA AMPLIT PERI AZIMU VELO AIN AR TRES W  DIS CAZ7
 TVCN    EP   2    245 5.187                             123   -0.06 5 19.0  22 
 TVCN    ES   4    245 7.000                             123   -1.87 0 19.0  22 
 YXLK    EP   2    24511.054                              99    0.08 5 51.5  24 
 YXLK    ES   4    24516.725                              99   -2.17 0 51.5  24 
 ZSCP    EP   2    24514.537                              64    0.01 5 71.8  78 
 ZSCP    ES   4    24522.398                              64   -2.72 0 71.8  78 
 RVDG    EP   4    24516.205                              64    0.84 0 76.7  65 
 RVDG    ES   4    24525.040                              64   -1.53 0 76.7  65 
 EVSP    EP   0    24516.680                              64    0.0610 84.3 285 
 EVSP    ES   3    24528.073                              64   -0.69 2 84.3 285 
 XIVZ    EP   4    24519.932                              53    1.54 0 95.1 355 
 XIVZ    ES   0    24531.886                              53    0.0210 95.1 355 
 YAIP    EP   3    24525.319                              53   -1.35 2  151  55 
 YAIP    ES   4    24544.802                              53   -1.56 0  151  55 
 ZGXN    EP   4    24525.496                              53   -1.61 0  154  86 
 ZGXN    ES   3    24547.539                              53    0.41 2  154  86 
                                                                                
 2020  1 1 0246 40.1 L  36.223  52.190 12.2  New  9 0.4                        1
 GAP=124        0.68       3.2     2.3  2.8 -0.2013E+01 -0.8210E+00 -0.1265E+01E
 Action:ARG 22-06-16 12:10 OP:OBSP STATUS:               ID:20200101024640     I
 STAT SP IPHASW D HRMM SECON CODA AMPLIT PERI AZIMU VELO AIN AR TRES W  DIS CAZ7
 TVCN    ES   4    24642.362                             161   -2.27 0 3.78  14 
 TVCN    EP   1    24642.825                             161    0.15 7 3.78  14 
 SRWZ    EP   1    24645.281                             106   -0.35 7 24.6 215 
 SRWZ    ES   4    24648.317                             106   -1.49 0 24.6 215 
 YXLK    EP   4    24648.683                              98    0.94 0 36.2  24 
 YXLK    ES   2    24653.875                              98    0.36 5 36.2  24 
 YIBA    EP   4    24649.475                              94   -1.86 0 55.7 349 
 YIBA    ES   3    24658.285                              94   -1.51 2 55.7 349 
 ZSCP    EP   2    24652.274                              93   -0.58 5 63.9  89 
 ZSCP    ES   0    247 2.700                              93    0.2510 63.9  89 
 RVDG    EP   4    24651.658                              93   -1.56 0 65.9  73 
 RVDG    ES   1    247 2.773                              93   -0.31 7 65.9  73 
 EVSP    EP   1    24657.469                              64    0.36 7 88.1 275 
 EVSP    ES   4    24711.222                              64    1.33 0 88.1 275 
 YAIP    EP   1    247 4.378                              53   -0.35 6  139  59 
 YAIP    ES   0    24723.157                              53   -0.07 9  139  59 
 ZGXN    EP   1    247 6.655                              53    0.58 6  148  91 
 ZGXN    ES   2    24725.338                              53   -0.24 4  148  91 
                                                                                
