 2020  1 1 0103 19.6 L  35.558  52.088 10.0  New  8 0.3                        1
 GAP=251        0.43       3.0     2.2  2.6  0.1975E+00  0.7466E+00  0.2082E+01E
 Action:ARG 22-06-18 16:58 OP:OBSP STATUS:               ID:20200101010320     I
 STAT SP IPHASW D HRMM SECON CODA AMPLIT PERI AZIMU VELO AIN AR TRES W  DIS CAZ7
 SRWZ    EP   2    1 330.559                              68    0.07 5 53.8 355 
 SRWZ    ES   4    1 337.597                              68   -1.07 0 53.8 355 
 TVCN    EP   2    1 334.870                              68   -0.13 5 78.1   7 
 TVCN    ES   1    1 346.695                              68    0.13 8 78.1   7 
 ZSCP    EP   4    1 337.443                              47   -2.07 0  105  44 
 ZSCP    ES   3    1 355.562                              47    1.10 3  105  44 
 YXLK    EP   0    1 340.244                              47    0.0110  110  13 
 YXLK    ES   3    1 356.746                              47    1.03 2  110  13 
 EVSP    EP   1    1 341.076                              47    0.31 7  113 316 
 EVSP    ES   0    1 356.517                              47   -0.1310  113 316 
 RVDG    EP   4    1 340.394                              47   -1.02 0  118  38 
 RVDG    ES   2    1 357.452                              47   -0.34 5  118  38 
 YIBA    EP   4    1 342.020                              47   -0.99 0  128 359 
 YIBA    ES   4    1 4 1.729                              47    1.15 0  128 359 
 XIVZ    EP   0    1 346.813                              47   -0.06 9  155 358 
 XIVZ    ES   0    1 4 7.218                              47   -0.11 9  155 358 
 ZGXN    EP   4    1 351.658                              47    2.18 0  172  65 
 ZGXN    ES   1    1 411.771                              47   -0.13 6  172  65 
                                                                                
 2020  1 1 0105  0.0 L  36.193  51.933 15.1  New  7 0.3                        1
 GAP=190        0.56       3.5     1.6  3.9 -0.1490E+00  0.2502E+01  0.6759E+01E
 Action:ARG 22-06-18 16:58 OP:OBSP STATUS:               ID:20200101010500     I
 STAT SP IPHASW D HRMM SECON CODA AMPLIT PERI AZIMU VELO AIN AR TRES W  DIS CAZ7
 TVCN    EP   1    1 5 5.484                             115   -0.38 7 25.0  74 
 TVCN    ES   4    1 5 8.851                             115   -1.39 0 25.0  74 
 YXLK    EP   4    1 5 9.768                              99   -1.02 0 52.6  46 
 YXLK    ES   0    1 519.044                              99    0.1810 52.6  46 
 YIBA    EP   4    1 511.009                              97   -1.00 0 59.3  12 
 YIBA    ES   4    1 524.013                              97    3.01 0 59.3  12 
 EVSP    EP   1    1 513.481                              64    0.39 7 65.5 280 
 EVSP    ES   0    1 522.752                              64   -0.1310 65.5 280 
 XIVZ    EP   1    1 516.055                              64   -0.20 7 84.5   5 
 XIVZ    ES   4    1 526.600                              64   -1.82 0 84.5   5 
 ZSCP    EP   0    1 516.845                              64    0.1610 87.1  87 
 ZSCP    ES   4    1 528.322                              64   -0.86 0 87.1  87 
 RVDG    EP   3    1 516.350                              64   -0.65 2 89.1  75 
 RVDG    ES   1    1 529.452                              64   -0.29 7 89.1  75 
 YAIP    EP   4    1 529.749                              53    2.18 0  160  62 
 YAIP    ES   4    1 546.058                              53   -2.17 0  160  62 
 ZGXN    EP   0    1 529.193                              53    0.08 8  171  90 
 ZGXN    ES   3    1 552.028                              53    1.10 2  171  90 
                                                                                
 2020  1 1 0106 40.2 L  36.202  52.090  1.4  New  5 0.4                        1
 GAP=269        0.72      13.6    15.2 18.0  0.2005E+03 -0.2474E+03 -0.2187E+03E
 Action:ARG 22-06-18 16:58 OP:OBSP STATUS:               ID:20200101010640     I
 STAT SP IPHASW D HRMM SECON CODA AMPLIT PERI AZIMU VELO AIN AR TRES W  DIS CAZ7
 YIBA    EP   1    1 652.705                              64    0.50 7 57.0 358 
 YIBA    ES   3    1 7 0.891                              64   -0.34 2 57.0 358 
 ZSCP    EP   1    1 654.989                              56   -0.42 7 73.1  87 
 ZSCP    ES   1    1 7 7.404                              56    0.56 7 73.1  87 
 RVDG    EP   1    1 655.433                              56   -0.38 7 75.2  74 
 RVDG    ES   2    1 7 7.219                              56   -0.33 5 75.2  74 
 XIVZ    EP   1    1 657.498                              56    0.19 7 83.3 356 
 XIVZ    ES   1    1 7 9.855                              56   -0.31 7 83.3 356 
 YAIP    EP   4    1 7 6.252                              41   -1.38 0  148  60 
 YAIP    ES   3    1 728.509                              41    0.27 2  148  60 
                                                                                
 2020  1 1 0108 19.5 L  35.933  51.943 18.6  New  7 0.4                        1
 GAP=232        0.54       5.3     3.9  5.2  0.8835E+01 -0.9557E+01 -0.1334E+02E
 Action:ARG 22-06-18 16:58 OP:OBSP STATUS:               ID:20200101010820     I
 STAT SP IPHASW D HRMM SECON CODA AMPLIT PERI AZIMU VELO AIN AR TRES W  DIS CAZ7
 TVCN    EP   0    1 828.638                              93    0.1010 42.7  33 
 TVCN    ES   3    1 834.209                              93   -1.10 2 42.7  33 
 EVSP    EP   2    1 833.973                              91   -0.21 5 76.6 301 
 EVSP    ES   4    1 843.487                              91   -1.70 0 76.6 301 
 YIBA    EP   2    1 836.641                              62    0.65 5 87.6   7 
 YIBA    ES   0    1 848.275                              62   -0.0710 87.6   7 
 ZSCP    EP   4    1 835.281                              62   -1.42 0 92.4  69 
 ZSCP    ES   1    1 849.279                              62   -0.31 7 92.4  69 
 RVDG    EP   4    1 839.562                              62    1.82 0 99.5  59 
 RVDG    ES   2    1 851.885                              62    0.47 5 99.5  59 
 XIVZ    EP   0    1 839.719                              62   -0.04 9  113   4 
 XIVZ    ES   4    1 852.799                              62   -2.13 0  113   4 
 YAIP    EP   1    1 848.673                              62   -0.18 6  175  53 
 YAIP    ES   2    1 911.389                              62    0.54 4  175  53 
                                                                                
 2020  1 1 0110  0.4 L  36.110  52.051 16.9  New  5 0.4                        1
 GAP=168        0.56       6.4    13.4  4.5 -0.6784E+02  0.5292E+02 -0.2327E+02E
 Action:ARG 22-06-18 16:58 OP:OBSP STATUS:               ID:20200101011000     I
 STAT SP IPHASW D HRMM SECON CODA AMPLIT PERI AZIMU VELO AIN AR TRES W  DIS CAZ7
 SRWZ    EP   2    110 4.313                             153    0.25 5 7.80 190 
 SRWZ    ES   4    110 7.550                             153    0.70 0 7.80 190 
 TVCN    EP   1    110 5.459                             124   -0.27 7 21.1  40 
 TVCN    ES   0    110 9.758                             124    0.0010 21.1  40 
 YXLK    EP   4    110 9.641                              64   -1.57 0 53.2  31 
 YXLK    ES   3    11018.774                              64   -0.58 2 53.2  31 
 EVSP    EP   4    11013.883                              64   -1.43 0 77.8 285 
 EVSP    ES   4    11024.440                              64   -2.09 0 77.8 285 
 XIVZ    EP   2    11017.174                              53   -0.67 5 93.3 359 
 XIVZ    ES   0    11031.215                              53    0.2610 93.3 359 
 YAIP    EP   3    11027.815                              53    0.78 2  156  57 
 YAIP    ES   4    11048.319                              53    1.27 0  156  57 
 ZGXN    EP   4    11026.232                              53   -1.50 0  161  86 
 ZGXN    ES   4    11049.100                              53    0.84 0  161  86 
                                                                                
 2020  1 1 0111 40.1 L  36.034  52.040  5.8  New  9 0.4                        1
 GAP=208        0.67       3.2     2.2  5.6  0.1150E+01  0.4689E+00 -0.2474E+01E
 Action:ARG 22-06-18 16:58 OP:OBSP STATUS:               ID:20200101011140     I
 STAT SP IPHASW D HRMM SECON CODA AMPLIT PERI AZIMU VELO AIN AR TRES W  DIS CAZ7
 TVCN    EP   1    11145.881                              95   -0.31 8 28.5  30 
 TVCN    ES   4    11149.346                              95   -1.43 0 28.5  30 
 YXLK    EP   1    11153.018                              68    0.38 8 61.0  28 
 YXLK    ES   4    112 3.797                              68    1.74 0 61.0  28 
 YIBA    EP   0    11155.192                              68   -0.1510 75.6   2 
 YIBA    ES   0    112 6.827                              68    0.0310 75.6   2 
 EVSP    EP   2    11155.383                              68   -0.69 5 79.6 291 
 EVSP    ES   1    112 8.548                              68    0.48 7 79.6 291 
 ZSCP    EP   2    11156.735                              68    0.49 5 80.5  74 
 ZSCP    ES   1    112 8.634                              68    0.27 7 80.5  74 
 RVDG    EP   3    11156.288                              68   -1.04 2 86.4  62 
 RVDG    ES   2    11210.708                              68    0.44 5 86.4  62 
 XIVZ    EP   0    112 0.077                              56    0.04 9  102 359 
 XIVZ    ES   2    11214.487                              56   -0.52 5  102 359 
 YAIP    EP   4    112 7.741                              47   -1.16 0  161  55 
 YAIP    ES   3    11229.579                              47   -0.95 2  161  55 
 ZGXN    EP   1    112 8.480                              47   -0.56 6  162  83 
 ZGXN    ES   4    11232.448                              47    1.69 0  162  83 
                                                                                
 2020  1 1 0113 20.1 L  36.138  51.887 10.0  New  3 0.0                        1
 GAP=157        0.30       7.3     4.7  0.0  0.3332E+02  0.4689E+00 -0.2474E+01E
 Action:ARG 22-06-18 16:58 OP:OBSP STATUS:               ID:20200101011320     I
 STAT SP IPHASW D HRMM SECON CODA AMPLIT PERI AZIMU VELO AIN AR TRES W  DIS CAZ7
 SRWZ    EP   4    11325.163                             117    0.96 0 17.2 129 
 SRWZ    ES   0    11327.312                             117   -0.0010 17.2 129 
 EVSP    EP   4    11331.287                              68   -1.35 0 62.8 286 
 EVSP    ES   1    11342.062                              68    0.00 7 62.8 286 
 XIVZ    EP   4    11337.481                              56   -0.30 0 91.0   8 
 XIVZ    ES   4    11354.384                              56    3.32 0 91.0   8 
 YAIP    EP   3    11349.159                              47    0.01 2  167  61 
 YAIP    ES   4    11410.933                              47   -0.02 0  167  61 
                                                                                
 2020  1 1 0114 59.9 L  36.248  52.019 14.6  New  7 0.4                        1
 GAP= 97        0.60       1.9     2.9  2.3  0.1407E+01  0.1314E+01 -0.1725E+01E
 Action:ARG 22-06-18 16:58 OP:OBSP STATUS:               ID:20200101011500     I
 STAT SP IPHASW D HRMM SECON CODA AMPLIT PERI AZIMU VELO AIN AR TRES W  DIS CAZ7
 TVCN    EP   2    115 4.936                             127    0.63 5 16.4  87 
 TVCN    ES   0    115 7.651                             127    0.0410 16.4  87 
 SRWZ    EP   1    115 5.243                             116   -0.13 7 23.1 176 
 SRWZ    ES   3    115 8.854                             116   -0.62 2 23.1 176 
 YXLK    EP   4    115 7.535                             101   -1.33 0 42.8  45 
 YXLK    ES   3    11516.268                             101    0.68 2 42.8  45 
 YIBA    EP   4    115 7.530                              98   -3.02 0 52.0   5 
 YIBA    ES   1    11518.183                              98   -0.35 7 52.0   5 
 EVSP    EP   3    11515.077                              64    0.92 2 72.5 274 
 EVSP    ES   4    11523.907                              64   -0.94 0 72.5 274 
 XIVZ    EP   1    11515.529                              64    0.46 7 78.0   0 
 XIVZ    ES   0    11526.414                              64   -0.0310 78.0   0 
 RVDG    EP   0    11515.163                              64   -0.2810 80.2  78 
 RVDG    ES   1    11527.202                              64    0.11 7 80.2  78 
                                                                                
 2020  1 1 0116 41.4 L  36.068  52.285 23.9  New  4 0.0                        1
 GAP=201        0.30       4.3     1.2  9.2 -0.1509E+01  0.6675E+00 -0.2344E+02E
 Action:ARG 22-06-18 16:58 OP:OBSP STATUS:               ID:20200101011640     I
 STAT SP IPHASW D HRMM SECON CODA AMPLIT PERI AZIMU VELO AIN AR TRES W  DIS CAZ7
 SRWZ    EP   4    11646.537                             130   -1.16 0 22.7 262 
 SRWZ    ES   4    11650.254                             130   -2.13 0 22.7 262 
 ZSCP    EP   4    11650.964                             101   -2.19 0 58.3  72 
 ZSCP    ES   4    11659.679                             101   -2.26 0 58.3  72 
 RVDG    EP   4    11654.655                              62    0.42 0 65.4  57 
 RVDG    ES   0    117 3.811                              62   -0.0210 65.4  57 
 EVSP    EP   2    11659.172                              62   -0.07 5 99.4 285 
 EVSP    ES   1    11712.603                              62    0.02 7 99.4 285 
 ZGXN    EP   1    117 5.229                              62    0.04 6  140  84 
 ZGXN    ES   1    11722.995                              62   -0.01 6  140  84 
 YAIP    EP   4    117 7.069                              62    1.65 0  141  51 
 YAIP    ES   2    11723.524                              62    0.12 4  141  51 
                                                                                
 2020  1 1 0118 20.9 L  35.860  51.959 20.0  New  4 0.2                        1
 GAP=309        0.33      29.9    35.8 77.3  0.1059E+04 -0.2747E+04 -0.2298E+04E
 Action:ARG 22-06-18 16:58 OP:OBSP STATUS:               ID:20200101011820     I
 STAT SP IPHASW D HRMM SECON CODA AMPLIT PERI AZIMU VELO AIN AR TRES W  DIS CAZ7
 YXLK    EP   3    11836.585                              62    0.24 3 81.6  26 
 YXLK    ES   1    11848.001                              62    0.04 8 81.6  26 
 ZSCP    EP   0    11838.166                              62   -0.0510 94.3  64 
 ZSCP    ES   0    11851.285                              62    0.0510 94.3  64 
 RVDG    EP   4    11837.804                              62   -1.65 0  103  55 
 RVDG    ES   0    11853.333                              62   -0.0710  103  55 
 ZGXN    EP   3    11850.364                              62    0.61 2  173  77 
 ZGXN    ES   4    119 9.889                              62   -1.53 0  173  77 
                                                                                
 2020  1 1 0120  0.2 L  36.027  52.096 11.3  New  5 0.3                        1
 GAP=225        0.53       2.5     1.9  1.6 -0.9840E+00 -0.6991E+00 -0.1020E+01E
 Action:ARG 22-06-18 16:58 OP:OBSP STATUS:               ID:20200101012000     I
 STAT SP IPHASW D HRMM SECON CODA AMPLIT PERI AZIMU VELO AIN AR TRES W  DIS CAZ7
 SRWZ    EP   1    120 3.072                             150    0.29 7 5.71 286 
 SRWZ    ES   0    120 4.640                             150   -0.0910 5.71 286 
 YIBA    EP   3    12014.268                              91   -1.02 2 76.5 358 
 YIBA    ES   0    12026.637                              91    0.0210 76.5 358 
 RVDG    EP   4    12017.269                              64    0.93 0 82.3  60 
 RVDG    ES   1    12028.728                              64    0.26 7 82.3  60 
 EVSP    EP   4    12015.324                              64   -1.39 0 84.6 290 
 EVSP    ES   0    12029.154                              64    0.0410 84.6 290 
 ZGXN    EP   4    12029.406                              53    1.69 0  157  83 
 ZGXN    ES   4    12047.147                              53   -1.22 0  157  83 
 YAIP    EP   0    12027.450                              53   -0.32 8  158  54 
 YAIP    ES   4    12051.017                              53    2.55 0  158  54 
                                                                                
 2020  1 1 0121 39.4 L  35.991  51.901 17.5  New  6 0.3                        1
 GAP=225        0.57       3.6     3.2  1.7  0.3661E+01 -0.1123E+00 -0.2838E+01E
 Action:ARG 22-06-18 16:58 OP:OBSP STATUS:               ID:20200101012140     I
 STAT SP IPHASW D HRMM SECON CODA AMPLIT PERI AZIMU VELO AIN AR TRES W  DIS CAZ7
 SRWZ    EP   0    12143.783                             140   -0.0210 13.3  65 
 SRWZ    ES   0    12147.073                             140    0.0110 13.3  65 
 EVSP    EP   2    12153.138                              64    0.06 5 70.2 298 
 EVSP    ES   3    122 3.144                              64   -0.17 2 70.2 298 
 YXLK    EP   4    12152.271                              64   -1.06 0 71.7  35 
 YXLK    ES   4    122 1.326                              64   -2.41 0 71.7  35 
 YIBA    EP   1    12154.717                              64   -0.31 7 81.8  11 
 YIBA    ES   0    122 6.832                              64    0.1310 81.8  11 
 ZSCP    EP   4    12158.313                              53    1.37 0 93.9  73 
 ZSCP    ES   1    12210.420                              53    0.35 7 93.9  73 
 RVDG    EP   4    12156.839                              53   -0.96 0 99.7  63 
 RVDG    ES   1    12211.010                              53   -0.56 7 99.7  63 
 YAIP    EP   1    122 9.234                              53    0.45 6  174  56 
 YAIP    ES   4    12232.275                              53    1.49 0  174  56 
 ZGXN    EP   4    12210.161                              53    1.25 0  175  82 
 ZGXN    ES   4    12232.487                              53    1.47 0  175  82 
                                                                                
 2020  1 1 0123 20.3 L  36.170  51.848 17.6  New  4 0.1                        1
 GAP=194        0.36       2.5     2.5  6.4 -0.9513E+00 -0.1243E+02  0.2537E+01E
 Action:ARG 22-06-18 16:58 OP:OBSP STATUS:               ID:20200101012320     I
 STAT SP IPHASW D HRMM SECON CODA AMPLIT PERI AZIMU VELO AIN AR TRES W  DIS CAZ7
 EVSP    EP   0    12331.969                              64    0.0010 58.5 283 
 EVSP    ES   4    12339.796                              64   -0.93 0 58.5 283 
 YIBA    EP   0    12332.874                              64    0.0510 63.7  18 
 YIBA    ES   2    12342.046                              64   -0.19 5 63.7  18 
 RVDG    EP   1    12338.382                              53    0.14 7 97.1  75 
 RVDG    ES   0    12351.758                              53    0.04 9 97.1  75 
 ZGXN    EP   0    12350.014                              53   -0.20 8  179  89 
 ZGXN    ES   4    12411.299                              53   -1.37 0  179  89 
                                                                                
