 2020  1 1 0045  0.2 L  35.959  51.785  0.0  New  6 0.2                        1
 GAP=304        0.37       4.3     7.6  6.3  0.2369E+02 -0.1907E+02 -0.1212E+02E
 Action:ARG 22-06-16 12:10 OP:OBSP STATUS:               ID:20200101004500     I
 STAT SP IPHASW D HRMM SECON CODA AMPLIT PERI AZIMU VELO AIN AR TRES W  DIS CAZ7
 SRWZ    EP   3    045 5.252                              90   -0.33 3 24.3  68 
 SRWZ    ES   4    045 9.206                              90   -0.42 0 24.3  68 
 TVCN    EP   2    04510.728                              64   -0.20 5 49.8  48 
 TVCN    ES   4    04518.147                              64   -0.83 0 49.8  48 
 YXLK    EP   0    04517.119                              56    0.0910 80.8  39 
 YXLK    ES   4    04528.878                              56   -0.78 0 80.8  39 
 YIBA    EP   0    04518.348                              56    0.0310 87.7  17 
 YIBA    ES   2    04531.695                              56   -0.22 5 87.7  17 
 ZSCP    EP   0    04521.359                              49   -0.10 9  105  73 
 ZSCP    ES   4    04538.900                              49    1.48 0  105  73 
 RVDG    EP   2    04522.679                              49    0.26 5  111  64 
 RVDG    ES   3    04539.747                              49    0.65 2  111  64 
                                                                                
 2020  1 1 0046 39.2 L  36.142  51.931  1.6  New  9 0.3                        1
 GAP=225        0.47       3.7     3.3  7.7  0.8197E+01 -0.1459E+02 -0.2666E+02E
 Action:ARG 22-06-16 12:10 OP:OBSP STATUS:               ID:20200101004640     I
 STAT SP IPHASW D HRMM SECON CODA AMPLIT PERI AZIMU VELO AIN AR TRES W  DIS CAZ7
 SRWZ    EP   2    04642.450                              96   -0.05 5 14.6 140 
 SRWZ    ES   2    04644.905                              96   -0.04 5 14.6 140 
 TVCN    EP   1    04645.334                              64    0.01 7 27.4  62 
 TVCN    ES   0    04650.027                              64    0.1310 27.4  62 
 YXLK    EP   4    04652.674                              64    1.45 0 56.8  42 
 YXLK    ES   2    04659.551                              64   -0.66 5 56.8  42 
 YIBA    EP   1    04652.780                              64   -0.05 7 64.9  11 
 YIBA    ES   2    047 2.604                              64   -0.42 5 64.9  11 
 EVSP    EP   4    04652.107                              64   -1.05 0 66.5 284 
 EVSP    ES   4    047 1.581                              64   -2.02 0 66.5 284 
 ZSCP    EP   4    04658.691                              56    1.50 0 87.8  83 
 ZSCP    ES   3    04710.679                              56    0.02 2 87.8  83 
 XIVZ    EP   4    047 0.629                              56    3.00 0 90.2   5 
 XIVZ    ES   0    04711.586                              56    0.1710 90.2   5 
 RVDG    EP   1    04657.861                              56    0.11 7 90.8  72 
 RVDG    ES   4    047 9.194                              56   -2.44 0 90.8  72 
 YAIP    EP   3    047 9.471                              41    0.49 2  163  60 
 YAIP    ES   4    04732.017                              41    0.72 0  163  60 
 ZGXN    EP   3    047 8.708                              41   -1.44 2  171  88 
 ZGXN    ES   4    04730.575                              41   -2.76 0  171  88 
                                                                                
 2020  1 1 0048 19.7 L  36.196  52.243 12.7  New  3 0.3                        1
 GAP=290        0.48       4.4     9.9  4.8 -0.1175E+02  0.7846E+01  0.3320E+00E
 Action:ARG 22-06-16 12:10 OP:OBSP STATUS:               ID:20200101004820     I
 STAT SP IPHASW D HRMM SECON CODA AMPLIT PERI AZIMU VELO AIN AR TRES W  DIS CAZ7
 TVCN    EP   4    04821.073                             145   -1.66 0 7.72 330 
 TVCN    ES   4    04825.700                             145    0.70 0 7.72 330 
 YIBA    EP   1    04831.950                              94    0.22 7 59.7 345 
 YIBA    ES   1    04840.621                              94   -0.13 7 59.7 345 
 XIVZ    EP   2    04835.785                              64   -0.59 5 86.0 347 
 XIVZ    ES   1    04849.026                              64    0.15 7 86.0 347 
 EVSP    EP   3    04837.857                              64    0.31 2 93.1 277 
 EVSP    ES   3    04850.766                              64   -0.16 2 93.1 277 
                                                                                
 2020  1 1 0050  0.7 L  36.173  52.012 25.6  New  4 0.2                        1
 GAP=272        0.34       7.2     7.4 15.8  0.4927E+02 -0.1044E+03 -0.9778E+02E
 Action:ARG 22-06-16 12:10 OP:OBSP STATUS:               ID:20200101005000     I
 STAT SP IPHASW D HRMM SECON CODA AMPLIT PERI AZIMU VELO AIN AR TRES W  DIS CAZ7
 YIBA    EP   3    05012.388                              62   -0.21 3 60.4   5 
 YIBA    ES   4    05019.030                              62   -2.51 0 60.4   5 
 XIVZ    EP   0    05016.439                              62    0.0410 86.3   1 
 XIVZ    ES   1    05028.131                              62   -0.07 7 86.3   1 
 YAIP    EP   1    05026.534                              62    0.00 6  155  60 
 YAIP    ES   0    05046.019                              62    0.09 8  155  60 
 ZGXN    EP   3    05028.541                              62    0.75 2  164  89 
 ZGXN    ES   1    05047.936                              62   -0.20 6  164  89 
                                                                                
 2020  1 1 0051 40.5 L  36.285  51.835 11.1  New  5 0.4                        1
 GAP=177        0.57      10.7     3.9 12.9 -0.3660E+02 -0.2995E+02  0.8559E+02E
 Action:ARG 22-06-16 12:10 OP:OBSP STATUS:               ID:20200101005140     I
 STAT SP IPHASW D HRMM SECON CODA AMPLIT PERI AZIMU VELO AIN AR TRES W  DIS CAZ7
 SRWZ    EP   4    05149.226                              95    1.73 0 32.5 146 
 SRWZ    ES   4    05150.750                              95   -1.98 0 32.5 146 
 TVCN    EP   4    05145.212                              95   -2.37 0 33.0  95 
 TVCN    ES   4    05150.094                              95   -2.79 0 33.0  95 
 YXLK    EP   2    05151.867                              92    0.47 5 53.6  61 
 YXLK    ES   0    05159.431                              92   -0.1210 53.6  61 
 EVSP    EP   2    05151.900                              92    0.10 5 55.8 271 
 EVSP    ES   1    052 0.159                              92   -0.10 7 55.8 271 
 XIVZ    EP   2    05155.984                              91    0.48 5 75.8  13 
 XIVZ    ES   4    052 5.550                              91   -1.20 0 75.8  13 
 ZSCP    EP   4    05155.700                              64   -3.28 0 96.0  93 
 ZSCP    ES   3    05213.632                              64    0.81 2 96.0  93 
 YAIP    EP   2    052 8.206                              53   -0.81 4  164  66 
 YAIP    ES   4    05229.564                              53   -0.84 0  164  66 
                                                                                
 2020  1 1 0053 20.2 L  35.946  52.125  9.3  New  3 0.0                        1
 GAP=268        0.32       3.5     4.2  3.6  0.1140E+02 -0.1433E+02 -0.9200E+01E
 Action:ARG 22-06-16 12:10 OP:OBSP STATUS:               ID:20200101005320     I
 STAT SP IPHASW D HRMM SECON CODA AMPLIT PERI AZIMU VELO AIN AR TRES W  DIS CAZ7
 SRWZ    EP   0    05323.588                             122   -0.0310 13.3 322 
 SRWZ    ES   0    05326.178                             122    0.0210 13.3 322 
 RVDG    EP   0    05336.988                              68    0.0310 84.9  54 
 RVDG    ES   2    05349.430                              68   -0.07 5 84.9  54 
 YIBA    EP   4    05338.356                              68    1.30 0 85.5 357 
 YIBA    ES   1    05349.685                              68   -0.00 7 85.5 357 
                                                                                
 2020  1 1 0055  0.3 L  35.995  52.102 11.1  New  4 0.3                        1
 GAP=211        0.49       4.9     2.3  5.7 -0.5617E+01 -0.7526E+01  0.1452E+02E
 Action:ARG 22-06-16 12:10 OP:OBSP STATUS:               ID:20200101005500     I
 STAT SP IPHASW D HRMM SECON CODA AMPLIT PERI AZIMU VELO AIN AR TRES W  DIS CAZ7
 YXLK    EP   3    05513.838                              91    0.95 3 62.7  21 
 YXLK    ES   2    05521.872                              91   -0.43 5 62.7  21 
 EVSP    EP   0    05517.191                              64    0.0110 86.3 292 
 EVSP    ES   1    05529.787                              64   -0.02 7 86.3 292 
 ZGXN    EP   4    05525.430                              53   -2.46 0  157  82 
 ZGXN    ES   1    05548.326                              53   -0.23 6  157  82 
 YAIP    EP   4    05526.315                              53   -1.89 0  159  52 
 YAIP    ES   0    05549.306                              53    0.20 8  159  52 
                                                                                
 2020  1 1 0056 39.8 L  36.348  52.241 12.9  New  5 0.3                        1
 GAP=135        0.51       1.5     3.2  3.6 -0.2736E+01 -0.7916E+01  0.2687E+01E
 Action:ARG 22-06-16 12:10 OP:OBSP STATUS:               ID:20200101005640     I
 STAT SP IPHASW D HRMM SECON CODA AMPLIT PERI AZIMU VELO AIN AR TRES W  DIS CAZ7
 YXLK    EP   2    05645.606                             112    0.71 5 21.8  28 
 YXLK    ES   1    05648.516                             112   -0.23 7 21.8  28 
 SRWZ    EP   4    05645.444                              98   -2.49 0 38.8 209 
 SRWZ    ES   0    05654.025                              98   -0.0310 38.8 209 
 XIVZ    EP   4    05655.348                              93    1.71 0 69.7 344 
 XIVZ    ES   1    057 4.036                              93   -0.01 7 69.7 344 
 YAIP    EP   3    057 2.283                              53   -0.50 2  128  63 
 YAIP    ES   4    05719.271                              53   -0.77 0  128  63 
 ZGXN    EP   4    057 4.309                              53   -0.85 0  144  96 
 ZGXN    ES   0    05724.220                              53    0.02 8  144  96 
                                                                                
 2020  1 1 0058 19.9 L  35.698  52.489  7.1  New  7 0.4                        1
 GAP=281        0.55       5.0     3.0  5.2 -0.9545E+00  0.5465E+01 -0.1099E+02E
 Action:ARG 22-06-16 12:10 OP:OBSP STATUS:               ID:20200101005820     I
 STAT SP IPHASW D HRMM SECON CODA AMPLIT PERI AZIMU VELO AIN AR TRES W  DIS CAZ7
 SRWZ    EP   4    05829.728                              68   -1.64 0 55.9 313 
 SRWZ    ES   1    05839.868                              68   -0.13 8 55.9 313 
 TVCN    EP   3    05834.524                              68    1.07 3 67.1 337 
 TVCN    ES   1    05843.631                              68   -0.02 8 67.1 337 
 ZSCP    EP   4    05832.515                              68   -1.43 0 69.8  32 
 ZSCP    ES   3    05843.778                              68   -0.73 3 69.8  32 
 RVDG    EP   0    05836.856                              68    0.0710 85.1  25 
 RVDG    ES   1    05849.337                              68   -0.14 7 85.1  25 
 YXLK    EP   3    05838.910                              56    0.84 2 92.1 353 
 YXLK    ES   2    05852.296                              56    0.57 5 92.1 353 
 YIBA    EP   1    05841.809                              47   -0.48 7  119 342 
 YIBA    ES   1    05859.362                              47    0.25 7  119 342 
 EVSP    EP   4    05843.027                              47   -1.22 0  132 300 
 EVSP    ES   4    059 3.456                              47    0.92 0  132 300 
 XIVZ    EP   2    05846.685                              47    0.56 4  145 343 
 XIVZ    ES   0    059 5.690                              47   -0.14 9  145 343 
                                                                                
 2020  1 1 0100  0.1 L  35.899  51.673  4.9  New  8 0.4                        1
 GAP=237        0.57       3.4     2.1  2.9  0.1601E+01 -0.7039E+00  0.1870E+01E
 Action:ARG 22-06-16 12:10 OP:OBSP STATUS:               ID:20200101010000     I
 STAT SP IPHASW D HRMM SECON CODA AMPLIT PERI AZIMU VELO AIN AR TRES W  DIS CAZ7
 SRWZ    EP   1    1 0 8.072                              92    0.37 7 36.3  64 
 SRWZ    ES   0    1 013.218                              92   -0.2210 36.3  64 
 EVSP    EP   4    1 010.610                              91   -1.80 0 59.8 316 
 EVSP    ES   1    1 021.686                              91    0.01 7 59.8 316 
 TVCN    EP   3    1 013.619                              91    0.79 2 61.9  50 
 TVCN    ES   4    1 020.382                              91   -2.02 0 61.9  50 
 YXLK    EP   4    1 019.756                              68    1.25 0 92.4  41 
 YXLK    ES   0    1 032.543                              68    0.2010 92.4  41 
 ZSCP    EP   0    1 022.201                              47   -0.24 9  117  71 
 ZSCP    ES   3    1 038.137                              47   -1.09 2  117  71 
 RVDG    EP   3    1 024.193                              47    0.86 2  123  63 
 RVDG    ES   2    1 041.326                              47    0.53 4  123  63 
 YAIP    EP   0    1 033.989                              47   -0.30 7  197  57 
 ZGXN    EP   1    1 034.582                              47    0.29 5  197  80 
 ZGXN    ES   4    1 058.348                              47   -1.62 0  197  80 
 YAIP    ES   0    1 059.865                              47   -0.09 7  197  57 
                                                                                
 2020  1 1 0101 40.0 L  36.197  52.028 17.5  New  8 0.3                        1
 GAP=182        0.54       2.0     3.4  2.5  0.2823E+01 -0.3467E+01 -0.3780E+01E
 Action:ARG 22-06-16 12:10 OP:OBSP STATUS:               ID:20200101010140     I
 STAT SP IPHASW D HRMM SECON CODA AMPLIT PERI AZIMU VELO AIN AR TRES W  DIS CAZ7
 TVCN    EP   2    1 144.172                             133   -0.64 5 16.9  67 
 TVCN    ES   2    1 148.807                             133    0.38 5 16.9  67 
 SRWZ    EP   0    1 144.849                             132   -0.0310 17.4 178 
 SRWZ    ES   2    1 149.047                             132    0.50 5 17.4 178 
 YIBA    EP   4    1 150.029                              64   -1.51 0 57.6   4 
 YIBA    ES   0    1 2 0.126                              64   -0.0710 57.6   4 
 ZSCP    EP   0    1 154.765                              64   -0.2710 78.6  87 
 ZSCP    ES   4    1 2 7.595                              64    1.27 0 78.6  87 
 RVDG    EP   0    1 155.338                              64   -0.0510 80.7  74 
 RVDG    ES   4    1 2 5.773                              64   -1.16 0 80.7  74 
 XIVZ    EP   3    1 154.924                              64   -0.94 2 83.6 360 
 XIVZ    ES   0    1 2 7.921                              64    0.1410 83.6 360 
 YAIP    EP   3    1 2 6.953                              53    0.83 2  153  61 
 YAIP    ES   1    1 226.066                              53    0.34 6  153  61 
 ZGXN    EP   0    1 2 7.687                              53    0.14 8  162  90 
 ZGXN    ES   3    1 228.831                              53    0.61 2  162  90 
                                                                                
 2020  1 1 0103 35.6 L  36.488  52.376 10.0  New  3 0.0                        1
 GAP=152        0.30       1.5     1.4  0.0 -0.4063E+00 -0.3467E+01 -0.3780E+01E
 Action:ARG 22-06-16 12:10 OP:OBSP STATUS:               ID:20200101010320     I
 STAT SP IPHASW D HRMM SECON CODA AMPLIT PERI AZIMU VELO AIN AR TRES W  DIS CAZ7
 TVCN    EP   4    1 336.594                              68   -5.58 0 30.2 212 
 TVCN    ES   0    1 347.067                              68   -0.0010 30.2 212 
 ZSCP    EP   4    1 338.104                              68   -8.69 0 55.1 121 
 ZSCP    ES   1    1 355.165                              68    0.00 7 55.1 121 
 XIVZ    EP   2    1 347.741                              68    0.01 5 60.2 329 
 XIVZ    ES   4    1 4 4.576                              68    7.77 0 60.2 329 
 ZGXN    EP   4    1 352.177                              47   -7.83 0  135 104 
 ZGXN    ES   4    1 410.897                              47   -7.38 0  135 104 
                                                                                
 2020  1 1 0105  0.1 L  36.195  51.935 16.1  New  7 0.3                        1
 GAP=190        0.50       3.1     1.8  2.5 -0.1160E+01 -0.8709E-01  0.3585E+01E
 Action:ARG 22-06-16 12:10 OP:OBSP STATUS:               ID:20200101010500     I
 STAT SP IPHASW D HRMM SECON CODA AMPLIT PERI AZIMU VELO AIN AR TRES W  DIS CAZ7
 TVCN    EP   0    1 5 5.852                             117   -0.1310 24.8  74 
 TVCN    ES   3    1 511.180                             117    0.79 2 24.8  74 
 YXLK    EP   4    1 5 9.768                             100   -1.08 0 52.4  46 
 YXLK    ES   0    1 519.044                             100    0.1410 52.4  46 
 YIBA    EP   1    1 511.746                              64   -0.25 7 59.0  12 
 YIBA    ES   4    1 519.813                              64   -1.10 0 59.0  12 
 EVSP    EP   0    1 513.185                              64    0.0910 65.7 279 
 EVSP    ES   4    1 521.914                              64   -0.94 0 65.7 279 
 XIVZ    EP   4    1 515.347                              64   -0.86 0 84.3   5 
 XIVZ    ES   4    1 531.609                              64    3.32 0 84.3   5 
 ZSCP    EP   1    1 516.380                              64   -0.27 7 87.0  87 
 ZSCP    ES   4    1 527.171                              64   -1.89 0 87.0  87 
 RVDG    EP   3    1 516.350                              64   -0.61 2 88.8  75 
 RVDG    ES   1    1 529.452                              64   -0.15 7 88.8  75 
 YAIP    EP   4    1 529.749                              53    2.26 0  160  62 
 YAIP    ES   4    1 546.058                              53   -1.98 0  160  62 
 ZGXN    EP   1    1 529.555                              53    0.51 6  171  90 
 ZGXN    ES   0    1 550.879                              53    0.13 8  171  90 
                                                                                
 2020  1 1 0106 40.2 L  36.149  52.035 10.1  New  6 0.4                        1
 GAP=276        0.53       4.1     6.8  6.1  0.1986E+02 -0.2231E+02 -0.1249E+02E
 Action:ARG 22-06-16 12:10 OP:OBSP STATUS:               ID:20200101010640     I
 STAT SP IPHASW D HRMM SECON CODA AMPLIT PERI AZIMU VELO AIN AR TRES W  DIS CAZ7
 YXLK    EP   2    1 650.638                              68    0.28 6 50.3  35 
 YXLK    ES   2    1 657.934                              68   -0.01 6 50.3  35 
 YIBA    EP   4    1 653.852                              68    1.16 0 62.9   3 
 YIBA    ES   1    1 7 1.912                              68   -0.10 9 62.9   3 
 ZSCP    EP   2    1 654.754                              68   -0.81 6 78.5  83 
 ZSCP    ES   4    1 7 4.463                              68   -2.59 0 78.5  83 
 RVDG    EP   1    1 656.355                              68    0.18 9 81.7  71 
 RVDG    ES   4    1 7 6.395                              68   -1.72 0 81.7  71 
 XIVZ    EP   2    1 657.757                              56    0.37 6 88.9 359 
 XIVZ    ES   3    1 7 9.336                              56   -0.91 3 88.9 359 
 YAIP    EP   0    1 7 7.257                              47   -0.0110  155  59 
 YAIP    ES   0    1 727.622                              47    0.1010  155  59 
                                                                                
