 2020  1 1 0124 60.0 L  36.271  51.896 10.0  New  7 0.4                        1
 GAP=118        0.64       2.8     1.7  5.1 -0.6202E+00 -0.2661E+01  0.1206E+01E
 Action:ARG 22-06-18 16:58 OP:OBSP STATUS:               ID:20200101012500     I
 STAT SP IPHASW D HRMM SECON CODA AMPLIT PERI AZIMU VELO AIN AR TRES W  DIS CAZ7
 SRWZ    EP   4    125 8.048                              68    1.87 0 28.4 154 
 SRWZ    ES   3    12511.742                              68    0.91 2 28.4 154 
 YXLK    EP   1    125 9.874                              68   -0.25 7 49.8  56 
 YXLK    ES   1    12518.111                              68    0.36 7 49.8  56 
 EVSP    EP   4    12514.542                              68    2.28 0 61.3 272 
 EVSP    ES   0    12521.601                              68    0.1110 61.3 272 
 XIVZ    EP   1    12514.669                              68   -0.37 7 76.3   9 
 XIVZ    ES   2    12526.968                              68    0.62 5 76.3   9 
 ZSCP    EP   1    12517.245                              56   -0.34 7 90.5  93 
 ZSCP    ES   0    12531.051                              56    0.2510 90.5  93 
 YAIP    EP   2    12527.283                              47   -0.66 4  159  65 
 YAIP    ES   0    12548.786                              47   -0.15 8  159  65 
 ZGXN    EP   4    12528.013                              47   -2.12 0  174  92 
 ZGXN    ES   3    12552.003                              47   -0.76 2  174  92 
                                                                                
 2020  1 1 0126 40.2 L  36.146  52.111 14.5  New  5 0.4                        1
 GAP=213        0.54       3.7     3.2  5.1 -0.3993E+00  0.5499E+01  0.1095E+02E
 Action:ARG 22-06-18 16:58 OP:OBSP STATUS:               ID:20200101012640     I
 STAT SP IPHASW D HRMM SECON CODA AMPLIT PERI AZIMU VELO AIN AR TRES W  DIS CAZ7
 TVCN    EP   3    12645.185                             130    0.84 2 14.7  33 
 TVCN    ES   3    12646.657                             130   -0.80 2 14.7  33 
 YIBA    EP   3    12652.006                              96   -0.91 2 63.3 357 
 YIBA    ES   0    127 2.462                              96    0.0110 63.3 357 
 RVDG    EP   2    12654.704                              64   -0.25 5 75.5  69 
 RVDG    ES   3    127 5.821                              64   -0.20 2 75.5  69 
 EVSP    EP   4    12654.227                              64   -1.85 0 82.2 281 
 EVSP    ES   1    127 7.882                              64   -0.11 7 82.2 281 
 XIVZ    EP   1    12657.819                              64    0.49 7 89.7 355 
 XIVZ    ES   2    127 9.856                              64   -0.32 5 89.7 355 
                                                                                
 2020  1 1 0128 20.0 L  36.038  51.740 20.1  New  5 0.2                        1
 GAP=222        0.38       2.6     1.9  3.0  0.2352E+01 -0.3529E+01 -0.1916E+01E
 Action:ARG 22-06-18 16:58 OP:OBSP STATUS:               ID:20200101012820     I
 STAT SP IPHASW D HRMM SECON CODA AMPLIT PERI AZIMU VELO AIN AR TRES W  DIS CAZ7
 SRWZ    EP   4    12827.373                             115    0.94 0 26.6  89 
 SRWZ    ES   4    12828.438                             115   -2.84 0 26.6  89 
 EVSP    EP   4    12830.186                              95   -0.83 0 54.9 301 
 EVSP    ES   1    12839.341                              95    0.03 8 54.9 301 
 YXLK    EP   0    12834.599                              93   -0.1110 77.1  46 
 YXLK    ES   2    12846.057                              93    0.28 5 77.1  46 
 XIVZ    EP   4    12840.690                              62    1.91 0  104  14 
 XIVZ    ES   0    12852.897                              62   -0.00 9  104  14 
 ZSCP    EP   2    12839.625                              62    0.50 5  107  78 
 ZSCP    ES   0    12853.521                              62    0.03 9  107  78 
 RVDG    EP   0    12839.674                              62   -0.07 9  111  69 
 RVDG    ES   0    12854.524                              62   -0.05 9  111  69 
                                                                                
 2020  1 1 0130  0.2 L  35.776  52.172 18.9  New  6 0.3                        1
 GAP=231        0.55       3.3     2.1  5.7  0.5031E+00 -0.1021E+01  0.4315E+01E
 Action:ARG 22-06-18 16:58 OP:OBSP STATUS:               ID:20200101013000     I
 STAT SP IPHASW D HRMM SECON CODA AMPLIT PERI AZIMU VELO AIN AR TRES W  DIS CAZ7
 SRWZ    EP   4    130 9.255                             102    1.80 0 31.9 337 
 SRWZ    ES   4    13010.647                             102   -2.23 0 31.9 337 
 TVCN    EP   4    130 9.642                              92   -1.38 0 53.3   3 
 TVCN    ES   4    13020.015                              92    0.90 0 53.3   3 
 YXLK    EP   4    13018.087                              91    1.91 0 84.3  11 
 YXLK    ES   1    13028.156                              91    0.01 8 84.3  11 
 RVDG    EP   2    13018.202                              62    0.55 5 94.2  43 
 RVDG    ES   3    13029.642                              62   -1.08 3 94.2  43 
 EVSP    EP   0    13018.897                              62   -0.1110  103 304 
 EVSP    ES   1    13033.272                              62    0.19 7  103 304 
 XIVZ    EP   1    13022.482                              62   -0.58 7  131 354 
 XIVZ    ES   1    13040.304                              62    0.12 7  131 354 
 ZGXN    EP   0    13026.997                              62    0.18 9  157  72 
 ZGXN    ES   0    13046.576                              62   -0.19 9  157  72 
 YAIP    EP   2    13029.438                              62    0.52 4  171  45 
 YAIP    ES   0    13050.516                              62    0.09 8  171  45 
                                                                                
 2020  1 1 0131 40.1 L  36.028  51.932 13.3  New  4 0.3                        1
 GAP=284        0.44       4.1     3.9  2.2  0.7053E+01 -0.1099E+01 -0.3710E+01E
 Action:ARG 22-06-18 16:58 OP:OBSP STATUS:               ID:20200101013140     I
 STAT SP IPHASW D HRMM SECON CODA AMPLIT PERI AZIMU VELO AIN AR TRES W  DIS CAZ7
 SRWZ    EP   3    13142.338                             141   -1.10 2 9.41  81 
 SRWZ    ES   2    13146.224                             141    0.31 5 9.41  81 
 YXLK    EP   0    13153.477                              94    0.0210 66.7  35 
 YXLK    ES   1    132 3.350                              94   -0.10 7 66.7  35 
 RVDG    EP   4    13159.565                              64    1.24 0 95.4  65 
 RVDG    ES   0    13211.960                              64   -0.0010 95.4  65 
 XIVZ    EP   3    13158.828                              53   -0.59 2  103   5 
 XIVZ    ES   1    13214.011                              53    0.13 7  103   5 
 YAIP    EP   4    13211.068                              53    1.79 0  170  56 
 YAIP    ES   4    13230.232                              53   -0.90 0  170  56 
                                                                                
 2020  1 1 0133 20.2 L  36.102  51.611 40.9  New  3 0.4                        1
 GAP=341        0.44      11.7     9.6 12.7  0.2212E+02  0.1671E+02  0.7064E+02E
 Action:ARG 22-06-18 16:58 OP:OBSP STATUS:               ID:20200101013320     I
 STAT SP IPHASW D HRMM SECON CODA AMPLIT PERI AZIMU VELO AIN AR TRES W  DIS CAZ7
 EVSP    EP   4    13331.991                             127    1.78 0 41.3 300 
 EVSP    ES   4    13338.853                             127    1.14 0 41.3 300 
 YXLK    EP   2    13335.804                             107    0.25 6 81.5  55 
 YXLK    ES   1    13346.989                             107   -0.07 8 81.5  55 
 RVDG    EP   3    13339.890                             100   -1.14 2  120  74 
 RVDG    ES   0    13356.681                             100    0.0410  120  74 
 YAIP    EP   4    13353.238                              57    2.18 0  191  63 
 YAIP    ES   3    13414.121                              57   -0.06 2  191  63 
                                                                                
 2020  1 1 0135  0.4 L  35.813  52.201  7.2  New  8 0.4                        1
 GAP=227        0.51       3.3     2.3  2.8 -0.2238E+01 -0.2512E+00  0.1088E+01E
 Action:ARG 22-06-18 16:58 OP:OBSP STATUS:               ID:20200101013500     I
 STAT SP IPHASW D HRMM SECON CODA AMPLIT PERI AZIMU VELO AIN AR TRES W  DIS CAZ7
 SRWZ    EP   1    135 6.683                              99   -0.02 8 29.3 329 
 SRWZ    ES   4    13512.536                              99    1.10 0 29.3 329 
 TVCN    EP   4    135 8.824                              95   -1.82 0 49.1 360 
 TVCN    ES   2    13518.581                              95    0.26 5 49.1 360 
 ZSCP    EP   4    13514.090                              68   -1.96 0 78.3  54 
 ZSCP    ES   4    13525.615                              68   -2.17 0 78.3  54 
 YXLK    EP   2    13516.761                              68    0.44 5 79.8  10 
 YXLK    ES   1    13528.045                              68   -0.22 8 79.8  10 
 RVDG    EP   3    13517.136                              68   -0.99 3 89.5  44 
 RVDG    ES   3    13530.826                              68   -0.59 3 89.5  44 
 YIBA    EP   4    13520.992                              56    0.94 0  101 353 
 YIBA    ES   4    13535.964                              56    1.17 0  101 353 
 EVSP    EP   2    13520.766                              56    0.28 5  103 301 
 EVSP    ES   0    13535.458                              56   -0.0910  103 301 
 XIVZ    EP   1    13523.667                              47   -0.35 7  127 353 
 XIVZ    ES   1    13542.146                              47    0.41 7  127 353 
 ZGXN    EP   2    13528.370                              47    0.57 4  153  74 
 ZGXN    ES   4    13550.902                              47    2.56 0  153  74 
 YAIP    EP   3    13528.821                              47   -0.91 2  166  45 
 YAIP    ES   1    13551.707                              47   -0.02 6  166  45 
                                                                                
 2020  1 1 0136 40.8 L  35.639  52.051 33.1  New  4 0.3                        1
 GAP=307        0.45       8.9     6.8 51.4  0.4520E+01  0.1493E+03  0.2941E+03E
 Action:ARG 22-06-18 16:58 OP:OBSP STATUS:               ID:20200101013640     I
 STAT SP IPHASW D HRMM SECON CODA AMPLIT PERI AZIMU VELO AIN AR TRES W  DIS CAZ7
 ZSCP    EP   4    13659.511                              96    0.82 0  101  49 
 ZSCP    ES   0    13712.176                              96    0.0610  101  49 
 YXLK    EP   1    13658.850                              96    0.06 7  102  16 
 YXLK    ES   3    13711.295                              96   -1.01 2  102  16 
 ZGXN    EP   1    137 8.821                              93   -0.28 6  172  69 
 ZGXN    ES   4    13732.325                              93    1.97 0  172  69 
 YAIP    EP   1    13711.949                              93    0.29 6  189  44 
 YAIP    ES   1    13734.761                              93   -0.06 6  189  44 
                                                                                
 2020  1 1 0138 20.2 L  35.638  51.978 20.0  New  8 0.3                        1
 GAP=292        0.49       3.6     5.3  4.7  0.4030E+01 -0.1540E+02  0.1562E+01E
 Action:ARG 22-06-18 16:58 OP:OBSP STATUS:               ID:20200101013820     I
 STAT SP IPHASW D HRMM SECON CODA AMPLIT PERI AZIMU VELO AIN AR TRES W  DIS CAZ7
 SRWZ    EP   4    13827.956                              97   -1.62 0 44.9   7 
 SRWZ    ES   1    13836.813                              97    0.18 7 44.9   7 
 TVCN    EP   0    13833.819                              93   -0.1610 71.4  16 
 TVCN    ES   4    13845.402                              93    1.07 0 71.4  16 
 YXLK    EP   4    13840.694                              62    1.80 0  104  19 
 YXLK    ES   2    13852.618                              62   -0.32 5  104  19 
 ZSCP    EP   0    13839.132                              62   -0.11 9  106  51 
 ZSCP    ES   0    13853.648                              62    0.10 9  106  51 
 YIBA    EP   1    13841.793                              62    0.53 7  120   4 
 YIBA    ES   4    13859.103                              62    2.02 0  120   4 
 XIVZ    EP   2    13844.615                              62   -0.46 4  146   2 
 XIVZ    ES   2    139 3.605                              62   -0.14 4  146   2 
 ZGXN    EP   1    13850.206                              62    0.36 6  178  69 
 ZGXN    ES   4    13910.533                              62   -1.57 0  178  69 
 YAIP    EP   0    13852.024                              62   -0.15 7  194  45 
 YAIP    ES   1    13916.074                              62   -0.11 5  194  45 
                                                                                
 2020  1 1 0140  0.2 L  36.113  52.233 12.3  New  4 0.1                        1
 GAP=256        0.35       4.7     9.1  2.1 -0.4116E+02 -0.5246E+01  0.2561E+01E
 Action:ARG 22-06-18 16:58 OP:OBSP STATUS:               ID:20200101014000     I
 STAT SP IPHASW D HRMM SECON CODA AMPLIT PERI AZIMU VELO AIN AR TRES W  DIS CAZ7
 TVCN    EP   4    140 2.838                             120   -1.51 0 16.1 350 
 TVCN    ES   1    140 7.473                             120    0.02 7 16.1 350 
 SRWZ    EP   4    140 6.599                             114    1.70 0 19.5 246 
 SRWZ    ES   0    140 8.393                             114   -0.0210 19.5 246 
 ZSCP    EP   4    14010.801                              93   -1.77 0 61.6  78 
 ZSCP    ES   4    14022.449                              93    0.61 0 61.6  78 
 YIBA    EP   1    14013.739                              93   -0.11 7 68.5 348 
 YIBA    ES   4    14023.161                              93   -0.91 0 68.5 348 
 EVSP    EP   0    14018.282                              64    0.1010 93.7 282 
 EVSP    ES   3    14031.311                              64   -0.35 2 93.7 282 
                                                                                
 2020  1 1 0141 40.1 L  35.847  52.006  2.8  New  3 0.0                        1
 GAP=228        0.34       4.5     3.2  6.3 -0.3808E+01  0.6261E+01 -0.1526E+02E
 Action:ARG 22-06-18 16:58 OP:OBSP STATUS:               ID:20200101014140     I
 STAT SP IPHASW D HRMM SECON CODA AMPLIT PERI AZIMU VELO AIN AR TRES W  DIS CAZ7
 TVCN    EP   4    14152.276                              64    1.97 0 48.7  21 
 TVCN    ES   4    14159.671                              64    1.69 0 48.7  21 
 YXLK    EP   4    14155.275                              56   -1.36 0 81.2  23 
 YXLK    ES   4    142 7.504                              56   -1.57 0 81.2  23 
 EVSP    EP   4    14159.456                              56    1.82 0 86.6 305 
 EVSP    ES   2    14210.822                              56    0.00 5 86.6 305 
 YIBA    EP   0    14159.487                              56    0.0010 96.6   3 
 YIBA    ES   1    14214.057                              56   -0.00 7 96.6   3 
 ZGXN    EP   4    142 8.581                              41   -1.88 0  169  76 
 ZGXN    ES   3    14233.259                              41    0.00 2  169  76 
 YAIP    EP   4    14213.212                              41    1.64 0  177  50 
 YAIP    ES   4    14232.747                              41   -2.46 0  177  50 
                                                                                
 2020  1 1 0143 20.0 L  36.437  52.281 13.6  New  7 0.2                        1
 GAP= 99        0.55       1.3     1.2  1.5 -0.8676E-01 -0.1248E-01 -0.3036E+00E
 Action:ARG 22-06-18 16:58 OP:OBSP STATUS:               ID:20200101014320     I
 STAT SP IPHASW D HRMM SECON CODA AMPLIT PERI AZIMU VELO AIN AR TRES W  DIS CAZ7
 YXLK    EP   4    14320.864                             136   -2.69 0 11.5  36 
 YXLK    ES   2    14326.755                             136    0.50 5 11.5  36 
 TVCN    EP   1    14324.685                             115   -0.37 7 21.3 200 
 TVCN    ES   0    14328.959                             115    0.0810 21.3 200 
 RVDG    EP   0    14331.041                              96   -0.1110 55.2  95 
 RVDG    ES   0    14339.521                              96   -0.0310 55.2  95 
 XIVZ    EP   0    14332.054                              95   -0.2610 61.5 338 
 XIVZ    ES   1    14341.784                              95    0.21 7 61.5 338 
 EVSP    EP   0    14338.573                              53    0.19 9 97.2 261 
 EVSP    ES   0    14352.143                              53   -0.05 9 97.2 261 
 YAIP    EP   0    14341.960                              53    0.19 9  120  66 
 YAIP    ES   1    14357.623                              53   -0.52 7  120  66 
 ZGXN    EP   0    14345.086                              53    0.13 8  142 101 
 ZGXN    ES   0    144 3.920                              53    0.21 8  142 101 
                                                                                
 2020  1 1 0144 60.0 L  36.283  51.591 14.5  New  7 0.2                        1
 GAP=147        0.39       3.3     2.0  5.0  0.5610E+01 -0.8975E+01 -0.1527E+02E
 Action:ARG 22-06-18 16:58 OP:OBSP STATUS:               ID:20200101014500     I
 STAT SP IPHASW D HRMM SECON CODA AMPLIT PERI AZIMU VELO AIN AR TRES W  DIS CAZ7
 EVSP    EP   0    145 7.317                             105    0.0010 33.9 271 
 EVSP    ES   0    14512.836                             105    0.0210 33.9 271 
 SRWZ    EP   0    145 9.747                              99   -0.1710 48.2 124 
 SRWZ    ES   0    14517.431                              99    0.0610 48.2 124 
 TVCN    EP   4    14512.922                              97    1.78 0 54.9  93 
 TVCN    ES   4    14517.886                              97   -1.63 0 54.9  93 
 YIBA    EP   0    14512.903                              96    0.0310 64.3  42 
 YIBA    ES   4    14524.170                              96    1.62 0 64.3  42 
 YXLK    EP   0    14514.680                              64    0.2610 73.6  69 
 YXLK    ES   0    14525.222                              64   -0.0310 73.6  69 
 XIVZ    EP   0    14516.038                              64   -0.0510 83.6  27 
 XIVZ    ES   3    14527.504                              64   -0.67 2 83.6  27 
 YAIP    EP   0    14530.932                              53   -0.16 7  184  69 
 YAIP    ES   0    14554.520                              53    0.09 7  184  69 
 ZGXN    EP   3    14532.732                              53   -0.95 2  202  92 
 ZGXN    ES   4    14557.693                              53   -1.26 0  202  92 
                                                                                
