 2020  1 1 0023 19.8 L  35.764  51.971  6.1  New  6 0.3                        1
 GAP=237        0.41       3.6     3.6  6.6  0.5329E+01 -0.1942E+02 -0.5839E+01E
 Action:ARG 22-06-16 12:10 OP:OBSP STATUS:               ID:20200101002320     I
 STAT SP IPHASW D HRMM SECON CODA AMPLIT PERI AZIMU VELO AIN AR TRES W  DIS CAZ7
 TVCN    EP   2    02332.119                              68    0.25 5 58.4  21 
 TVCN    ES   4    02338.319                              68   -2.58 0 58.4  21 
 EVSP    EP   0    02337.779                              68    0.1110 89.7 311 
 EVSP    ES   3    02351.602                              68    0.54 2 89.7 311 
 YXLK    EP   4    02335.890                              68   -1.99 0 90.9  22 
 YXLK    ES   3    02351.639                              68    0.21 2 90.9  22 
 YIBA    EP   0    02340.130                              56   -0.3110  106   5 
 YIBA    ES   2    02355.949                              56    0.03 5  106   5 
 RVDG    EP   4    02342.038                              47    1.22 0  108  50 
 RVDG    ES   4    02355.053                              47   -1.51 0  108  50 
 ZGXN    EP   0    02350.523                              47    0.01 8  174  74 
 ZGXN    ES   0    02413.539                              47   -0.00 8  174  74 
 YAIP    EP   3    02352.884                              47    0.82 2  185  48 
 YAIP    ES   3    02416.972                              47    0.71 2  185  48 
                                                                                
 2020  1 1 0024 59.9 L  36.077  51.994 14.6  New  3 0.3                        1
 GAP=319        0.44     629.1   999.9790.7 -0.8796E+06  0.1106E+07 -0.4974E+06E
 Action:ARG 22-06-16 12:10 OP:OBSP STATUS:               ID:20200101002500     I
 STAT SP IPHASW D HRMM SECON CODA AMPLIT PERI AZIMU VELO AIN AR TRES W  DIS CAZ7
 TVCN    EP   0    025 6.034                             111   -0.0110 27.2  43 
 TVCN    ES   3    025 9.868                             111   -0.81 2 27.2  43 
 YXLK    EP   4    025 9.699                              97   -2.11 0 59.0  33 
 YXLK    ES   1    02520.874                              97    0.12 7 59.0  33 
 EVSP    EP   4    02511.771                              64   -2.62 0 74.0 289 
 EVSP    ES   4    02524.965                              64   -0.30 0 74.0 289 
 XIVZ    EP   3    02518.863                              53    0.70 2 97.0   2 
 XIVZ    ES   1    02531.781                              53   -0.09 7 97.0   2 
                                                                                
 2020  1 1 0026 39.3 L  35.897  51.819 13.7  New  6 0.5                        1
 GAP=300        0.62       4.8     6.8  3.3  0.9955E+01  0.9415E+01  0.7939E+00E
 Action:ARG 22-06-16 12:10 OP:OBSP STATUS:               ID:20200101002640     I
 STAT SP IPHASW D HRMM SECON CODA AMPLIT PERI AZIMU VELO AIN AR TRES W  DIS CAZ7
 SRWZ    EP   2    02646.018                             111    0.91 5 25.2  51 
 SRWZ    ES   1    02649.170                             111   -0.26 8 25.2  51 
 TVCN    EP   1    02649.903                              96   -0.18 8 52.6  41 
 TVCN    ES   1    02658.289                              96    0.16 8 52.6  41 
 YIBA    EP   3    02656.437                              64   -0.76 2 93.6  14 
 YIBA    ES   0    02710.571                              64   -0.0110 93.6  14 
 ZSCP    EP   4    027 0.548                              53    1.74 0  104  69 
 ZSCP    ES   2    02713.596                              53    0.20 5  104  69 
 RVDG    EP   2    02659.137                              53   -0.69 5  111  60 
 RVDG    ES   2    02715.320                              53    0.14 5  111  60 
 XIVZ    EP   3    027 1.976                              53    1.09 2  118   9 
 XIVZ    ES   4    02718.067                              53    1.03 0  118   9 
                                                                                
 2020  1 1 0028 19.8 L  35.796  51.813 11.1  New  7 0.3                        1
 GAP=297        0.46       3.7     4.1  2.7  0.5639E+01 -0.1776E+01 -0.9059E+00E
 Action:ARG 22-06-16 12:10 OP:OBSP STATUS:               ID:20200101002820     I
 STAT SP IPHASW D HRMM SECON CODA AMPLIT PERI AZIMU VELO AIN AR TRES W  DIS CAZ7
 SRWZ    EP   3    02827.546                              95    0.52 2 33.8  36 
 SRWZ    ES   4    02830.275                              95   -2.16 0 33.8  36 
 TVCN    EP   0    02832.041                              92   -0.1910 61.9  34 
 TVCN    ES   2    02841.685                              92    0.15 5 61.9  34 
 YXLK    EP   4    02836.697                              64   -1.27 0 94.2  31 
 YXLK    ES   4    02849.245                              64   -2.33 0 94.2  31 
 YIBA    EP   0    02839.605                              53   -0.01 9  105  13 
 YIBA    ES   0    02854.484                              53    0.02 9  105  13 
 ZSCP    EP   2    02840.888                              53    0.58 5  109  64 
 ZSCP    ES   0    02855.627                              53   -0.05 9  109  64 
 RVDG    EP   1    02841.790                              53    0.26 7  118  56 
 RVDG    ES   4    02859.029                              53    1.21 0  118  56 
 ZGXN    EP   4    02850.680                              53   -1.09 0  187  76 
 ZGXN    ES   3    02914.759                              53   -0.97 2  187  76 
 YAIP    EP   2    02852.185                              53   -0.52 4  194  52 
 YAIP    ES   4    02919.009                              53    1.64 0  194  52 
                                                                                
 2020  1 1 0030  0.5 L  36.020  51.873 20.3  New  8 0.5                        1
 GAP=214        0.63       9.6     5.0  6.3  0.4809E+01 -0.1343E+02  0.1482E+02E
 Action:ARG 22-06-16 12:10 OP:OBSP STATUS:               ID:20200101003000     I
 STAT SP IPHASW D HRMM SECON CODA AMPLIT PERI AZIMU VELO AIN AR TRES W  DIS CAZ7
 SRWZ    EP   4    030 6.184                             137    0.82 0 14.8  81 
 SRWZ    ES   4    03010.209                             137    1.18 0 14.8  81 
 TVCN    EP   1    030 9.433                             101    0.4310 39.5  48 
 TVCN    ES   4    03014.347                             101   -1.04 0 39.5  48 
 EVSP    EP   2    03013.482                              94    0.02 7 66.4 297 
 EVSP    ES   4    03024.358                              94    1.15 0 66.4 297 
 YXLK    EP   1    03013.789                              93   -0.3710 70.6  38 
 YXLK    ES   3    03023.925                              93   -0.48 3 70.6  38 
 YIBA    EP   2    03014.889                              62   -0.70 6 79.2  13 
 YIBA    ES   4    03025.715                              62   -1.20 0 79.2  13 
 ZSCP    EP   4    03016.188                              62   -1.79 0 95.5  76 
 ZSCP    ES   1    03031.043                              62   -0.05 9 95.5  76 
 XIVZ    EP   3    03020.072                              62    0.81 3  104   7 
 XIVZ    ES   3    03034.651                              62    1.30 3  104   7 
 YAIP    EP   0    03029.684                              62    0.0510  175  57 
 YAIP    ES   4    03053.760                              62    2.26 0  175  57 
 ZGXN    EP   4    03028.222                              62   -1.80 0  177  83 
 ZGXN    ES   3    03053.380                              62    1.20 2  177  83 
                                                                                
 2020  1 1 0031 40.8 L  36.081  51.779 19.6  New  5 0.2                        1
 GAP=279        0.39       2.4     5.2  2.9  0.4166E+01 -0.7969E+01 -0.1259E+01E
 Action:ARG 22-06-16 12:10 OP:OBSP STATUS:               ID:20200101003140     I
 STAT SP IPHASW D HRMM SECON CODA AMPLIT PERI AZIMU VELO AIN AR TRES W  DIS CAZ7
 SRWZ    EP   1    03146.534                             118   -0.18 8 23.5 101 
 SRWZ    ES   3    03151.600                             118    0.42 3 23.5 101 
 TVCN    EP   1    03150.005                              97    0.24 8 42.6  63 
 TVCN    ES   1    03156.507                              97   -0.02 8 42.6  63 
 YIBA    EP   4    03156.368                              92    1.20 0 75.0  20 
 YIBA    ES   1    032 5.879                              92   -0.09 8 75.0  20 
 RVDG    EP   4    03158.016                              62   -1.83 0  106  71 
 RVDG    ES   0    03214.233                              62    0.0710  106  71 
 ZGXN    EP   2    03211.748                              62    0.25 4  185  86 
 ZGXN    ES   1    03234.250                              62   -0.30 6  185  86 
                                                                                
 2020  1 1 0033 18.9 L  36.121  52.437 10.0  New  2 0.0                        1
 GAP=343        0.27       5.0     5.4  0.0 -0.2706E+02 -0.7969E+01 -0.1259E+01E
 Action:ARG 22-06-16 12:10 OP:OBSP STATUS:               ID:20200101003320     I
 STAT SP IPHASW D HRMM SECON CODA AMPLIT PERI AZIMU VELO AIN AR TRES W  DIS CAZ7
 YXLK    EP   0    03328.191                              68   -0.0010 45.0 351 
 YXLK    ES   3    03335.201                              68    0.05 2 45.0 351 
 YIBA    EP   0    03333.535                              68    0.0010 73.8 334 
 YIBA    ES   2    03344.479                              68   -0.01 5 73.8 334 
 XIVZ    EP   4    03335.775                              56   -2.23 0 99.3 338 
 XIVZ    ES   4    03354.368                              56    2.05 0 99.3 338 
                                                                                
 2020  1 1 0034 59.9 L  35.795  51.961  4.4  New  4 0.3                        1
 GAP=291        0.52       4.2     4.8  3.4  0.1067E+02 -0.6493E+00  0.5929E+01E
 Action:ARG 22-06-16 12:10 OP:OBSP STATUS:               ID:20200101003500     I
 STAT SP IPHASW D HRMM SECON CODA AMPLIT PERI AZIMU VELO AIN AR TRES W  DIS CAZ7
 TVCN    EP   2    03510.791                              90   -0.64 5 55.5  23 
 TVCN    ES   1    03520.226                              90    0.17 8 55.5  23 
 YIBA    EP   1    03520.505                              56    0.30 7  103   5 
 YIBA    ES   0    03535.319                              56   -0.0810  103   5 
 XIVZ    EP   4    03522.860                              47   -1.25 0  128   3 
 XIVZ    ES   4    03540.802                              47   -1.44 0  128   3 
 ZGXN    EP   4    03529.506                              47   -1.37 0  174  75 
 ZGXN    ES   0    03554.124                              47    0.05 8  174  75 
 YAIP    EP   4    03533.090                              47    0.89 0  183  49 
 YAIP    ES   0    03556.316                              47   -0.08 8  183  49 
                                                                                
 2020  1 1 0036 39.8 L  36.372  51.827 14.1  New  5 0.3                        1
 GAP=279        0.54       2.3     5.9  2.2  0.8586E+01 -0.1000E+00  0.4601E+00E
 Action:ARG 22-06-16 12:10 OP:OBSP STATUS:               ID:20200101003640     I
 STAT SP IPHASW D HRMM SECON CODA AMPLIT PERI AZIMU VELO AIN AR TRES W  DIS CAZ7
 TVCN    EP   2    03648.207                             103    0.69 5 35.9 111 
 TVCN    ES   0    03653.132                             103   -0.1510 35.9 111 
 YIBA    EP   2    03648.409                              99   -0.54 5 43.8  30 
 YIBA    ES   0    03655.842                              99    0.0610 43.8  30 
 YXLK    EP   4    03652.428                              98    2.30 0 50.2  71 
 YXLK    ES   0    03657.905                              98    0.0610 50.2  71 
 RVDG    EP   4    03659.259                              53    1.28 0 95.7  88 
 RVDG    ES   0    03711.653                              53    0.0710 95.7  88 
 YAIP    EP   4    037 5.951                              53   -1.60 0  161  70 
 YAIP    ES   1    03728.148                              53   -0.19 6  161  70 
                                                                                
 2020  1 1 0038 17.8 L  35.739  51.952 24.4  New  4 0.0                        1
 GAP=293        0.34      13.3     9.1  5.0  0.7988E+02 -0.2964E+02 -0.2039E+02E
 Action:ARG 22-06-16 12:10 OP:OBSP STATUS:               ID:20200101003820     I
 STAT SP IPHASW D HRMM SECON CODA AMPLIT PERI AZIMU VELO AIN AR TRES W  DIS CAZ7
 SRWZ    EP   1    03825.757                             116   -0.00 7 34.3  13 
 SRWZ    ES   4    03832.083                             116    0.37 0 34.3  13 
 YXLK    EP   4    03836.211                              62    1.42 0 94.1  23 
 YXLK    ES   3    03847.527                              62   -0.00 2 94.1  23 
 ZSCP    EP   4    03835.602                              62   -0.28 0  102  57 
 ZSCP    ES   4    03851.114                              62    1.69 0  102  57 
 YIBA    EP   2    03836.967                              62    0.00 5  109   6 
 YIBA    ES   4    03851.925                              62    0.60 0  109   6 
 ZGXN    EP   4    03849.638                              62    2.68 0  177  73 
 ZGXN    ES   2    039 8.813                              62    0.00 4  177  73 
                                                                                
 2020  1 1 0040  0.1 L  36.460  52.041 12.0  New  7 0.3                        1
 GAP=109        0.56       1.6     2.7  3.7 -0.6071E+00 -0.6768E+01  0.1198E+01E
 Action:ARG 22-06-16 12:10 OP:OBSP STATUS:               ID:20200101004000     I
 STAT SP IPHASW D HRMM SECON CODA AMPLIT PERI AZIMU VELO AIN AR TRES W  DIS CAZ7
 YIBA    EP   1    040 6.444                             101    0.04 7 28.5   5 
 YIBA    ES   1    04010.973                             101   -0.12 7 28.5   5 
 YXLK    EP   4    040 7.584                             101    1.08 0 29.1  76 
 YXLK    ES   3    04011.716                             101    0.43 2 29.1  76 
 SRWZ    EP   0    040 9.641                              94   -0.0710 46.5 181 
 SRWZ    ES   3    04016.098                              94   -0.79 2 46.5 181 
 EVSP    EP   4    04016.825                              92    1.54 0 76.6 256 
 EVSP    ES   2    04027.205                              92    0.56 5 76.6 256 
 RVDG    EP   4    04014.093                              92   -1.24 0 76.9  95 
 RVDG    ES   2    04027.082                              92    0.36 5 76.9  95 
 ZSCP    EP   2    04015.349                              64   -0.73 5 81.3 108 
 ZSCP    ES   0    04028.268                              64    0.2310 81.3 108 
 YAIP    EP   0    04024.705                              53   -0.27 8  139  71 
 YAIP    ES   0    04043.673                              53    0.08 8  139  71 
                                                                                
 2020  1 1 0041 40.1 L  36.143  52.024  8.4  New  9 0.4                        1
 GAP=108        0.56       2.0     1.3  3.5 -0.4754E+00  0.7517E+00 -0.2504E+01E
 Action:ARG 22-06-16 12:10 OP:OBSP STATUS:               ID:20200101004140     I
 STAT SP IPHASW D HRMM SECON CODA AMPLIT PERI AZIMU VELO AIN AR TRES W  DIS CAZ7
 SRWZ    EP   4    04141.706                             123   -1.36 0 11.4 175 
 SRWZ    ES   3    04144.034                             123   -1.27 2 11.4 175 
 TVCN    EP   1    04144.884                             108    0.21 7 20.2  52 
 TVCN    ES   3    04147.284                             108   -0.82 2 20.2  52 
 YXLK    EP   4    04149.119                              68   -1.57 0 51.4  35 
 YXLK    ES   1    04159.020                              68    0.39 7 51.4  35 
 YIBA    EP   0    04152.826                              68   -0.1110 63.6   4 
 YIBA    ES   0    042 2.545                              68   -0.0310 63.6   4 
 EVSP    EP   0    04155.128                              68    0.1610 74.6 283 
 EVSP    ES   0    042 6.154                              68    0.0210 74.6 283 
 ZSCP    EP   4    04152.518                              68   -3.36 0 79.5  83 
 ZSCP    ES   0    042 7.626                              68   -0.1010 79.5  83 
 RVDG    EP   2    04156.993                              68    0.49 5 82.9  70 
 RVDG    ES   4    042 9.760                              68    0.95 0 82.9  70 
 XIVZ    EP   1    04157.468                              56   -0.28 7 89.6   0 
 XIVZ    ES   2    04210.382                              56   -0.61 5 89.6   0 
 ZGXN    EP   3    042 9.497                              47    0.71 2  163  88 
 ZGXN    ES   4    04228.878                              47   -1.43 0  163  88 
                                                                                
 2020  1 1 0043 20.1 L  35.937  52.068 13.2  New  9 0.3                        1
 GAP=218        0.41       3.2     1.6  3.3  0.9749E+00  0.3214E+00  0.6020E+01E
 Action:ARG 22-06-16 12:10 OP:OBSP STATUS:               ID:20200101004320     I
 STAT SP IPHASW D HRMM SECON CODA AMPLIT PERI AZIMU VELO AIN AR TRES W  DIS CAZ7
 SRWZ    EP   3    04324.371                             133    0.63 3 11.9 346 
 SRWZ    ES   4    04325.025                             133   -1.42 0 11.9 346 
 TVCN    EP   4    04327.001                             100   -1.07 0 37.4  19 
 TVCN    ES   1    04333.893                             100   -0.12 8 37.4  19 
 YXLK    EP   3    04334.956                              94    0.92 3 69.8  22 
 YXLK    ES   4    04343.715                              94   -0.75 0 69.8  22 
 ZSCP    EP   1    04335.782                              64   -0.29 7 81.8  66 
 ZSCP    ES   0    04348.168                              64    0.1510 81.8  66 
 EVSP    EP   4    04334.893                              64   -1.91 0 86.2 297 
 EVSP    ES   1    04349.331                              64    0.03 7 86.2 297 
 YIBA    EP   3    04336.375                              64   -0.46 2 86.4   0 
 YIBA    ES   2    04349.432                              64    0.08 5 86.4   0 
 XIVZ    EP   3    04340.286                              53   -0.60 2  113 358 
 XIVZ    ES   4    04359.123                              53    2.69 0  113 358 
 ZGXN    EP   4    04350.510                              53    2.45 0  161  79 
 ZGXN    ES   2    044 8.736                              53   -0.26 4  161  79 
 YAIP    EP   0    04348.841                              53    0.12 8  166  51 
 YAIP    ES   2    044 9.967                              53   -0.18 4  166  51 
                                                                                
