 2020  1 1 0216 39.6 L  35.913  52.043 14.2  New  9 0.4                        1
 GAP=221        0.53       5.0     4.2  2.4  0.8876E+01 -0.2893E+01 -0.1033E+01E
 Action:ARG 22-06-16 12:10 OP:OBSP STATUS:               ID:20200101021640     I
 STAT SP IPHASW D HRMM SECON CODA AMPLIT PERI AZIMU VELO AIN AR TRES W  DIS CAZ7
 SRWZ    EP   0    21643.804                             131    0.1210 14.1 357 
 SRWZ    ES   4    21648.183                             131    1.47 0 14.1 357 
 TVCN    EP   0    21648.058                             101   -0.1210 40.6  20 
 TVCN    ES   4    21655.136                             101    0.55 0 40.6  20 
 YXLK    EP   1    21653.616                              64   -0.41 7 73.1  23 
 YXLK    ES   4    217 5.772                              64    0.96 0 73.1  23 
 ZSCP    EP   4    21659.253                              64    3.25 0 84.9  65 
 ZSCP    ES   3    217 7.416                              64   -0.85 2 84.9  65 
 EVSP    EP   4    21654.149                              64   -1.94 0 85.5 299 
 EVSP    ES   3    217 8.019                              64   -0.41 2 85.5 299 
 YIBA    EP   0    21656.902                              64    0.2210 89.0   1 
 YIBA    ES   3    217 8.421                              64   -1.04 2 89.0   1 
 RVDG    EP   4    21658.495                              64    1.13 0 93.1  55 
 RVDG    ES   2    21711.049                              64    0.39 5 93.1  55 
 XIVZ    EP   0    217 0.571                              53   -0.06 9  115 359 
 XIVZ    ES   2    21716.816                              53    0.44 5  115 359 
 ZGXN    EP   0    217 7.823                              53   -0.01 8  164  79 
 ZGXN    ES   3    21730.000                              53    1.02 2  164  79 
 YAIP    EP   4    217 7.100                              53   -1.49 0  169  51 
 YAIP    ES   4    21731.641                              53    1.34 0  169  51 
                                                                                
 2020  1 1 0218 21.1 L  36.018  52.110 15.0  New  4 0.0                        1
 GAP=231        0.29       6.5     5.4  6.2  0.3009E+02 -0.3065E+02 -0.3847E+02E
 Action:ARG 22-06-16 12:10 OP:OBSP STATUS:               ID:20200101021820     I
 STAT SP IPHASW D HRMM SECON CODA AMPLIT PERI AZIMU VELO AIN AR TRES W  DIS CAZ7
 SRWZ    EP   1    21824.448                             152   -0.01 7 7.24 291 
 SRWZ    ES   4    21825.663                             152   -1.31 0 7.24 291 
 YIBA    EP   1    21836.203                              64    0.04 7 77.5 357 
 YIBA    ES   1    21847.437                              64   -0.02 7 77.5 357 
 RVDG    EP   2    21836.829                              64   -0.04 5 81.7  59 
 RVDG    ES   2    21848.742                              64    0.06 5 81.7  59 
 XIVZ    EP   4    21841.109                              53    0.76 0  104 356 
 XIVZ    ES   4    21856.639                              53    1.86 0  104 356 
 YAIP    EP   4    21846.182                              53   -2.03 0  157  53 
 YAIP    ES   2    219 8.468                              53   -0.07 4  157  53 
                                                                                
 2020  1 1 0219 59.5 L  36.025  52.216  7.1  New  9 0.4                        1
 GAP=206        0.52       2.6     1.9  2.5  0.1220E+01 -0.1072E+01  0.1348E+01E
 Action:ARG 22-06-16 12:10 OP:OBSP STATUS:               ID:20200101022000     I
 STAT SP IPHASW D HRMM SECON CODA AMPLIT PERI AZIMU VELO AIN AR TRES W  DIS CAZ7
 SRWZ    EP   4    220 6.295                             108    3.06 0 16.3 276 
 SRWZ    ES   4    220 8.206                             108    2.15 0 16.3 276 
 TVCN    EP   0    220 4.930                             100   -0.1310 25.7 357 
 TVCN    ES   4    220 7.744                             100   -1.50 0 25.7 357 
 YXLK    EP   1    22011.432                              68    0.33 7 56.5  13 
 YXLK    ES   4    22017.863                              68   -1.96 0 56.5  13 
 ZSCP    EP   4    22014.716                              68    1.89 0 65.8  70 
 ZSCP    ES   3    22022.022                              68   -0.82 2 65.8  70 
 RVDG    EP   3    22015.139                              68    0.92 2 73.3  56 
 RVDG    ES   3    22024.287                              68   -0.98 2 73.3  56 
 YIBA    EP   3    22014.260                              68   -0.78 2 77.8 350 
 YIBA    ES   1    22026.837                              68    0.12 7 77.8 350 
 EVSP    EP   2    22017.849                              56   -0.29 5 94.8 288 
 EVSP    ES   1    22032.083                              56   -0.06 7 94.8 288 
 XIVZ    EP   4    22022.250                              56    2.54 0  104 351 
 XIVZ    ES   1    22034.944                              56    0.07 7  104 351 
 ZGXN    EP   1    22026.500                              47    0.52 6  147  82 
 ZGXN    ES   0    22045.796                              47   -0.07 8  147  82 
 YAIP    EP   3    22025.458                              47   -0.92 2  149  51 
 YAIP    ES   0    22046.449                              47   -0.10 8  149  51 
                                                                                
 2020  1 1 0221 39.3 L  35.544  52.492 11.6  New  5 0.5                        1
 GAP=274        0.58       6.7     4.6  5.4 -0.1375E+02 -0.9861E+01  0.3430E+00E
 Action:ARG 22-06-16 12:10 OP:OBSP STATUS:               ID:20200101022140     I
 STAT SP IPHASW D HRMM SECON CODA AMPLIT PERI AZIMU VELO AIN AR TRES W  DIS CAZ7
 SRWZ    EP   0    22153.146                              92    0.1310 68.8 323 
 SRWZ    ES   3    222 2.008                              92   -1.28 2 68.8 323 
 TVCN    EP   4    22157.092                              64    1.48 0 83.3 342 
 TVCN    ES   4    222 9.392                              64    1.56 0 83.3 342 
 ZSCP    EP   4    22154.053                              64   -1.79 0 84.7  26 
 ZSCP    ES   1    222 8.410                              64    0.17 7 84.7  26 
 YIBA    EP   2    222 3.064                              53   -0.53 4  135 344 
 YIBA    ES   3    22220.466                              53   -1.34 2  135 344 
 ZGXN    EP   4    222 2.998                              53   -1.37 0  141  59 
 ZGXN    ES   4    22224.498                              53    1.35 0  141  59 
 EVSP    EP   1    222 4.461                              53   -0.08 6  142 306 
 EVSP    ES   2    22224.019                              53    0.56 4  142 306 
 YAIP    EP   0    222 9.039                              53   -0.09 8  173  32 
 YAIP    ES   4    22230.059                              53   -1.44 0  173  32 
                                                                                
 2020  1 1 0223 19.3 L  36.168  51.852 30.3  New  5 0.3                        1
 GAP=295        0.58       5.3     6.9 19.6  0.1244E+02  0.1188E+02 -0.4399E+02E
 Action:ARG 22-06-16 12:10 OP:OBSP STATUS:               ID:20200101022320     I
 STAT SP IPHASW D HRMM SECON CODA AMPLIT PERI AZIMU VELO AIN AR TRES W  DIS CAZ7
 TVCN    EP   1    22327.496                             119    0.15 7 32.8  73 
 TVCN    ES   4    22330.631                             119   -2.78 0 32.8  73 
 YXLK    EP   1    22330.992                              99   -0.13 7 59.8  49 
 YXLK    ES   1    22339.610                              99   -0.40 7 59.8  49 
 YIBA    EP   1    22331.465                              98   -0.23 7 63.7  18 
 YIBA    ES   2    22341.356                              98    0.34 5 63.7  18 
 XIVZ    EP   4    22334.244                              95   -1.02 0 88.2  10 
 XIVZ    ES   1    22347.479                              95    0.21 7 88.2  10 
 RVDG    EP   4    22336.464                              94   -0.06 0 96.8  75 
 RVDG    ES   2    22350.096                              94    0.62 5 96.8  75 
 ZGXN    EP   4    22348.273                              92   -0.20 0  178  89 
 ZGXN    ES   4    22413.269                              92    2.89 0  178  89 
                                                                                
 2020  1 1 0225  2.9 L  36.479  52.896  0.0  New  3 0.5                        1
 GAP=166        0.60      11.0     8.4 22.4  0.8548E+02 -0.1698E+03 -0.2388E+03E
 Action:ARG 22-06-16 12:10 OP:OBSP STATUS:               ID:20200101022500     I
 STAT SP IPHASW D HRMM SECON CODA AMPLIT PERI AZIMU VELO AIN AR TRES W  DIS CAZ7
 ZSCP    EP   0    225 8.901                              90   -0.1310 27.6 179 
 ZSCP    ES   3    22514.922                              90    1.30 2 27.6 179 
 ZGXN    EP   0    22521.348                              56   -0.0910 89.9 111 
 ZGXN    ES   3    22536.601                              56    1.27 2 89.9 111 
 XIVZ    EP   0    22522.237                              56    0.0610 93.9 304 
 XIVZ    ES   4    22537.037                              56    0.40 0 93.9 304 
                                                                                
 2020  1 1 0226 39.8 L  35.951  52.016  8.8  New  4 0.3                        1
 GAP=240        0.51       3.3     2.3  6.9 -0.1010E+01 -0.9237E+01 -0.3255E+00E
 Action:ARG 22-06-16 12:10 OP:OBSP STATUS:               ID:20200101022640     I
 STAT SP IPHASW D HRMM SECON CODA AMPLIT PERI AZIMU VELO AIN AR TRES W  DIS CAZ7
 YXLK    EP   3    22653.024                              68   -0.80 3 70.2  26 
 YXLK    ES   4    227 3.243                              68   -1.11 0 70.2  26 
 EVSP    EP   1    22655.578                              68   -0.30 8 81.4 298 
 EVSP    ES   1    227 8.120                              68    0.16 8 81.4 298 
 YIBA    EP   0    22656.777                              68    0.2310 84.9   3 
 YIBA    ES   0    227 9.014                              68   -0.1110 84.9   3 
 RVDG    EP   4    22656.626                              56   -1.30 0 92.8  58 
 RVDG    ES   0    22711.550                              56    0.0110 92.8  58 
 XIVZ    EP   4    227 2.315                              47    1.52 0  111   0 
 XIVZ    ES   4    22714.764                              47   -1.79 0  111   0 
                                                                                
 2020  1 1 0228 20.9 L  35.974  52.302 11.4  New  7 0.3                        1
 GAP=210        0.42       2.3     1.8  2.8  0.8684E+00  0.1562E+01  0.1888E+00E
 Action:ARG 22-06-16 12:10 OP:OBSP STATUS:               ID:20200101022820     I
 STAT SP IPHASW D HRMM SECON CODA AMPLIT PERI AZIMU VELO AIN AR TRES W  DIS CAZ7
 SRWZ    EP   4    22828.407                             102    1.84 0 25.2 287 
 SRWZ    ES   4    22828.730                             102   -2.07 0 25.2 287 
 YXLK    EP   4    22835.119                              92    1.96 0 60.9   5 
 YXLK    ES   4    22845.219                              92    2.89 0 60.9   5 
 ZSCP    EP   2    22833.334                              92    0.15 6 61.0  62 
 ZSCP    ES   3    22843.287                              92    0.92 3 61.0  62 
 RVDG    EP   2    22835.277                              92    0.33 6 70.5  49 
 RVDG    ES   1    22845.225                              92   -0.23 9 70.5  49 
 YIBA    EP   2    22837.946                              64    0.43 6 84.9 346 
 YIBA    ES   1    22850.033                              64    0.08 9 84.9 346 
 EVSP    EP   1    22840.542                              53   -0.07 8  104 290 
 EVSP    ES   3    22856.028                              53    0.66 3  104 290 
 XIVZ    EP   1    22841.289                              53   -0.38 8  111 347 
 XIVZ    ES   1    22857.240                              53    0.02 8  111 347 
 ZGXN    EP   1    22845.742                              53   -0.15 8  140  80 
 ZGXN    ES   1    229 4.740                              53    0.13 8  140  80 
 YAIP    EP   0    22846.931                              53   -0.0210  147  47 
 YAIP    ES   1    229 6.462                              53   -0.01 7  147  47 
                                                                                
 2020  1 1 0230  1.4 L  36.016  52.092 19.4  New  3 0.0                        1
 GAP=271        0.34       7.7     9.1  4.4 -0.6013E+02  0.1919E+02 -0.4185E+01E
 Action:ARG 22-06-16 12:10 OP:OBSP STATUS:               ID:20200101023000     I
 STAT SP IPHASW D HRMM SECON CODA AMPLIT PERI AZIMU VELO AIN AR TRES W  DIS CAZ7
 SRWZ    EP   4    230 6.004                             160    0.63 0 5.84 299 
 SRWZ    ES   3    230 8.346                             160   -0.00 2 5.84 299 
 TVCN    EP   1    230 8.101                             109   -0.00 7 28.4  20 
 TVCN    ES   1    23013.125                             109   -0.00 7 28.4  20 
 EVSP    EP   1    23017.384                              62    0.00 7 84.7 291 
 EVSP    ES   4    23032.680                              62    3.32 0 84.7 291 
 YAIP    EP   4    23025.925                              62   -2.36 0  159  53 
 YAIP    ES   4    23049.657                              62    1.22 0  159  53 
                                                                                
 2020  1 1 0231 42.0 L  35.952  52.212  0.0  New  3 1.1                        1
 GAP=253        0.82      18.1    40.9 50.2 -0.1156E+03 -0.1976E+04 -0.7266E+01E
 Action:ARG 22-06-16 12:10 OP:OBSP STATUS:               ID:20200101023140     I
 STAT SP IPHASW D HRMM SECON CODA AMPLIT PERI AZIMU VELO AIN AR TRES W  DIS CAZ7
 SRWZ    EP   1    23146.344                              90    0.13 7 18.8 302 
 SRWZ    ES   4    23152.894                              90    3.54 0 18.8 302 
 YXLK    EP   3    23153.732                              64   -1.98 2 64.5  12 
 YXLK    ES   3    232 6.214                              64    0.24 2 64.5  12 
 YIBA    EP   4    23152.546                              56   -7.26 0 85.7 351 
 YIBA    ES   4    232 4.844                              56   -8.29 0 85.7 351 
 EVSP    EP   4    23148.395                              56   -13.6 0 97.4 293 
 EVSP    ES   4    23155.921                              56   -21.0 0 97.4 293 
 ZGXN    EP   4    23213.312                              41    3.45 0  148  79 
 ZGXN    ES   4    23237.475                              41    6.75 0  148  79 
 YAIP    EP   3    232 9.720                              41   -1.10 2  155  49 
 YAIP    ES   3    23234.431                              41    2.03 2  155  49 
                                                                                
 2020  1 1 0233 20.1 L  36.294  52.119  4.1  New  4 0.3                        1
 GAP=150        0.54       2.6     2.9 13.7  0.1126E+01 -0.2023E+02 -0.1386E+02E
 Action:ARG 22-06-16 12:10 OP:OBSP STATUS:               ID:20200101023320     I
 STAT SP IPHASW D HRMM SECON CODA AMPLIT PERI AZIMU VELO AIN AR TRES W  DIS CAZ7
 TVCN    ES   2    23323.244                              64   -0.14 5 8.42 120 
 TVCN    EP   4    23324.031                              64    2.05 0 8.42 120 
 YXLK    EP   3    23326.349                              64   -0.55 3 33.0  40 
 YXLK    ES   2    23331.869                              64   -0.11 5 33.0  40 
 XIVZ    EP   1    23335.342                              56    0.50 8 73.4 353 
 XIVZ    ES   2    23345.580                              56   -0.32 5 73.4 353 
 EVSP    EP   0    23336.215                              56   -0.1010 81.3 270 
 EVSP    ES   4    23347.355                              56   -1.12 0 81.3 270 
                                                                                
 2020  1 1 0235  0.5 L  35.855  51.968 23.4  New  8 0.4                        1
 GAP=229        0.51       5.2     2.4  7.9  0.3578E+01  0.1427E+01 -0.2740E+01E
 Action:ARG 22-06-16 12:10 OP:OBSP STATUS:               ID:20200101023500     I
 STAT SP IPHASW D HRMM SECON CODA AMPLIT PERI AZIMU VELO AIN AR TRES W  DIS CAZ7
 SRWZ    EP   4    235 4.075                             131   -2.48 0 21.4  16 
 SRWZ    ES   4    235 6.930                             131   -4.15 0 21.4  16 
 TVCN    EP   4    23511.830                             104    1.11 0 49.1  25 
 TVCN    ES   3    23518.240                             104   -0.13 3 49.1  25 
 YXLK    EP   1    23515.803                              62    0.06 8 81.7  25 
 YXLK    ES   4    23525.589                              62   -1.57 0 81.7  25 
 EVSP    EP   0    23516.030                              62    0.0610 83.3 305 
 EVSP    ES   1    23527.526                              62   -0.04 7 83.3 305 
 ZSCP    EP   4    23516.074                              62   -1.45 0 93.8  63 
 ZSCP    ES   3    23531.454                              62    1.18 2 93.8  63 
 RVDG    EP   2    23519.396                              62    0.62 5  102  54 
 RVDG    ES   4    23533.904                              62    1.43 0  102  54 
 XIVZ    EP   4    23520.324                              62   -1.29 0  122   2 
 XIVZ    ES   2    23537.164                              62   -0.28 5  122   2 
 ZGXN    EP   1    23528.537                              62   -0.49 6  172  77 
 ZGXN    ES   1    23550.381                              62   -0.03 6  172  77 
 YAIP    EP   3    23529.034                              62   -0.95 2  179  51 
 YAIP    ES   4    23551.264                              62   -0.82 0  179  51 
                                                                                
 2020  1 1 0236 40.3 L  36.073  52.127 16.5  New 10 0.4                        1
 GAP=162        0.58       2.8     1.8  2.3  0.6371E-01 -0.9974E+00 -0.3521E+01E
 Action:ARG 22-06-16 12:10 OP:OBSP STATUS:               ID:20200101023640     I
 STAT SP IPHASW D HRMM SECON CODA AMPLIT PERI AZIMU VELO AIN AR TRES W  DIS CAZ7
 SRWZ    EP   0    23644.040                             149    0.0410 9.00 247 
 SRWZ    ES   4    23648.071                             149    1.26 0 9.00 247 
 TVCN    EP   4    23644.543                             123   -1.09 0 21.4  18 
 TVCN    ES   2    23649.388                             123   -0.27 5 21.4  18 
 YXLK    EP   3    23650.506                              64   -0.74 2 53.8  22 
 YXLK    ES   2    23659.196                              64   -0.30 5 53.8  22 
 YIBA    EP   2    23654.740                              64    0.55 5 71.5 356 
 YIBA    ES   3    237 4.028                              64   -0.62 2 71.5 356 
 ZSCP    EP   1    23654.308                              64    0.06 7 71.8  76 
 ZSCP    ES   1    237 4.835                              64    0.09 7 71.8  76 
 RVDG    EP   3    23655.934                              64    0.75 2 77.5  63 
 RVDG    ES   2    237 5.630                              64   -0.75 5 77.5  63 
 EVSP    EP   2    23656.925                              64    0.39 5 85.6 287 
 EVSP    ES   1    237 8.263                              64   -0.49 7 85.6 287 
 XIVZ    EP   1    23658.701                              53    0.25 7 97.9 355 
 XIVZ    ES   0    23712.315                              53    0.21 9 97.9 355 
 YAIP    EP   4    237 4.977                              53   -1.51 0  153  54 
 YAIP    ES   0    23726.188                              53    0.03 8  153  54 
 ZGXN    EP   4    237 7.605                              53    0.89 0  154  85 
 ZGXN    ES   3    23725.289                              53   -1.27 2  154  85 
                                                                                
