 2020  1 1 0153 19.6 L  35.876  52.182 10.6  New  4 0.2                        1
 GAP=276        0.38       6.5     4.1  6.2 -0.1328E+02 -0.1977E+02  0.2349E+02E
 Action:ARG 22-06-16 12:10 OP:OBSP STATUS:               ID:20200101015320     I
 STAT SP IPHASW D HRMM SECON CODA AMPLIT PERI AZIMU VELO AIN AR TRES W  DIS CAZ7
 SRWZ    EP   4    15326.814                             100    2.07 0 22.6 324 
 SRWZ    ES   3    15329.073                             100    0.46 3 22.6 324 
 YXLK    EP   1    15334.134                              91    0.01 8 73.3  12 
 YXLK    ES   2    15344.759                              91   -0.26 5 73.3  12 
 RVDG    EP   3    15335.788                              64   -0.62 2 85.9  48 
 RVDG    ES   0    15349.105                              64    0.0910 85.9  48 
 YIBA    EP   0    15337.695                              64   -0.0210 93.8 354 
 YIBA    ES   4    15352.556                              64    1.25 0 93.8 354 
                                                                                
 2020  1 1 0155  0.1 L  35.753  52.139 12.4  New  9 0.3                        1
 GAP=254        0.52       2.9     3.3  2.8 -0.2341E+01 -0.4910E+01  0.3269E+01E
 Action:ARG 22-06-16 12:10 OP:OBSP STATUS:               ID:20200101015500     I
 STAT SP IPHASW D HRMM SECON CODA AMPLIT PERI AZIMU VELO AIN AR TRES W  DIS CAZ7
 SRWZ    EP   0    155 6.952                             100   -0.2810 33.3 344 
 SRWZ    ES   1    15512.961                             100    0.37 7 33.3 344 
 TVCN    EP   4    155 9.995                              94   -1.45 0 56.1   6 
 TVCN    ES   0    15519.950                              94   -0.0110 56.1   6 
 ZSCP    EP   4    15516.005                              64   -0.90 0 86.8  52 
 ZSCP    ES   2    15529.345                              64   -0.18 5 86.8  52 
 YXLK    EP   0    15517.123                              64    0.1110 87.5  13 
 YXLK    ES   1    15529.585                              64   -0.13 7 87.5  13 
 RVDG    EP   2    15518.490                              53   -0.31 5 98.2  44 
 RVDG    ES   1    15532.863                              53    0.03 7 98.2  44 
 EVSP    EP   1    15519.602                              53    0.18 7  102 306 
 EVSP    ES   4    15534.685                              53    0.77 0  102 306 
 YIBA    EP   0    15520.180                              53    0.09 9  107 357 
 YIBA    ES   1    15534.929                              53   -0.17 7  107 357 
 XIVZ    EP   4    15522.360                              53   -1.61 0  133 356 
 XIVZ    ES   2    15541.409                              53   -0.47 4  133 356 
 ZGXN    EP   4    15530.270                              53    2.35 0  160  72 
 ZGXN    ES   4    15547.685                              53   -1.12 0  160  72 
 YAIP    EP   4    15529.170                              53   -0.89 0  175  45 
 YAIP    ES   2    15553.541                              53    1.00 4  175  45 
                                                                                
 2020  1 1 0156 40.7 L  36.048  52.119 10.0  New  3 0.5                        1
 GAP=271        0.56      11.3    15.3  8.5 -0.9644E+02  0.9112E+02 -0.5005E+02E
 Action:ARG 22-06-16 12:10 OP:OBSP STATUS:               ID:20200101015640     I
 STAT SP IPHASW D HRMM SECON CODA AMPLIT PERI AZIMU VELO AIN AR TRES W  DIS CAZ7
 TVCN    EP   2    15646.672                              68    0.49 5 24.2  18 
 TVCN    ES   3    15649.703                              68   -0.55 2 24.2  18 
 YIBA    EP   2    15654.824                              68   -0.60 5 74.2 357 
 YIBA    ES   2    157 6.630                              68    0.19 5 74.2 357 
 EVSP    EP   4    15659.402                              68    1.84 0 85.7 288 
 EVSP    ES   3    15710.410                              68    0.24 2 85.7 288 
                                                                                
 2020  1 1 0158 20.5 L  35.993  51.957 13.6  New  4 0.3                        1
 GAP=308        0.59       8.3     8.4  5.4  0.3850E+02 -0.2282E+02 -0.2669E+02E
 Action:ARG 22-06-16 12:10 OP:OBSP STATUS:               ID:20200101015820     I
 STAT SP IPHASW D HRMM SECON CODA AMPLIT PERI AZIMU VELO AIN AR TRES W  DIS CAZ7
 SRWZ    EP   2    15823.842                             144    0.09 6 8.78  53 
 SRWZ    ES   4    15824.250                             144   -1.96 0 8.78  53 
 YIBA    EP   1    15836.367                              64    0.1710 80.8   7 
 YIBA    ES   2    15847.521                              64   -0.46 6 80.8   7 
 XIVZ    EP   1    15840.481                              53    0.22 9  106   3 
 XIVZ    ES   4    15856.754                              53    1.66 0  106   3 
 YAIP    EP   0    15849.200                              53   -0.4210  170  55 
 YAIP    ES   1    15911.892                              53    0.42 7  170  55 
                                                                                
 2020  1 1 0159 59.6 L  36.154  52.186  6.1  New  7 0.2                        1
 GAP=198        0.40       2.0     1.5  4.3  0.1957E+01 -0.1755E+01 -0.2521E+01E
 Action:ARG 22-06-16 12:10 OP:OBSP STATUS:               ID:20200101020000     I
 STAT SP IPHASW D HRMM SECON CODA AMPLIT PERI AZIMU VELO AIN AR TRES W  DIS CAZ7
 TVCN    EP   4    2 0 0.159                             112   -2.21 0 11.4   6 
 TVCN    ES   4    2 0 2.917                             112   -1.52 0 11.4   6 
 YXLK    EP   3    2 0 7.902                              93   -0.81 2 43.5  20 
 YXLK    ES   4    2 016.960                              93    1.43 0 43.5  20 
 YIBA    EP   2    2 012.221                              68   -0.33 5 63.2 350 
 YIBA    ES   0    2 022.415                              68    0.1610 63.2 350 
 ZSCP    EP   4    2 011.318                              68   -1.55 0 64.8  82 
 ZSCP    ES   0    2 022.952                              68    0.1510 64.8  82 
 RVDG    EP   0    2 013.660                              68    0.0610 68.8  67 
 RVDG    ES   0    2 023.977                              68   -0.1010 68.8  67 
 EVSP    EP   3    2 017.045                              68   -0.24 2 88.7 280 
 EVSP    ES   2    2 030.578                              68    0.04 5 88.7 280 
 XIVZ    EP   4    2 016.309                              68   -1.14 0 89.6 351 
 XIVZ    ES   0    2 030.786                              68   -0.0310 89.6 351 
 YAIP    EP   4    2 023.683                              47   -2.02 0  143  56 
 YAIP    ES   1    2 045.050                              47   -0.23 6  143  56 
                                                                                
 2020  1 1 0201 39.8 L  36.038  52.117  3.6  New  3 0.2                        1
 GAP=255        0.38       9.1    10.6  3.1 -0.9244E+02  0.2008E+01 -0.7117E+01E
 Action:ARG 22-06-16 12:10 OP:OBSP STATUS:               ID:20200101020140     I
 STAT SP IPHASW D HRMM SECON CODA AMPLIT PERI AZIMU VELO AIN AR TRES W  DIS CAZ7
 SRWZ    EP   1    2 141.733                             116    0.08 8 7.34 272 
 SRWZ    ES   3    2 142.624                             116   -0.39 3 7.34 272 
 TVCN    EP   3    2 144.654                              64   -0.69 3 25.4  17 
 TVCN    ES   1    2 149.510                              64    0.04 8 25.4  17 
 EVSP    EP   0    2 157.193                              56    0.0010 85.9 289 
 EVSP    ES   4    2 2 8.746                              56   -1.46 0 85.9 289 
 ZGXN    EP   4    2 2 5.765                              41   -2.35 0  155  83 
 ZGXN    ES   4    2 227.392                              41   -1.92 0  155  83 
                                                                                
 2020  1 1 0203 20.1 L  36.152  52.026 15.3  New  6 0.4                        1
 GAP=184        0.52       2.1     3.5  2.4  0.9563E-01 -0.1236E+01 -0.3377E+01E
 Action:ARG 22-06-16 12:10 OP:OBSP STATUS:               ID:20200101020320     I
 STAT SP IPHASW D HRMM SECON CODA AMPLIT PERI AZIMU VELO AIN AR TRES W  DIS CAZ7
 SRWZ    EP   2    2 324.338                             138    0.26 5 12.3 176 
 SRWZ    ES   1    2 327.050                             138    0.01 8 12.3 176 
 TVCN    EP   2    2 324.555                             123   -0.55 5 19.5  53 
 TVCN    ES   3    2 329.908                             123    1.09 3 19.5  53 
 YXLK    EP   4    2 329.665                             100   -0.88 0 50.6  36 
 YXLK    ES   1    2 338.330                             100   -0.01 8 50.6  36 
 YIBA    EP   3    2 331.839                              64   -0.86 3 62.7   3 
 YIBA    ES   2    2 341.852                              64   -0.27 5 62.7   3 
 EVSP    EP   4    2 335.931                              64    1.24 0 74.6 282 
 EVSP    ES   4    2 343.495                              64   -2.11 0 74.6 282 
 XIVZ    EP   2    2 336.477                              64   -0.56 5 88.7 360 
 XIVZ    ES   0    2 349.933                              64    0.2210 88.7 360 
 YAIP    EP   0    2 347.010                              53    0.10 8  155  59 
 YAIP    ES   0    2 4 6.971                              53   -0.02 8  155  59 
                                                                                
 2020  1 1 0204 57.5 L  36.057  51.970 18.9  New  3 0.0                        1
 GAP=306        0.31       8.7     7.8  6.2  0.4790E+02 -0.2691E+02 -0.3206E+02E
 Action:ARG 22-06-16 12:10 OP:OBSP STATUS:               ID:20200101020500     I
 STAT SP IPHASW D HRMM SECON CODA AMPLIT PERI AZIMU VELO AIN AR TRES W  DIS CAZ7
 YIBA    EP   2    2 511.613                              91   -0.02 5 73.6   7 
 YIBA    ES   3    2 522.317                              91    0.05 2 73.6   7 
 XIVZ    EP   3    2 515.735                              62    0.10 2 99.3   3 
 XIVZ    ES   1    2 529.257                              62   -0.01 7 99.3   3 
 YAIP    EP   4    2 523.865                              62   -1.45 0  165  57 
 YAIP    ES   2    2 546.201                              62    0.00 4  165  57 
 ZGXN    EP   4    2 528.728                              62    2.96 0  168  84 
 ZGXN    ES   4    2 545.739                              62   -1.26 0  168  84 
                                                                                
 2020  1 1 0206 40.4 L  35.465  51.954 12.1  New  9 0.4                        1
 GAP=298        0.53       3.7     6.9  4.4  0.9420E+01 -0.1760E+02  0.3038E+01E
 Action:ARG 22-06-16 12:10 OP:OBSP STATUS:               ID:20200101020640     I
 STAT SP IPHASW D HRMM SECON CODA AMPLIT PERI AZIMU VELO AIN AR TRES W  DIS CAZ7
 SRWZ    EP   4    2 651.094                              93   -2.17 0 64.3   7 
 SRWZ    ES   0    2 7 2.938                              93    0.0310 64.3   7 
 TVCN    EP   2    2 658.325                              64    0.46 5 90.6  14 
 TVCN    ES   2    2 710.329                              64   -0.64 5 90.6  14 
 EVSP    EP   4    2 7 2.129                              53    0.79 0  113 324 
 EVSP    ES   4    2 717.810                              53    0.75 0  113 324 
 ZSCP    EP   3    2 7 1.356                              53   -1.07 2  121  45 
 ZSCP    ES   4    2 720.062                              53    1.12 0  121  45 
 YXLK    EP   4    2 7 0.964                              53   -1.77 0  123  17 
 YXLK    ES   1    2 719.592                              53    0.11 7  123  17 
 RVDG    EP   2    2 7 4.715                              53    0.43 4  133  39 
 RVDG    ES   1    2 722.483                              53    0.27 6  133  39 
 YIBA    EP   3    2 7 3.974                              53   -1.18 2  139   4 
 YIBA    ES   4    2 725.770                              53    2.04 0  139   4 
 XIVZ    EP   2    2 7 9.124                              53    0.17 4  165   2 
 XIVZ    ES   3    2 730.981                              53    0.60 2  165   2 
 ZGXN    EP   0    2 712.084                              53   -0.23 7  188  64 
 ZGXN    ES   0    2 736.427                              53    0.18 7  188  64 
 YAIP    EP   4    2 716.568                              53    1.06 0  210  42 
 YAIP    ES   0    2 741.539                              53   -0.30 7  210  42 
                                                                                
 2020  1 1 0208 19.8 L  36.482  52.230 10.0  New  7 0.3                        1
 GAP= 98        0.61       2.6     1.5  2.7  0.6282E-01  0.8569E+00  0.4391E+00E
 Action:ARG 22-06-16 12:10 OP:OBSP STATUS:               ID:20200101020820     I
 STAT SP IPHASW D HRMM SECON CODA AMPLIT PERI AZIMU VELO AIN AR TRES W  DIS CAZ7
 YXLK    EP   1    2 823.641                             127    0.54 7 12.1  69 
 YXLK    ES   2    2 825.062                             127   -0.48 5 12.1  69 
 TVCN    EP   4    2 823.529                              68   -1.92 0 25.2 186 
 TVCN    ES   4    2 828.283                              68   -1.38 0 25.2 186 
 YIBA    EP   0    2 826.270                              68    0.0010 29.6 331 
 YIBA    ES   3    2 830.145                              68   -0.95 2 29.6 331 
 SRWZ    EP   2    2 830.091                              68   -0.32 5 52.0 200 
 SRWZ    ES   4    2 840.543                              68    2.19 0 52.0 200 
 RVDG    EP   1    2 831.673                              68   -0.28 7 60.3  99 
 RVDG    ES   0    2 841.185                              68    0.1510 60.3  99 
 ZSCP    EP   2    2 832.525                              68   -0.55 5 66.4 115 
 ZSCP    ES   4    2 842.062                              68   -0.94 0 66.4 115 
 EVSP    EP   0    2 838.274                              56    0.2810 93.7 257 
 EVSP    ES   1    2 851.493                              56   -0.13 7 93.7 257 
 YAIP    EP   1    2 842.109                              47   -0.30 7  123  69 
 YAIP    ES   0    2 859.402                              47    0.06 9  123  69 
                                                                                
 2020  1 1 0209 59.3 L  35.942  52.081  8.5  New  5 0.2                        1
 GAP=273        0.52       6.7     3.2  2.5  0.1442E+02 -0.3096E+01 -0.4847E+01E
 Action:ARG 22-06-16 12:10 OP:OBSP STATUS:               ID:20200101021000     I
 STAT SP IPHASW D HRMM SECON CODA AMPLIT PERI AZIMU VELO AIN AR TRES W  DIS CAZ7
 SRWZ    EP   2    210 1.774                             123   -0.57 5 11.7 339 
 SRWZ    ES   2    210 4.884                             123    0.26 5 11.7 339 
 YXLK    EP   0    21013.228                              68    0.1210 68.9  21 
 YXLK    ES   4    21024.251                              68    0.79 0 68.9  21 
 ZSCP    EP   4    21013.753                              68   -1.51 0 80.5  66 
 ZSCP    ES   0    21027.205                              68   -0.0410 80.5  66 
 YIBA    EP   1    21015.983                              68   -0.27 7 85.9 359 
 YIBA    ES   4    21030.462                              68    1.49 0 85.9 359 
 EVSP    EP   4    21018.498                              68    2.03 0 87.0 297 
 EVSP    ES   4    21033.426                              68    4.08 0 87.0 297 
 XIVZ    EP   0    21020.759                              47    0.25 9  112 357 
 XIVZ    ES   0    21036.335                              47   -0.09 9  112 357 
 ZGXN    EP   4    21031.951                              47    4.37 0  160  80 
 ZGXN    ES   4    21048.002                              47   -0.79 0  160  80 
                                                                                
 2020  1 1 0211 39.6 L  35.985  51.959 10.0  New  5 0.5                        1
 GAP=281        0.59       6.3     7.7  8.4  0.2768E+02 -0.1800E+02 -0.9588E+01E
 Action:ARG 22-06-16 12:10 OP:OBSP STATUS:               ID:20200101021140     I
 STAT SP IPHASW D HRMM SECON CODA AMPLIT PERI AZIMU VELO AIN AR TRES W  DIS CAZ7
 YXLK    EP   4    21155.281                              68    1.89 0 69.4  31 
 YXLK    ES   3    212 3.516                              68   -0.22 3 69.4  31 
 YIBA    EP   4    21155.004                              68   -0.66 0 81.6   7 
 YIBA    ES   4    212 6.574                              68   -1.14 0 81.6   7 
 ZSCP    EP   2    21156.608                              56   -0.38 6 89.1  72 
 ZSCP    ES   2    21210.724                              56    0.68 6 89.1  72 
 XIVZ    EP   3    212 1.223                              47    1.31 3  107   3 
 XIVZ    ES   2    21214.868                              47   -0.29 6  107   3 
 ZGXN    EP   0    212 9.315                              47    0.1510  170  82 
 ZGXN    ES   0    21231.043                              47   -0.3010  170  82 
 YAIP    EP   4    212 8.127                              47   -1.08 0  170  55 
 YAIP    ES   3    21232.179                              47    0.77 2  170  55 
                                                                                
 2020  1 1 0213 20.0 L  35.764  51.990 19.3  New  4 0.1                        1
 GAP=290        0.37       4.0     3.9  3.8  0.8536E+01 -0.1062E+02 -0.4734E+01E
 Action:ARG 22-06-16 12:10 OP:OBSP STATUS:               ID:20200101021320     I
 STAT SP IPHASW D HRMM SECON CODA AMPLIT PERI AZIMU VELO AIN AR TRES W  DIS CAZ7
 SRWZ    EP   0    21327.113                             105   -0.0310 31.0   8 
 SRWZ    ES   4    21331.632                             105   -0.84 0 31.0   8 
 EVSP    EP   4    21338.443                              62    1.49 0 91.0 310 
 EVSP    ES   4    21351.130                              62    1.48 0 91.0 310 
 YIBA    EP   0    21339.187                              62    0.05 9  106   4 
 YIBA    ES   2    21353.194                              62   -0.27 5  106   4 
 RVDG    EP   4    21337.774                              62   -1.56 0  107  49 
 RVDG    ES   0    21353.938                              62    0.14 9  107  49 
 ZGXN    EP   0    21349.037                              62    0.05 8  173  74 
 ZGXN    ES   0    21410.519                              62   -0.17 8  173  74 
                                                                                
 2020  1 1 0215  1.1 L  35.826  51.892 16.0  New  5 0.4                        1
 GAP=255        0.46       6.0     2.5  3.0 -0.5012E+01  0.2724E+01  0.4390E+01E
 Action:ARG 22-06-16 12:10 OP:OBSP STATUS:               ID:20200101021500     I
 STAT SP IPHASW D HRMM SECON CODA AMPLIT PERI AZIMU VELO AIN AR TRES W  DIS CAZ7
 SRWZ    EP   4    215 8.357                             115    0.96 0 27.1  29 
 SRWZ    ES   1    21512.074                             115   -0.01 8 27.1  29 
 TVCN    EP   4    21514.225                              99    1.81 0 55.2  30 
 TVCN    ES   4    21520.151                              99   -0.71 0 55.2  30 
 EVSP    EP   2    21516.563                              64    0.06 5 79.8 310 
 EVSP    ES   0    21528.014                              64   -0.0110 79.8 310 
 YXLK    EP   2    21518.130                              64    0.30 5 87.7  28 
 YXLK    ES   1    21530.278                              64   -0.05 7 87.7  28 
 RVDG    EP   3    21519.627                              53   -1.54 2  110  55 
 RVDG    ES   3    21536.804                              53    0.62 2  110  55 
 XIVZ    EP   4    21524.762                              53    1.31 0  125   5 
 XIVZ    ES   4    21537.708                              53   -2.46 0  125   5 
 YAIP    EP   3    21532.594                              53    0.24 2  186  51 
 YAIP    ES   4    21556.639                              53    0.87 0  186  51 
                                                                                
