 2020  1 1 0129 60.0 L  35.794  52.170 17.2  New  5 0.3                        1
 GAP=230        0.50       4.7     4.3  3.0  0.1223E+02 -0.7166E+01 -0.6586E+01E
 Action:ARG 22-06-16 12:10 OP:OBSP STATUS:               ID:20200101013000     I
 STAT SP IPHASW D HRMM SECON CODA AMPLIT PERI AZIMU VELO AIN AR TRES W  DIS CAZ7
 SRWZ    EP   0    130 6.753                             114   -0.0610 30.0 336 
 SRWZ    ES   4    13010.499                             114   -1.44 0 30.0 336 
 TVCN    EP   4    13012.307                              64    1.81 0 51.4   3 
 TVCN    ES   4    13021.623                              64    3.23 0 51.4   3 
 EVSP    EP   2    13018.042                              53   -0.68 5  102 303 
 EVSP    ES   3    13033.609                              53    0.83 2  102 303 
 XIVZ    EP   0    13022.950                              53    0.27 9  129 354 
 XIVZ    ES   0    13039.648                              53   -0.06 9  129 354 
 ZGXN    EP   0    13026.732                              53    0.06 8  156  73 
 ZGXN    ES   3    13046.030                              53   -0.66 2  156  73 
 YAIP    EP   0    13028.719                              53    0.08 8  170  45 
 YAIP    ES   2    13049.699                              53   -0.43 4  170  45 
                                                                                
 2020  1 1 0131 40.1 L  36.028  51.932 13.3  New  4 0.3                        1
 GAP=284        0.44       4.1     3.9  2.2  0.7053E+01 -0.1099E+01 -0.3710E+01E
 Action:ARG 22-06-16 12:10 OP:OBSP STATUS:               ID:20200101013140     I
 STAT SP IPHASW D HRMM SECON CODA AMPLIT PERI AZIMU VELO AIN AR TRES W  DIS CAZ7
 SRWZ    EP   3    13142.338                             141   -1.10 2 9.41  81 
 SRWZ    ES   2    13146.224                             141    0.31 5 9.41  81 
 YXLK    EP   0    13153.477                              94    0.0210 66.7  35 
 YXLK    ES   1    132 3.350                              94   -0.10 7 66.7  35 
 RVDG    EP   4    13159.565                              64    1.24 0 95.4  65 
 RVDG    ES   0    13211.960                              64   -0.0010 95.4  65 
 XIVZ    EP   3    13158.828                              53   -0.59 2  103   5 
 XIVZ    ES   1    13214.011                              53    0.13 7  103   5 
 YAIP    EP   4    13211.068                              53    1.79 0  170  56 
 YAIP    ES   4    13230.232                              53   -0.90 0  170  56 
                                                                                
 2020  1 1 0133 20.2 L  36.102  51.611 40.9  New  3 0.4                        1
 GAP=341        0.44      11.7     9.6 12.7  0.2212E+02  0.1671E+02  0.7064E+02E
 Action:ARG 22-06-16 12:10 OP:OBSP STATUS:               ID:20200101013320     I
 STAT SP IPHASW D HRMM SECON CODA AMPLIT PERI AZIMU VELO AIN AR TRES W  DIS CAZ7
 EVSP    EP   4    13331.991                             127    1.78 0 41.3 300 
 EVSP    ES   4    13338.853                             127    1.14 0 41.3 300 
 YXLK    EP   2    13335.804                             107    0.25 6 81.5  55 
 YXLK    ES   1    13346.989                             107   -0.07 8 81.5  55 
 RVDG    EP   3    13339.890                             100   -1.14 2  120  74 
 RVDG    ES   0    13356.681                             100    0.0410  120  74 
 YAIP    EP   4    13353.238                              57    2.18 0  191  63 
 YAIP    ES   3    13414.121                              57   -0.06 2  191  63 
                                                                                
 2020  1 1 0134 58.6 L  35.717  52.148  9.0  New  3 0.1                        1
 GAP=301        0.34       7.6     6.2  3.7  0.3324E+02 -0.1795E+02 -0.1864E+02E
 Action:ARG 22-06-16 12:10 OP:OBSP STATUS:               ID:20200101013500     I
 STAT SP IPHASW D HRMM SECON CODA AMPLIT PERI AZIMU VELO AIN AR TRES W  DIS CAZ7
 SRWZ    EP   1    135 6.566                              68   -0.00 7 37.3 344 
 SRWZ    ES   4    135 7.936                              68   -4.58 0 37.3 344 
 XIVZ    EP   2    13523.295                              47   -0.22 4  137 355 
 XIVZ    ES   1    13542.227                              47    0.06 6  137 355 
 YAIP    EP   1    13529.480                              47    0.13 6  177  44 
 YAIP    ES   1    13552.318                              47   -0.07 6  177  44 
                                                                                
 2020  1 1  136 40.0 L                       New                               1
 Action:ARG 22-06-16 12:10 OP:OBSP STATUS:               ID:20200101013640     I
 STAT SP IPHASW D HRMM SECON CODA AMPLIT PERI AZIMU VELO AIN AR TRES W  DIS CAZ7
 YXLK    EP   4    13657.000                                           93.8  15 
 YXLK    ES   4    13710.573                                           93.8  15 
 ZSCP    EP   2    13657.767                                           94.3  51 
 ZSCP    ES   4    13714.902                                           94.3  51 
 ZGXN    EP   4    137 6.583                                            167  70 
 ZGXN    ES   0    13731.056                                            167  70 
                                                                                
 2020  1 1 0138 20.0 L  35.675  51.999 11.4  New  5 0.4                        1
 GAP=291        0.65       9.4     9.9 11.2  0.6320E+02 -0.4496E+02 -0.7446E+02E
 Action:ARG 22-06-16 12:10 OP:OBSP STATUS:               ID:20200101013820     I
 STAT SP IPHASW D HRMM SECON CODA AMPLIT PERI AZIMU VELO AIN AR TRES W  DIS CAZ7
 TVCN    EP   4    13835.757                              92    2.37 0 67.0  16 
 TVCN    ES   4    13842.488                              92   -0.93 0 67.0  16 
 YXLK    EP   1    13838.500                              64   -0.50 8 99.3  19 
 YXLK    ES   2    13853.904                              64    0.67 6 99.3  19 
 ZSCP    EP   1    13839.617                              53    0.20 8  102  53 
 ZSCP    ES   3    13852.741                              53   -1.22 3  102  53 
 YIBA    EP   1    13841.738                              53    0.32 8  116   3 
 YIBA    ES   1    13857.133                              53   -0.32 8  116   3 
 XIVZ    EP   4    13844.102                              53   -1.13 0  142   1 
 XIVZ    ES   0    139 4.220                              53    0.0810  142   1 
 ZGXN    EP   4    13850.984                              53    0.84 0  175  70 
 ZGXN    ES   2    13912.795                              53    0.07 5  175  70 
                                                                                
 2020  1 1 0140  0.2 L  36.101  52.234 11.8  New  6 0.3                        1
 GAP=173        0.47       2.0     2.9  3.6  0.6008E+00 -0.1699E+01 -0.3526E+01E
 Action:ARG 22-06-16 12:10 OP:OBSP STATUS:               ID:20200101014000     I
 STAT SP IPHASW D HRMM SECON CODA AMPLIT PERI AZIMU VELO AIN AR TRES W  DIS CAZ7
 TVCN    EP   0    140 4.602                             115    0.0710 17.5 350 
 TVCN    ES   4    140 6.242                             115   -1.53 0 17.5 350 
 SRWZ    EP   1    140 5.186                             112    0.39 7 19.1 250 
 SRWZ    ES   3    140 7.410                             112   -0.83 2 19.1 250 
 ZSCP    EP   1    14012.540                              93   -0.05 7 61.7  76 
 ZSCP    ES   4    14020.031                              93   -1.84 0 61.7  76 
 YIBA    EP   0    14014.012                              92   -0.0810 69.8 348 
 YIBA    ES   0    14024.501                              92   -0.0110 69.8 348 
 EVSP    EP   3    14017.615                              64   -0.68 2 94.1 283 
 EVSP    ES   4    14033.475                              64    1.61 0 94.1 283 
 XIVZ    EP   4    14020.755                              64    2.11 0 96.2 349 
 XIVZ    ES   1    14032.290                              64   -0.18 7 96.2 349 
                                                                                
 2020  1 1 0141 40.5 L  35.832  51.995 10.0  New  6 0.3                        1
 GAP=230        0.61       3.2     2.2  5.5 -0.1230E-01  0.2396E+00 -0.1673E+01E
 Action:ARG 22-06-16 12:10 OP:OBSP STATUS:               ID:20200101014140     I
 STAT SP IPHASW D HRMM SECON CODA AMPLIT PERI AZIMU VELO AIN AR TRES W  DIS CAZ7
 TVCN    EP   1    14150.986                              68    0.19 8 50.6  21 
 TVCN    ES   1    14158.139                              68   -0.40 8 50.6  21 
 YXLK    EP   3    14157.485                              68    0.67 3 83.1  23 
 YXLK    ES   2    142 8.537                              68   -0.54 5 83.1  23 
 EVSP    EP   1    14157.668                              56    0.19 7 86.7 306 
 EVSP    ES   0    14210.036                              56   -0.2010 86.7 306 
 YIBA    EP   4    142 0.679                              56    1.27 0 98.3   4 
 YIBA    ES   1    14214.214                              56    0.61 7 98.3   4 
 XIVZ    EP   4    142 1.967                              47   -1.32 0  124   1 
 XIVZ    ES   4    14219.399                              47   -0.99 0  124   1 
 ZGXN    EP   0    142 9.874                              47   -0.19 8  170  76 
 ZGXN    ES   2    14231.895                              47   -0.36 4  170  76 
 YAIP    EP   1    14211.454                              47    0.20 6  178  50 
 YAIP    ES   0    14234.498                              47    0.17 8  178  50 
                                                                                
 2020  1 1 0143 20.0 L  36.439  52.289 13.8  New  8 0.3                        1
 GAP= 89        0.55       1.3     1.3  1.5 -0.4241E+00  0.1786E+00  0.2928E+00E
 Action:ARG 22-06-16 12:10 OP:OBSP STATUS:               ID:20200101014320     I
 STAT SP IPHASW D HRMM SECON CODA AMPLIT PERI AZIMU VELO AIN AR TRES W  DIS CAZ7
 YXLK    EP   0    14323.431                             138   -0.1110 10.9  34 
 YXLK    ES   0    14326.202                             138   -0.0010 10.9  34 
 TVCN    EP   0    14325.230                             115    0.0610 21.8 201 
 TVCN    ES   0    14329.173                             115    0.1010 21.8 201 
 YIBA    EP   4    14326.394                             102   -1.36 0 36.4 327 
 YIBA    ES   4    14334.772                             102    1.19 0 36.4 327 
 SRWZ    EP   0    14329.992                              97   -0.1910 49.7 207 
 SRWZ    ES   4    14335.814                              97   -2.03 0 49.7 207 
 RVDG    EP   1    14330.660                              96   -0.40 7 54.5  95 
 RVDG    ES   0    14339.416                              96    0.0510 54.5  95 
 ZSCP    EP   3    14331.229                              96   -0.78 2 59.6 113 
 ZSCP    ES   1    14341.399                              96    0.37 7 59.6 113 
 XIVZ    EP   4    14329.659                              95   -2.69 0 61.5 337 
 XIVZ    ES   2    14342.148                              95    0.52 5 61.5 337 
 EVSP    EP   0    14338.264                              53   -0.22 9 97.9 261 
 EVSP    ES   1    14352.653                              53    0.28 7 97.9 261 
 YAIP    EP   4    14339.995                              53   -1.68 0  120  66 
 YAIP    ES   4    14359.356                              53    1.41 0  120  66 
 ZGXN    EP   0    14345.161                              53    0.30 8  141 101 
 ZGXN    ES   1    144 3.224                              53   -0.30 6  141 101 
                                                                                
 2020  1 1 0145  0.2 L  36.288  51.606 15.3  New  4 0.5                        1
 GAP=145        0.57       6.7     5.9  6.8  0.2917E+02 -0.2708E+02 -0.3835E+02E
 Action:ARG 22-06-16 12:10 OP:OBSP STATUS:               ID:20200101014500     I
 STAT SP IPHASW D HRMM SECON CODA AMPLIT PERI AZIMU VELO AIN AR TRES W  DIS CAZ7
 EVSP    EP   3    145 8.080                             106    0.21 2 35.3 270 
 EVSP    ES   3    14513.509                             106   -0.09 2 35.3 270 
 SRWZ    EP   2    14510.551                             101    0.50 5 47.3 125 
 SRWZ    ES   0    14517.339                             101   -0.0710 47.3 125 
 YIBA    EP   2    14512.263                              64   -0.59 5 63.0  41 
 YIBA    ES   3    14523.687                              64    1.37 2 63.0  41 
 YXLK    EP   4    14515.861                              64    1.49 0 72.1  69 
 YXLK    ES   4    14527.573                              64    2.61 0 72.1  69 
 ZGXN    EP   4    14531.948                              53   -1.70 0  200  92 
 ZGXN    ES   0    14558.708                              53    0.00 7  200  92 
                                                                                
 2020  1 1 0146 39.7 L  36.060  52.357 15.0  New  9 0.3                        1
 GAP=183        0.57       2.7     1.4  2.1 -0.8216E+00  0.9698E+00 -0.1927E+01E
 Action:ARG 22-06-16 12:10 OP:OBSP STATUS:               ID:20200101014640     I
 STAT SP IPHASW D HRMM SECON CODA AMPLIT PERI AZIMU VELO AIN AR TRES W  DIS CAZ7
 TVCN    EP   0    14645.912                             113    0.2310 25.9 327 
 TVCN    ES   4    14648.896                             113   -1.27 0 25.9 327 
 SRWZ    EP   1    14646.215                             110   -0.00 7 29.0 266 
 SRWZ    ES   2    14650.959                             110   -0.15 5 29.0 266 
 YXLK    EP   4    14648.901                              99   -1.29 0 51.2 360 
 YXLK    ES   4    14655.752                              99   -2.31 0 51.2 360 
 ZSCP    EP   0    14650.299                              99   -0.1410 52.5  69 
 ZSCP    ES   0    14658.233                              99   -0.2710 52.5  69 
 RVDG    EP   4    14654.072                              97    2.13 0 60.7  53 
 RVDG    ES   1    147 1.359                              97    0.24 7 60.7  53 
 YIBA    EP   3    14653.895                              64   -0.81 2 77.2 341 
 YIBA    ES   1    147 6.220                              64    0.26 7 77.2 341 
 XIVZ    EP   0    14658.883                              53    0.03 9  103 343 
 XIVZ    ES   1    14712.709                              53   -0.51 7  103 343 
 EVSP    EP   1    14659.039                              53   -0.21 7  106 284 
 EVSP    ES   1    14713.837                              53   -0.07 7  106 284 
 ZGXN    EP   2    147 3.951                              53    0.64 4  134  83 
 ZGXN    ES   2    14721.554                              53    0.53 4  134  83 
 YAIP    EP   1    147 4.240                              53    0.41 6  137  49 
 YAIP    ES   3    14720.969                              53   -0.96 2  137  49 
                                                                                
 2020  1 1 0148 19.9 L  36.187  51.725 10.7  New  8 0.2                        1
 GAP=164        0.45       1.2     1.7  2.4  0.2616E+00 -0.1112E+01 -0.5175E+00E
 Action:ARG 22-06-16 12:10 OP:OBSP STATUS:               ID:20200101014820     I
 STAT SP IPHASW D HRMM SECON CODA AMPLIT PERI AZIMU VELO AIN AR TRES W  DIS CAZ7
 SRWZ    EP   0    14826.714                              94   -0.1610 32.3 120 
 SRWZ    ES   2    14832.540                              94    0.47 5 32.3 120 
 TVCN    EP   4    14826.739                              92   -2.20 0 43.4  80 
 TVCN    ES   4    14834.190                              92   -1.50 0 43.4  80 
 EVSP    EP   0    14829.660                              92   -0.0010 47.3 284 
 EVSP    ES   4    14838.338                              92    1.39 0 47.3 284 
 YIBA    EP   0    14833.104                              91   -0.0710 66.3  28 
 YIBA    ES   0    14843.022                              91   -0.0710 66.3  28 
 YXLK    EP   4    14832.232                              91   -1.21 0 67.7  57 
 YXLK    ES   2    14843.809                              91    0.25 5 67.7  57 
 XIVZ    EP   0    14837.403                              64    0.1510 88.9  17 
 XIVZ    ES   0    14850.227                              64   -0.0110 88.9  17 
 ZSCP    EP   2    14840.516                              53    0.54 5  106  87 
 ZSCP    ES   1    14854.659                              53   -0.33 7  106  87 
 RVDG    EP   4    14838.363                              53   -1.84 0  107  77 
 RVDG    ES   4    14856.560                              53    1.17 0  107  77 
 YAIP    EP   4    14848.394                              53   -2.09 0  177  64 
 YAIP    ES   2    14913.798                              53    0.42 4  177  64 
 ZGXN    EP   0    14852.235                              53   -0.04 7  190  89 
 ZGXN    ES   4    14914.928                              53   -1.59 0  190  89 
                                                                                
 2020  1 1 0149 59.8 L  35.858  51.945 12.7  New  9 0.3                        1
 GAP=229        0.52       2.7     2.7  2.7 -0.3223E+00 -0.1106E+01  0.2546E+01E
 Action:ARG 22-06-16 12:10 OP:OBSP STATUS:               ID:20200101015000     I
 STAT SP IPHASW D HRMM SECON CODA AMPLIT PERI AZIMU VELO AIN AR TRES W  DIS CAZ7
 SRWZ    EP   4    150 3.285                             112   -1.68 0 21.9  22 
 SRWZ    ES   1    150 8.665                             112   -0.14 8 21.9  22 
 TVCN    EP   1    15010.212                              95    0.17 8 49.8  27 
 TVCN    ES   4    15019.372                              95    1.68 0 49.8  27 
 EVSP    EP   1    15015.739                              64    0.00 8 81.4 306 
 EVSP    ES   3    15027.273                              64   -0.38 3 81.4 306 
 YXLK    EP   2    15015.278                              64   -0.62 5 82.4  27 
 YXLK    ES   0    15028.010                              64    0.0710 82.4  27 
 YIBA    EP   3    15017.454                              64   -0.68 2 95.8   7 
 YIBA    ES   4    15030.815                              64   -1.05 0 95.8   7 
 RVDG    EP   0    15019.403                              53    0.05 9  104  55 
 RVDG    ES   2    15034.590                              53    0.60 5  104  55 
 XIVZ    EP   0    15022.066                              53    0.12 9  122   3 
 XIVZ    ES   2    15038.159                              53   -0.36 5  122   3 
 ZGXN    EP   0    15029.547                              53   -0.12 8  174  77 
 ZGXN    ES   1    15051.586                              53   -0.45 6  174  77 
 YAIP    EP   1    15031.107                              53    0.56 6  180  51 
 YAIP    ES   3    15052.626                              53   -0.95 2  180  51 
                                                                                
 2020  1 1 0151 39.1 L  36.093  51.688 13.5  New  4 0.4                        1
 GAP=305        0.49      17.7    20.6 16.5  0.3358E+03 -0.2897E+03 -0.2731E+03E
 Action:ARG 22-06-16 12:10 OP:OBSP STATUS:               ID:20200101015140     I
 STAT SP IPHASW D HRMM SECON CODA AMPLIT PERI AZIMU VELO AIN AR TRES W  DIS CAZ7
 YXLK    EP   0    15154.142                              64   -0.0110 76.6  51 
 YXLK    ES   4    152 2.611                              64   -2.80 0 76.6  51 
 XIVZ    EP   4    15157.173                              53   -0.78 0 99.8  17 
 XIVZ    ES   0    15212.062                              53   -0.00 9 99.8  17 
 RVDG    EP   3    152 1.139                              53    1.20 2  113  73 
 RVDG    ES   3    15214.568                              53   -0.97 2  113  73 
 YAIP    EP   2    15210.073                              53   -0.40 4  185  62 
 YAIP    ES   1    15234.152                              53    0.17 6  185  62 
                                                                                
