 2020  1 1 0001 40.1 L  35.868  52.365  7.7  New  8 0.4                        1
 GAP=220        0.62       2.8     3.1  3.7  0.1289E+01 -0.4198E+01  0.3304E+01E
 Action:ARG 22-06-18 16:58 OP:OBSP STATUS:               ID:20200101000140     I
 STAT SP IPHASW D HRMM SECON CODA AMPLIT PERI AZIMU VELO AIN AR TRES W  DIS CAZ7
 SRWZ    EP   4    0 145.821                              98   -1.76 0 35.4 303 
 SRWZ    ES   4    0 151.732                              98   -1.49 0 35.4 303 
 TVCN    EP   3    0 148.790                              96   -0.81 2 45.6 341 
 TVCN    ES   0    0 156.779                              96    0.0310 45.6 341 
 ZSCP    EP   0    0 152.947                              68    0.1410 62.9  50 
 ZSCP    ES   4    0 2 1.183                              68   -1.19 0 62.9  50 
 YXLK    EP   2    0 155.392                              68    0.80 5 72.5 359 
 YXLK    ES   1    0 2 5.209                              68   -0.29 7 72.5 359 
 RVDG    EP   4    0 153.276                              68   -1.79 0 75.1  39 
 RVDG    ES   4    0 2 5.454                              68   -0.88 0 75.1  39 
 YIBA    EP   1    0 158.749                              56   -0.39 7 97.8 344 
 YIBA    ES   4    0 212.579                              56   -0.88 0 97.8 344 
 EVSP    EP   0    0 2 1.608                              47   -0.02 9  114 295 
 EVSP    ES   4    0 220.021                              47    2.22 0  114 295 
 XIVZ    EP   3    0 2 4.045                              47    0.91 2  124 346 
 XIVZ    ES   2    0 221.206                              47    0.76 4  124 346 
 ZGXN    EP   1    0 2 4.797                              47   -0.24 6  137  74 
 ZGXN    ES   4    0 221.745                              47   -2.03 0  137  74 
 YAIP    EP   4    0 2 9.031                              47    1.87 0  151  43 
 YAIP    ES   0    0 227.437                              47   -0.05 8  151  43 
                                                                                
 2020  1 1 0003 19.3 L  35.719  51.856 18.6  New  5 0.3                        1
 GAP=311        0.51       8.6     6.9  6.5  0.1746E+02 -0.1873E+02 -0.3231E+02E
 Action:ARG 22-06-18 16:58 OP:OBSP STATUS:               ID:20200101000320     I
 STAT SP IPHASW D HRMM SECON CODA AMPLIT PERI AZIMU VELO AIN AR TRES W  DIS CAZ7
 TVCN    EP   0    0 332.382                              91   -0.0010 67.2  27 
 TVCN    ES   4    0 340.407                              91   -1.81 0 67.2  27 
 YXLK    EP   0    0 337.771                              62    0.23 9 99.7  27 
 YXLK    ES   4    0 349.277                              62   -1.96 0 99.7  27 
 ZSCP    EP   4    0 338.180                              62   -0.88 0  110  59 
 ZSCP    ES   3    0 354.531                              62    0.64 2  110  59 
 YIBA    EP   1    0 338.976                              62   -0.40 7  112  10 
 YIBA    ES   1    0 354.554                              62    0.10 7  112  10 
 YAIP    EP   4    0 349.711                              62   -2.00 0  196  49 
 YAIP    ES   0    0 415.845                              62   -0.18 7  196  49 
                                                                                
 2020  1 1 0004 59.6 L  35.478  52.183 15.4  New  9 0.3                        1
 GAP=254        0.55       3.7     3.0  6.1  0.6044E+01 -0.7602E+01 -0.1031E+02E
 Action:ARG 22-06-18 16:58 OP:OBSP STATUS:               ID:20200101000500     I
 STAT SP IPHASW D HRMM SECON CODA AMPLIT PERI AZIMU VELO AIN AR TRES W  DIS CAZ7
 SRWZ    EP   2    0 511.845                              64   -0.51 5 63.8 348 
 SRWZ    ES   1    0 522.302                              64    0.39 8 63.8 348 
 TVCN    EP   4    0 515.029                              64   -1.07 0 86.3   1 
 TVCN    ES   0    0 528.314                              64   -0.1610 86.3   1 
 ZSCP    EP   2    0 518.666                              53   -0.41 5  106  38 
 ZSCP    ES   1    0 533.276                              53   -0.41 7  106  38 
 YXLK    EP   4    0 519.310                              53   -1.39 0  117   8 
 YXLK    ES   4    0 537.927                              53    1.40 0  117   8 
 RVDG    EP   0    0 521.500                              53    0.33 9  120  32 
 RVDG    ES   0    0 537.275                              53   -0.06 9  120  32 
 EVSP    EP   4    0 523.469                              53    1.48 0  125 316 
 EVSP    ES   1    0 538.596                              53   -0.18 7  125 316 
 YIBA    EP   3    0 523.045                              53   -0.74 2  138 356 
 YIBA    ES   1    0 542.337                              53    0.42 7  138 356 
 XIVZ    EP   2    0 527.281                              53   -0.38 4  164 355 
 XIVZ    ES   4    0 545.502                              53   -3.19 0  164 355 
 ZGXN    EP   0    0 528.450                              53    0.11 8  169  62 
 ZGXN    ES   0    0 549.972                              53    0.09 8  169  62 
 YAIP    EP   3    0 531.471                              53   -0.76 2  195  38 
 YAIP    ES   0    0 556.758                              53    0.06 7  195  38 
                                                                                
 2020  1 1 0006 40.5 L  35.836  52.404 10.7  New  4 0.0                        1
 GAP=255        0.34       4.0     2.3  3.3 -0.4675E+01 -0.3311E+01  0.1005E+02E
 Action:ARG 22-06-18 16:58 OP:OBSP STATUS:               ID:20200101000640     I
 STAT SP IPHASW D HRMM SECON CODA AMPLIT PERI AZIMU VELO AIN AR TRES W  DIS CAZ7
 SRWZ    EP   2    0 648.945                              92    0.00 5 40.3 304 
 SRWZ    ES   4    0 656.139                              92    0.88 0 40.3 304 
 TVCN    EP   4    0 649.110                              91   -1.65 0 50.1 339 
 TVCN    ES   0    0 658.433                              91   -0.0010 50.1 339 
 EVSP    EP   4    0 7 0.795                              53   -1.61 0  118 295 
 EVSP    ES   0    0 718.810                              53    0.00 9  118 295 
 XIVZ    EP   4    0 7 1.942                              53   -1.92 0  128 345 
 XIVZ    ES   4    0 720.070                              53   -1.29 0  128 345 
 YAIP    EP   4    0 7 6.029                              53   -1.26 0  152  41 
 YAIP    ES   1    0 727.367                              53    0.00 6  152  41 
                                                                                
 2020  1 1 0008 20.1 L  35.957  52.079 10.0  New  5 0.3                        1
 GAP=301        0.47       3.1     3.2  3.6  0.2054E+01 -0.1109E+01  0.5178E+01E
 Action:ARG 22-06-18 16:58 OP:OBSP STATUS:               ID:20200101000820     I
 STAT SP IPHASW D HRMM SECON CODA AMPLIT PERI AZIMU VELO AIN AR TRES W  DIS CAZ7
 YXLK    EP   3    0 832.740                              68   -0.81 2 67.3  22 
 YXLK    ES   0    0 843.817                              68    0.2010 67.3  22 
 YIBA    EP   3    0 835.840                              68   -0.82 2 84.1 359 
 YIBA    ES   1    0 848.850                              68   -0.21 7 84.1 359 
 RVDG    EP   1    0 837.553                              56    0.25 7 87.7  56 
 RVDG    ES   0    0 850.094                              56   -0.0810 87.7  56 
 XIVZ    EP   1    0 841.045                              47    0.14 7  110 357 
 XIVZ    ES   4    0 854.381                              47   -2.10 0  110 357 
 YAIP    EP   0    0 848.706                              47   -0.04 8  164  52 
 YAIP    ES   0    0 910.046                              47   -0.15 8  164  52 
                                                                                
 2020  1 1 0010  0.0 L  35.548  52.330 10.0  New  8 0.4                        1
 GAP=272        0.46       5.8     3.3  8.0  0.1271E+01 -0.2244E-01 -0.3831E+02E
 Action:ARG 22-06-18 16:58 OP:OBSP STATUS:               ID:20200101001000     I
 STAT SP IPHASW D HRMM SECON CODA AMPLIT PERI AZIMU VELO AIN AR TRES W  DIS CAZ7
 SRWZ    EP   3    01013.193                              68    0.93 3 60.9 334 
 SRWZ    ES   4    01022.591                              68    1.17 0 60.9 334 
 ZSCP    EP   0    01017.721                              56   -0.1410 91.6  34 
 ZSCP    ES   0    01031.199                              56   -0.0210 91.6  34 
 RVDG    EP   0    01020.342                              47    0.1010  107  28 
 RVDG    ES   3    01036.099                              47    0.70 2  107  28 
 YXLK    EP   4    01021.868                              47    1.40 0  108   1 
 YXLK    ES   3    01034.837                              47   -0.95 2  108   1 
 YIBA    EP   3    01024.826                              47    0.87 2  132 350 
 YIBA    ES   4    01043.270                              47    1.39 0  132 350 
 ZGXN    EP   0    01027.033                              47   -0.08 8  153  62 
 ZGXN    ES   4    01048.514                              47    1.10 0  153  62 
 XIVZ    EP   0    01027.790                              47   -0.05 8  158 350 
 XIVZ    ES   0    01048.603                              47   -0.07 8  158 350 
 YAIP    EP   3    01031.968                              47    0.77 2  181  36 
 YAIP    ES   2    01055.187                              47    0.63 4  181  36 
                                                                                
 2020  1 1 0011 39.5 L  35.901  51.915 14.7  New  8 0.2                        1
 GAP=226        0.40       1.9     2.1  1.8  0.7535E+00  0.3330E+00  0.1039E+01E
 Action:ARG 22-06-18 16:58 OP:OBSP STATUS:               ID:20200101001140     I
 STAT SP IPHASW D HRMM SECON CODA AMPLIT PERI AZIMU VELO AIN AR TRES W  DIS CAZ7
 SRWZ    EP   4    01145.990                             122    1.67 0 19.0  35 
 SRWZ    ES   4    01146.229                             122   -1.70 0 19.0  35 
 TVCN    EP   0    01149.267                             100    0.0110 47.1  33 
 TVCN    ES   0    01156.564                             100   -0.0010 47.1  33 
 EVSP    EP   4    01153.535                              64   -0.88 0 76.4 305 
 EVSP    ES   2    012 5.589                              64    0.00 5 76.4 305 
 YXLK    EP   4    01152.424                              64   -2.50 0 79.5  30 
 YXLK    ES   4    012 7.873                              64    1.39 0 79.5  30 
 YIBA    EP   2    01156.507                              64   -0.42 5 91.5   9 
 YIBA    ES   0    01210.099                              64    0.1210 91.5   9 
 ZSCP    EP   0    01157.720                              53    0.0710 96.1  67 
 ZSCP    ES   4    012 9.893                              53   -1.37 0 96.1  67 
 RVDG    EP   1    01158.568                              53   -0.18 7  104  58 
 RVDG    ES   0    01213.142                              53   -0.04 9  104  58 
 XIVZ    EP   2    012 0.334                              53   -0.38 5  117   5 
 XIVZ    ES   3    01217.532                              53    0.91 2  117   5 
 ZGXN    EP   0    012 9.657                              53    0.30 8  176  79 
 ZGXN    ES   4    01233.458                              53    1.71 0  176  79 
 YAIP    EP   1    012 9.787                              53   -0.09 6  179  53 
 YAIP    ES   1    01232.431                              53   -0.22 6  179  53 
                                                                                
 2020  1 1 0013 19.8 L  35.724  52.261 18.1  New  6 0.2                        1
 GAP=258        0.49       4.5     2.0  3.8 -0.3975E+01  0.1607E+01 -0.5592E+00E
 Action:ARG 22-06-18 16:58 OP:OBSP STATUS:               ID:20200101001320     I
 STAT SP IPHASW D HRMM SECON CODA AMPLIT PERI AZIMU VELO AIN AR TRES W  DIS CAZ7
 SRWZ    EP   3    01328.930                              91    0.50 3 40.6 330 
 SRWZ    ES   2    01334.646                              91   -0.29 5 40.6 330 
 ZSCP    EP   1    01334.827                              90   -0.26 7 80.5  46 
 ZSCP    ES   0    01346.715                              90    0.1410 80.5  46 
 RVDG    EP   1    01336.946                              62   -0.18 7 93.4  37 
 RVDG    ES   0    01350.128                              62   -0.0210 93.4  37 
 EVSP    EP   0    01339.893                              62   -0.16 9  113 304 
 EVSP    ES   1    01355.473                              62    0.20 7  113 304 
 XIVZ    EP   0    01343.809                              62    0.16 9  138 351 
 XIVZ    ES   4    014 2.640                              62    1.08 0  138 351 
 YAIP    EP   0    01348.686                              62    0.36 8  170  41 
 YAIP    ES   1    014 9.325                              62   -0.41 6  170  41 
                                                                                
 2020  1 1 0014 60.0 L  35.816  51.965  4.2  New  5 0.3                        1
 GAP=232        0.51       3.4     2.4  5.7  0.3776E+01 -0.8659E+01 -0.7396E+01E
 Action:ARG 22-06-18 16:58 OP:OBSP STATUS:               ID:20200101001500     I
 STAT SP IPHASW D HRMM SECON CODA AMPLIT PERI AZIMU VELO AIN AR TRES W  DIS CAZ7
 TVCN    EP   4    015 9.397                              90   -1.62 0 53.3  23 
 TVCN    ES   3    01518.842                              90   -0.47 3 53.3  23 
 EVSP    EP   0    01517.004                              68   -0.2210 85.7 308 
 EVSP    ES   0    01530.258                              68    0.1010 85.7 308 
 YIBA    EP   3    01518.897                              56   -0.98 2  100   5 
 YIBA    ES   0    01534.881                              56    0.0810  100   5 
 RVDG    EP   1    01521.086                              56    0.39 7  105  52 
 RVDG    ES   4    01535.021                              56   -1.21 0  105  52 
 ZGXN    EP   2    01531.130                              47    0.34 4  173  76 
 ZGXN    ES   0    01553.710                              47   -0.19 8  173  76 
                                                                                
 2020  1 1 0016 40.6 L  36.175  52.002  6.5  New  6 0.3                        1
 GAP=191        0.52       5.7     3.1  2.7 -0.5460E+01  0.1216E+01  0.5203E+01E
 Action:ARG 22-06-18 16:58 OP:OBSP STATUS:               ID:20200101001640     I
 STAT SP IPHASW D HRMM SECON CODA AMPLIT PERI AZIMU VELO AIN AR TRES W  DIS CAZ7
 TVCN    EP   4    01642.666                             101   -2.38 0 20.0  63 
 TVCN    ES   0    01648.368                             101   -0.0110 20.0  63 
 YIBA    EP   4    01652.246                              68   -0.73 0 60.2   6 
 YIBA    ES   4    017 4.483                              68    2.24 0 60.2   6 
 EVSP    EP   3    01655.872                              68    0.72 2 72.0 280 
 EVSP    ES   3    017 6.946                              68    0.89 2 72.0 280 
 ZSCP    EP   1    01656.722                              68   -0.12 7 81.1  85 
 ZSCP    ES   2    017 9.171                              68    0.16 5 81.1  85 
 RVDG    EP   4    01655.444                              68   -1.86 0 83.6  73 
 RVDG    ES   1    01710.193                              68    0.37 7 83.6  73 
 YAIP    EP   0    017 8.140                              47   -0.39 8  156  60 
 YAIP    ES   0    01729.429                              47   -0.05 8  156  60 
 ZGXN    EP   4    01710.398                              47    0.57 0  165  89 
 ZGXN    ES   2    01731.870                              47    0.13 4  165  89 
                                                                                
 2020  1 1 0018 19.1 L  36.269  51.695 10.0  New  8 0.6                        1
 GAP=252        0.60       2.6     9.0 13.1  0.1237E+02 -0.5365E+02 -0.1605E+02E
 Action:ARG 22-06-18 16:58 OP:OBSP STATUS:               ID:20200101001820     I
 STAT SP IPHASW D HRMM SECON CODA AMPLIT PERI AZIMU VELO AIN AR TRES W  DIS CAZ7
 SRWZ    EP   1    01827.291                              68   -0.06 7 39.7 130 
 SRWZ    ES   2    01834.052                              68    0.48 5 39.7 130 
 TVCN    EP   4    01830.500                              68    2.08 0 45.4  92 
 TVCN    ES   2    01835.588                              68    0.16 5 45.4  92 
 YIBA    EP   3    01830.888                              68   -0.20 2 59.8  34 
 YIBA    ES   2    01839.832                              68   -0.27 5 59.8  34 
 YXLK    EP   1    01831.896                              68   -0.25 7 65.6  65 
 YXLK    ES   4    01842.836                              68    0.87 0 65.6  65 
 XIVZ    EP   4    01833.957                              68   -1.09 0 81.2  21 
 XIVZ    ES   1    01847.403                              68    0.37 7 81.2  21 
 ZSCP    EP   2    01839.510                              47   -0.04 5  108  92 
 RVDG    EP   2    01839.550                              47    0.00 5  108  82 
 RVDG    ES   4    01854.104                              47   -0.81 0  108  82 
 ZSCP    ES   4    01851.704                              47   -3.21 0  108  92 
 YAIP    EP   4    01852.166                              47    2.68 0  176  67 
 YAIP    ES   3    019 9.669                              47   -2.63 2  176  67 
                                                                                
 2020  1 1 0019 59.6 L  36.092  52.219  9.3  New  7 0.3                        1
 GAP=166        0.48       1.7     3.3  2.8 -0.3041E+01 -0.6961E+01  0.2005E+01E
 Action:ARG 22-06-18 16:58 OP:OBSP STATUS:               ID:20200101002000     I
 STAT SP IPHASW D HRMM SECON CODA AMPLIT PERI AZIMU VELO AIN AR TRES W  DIS CAZ7
 SRWZ    EP   1    020 3.683                             114   -0.07 7 17.5 251 
 SRWZ    ES   1    020 6.870                             114    0.01 7 17.5 251 
 TVCN    EP   2    020 3.480                             113   -0.42 5 18.3 355 
 TVCN    ES   0    020 7.185                             113    0.0810 18.3 355 
 RVDG    EP   3    02012.871                              68   -0.54 2 69.1  61 
 RVDG    ES   4    02023.085                              68   -0.68 0 69.1  61 
 YIBA    EP   3    02012.616                              68   -1.05 2 70.5 349 
 YIBA    ES   2    02024.275                              68    0.08 5 70.5 349 
 XIVZ    EP   1    02018.548                              56    0.17 7 96.9 350 
 XIVZ    ES   4    02030.732                              56   -1.72 0 96.9 350 
 YAIP    EP   4    02023.575                              47   -1.92 0  145  53 
 YAIP    ES   2    02044.322                              47   -0.59 4  145  53 
 ZGXN    EP   0    02025.883                              47    0.23 8  146  85 
 ZGXN    ES   4    02044.027                              47   -1.15 0  146  85 
                                                                                
