 2020  1 1 0021 40.0 L  35.838  52.210 15.5  New  6 0.3                        1
 GAP=225        0.52       3.9     3.2  6.6  0.5601E+01 -0.1005E+02 -0.1331E+02E
 Action:ARG 22-06-18 16:58 OP:OBSP STATUS:               ID:20200101002140     I
 STAT SP IPHASW D HRMM SECON CODA AMPLIT PERI AZIMU VELO AIN AR TRES W  DIS CAZ7
 ZSCP    EP   1    02155.047                              64    0.27 9 76.0  55 
 ZSCP    ES   4    022 7.040                              64    1.20 0 76.0  55 
 YXLK    EP   2    02154.110                              64   -0.82 6 76.9  10 
 YXLK    ES   2    022 6.444                              64    0.33 6 76.9  10 
 YIBA    EP   4    02156.127                              53   -2.24 0 98.2 353 
 YIBA    ES   4    022 9.715                              53   -2.42 0 98.2 353 
 EVSP    EP   1    02159.122                              53    0.08 9  103 299 
 EVSP    ES   4    02213.951                              53    0.63 0  103 299 
 XIVZ    EP   4    022 0.037                              53   -2.22 0  125 352 
 XIVZ    ES   1    02218.949                              53    0.02 8  125 352 
 ZGXN    EP   0    022 6.147                              53   -0.0410  151  75 
 ZGXN    ES   0    02225.799                              53   -0.0110  151  75 
 YAIP    EP   4    022 6.411                              53   -1.56 0  164  46 
 YAIP    ES   0    02228.874                              53   -0.0710  164  46 
                                                                                
 2020  1 1 0023 20.5 L  35.798  51.996  6.9  New  5 0.2                        1
 GAP=257        0.40       2.8     3.4  4.2  0.3831E+01 -0.4969E+01 -0.5115E+01E
 Action:ARG 22-06-18 16:58 OP:OBSP STATUS:               ID:20200101002320     I
 STAT SP IPHASW D HRMM SECON CODA AMPLIT PERI AZIMU VELO AIN AR TRES W  DIS CAZ7
 YXLK    EP   0    02337.615                              68   -0.0910 86.5  22 
 YXLK    ES   0    02350.597                              68   -0.0110 86.5  22 
 EVSP    EP   4    02339.337                              68    1.15 0 89.1 308 
 EVSP    ES   3    02351.620                              68    0.17 2 89.1 308 
 YIBA    EP   4    02343.370                              56    2.97 0  102   4 
 YIBA    ES   0    02355.354                              56    0.0410  102   4 
 RVDG    EP   0    02340.994                              56    0.2310  104  51 
 RVDG    ES   1    02356.007                              56    0.05 7  104  51 
 ZGXN    EP   4    02351.720                              47    1.08 0  171  75 
 ZGXN    ES   4    02414.729                              47    1.50 0  171  75 
 YAIP    EP   1    02351.635                              47   -0.41 6  181  49 
 YAIP    ES   1    02415.575                              47   -0.12 6  181  49 
                                                                                
 2020  1 1 0024 59.9 L  36.077  51.994 14.6  New  3 0.3                        1
 GAP=319        0.44     629.1   999.9790.7 -0.8796E+06  0.1106E+07 -0.4974E+06E
 Action:ARG 22-06-18 16:58 OP:OBSP STATUS:               ID:20200101002500     I
 STAT SP IPHASW D HRMM SECON CODA AMPLIT PERI AZIMU VELO AIN AR TRES W  DIS CAZ7
 TVCN    EP   0    025 6.034                             111   -0.0110 27.2  43 
 TVCN    ES   3    025 9.868                             111   -0.81 2 27.2  43 
 YXLK    EP   4    025 9.699                              97   -2.11 0 59.0  33 
 YXLK    ES   1    02520.874                              97    0.12 7 59.0  33 
 EVSP    EP   4    02511.771                              64   -2.62 0 74.0 289 
 EVSP    ES   4    02524.965                              64   -0.30 0 74.0 289 
 XIVZ    EP   3    02518.863                              53    0.70 2 97.0   2 
 XIVZ    ES   1    02531.781                              53   -0.09 7 97.0   2 
                                                                                
 2020  1 1 0026 40.3 L  35.967  51.787 20.8  New  5 0.3                        1
 GAP=298        0.48      11.9     7.3  8.6 -0.5158E+02 -0.3570E+02  0.9300E+02E
 Action:ARG 22-06-18 16:58 OP:OBSP STATUS:               ID:20200101002640     I
 STAT SP IPHASW D HRMM SECON CODA AMPLIT PERI AZIMU VELO AIN AR TRES W  DIS CAZ7
 TVCN    EP   2    02650.979                              98    0.57 5 49.1  49 
 TVCN    ES   0    02657.919                              98   -0.0810 49.1  49 
 YIBA    EP   3    02656.529                              62    0.06 2 86.8  17 
 YIBA    ES   4    02711.709                              62    3.10 0 86.8  17 
 ZSCP    EP   4    027 0.893                              62    1.82 0  104  73 
 ZSCP    ES   0    02713.202                              62    0.04 9  104  73 
 RVDG    EP   0    02659.704                              62   -0.19 9  110  64 
 RVDG    ES   3    02715.512                              62    0.91 2  110  64 
 XIVZ    EP   3    027 0.224                              62    0.16 2  111  11 
 XIVZ    ES   4    02715.044                              62    0.15 0  111  11 
                                                                                
 2020  1 1 0028 20.5 L  35.839  51.834  9.4  New  6 0.3                        1
 GAP=315        0.49       3.6     5.0  2.4 -0.1065E+01  0.2529E+01  0.3616E+01E
 Action:ARG 22-06-18 16:58 OP:OBSP STATUS:               ID:20200101002820     I
 STAT SP IPHASW D HRMM SECON CODA AMPLIT PERI AZIMU VELO AIN AR TRES W  DIS CAZ7
 SRWZ    EP   4    02828.548                             104    1.74 0 28.8  39 
 SRWZ    ES   0    02831.597                             104    0.0810 28.8  39 
 TVCN    EP   0    02831.808                              68   -0.2310 56.8  35 
 TVCN    ES   2    02840.263                              68   -0.41 5 56.8  35 
 YXLK    EP   2    02838.515                              56    0.54 5 89.0  32 
 YXLK    ES   4    02850.017                              56   -1.04 0 89.0  32 
 YIBA    EP   4    02841.070                              56    1.36 0 99.5  12 
 YIBA    ES   1    02854.205                              56    0.10 7 99.5  12 
 RVDG    EP   2    02842.237                              47    0.43 5  113  57 
 RVDG    ES   0    02857.792                              47    0.01 9  113  57 
 YAIP    EP   0    02852.860                              47   -0.10 7  189  53 
 YAIP    ES   3    02918.077                              47    0.79 2  189  53 
                                                                                
 2020  1 1 0030  0.5 L  36.028  51.864 18.9  New  7 0.4                        1
 GAP=220        0.55       4.3     4.7  3.9  0.1005E+02 -0.3894E+01 -0.4457E+01E
 Action:ARG 22-06-18 16:58 OP:OBSP STATUS:               ID:20200101003000     I
 STAT SP IPHASW D HRMM SECON CODA AMPLIT PERI AZIMU VELO AIN AR TRES W  DIS CAZ7
 TVCN    EP   0    030 9.142                              95    0.1610 39.5  50 
 TVCN    ES   2    03015.062                              95   -0.29 5 39.5  50 
 EVSP    EP   3    03011.836                              91   -1.44 2 65.3 297 
 EVSP    ES   4    03021.229                              91   -1.64 0 65.3 297 
 YIBA    EP   0    03015.445                              91   -0.0310 78.5  13 
 YIBA    ES   2    03026.649                              91   -0.07 5 78.5  13 
 ZSCP    EP   3    03018.863                              62    0.68 2 96.0  76 
 ZSCP    ES   3    03030.583                              62   -0.86 2 96.0  76 
 RVDG    EP   2    03019.406                              62    0.50 5  101  66 
 RVDG    ES   1    03032.436                              62   -0.29 7  101  66 
 XIVZ    EP   2    03018.729                              62   -0.54 5  103   8 
 XIVZ    ES   0    03033.515                              62    0.16 9  103   8 
 YAIP    EP   1    03030.087                              62    0.30 6  175  57 
 YAIP    ES   3    03050.966                              62   -0.79 2  175  57 
 ZGXN    EP   4    03031.101                              62    0.85 0  178  84 
 ZGXN    ES   4    03051.031                              62   -1.54 0  178  84 
                                                                                
 2020  1 1 0031 40.8 L  36.081  51.779 19.6  New  5 0.2                        1
 GAP=279        0.39       2.4     5.2  2.9  0.4166E+01 -0.7969E+01 -0.1259E+01E
 Action:ARG 22-06-18 16:58 OP:OBSP STATUS:               ID:20200101003140     I
 STAT SP IPHASW D HRMM SECON CODA AMPLIT PERI AZIMU VELO AIN AR TRES W  DIS CAZ7
 SRWZ    EP   1    03146.534                             118   -0.18 8 23.5 101 
 SRWZ    ES   3    03151.600                             118    0.42 3 23.5 101 
 TVCN    EP   1    03150.005                              97    0.24 8 42.6  63 
 TVCN    ES   1    03156.507                              97   -0.02 8 42.6  63 
 YIBA    EP   4    03156.368                              92    1.20 0 75.0  20 
 YIBA    ES   1    032 5.879                              92   -0.09 8 75.0  20 
 RVDG    EP   4    03158.016                              62   -1.83 0  106  71 
 RVDG    ES   0    03214.233                              62    0.0710  106  71 
 ZGXN    EP   2    03211.748                              62    0.25 4  185  86 
 ZGXN    ES   1    03234.250                              62   -0.30 6  185  86 
                                                                                
 2020  1 1 0033 20.4 L  36.170  52.378  4.1  New  8 0.3                        1
 GAP=157        0.54       1.8     1.3  4.3 -0.6394E+00 -0.1134E+00 -0.3004E+00E
 Action:ARG 22-06-18 16:58 OP:OBSP STATUS:               ID:20200101003320     I
 STAT SP IPHASW D HRMM SECON CODA AMPLIT PERI AZIMU VELO AIN AR TRES W  DIS CAZ7
 SRWZ    EP   4    03328.390                              64    1.02 0 34.0 245 
 SRWZ    ES   0    03332.477                              64   -0.1410 34.0 245 
 YXLK    EP   4    03329.877                              64    1.50 0 39.0 357 
 YXLK    ES   4    03332.878                              64   -1.50 0 39.0 357 
 ZSCP    EP   4    03328.838                              64   -1.24 0 47.5  82 
 ZSCP    ES   2    03336.810                              64   -0.54 5 47.5  82 
 RVDG    EP   1    03331.254                              64    0.19 7 52.5  62 
 RVDG    ES   1    03338.944                              64   -0.13 7 52.5  62 
 YIBA    EP   4    03335.532                              56    1.67 0 66.6 336 
 YIBA    ES   1    03343.551                              56   -0.42 7 66.6 336 
 XIVZ    EP   3    03339.238                              56    0.62 2 92.3 340 
 XIVZ    ES   2    03352.910                              56    0.61 5 92.3 340 
 EVSP    EP   3    03341.376                              49    0.51 2  106 278 
 EVSP    ES   2    03356.681                              49    0.45 5  106 278 
 YAIP    EP   1    03344.384                              41    0.18 7  128  53 
 YAIP    ES   4    034 0.018                              41   -2.05 0  128  53 
 ZGXN    EP   0    03344.631                              41    0.00 9  131  89 
 ZGXN    ES   0    034 2.950                              41    0.13 9  131  89 
                                                                                
 2020  1 1 0034 59.9 L  35.819  51.950  1.3  New  9 0.4                        1
 GAP=247        0.54       3.3     1.8  3.8  0.2315E+00  0.1659E+01 -0.4119E+01E
 Action:ARG 22-06-18 16:58 OP:OBSP STATUS:               ID:20200101003500     I
 STAT SP IPHASW D HRMM SECON CODA AMPLIT PERI AZIMU VELO AIN AR TRES W  DIS CAZ7
 SRWZ    EP   2    035 6.415                              93    0.79 5 25.8  17 
 SRWZ    ES   3    035 9.398                              93   -0.53 3 25.8  17 
 TVCN    EP   1    03510.985                              64   -0.25 8 53.5  25 
 TVCN    ES   3    03519.064                              64   -0.69 3 53.5  25 
 EVSP    EP   1    03516.925                              56   -0.32 7 84.4 308 
 EVSP    ES   0    03530.416                              56    0.1510 84.4 308 
 YXLK    EP   0    03517.649                              56    0.1010 86.1  25 
 YXLK    ES   1    03531.070                              56    0.26 7 86.1  25 
 ZSCP    EP   0    03519.515                              56   -0.0810 97.1  62 
 ZSCP    ES   2    03534.520                              56    0.13 5 97.1  62 
 YIBA    EP   3    03519.144                              56   -1.00 2  100   6 
 YIBA    ES   2    03534.584                              56   -0.77 5  100   6 
 RVDG    EP   1    03521.270                              49    0.11 7  106  53 
 RVDG    ES   4    03537.799                              49    0.67 0  106  53 
 XIVZ    EP   4    03524.936                              41    0.75 0  126   3 
 XIVZ    ES   2    03542.539                              41    0.12 5  126   3 
 YAIP    EP   3    03532.884                              41    0.38 2  182  50 
 YAIP    ES   3    03556.946                              41   -0.03 2  182  50 
                                                                                
 2020  1 1 0036 39.8 L  36.372  51.827 14.1  New  5 0.3                        1
 GAP=279        0.54       2.3     5.9  2.2  0.8586E+01 -0.1000E+00  0.4601E+00E
 Action:ARG 22-06-18 16:58 OP:OBSP STATUS:               ID:20200101003640     I
 STAT SP IPHASW D HRMM SECON CODA AMPLIT PERI AZIMU VELO AIN AR TRES W  DIS CAZ7
 TVCN    EP   2    03648.207                             103    0.69 5 35.9 111 
 TVCN    ES   0    03653.132                             103   -0.1510 35.9 111 
 YIBA    EP   2    03648.409                              99   -0.54 5 43.8  30 
 YIBA    ES   0    03655.842                              99    0.0610 43.8  30 
 YXLK    EP   4    03652.428                              98    2.30 0 50.2  71 
 YXLK    ES   0    03657.905                              98    0.0610 50.2  71 
 RVDG    EP   4    03659.259                              53    1.28 0 95.7  88 
 RVDG    ES   0    03711.653                              53    0.0710 95.7  88 
 YAIP    EP   4    037 5.951                              53   -1.60 0  161  70 
 YAIP    ES   1    03728.148                              53   -0.19 6  161  70 
                                                                                
 2020  1 1 0038 17.8 L  35.739  51.952 24.4  New  4 0.0                        1
 GAP=293        0.34      13.3     9.1  5.0  0.7988E+02 -0.2964E+02 -0.2039E+02E
 Action:ARG 22-06-18 16:58 OP:OBSP STATUS:               ID:20200101003820     I
 STAT SP IPHASW D HRMM SECON CODA AMPLIT PERI AZIMU VELO AIN AR TRES W  DIS CAZ7
 SRWZ    EP   1    03825.757                             116   -0.00 7 34.3  13 
 SRWZ    ES   4    03832.083                             116    0.37 0 34.3  13 
 YXLK    EP   4    03836.211                              62    1.42 0 94.1  23 
 YXLK    ES   3    03847.527                              62   -0.00 2 94.1  23 
 ZSCP    EP   4    03835.602                              62   -0.28 0  102  57 
 ZSCP    ES   4    03851.114                              62    1.69 0  102  57 
 YIBA    EP   2    03836.967                              62    0.00 5  109   6 
 YIBA    ES   4    03851.925                              62    0.60 0  109   6 
 ZGXN    EP   4    03849.638                              62    2.68 0  177  73 
 ZGXN    ES   2    039 8.813                              62    0.00 4  177  73 
                                                                                
 2020  1 1 0040  0.1 L  36.465  52.044 11.0  New 10 0.3                        1
 GAP=103        0.55       1.2     1.3  3.2  0.2263E+00 -0.7472E+00 -0.1118E+00E
 Action:ARG 22-06-18 16:58 OP:OBSP STATUS:               ID:20200101004000     I
 STAT SP IPHASW D HRMM SECON CODA AMPLIT PERI AZIMU VELO AIN AR TRES W  DIS CAZ7
 TVCN    EP   4    040 7.198                              98    1.15 0 27.1 149 
 TVCN    ES   0    04010.416                              98   -0.1210 27.1 149 
 YIBA    EP   4    040 7.384                              97    1.19 0 27.9   5 
 YIBA    ES   0    04010.619                              97   -0.1710 27.9   5 
 YXLK    EP   4    040 4.675                              97   -1.67 0 28.7  77 
 YXLK    ES   2    04011.626                              97    0.58 5 28.7  77 
 SRWZ    EP   4    040 7.917                              92   -1.82 0 47.1 181 
 SRWZ    ES   3    04016.243                              92   -0.74 2 47.1 181 
 XIVZ    EP   1    04011.165                              92    0.16 7 53.9 358 
 XIVZ    ES   4    04020.530                              92    1.32 0 53.9 358 
 RVDG    EP   0    04015.222                              91    0.0010 76.7  96 
 RVDG    ES   1    04026.770                              91    0.19 7 76.7  96 
 EVSP    EP   4    04016.585                              91    1.31 0 77.0 256 
 EVSP    ES   0    04026.759                              91    0.0810 77.0 256 
 ZSCP    EP   1    04016.399                              91    0.33 7 81.3 108 
 ZSCP    ES   1    04027.753                              91   -0.32 7 81.3 108 
 YAIP    EP   0    04024.801                              53   -0.14 8  139  71 
 YAIP    ES   3    04042.830                              53   -0.77 2  139  71 
 ZGXN    EP   1    04028.125                              53   -0.40 6  163 100 
 ZGXN    ES   1    04050.400                              53    0.53 6  163 100 
                                                                                
 2020  1 1 0041 40.1 L  36.142  52.024  9.2  New  9 0.4                        1
 GAP=108        0.56       2.1     1.3  4.3 -0.2964E+00  0.2799E+00 -0.3646E+01E
 Action:ARG 22-06-18 16:58 OP:OBSP STATUS:               ID:20200101004140     I
 STAT SP IPHASW D HRMM SECON CODA AMPLIT PERI AZIMU VELO AIN AR TRES W  DIS CAZ7
 SRWZ    EP   4    04141.706                             126   -1.47 0 11.2 175 
 SRWZ    ES   3    04144.034                             126   -1.42 2 11.2 175 
 TVCN    EP   2    04145.169                             110    0.38 5 20.3  51 
 TVCN    ES   4    04149.064                             110    0.79 0 20.3  51 
 YXLK    EP   4    04149.119                              68   -1.59 0 51.6  35 
 YXLK    ES   1    04159.020                              68    0.39 7 51.6  35 
 YIBA    EP   0    04152.826                              68   -0.1410 63.8   4 
 YIBA    ES   0    042 2.545                              68   -0.0410 63.8   4 
 EVSP    EP   0    04155.128                              68    0.1510 74.7 283 
 EVSP    ES   0    042 6.154                              68    0.0510 74.7 283 
 ZSCP    EP   4    04152.518                              68   -3.36 0 79.5  83 
 ZSCP    ES   0    042 7.626                              68   -0.0510 79.5  83 
 RVDG    EP   1    04156.707                              68    0.20 7 82.9  70 
 RVDG    ES   3    042 7.980                              68   -0.80 2 82.9  70 
 XIVZ    EP   1    04157.468                              56   -0.28 7 89.8 360 
 XIVZ    ES   2    04210.382                              56   -0.57 5 89.8 360 
 ZGXN    EP   3    042 9.497                              47    0.77 2  163  88 
 ZGXN    ES   4    04228.878                              47   -1.29 0  163  88 
                                                                                
