 2020  1 1 0001 40.1 L  35.858  52.356  9.9  New  8 0.4                        1
 GAP=221        0.56       2.6     2.5  8.1 -0.7113E+00 -0.1301E+02  0.2048E+01E
 Action:ARG 22-06-16 12:10 OP:OBSP STATUS:               ID:20200101000140     I
 STAT SP IPHASW D HRMM SECON CODA AMPLIT PERI AZIMU VELO AIN AR TRES W  DIS CAZ7
 SRWZ    EP   0    0 147.509                              68   -0.0810 35.3 305 
 SRWZ    ES   4    0 155.343                              68    2.13 0 35.3 305 
 TVCN    EP   3    0 150.464                              68    0.84 2 46.3 342 
 TVCN    ES   2    0 157.434                              68    0.66 5 46.3 342 
 ZSCP    EP   3    0 152.083                              68   -0.85 2 64.2  50 
 ZSCP    ES   0    0 2 2.546                              68   -0.0110 64.2  50 
 YXLK    EP   4    0 156.500                              68    1.83 0 73.5   0 
 YXLK    ES   0    0 2 5.509                              68   -0.0910 73.5   0 
 RVDG    EP   4    0 153.276                              68   -1.92 0 76.4  39 
 RVDG    ES   4    0 2 5.454                              68   -1.07 0 76.4  39 
 YIBA    EP   1    0 158.749                              56   -0.33 7 98.6 345 
 YIBA    ES   4    0 212.579                              56   -0.74 0 98.6 345 
 EVSP    EP   1    0 2 1.344                              47    0.01 7  113 295 
 EVSP    ES   4    0 215.705                              47   -1.55 0  113 295 
 ZGXN    EP   2    0 2 5.771                              47    0.83 4  138  74 
 ZGXN    ES   1    0 223.371                              47   -0.21 6  138  74 
 YAIP    EP   0    0 2 7.270                              47    0.16 8  153  43 
 YAIP    ES   4    0 226.247                              47   -1.12 0  153  43 
                                                                                
 2020  1 1 0003 19.3 L  35.719  51.856 18.6  New  5 0.3                        1
 GAP=311        0.51       8.6     6.9  6.5  0.1746E+02 -0.1873E+02 -0.3231E+02E
 Action:ARG 22-06-16 12:10 OP:OBSP STATUS:               ID:20200101000320     I
 STAT SP IPHASW D HRMM SECON CODA AMPLIT PERI AZIMU VELO AIN AR TRES W  DIS CAZ7
 TVCN    EP   0    0 332.382                              91   -0.0010 67.2  27 
 TVCN    ES   4    0 340.407                              91   -1.81 0 67.2  27 
 YXLK    EP   0    0 337.771                              62    0.23 9 99.7  27 
 YXLK    ES   4    0 349.277                              62   -1.96 0 99.7  27 
 ZSCP    EP   4    0 338.180                              62   -0.88 0  110  59 
 ZSCP    ES   3    0 354.531                              62    0.64 2  110  59 
 YIBA    EP   1    0 338.976                              62   -0.40 7  112  10 
 YIBA    ES   1    0 354.554                              62    0.10 7  112  10 
 YAIP    EP   4    0 349.711                              62   -2.00 0  196  49 
 YAIP    ES   0    0 415.845                              62   -0.18 7  196  49 
                                                                                
 2020  1 1 0005  0.0 L  35.584  52.351  0.6  New  3 0.0                        1
 GAP=286        0.34      18.9    24.2 23.4  0.4008E+03 -0.5264E+03 -0.3689E+03E
 Action:ARG 22-06-16 12:10 OP:OBSP STATUS:               ID:20200101000500     I
 STAT SP IPHASW D HRMM SECON CODA AMPLIT PERI AZIMU VELO AIN AR TRES W  DIS CAZ7
 TVCN    EP   1    0 515.880                              56   -0.00 7 75.8 350 
 TVCN    ES   3    0 527.769                              56   -0.00 2 75.8 350 
 YIBA    EP   3    0 524.787                              41    0.01 2  128 349 
 YIBA    ES   4    0 540.513                              41   -2.83 0  128 349 
 ZGXN    EP   4    0 527.356                              41   -0.60 0  150  63 
 ZGXN    ES   3    0 548.909                              41   -0.00 2  150  63 
                                                                                
 2020  1 1 0006 39.7 L  35.838  52.406  6.4  New  6 0.3                        1
 GAP=254        0.44       2.4     2.6  2.2 -0.1610E+01 -0.2825E+01  0.1316E+01E
 Action:ARG 22-06-16 12:10 OP:OBSP STATUS:               ID:20200101000640     I
 STAT SP IPHASW D HRMM SECON CODA AMPLIT PERI AZIMU VELO AIN AR TRES W  DIS CAZ7
 SRWZ    EP   4    0 649.503                              94    1.29 0 40.4 304 
 SRWZ    ES   0    0 654.624                              94    0.0510 40.4 304 
 TVCN    EP   1    0 650.152                              93    0.01 7 50.0 338 
 TVCN    ES   1    0 657.958                              93    0.01 7 50.0 338 
 YXLK    EP   1    0 654.946                              68   -0.07 7 76.0 357 
 YXLK    ES   1    0 7 6.362                              68   -0.12 7 76.0 357 
 EVSP    EP   0    0 7 1.994                              47   -0.19 9  119 295 
 EVSP    ES   2    0 719.296                              47    0.27 4  119 295 
 XIVZ    EP   4    0 7 5.566                              47    1.96 0  128 345 
 XIVZ    ES   0    0 721.575                              47    0.06 9  128 345 
 YAIP    EP   2    0 7 7.839                              47    0.82 4  151  41 
 YAIP    ES   3    0 726.715                              47   -0.77 2  151  41 
                                                                                
 2020  1 1 0008 20.4 L  35.959  52.087 11.0  New  6 0.4                        1
 GAP=290        0.52       3.2     4.1  3.7  0.3670E+01  0.4472E+01  0.3421E+01E
 Action:ARG 22-06-16 12:10 OP:OBSP STATUS:               ID:20200101000820     I
 STAT SP IPHASW D HRMM SECON CODA AMPLIT PERI AZIMU VELO AIN AR TRES W  DIS CAZ7
 YXLK    EP   3    0 832.894                              91   -0.80 2 66.9  21 
 YXLK    ES   0    0 843.754                              91    0.0510 66.9  21 
 ZSCP    EP   2    0 836.404                              91    0.41 5 79.3  67 
 ZSCP    ES   4    0 850.056                              91    2.33 0 79.3  67 
 YIBA    EP   4    0 838.189                              64    1.37 0 84.0 359 
 YIBA    ES   3    0 848.217                              64   -0.94 2 84.0 359 
 RVDG    EP   0    0 837.273                              64   -0.0510 87.0  56 
 RVDG    ES   2    0 849.410                              64   -0.64 5 87.0  56 
 XIVZ    EP   0    0 840.918                              53   -0.07 9  110 357 
 XIVZ    ES   1    0 856.640                              53    0.18 7  110 357 
 YAIP    EP   3    0 849.463                              53    0.71 2  163  52 
 YAIP    ES   1    0 910.350                              53    0.30 6  163  52 
                                                                                
 2020  1 1 0010  0.3 L  35.558  52.331 10.9  New  7 0.3                        1
 GAP=271        0.60       4.8     4.1  4.7  0.8570E+01 -0.1349E+02 -0.1032E+02E
 Action:ARG 22-06-16 12:10 OP:OBSP STATUS:               ID:20200101001000     I
 STAT SP IPHASW D HRMM SECON CODA AMPLIT PERI AZIMU VELO AIN AR TRES W  DIS CAZ7
 SRWZ    EP   0    01012.461                              91    0.1510 59.9 334 
 SRWZ    ES   2    01021.007                              91   -0.33 5 59.9 334 
 ZSCP    EP   4    01016.609                              64   -1.25 0 90.6  34 
 ZSCP    ES   1    01030.917                              64   -0.12 7 90.6  34 
 RVDG    EP   2    01020.871                              53    0.65 5  105  29 
 RVDG    ES   0    01035.364                              53    0.18 9  105  29 
 YXLK    EP   1    01019.984                              53   -0.45 7  107   1 
 YXLK    ES   4    01037.881                              53    2.34 0  107   1 
 YIBA    EP   0    01023.923                              53    0.00 9  131 350 
 YIBA    ES   2    01041.178                              53   -0.47 4  131 350 
 ZGXN    EP   1    01027.405                              53    0.25 6  153  62 
 ZGXN    ES   1    01046.975                              53   -0.34 6  153  62 
 XIVZ    EP   2    01027.010                              53   -0.79 4  157 350 
 XIVZ    ES   0    01048.706                              53    0.26 8  157 350 
                                                                                
 2020  1 1 0011 39.3 L  35.967  51.817 19.9  New  4 0.2                        1
 GAP=334        0.37       6.8     9.3  5.6 -0.5016E+02 -0.4098E+02  0.3329E+02E
 Action:ARG 22-06-16 12:10 OP:OBSP STATUS:               ID:20200101001140     I
 STAT SP IPHASW D HRMM SECON CODA AMPLIT PERI AZIMU VELO AIN AR TRES W  DIS CAZ7
 SRWZ    EP   3    01145.272                             123    0.32 2 21.3  67 
 SRWZ    ES   4    01148.860                             123   -0.35 0 21.3  67 
 TVCN    EP   2    01148.693                              96   -0.36 5 47.2  47 
 TVCN    ES   0    01156.420                              96    0.0310 47.2  47 
 ZSCP    EP   0    01157.826                              62    0.07 9  102  73 
 ZSCP    ES   0    01211.545                              62   -0.06 9  102  73 
 YAIP    EP   4    01211.709                              62    2.15 0  182  56 
 YAIP    ES   1    01232.355                              62    0.09 6  182  56 
                                                                                
 2020  1 1 0013 20.6 L  35.780  52.252 14.7  New  7 0.3                        1
 GAP=252        0.39       2.6     1.6  2.6  0.3080E-01 -0.7784E+00  0.2375E+01E
 Action:ARG 22-06-16 12:10 OP:OBSP STATUS:               ID:20200101001320     I
 STAT SP IPHASW D HRMM SECON CODA AMPLIT PERI AZIMU VELO AIN AR TRES W  DIS CAZ7
 SRWZ    EP   4    01326.378                             105   -1.72 0 34.9 326 
 SRWZ    ES   3    01334.934                             105    1.18 3 34.9 326 
 TVCN    EP   3    01330.474                              98   -0.92 3 53.0 355 
 TVCN    ES   1    01339.420                              98   -0.10 8 53.0 355 
 ZSCP    EP   1    01335.570                              64    0.01 7 77.0  49 
 ZSCP    ES   0    01346.746                              64   -0.0610 77.0  49 
 YXLK    EP   1    01336.612                              64    0.09 7 82.7   6 
 YXLK    ES   0    01348.497                              64    0.0010 82.7   6 
 RVDG    EP   4    01338.259                              64    0.68 0 89.1  40 
 RVDG    ES   0    01350.390                              64    0.0410 89.1  40 
 EVSP    EP   4    01341.234                              53    0.58 0  109 301 
 EVSP    ES   1    01355.639                              53   -0.07 7  109 301 
 XIVZ    EP   4    01341.883                              53   -2.04 0  132 351 
 XIVZ    ES   4    01359.511                              53   -1.92 0  132 351 
 YAIP    EP   2    01348.953                              53    0.04 4  166  43 
 YAIP    ES   1    01410.279                              53    0.10 6  166  43 
                                                                                
 2020  1 1 0015  0.3 L  35.783  51.924 11.5  New  6 0.3                        1
 GAP=237        0.47       5.1     3.8  5.4  0.9869E+01 -0.1219E+02 -0.1275E+02E
 Action:ARG 22-06-16 12:10 OP:OBSP STATUS:               ID:20200101001500     I
 STAT SP IPHASW D HRMM SECON CODA AMPLIT PERI AZIMU VELO AIN AR TRES W  DIS CAZ7
 TVCN    EP   2    01511.978                              92   -0.06 5 58.1  25 
 TVCN    ES   4    01521.549                              92    0.73 0 58.1  25 
 EVSP    EP   2    01516.509                              64   -0.43 5 85.2 311 
 EVSP    ES   3    01529.250                              64   -0.16 3 85.2 311 
 ZSCP    EP   2    01519.745                              53    0.18 5  101  60 
 ZSCP    ES   1    01533.864                              53   -0.13 8  101  60 
 YIBA    EP   4    01518.770                              53   -1.26 0  104   7 
 YIBA    ES   1    01535.142                              53    0.33 8  104   7 
 RVDG    EP   2    01521.326                              53    0.40 5  110  52 
 RVDG    ES   0    01536.118                              53   -0.2610  110  52 
 ZGXN    EP   2    01531.256                              53    0.40 4  178  75 
 ZGXN    ES   1    01553.947                              53    0.20 6  178  75 
                                                                                
 2020  1 1 0016 40.1 L  36.141  52.009  4.7  New  6 0.4                        1
 GAP=115        0.61       1.7     1.7  4.1 -0.1527E+00  0.1400E+01 -0.2658E+01E
 Action:ARG 22-06-16 12:10 OP:OBSP STATUS:               ID:20200101001640     I
 STAT SP IPHASW D HRMM SECON CODA AMPLIT PERI AZIMU VELO AIN AR TRES W  DIS CAZ7
 SRWZ    EP   0    01642.673                             100   -0.0910 11.4 168 
 SRWZ    ES   2    01645.014                             100    0.25 5 11.4 168 
 TVCN    EP   4    01643.622                              93   -1.13 0 21.4  53 
 TVCN    ES   4    01650.433                              93    2.17 0 21.4  53 
 YXLK    EP   2    01650.365                              91   -0.59 5 52.4  36 
 YXLK    ES   4    01657.667                              91   -1.44 0 52.4  36 
 YIBA    EP   3    01654.376                              91    1.12 2 63.9   5 
 YIBA    ES   1    017 3.093                              91   -0.05 7 63.9   5 
 EVSP    EP   1    01655.322                              68    0.30 7 73.4 283 
 EVSP    ES   0    017 6.162                              68   -0.0610 73.4 283 
 ZSCP    EP   4    01657.681                              68    1.28 0 80.9  83 
 ZSCP    ES   4    01710.054                              68    1.41 0 80.9  83 
 RVDG    EP   0    01657.138                              68    0.1210 84.2  71 
 RVDG    ES   1    017 9.998                              68    0.27 7 84.2  71 
 XIVZ    EP   4    01659.877                              68    1.81 0 89.8   1 
 XIVZ    ES   4    01710.351                              68   -1.21 0 89.8   1 
 YAIP    EP   4    017 9.528                              47    1.07 0  157  59 
 YAIP    ES   4    01731.736                              47    2.00 0  157  59 
 ZGXN    EP   1    017 8.789                              47   -0.69 6  164  88 
 ZGXN    ES   4    01729.717                              47   -1.80 0  164  88 
                                                                                
 2020  1 1 0018 21.1 L  36.304  51.845 10.0  New  3 0.0                        1
 GAP=294        0.30      23.1    67.8  0.0 -0.1543E+04  0.1400E+01 -0.2658E+01E
 Action:ARG 22-06-16 12:10 OP:OBSP STATUS:               ID:20200101001820     I
 STAT SP IPHASW D HRMM SECON CODA AMPLIT PERI AZIMU VELO AIN AR TRES W  DIS CAZ7
 SRWZ    EP   2    01828.296                              68   -0.00 5 33.9 150 
 SRWZ    ES   4    01832.079                              68   -1.63 0 33.9 150 
 RVDG    EP   1    01839.401                              56   -0.00 7 94.7  84 
 RVDG    ES   4    01854.842                              56    1.70 0 94.7  84 
 ZSCP    EP   2    01839.509                              56    0.00 5 95.3  95 
 ZSCP    ES   4    01854.032                              56    0.71 0 95.3  95 
                                                                                
 2020  1 1 0020  0.0 L  36.111  52.214 10.0  New 10 0.3                        1
 GAP=158        0.55       1.8     1.9  1.8  0.5710E+00 -0.1119E+01  0.4695E+00E
 Action:ARG 22-06-16 12:10 OP:OBSP STATUS:               ID:20200101002000     I
 STAT SP IPHASW D HRMM SECON CODA AMPLIT PERI AZIMU VELO AIN AR TRES W  DIS CAZ7
 TVCN    EP   0    020 3.900                             118   -0.0810 16.2 356 
 TVCN    ES   1    020 6.729                             118   -0.22 7 16.2 356 
 SRWZ    EP   4    020 5.701                             116    1.43 0 17.9 244 
 SRWZ    ES   3    020 8.274                             116    0.80 2 17.9 244 
 YXLK    EP   4    02010.786                              68    1.07 0 47.3  16 
 YXLK    ES   0    02017.167                              68    0.1710 47.3  16 
 ZSCP    EP   4    02011.016                              68   -1.64 0 63.2  78 
 ZSCP    ES   2    02023.114                              68    0.96 5 63.2  78 
 YIBA    EP   0    02013.584                              68   -0.0410 68.4 349 
 YIBA    ES   0    02023.754                              68   -0.0710 68.4 349 
 RVDG    EP   3    02012.980                              68   -0.67 2 68.5  63 
 RVDG    ES   4    02022.953                              68   -0.92 0 68.5  63 
 EVSP    EP   1    02017.874                              56   -0.03 7 92.1 283 
 EVSP    ES   2    02031.500                              56    0.17 5 92.1 283 
 XIVZ    EP   2    02018.876                              56    0.52 5 94.8 350 
 XIVZ    ES   1    02032.278                              56    0.17 7 94.8 350 
 YAIP    EP   4    02028.186                              47    2.51 0  144  54 
 YAIP    ES   1    02044.540                              47   -0.38 6  144  54 
 ZGXN    EP   1    02025.639                              47   -0.35 6  146  86 
 ZGXN    ES   0    02045.410                              47   -0.07 8  146  86 
                                                                                
 2020  1 1 0021 39.8 L  35.842  52.192 15.8  New  9 0.5                        1
 GAP=225        0.66       4.1     4.0  4.2 -0.1879E+00 -0.7840E+01  0.7723E+01E
 Action:ARG 22-06-16 12:10 OP:OBSP STATUS:               ID:20200101002140     I
 STAT SP IPHASW D HRMM SECON CODA AMPLIT PERI AZIMU VELO AIN AR TRES W  DIS CAZ7
 SRWZ    EP   4    02148.174                             115    2.32 0 26.2 327 
 SRWZ    ES   3    02151.526                             115    1.11 2 26.2 327 
 TVCN    EP   1    02149.034                             102   -0.30 7 46.0   1 
 TVCN    ES   0    02156.550                             102    0.0310 46.0   1 
 YXLK    EP   4    02156.447                              64    1.82 0 76.8  11 
 YXLK    ES   2    022 6.439                              64    0.66 5 76.8  11 
 ZSCP    EP   4    02156.083                              64    1.40 0 77.1  56 
 ZSCP    ES   2    022 6.459                              64    0.59 5 77.1  56 
 RVDG    EP   0    02156.607                              64    0.1510 87.8  46 
 RVDG    ES   0    022 8.720                              64   -0.2710 87.8  46 
 YIBA    EP   4    02159.229                              53    1.24 0 97.6 354 
 YIBA    ES   4    02213.512                              53    1.85 0 97.6 354 
 EVSP    EP   2    02158.219                              53   -0.29 5  101 300 
 EVSP    ES   3    02213.681                              53    1.10 2  101 300 
 XIVZ    EP   4    022 0.599                              53   -1.27 0  124 353 
 XIVZ    ES   2    02217.928                              53   -0.53 4  124 353 
 ZGXN    EP   2    022 6.797                              53    0.69 4  153  75 
 ZGXN    ES   3    02226.594                              53    0.72 2  153  75 
 YAIP    EP   1    022 7.344                              53   -0.47 6  164  46 
 YAIP    ES   4    02227.453                              53   -1.40 0  164  46 
                                                                                
