 2020  1 1 0108 20.3 L  35.971  51.946 20.0  New 10 0.3                        1
 GAP=217        0.51       2.5     2.3  3.1  0.1340E+01 -0.2662E+01 -0.1728E+01E
 Action:ARG 22-06-16 12:10 OP:OBSP STATUS:               ID:20200101010820     I
 STAT SP IPHASW D HRMM SECON CODA AMPLIT PERI AZIMU VELO AIN AR TRES W  DIS CAZ7
 SRWZ    EP   2    1 825.163                             146    0.43 5 11.1  46 
 SRWZ    ES   4    1 826.326                             146   -1.76 0 11.1  46 
 TVCN    EP   2    1 829.091                             100    0.38 5 39.1  36 
 TVCN    ES   4    1 833.901                             100   -1.15 0 39.1  36 
 YXLK    EP   4    1 831.243                              93   -2.82 0 71.3  31 
 YXLK    ES   1    1 844.004                              93   -0.40 7 71.3  31 
 EVSP    EP   0    1 834.720                              93    0.0810 74.8 298 
 EVSP    ES   3    1 844.528                              93   -0.89 2 74.8 298 
 YIBA    EP   0    1 836.210                              62    0.2010 83.4   8 
 YIBA    ES   1    1 847.763                              62   -0.05 7 83.4   8 
 ZSCP    EP   1    1 837.356                              62    0.27 7 90.7  71 
 ZSCP    ES   4    1 851.056                              62    1.35 0 90.7  71 
 RVDG    EP   0    1 837.884                              62   -0.16 9 97.2  61 
 RVDG    ES   3    1 852.190                              62    0.82 2 97.2  61 
 XIVZ    EP   0    1 839.768                              62   -0.01 9  109   4 
 XIVZ    ES   1    1 854.297                              62   -0.11 7  109   4 
 YAIP    EP   1    1 849.262                              62    0.17 6  172  54 
 YAIP    ES   4    1 9 9.207                              62   -1.51 0  172  54 
 ZGXN    EP   1    1 848.473                              62   -0.52 6  172  81 
 ZGXN    ES   0    1 910.465                              62   -0.06 8  172  81 
                                                                                
 2020  1 1 0110  0.2 L  36.099  52.055 19.4  New  9 0.3                        1
 GAP=110        0.53       2.6     2.0  2.7 -0.3988E+00  0.5173E+00 -0.1731E+01E
 Action:ARG 22-06-16 12:10 OP:OBSP STATUS:               ID:20200101011000     I
 STAT SP IPHASW D HRMM SECON CODA AMPLIT PERI AZIMU VELO AIN AR TRES W  DIS CAZ7
 SRWZ    EP   4    110 5.221                             158    0.95 0 6.72 196 
 SRWZ    ES   2    110 6.923                             158   -0.37 5 6.72 196 
 TVCN    EP   4    110 7.679                             121    1.74 0 21.8  37 
 TVCN    ES   1    11010.413                             121    0.20 8 21.8  37 
 YXLK    EP   2    11011.759                              93    0.60 5 54.1  30 
 YXLK    ES   3    11018.669                              93   -0.68 3 54.1  30 
 YIBA    EP   1    11013.878                              92    0.33 8 68.4   1 
 YIBA    ES   2    11023.042                              92   -0.48 5 68.4   1 
 ZSCP    EP   0    11014.857                              92   -0.2010 77.5  79 
 ZSCP    ES   4    11024.821                              92   -1.36 0 77.5  79 
 EVSP    EP   1    11015.212                              92   -0.02 7 78.5 286 
 EVSP    ES   1    11026.536                              92    0.06 7 78.5 286 
 XIVZ    EP   0    11017.612                              62   -0.0610 94.6 358 
 XIVZ    ES   2    11030.403                              62   -0.34 5 94.6 358 
 YAIP    EP   3    11026.086                              62   -0.65 2  156  57 
 YAIP    ES   4    11045.873                              62   -0.73 0  156  57 
 ZGXN    EP   1    11027.726                              62    0.40 6  160  86 
 ZGXN    ES   4    11046.573                              62   -1.07 0  160  86 
                                                                                
 2020  1 1 0111 40.1 L  36.029  52.044  5.6  New  4 0.3                        1
 GAP=288        0.64       4.3     5.8 13.4  0.1622E+02 -0.4040E+02 -0.3327E+02E
 Action:ARG 22-06-16 12:10 OP:OBSP STATUS:               ID:20200101011140     I
 STAT SP IPHASW D HRMM SECON CODA AMPLIT PERI AZIMU VELO AIN AR TRES W  DIS CAZ7
 YXLK    EP   0    11152.436                              68   -0.2710 61.4  27 
 YXLK    ES   0    112 2.002                              68   -0.1910 61.4  27 
 YIBA    EP   2    11156.012                              68    0.56 5 76.3   2 
 YIBA    ES   1    112 7.368                              68    0.37 7 76.3   2 
 ZSCP    EP   1    11156.427                              68    0.22 7 80.3  74 
 ZSCP    ES   1    112 8.587                              68    0.26 7 80.3  74 
 YAIP    EP   0    112 8.696                              47   -0.23 8  161  55 
 YAIP    ES   4    11229.093                              47   -1.49 0  161  55 
                                                                                
 2020  1 1 0113 18.8 L  36.194  51.959 10.0  New  2 0.0                        1
 GAP=239        0.30      18.5    16.7  0.0  0.2974E+03 -0.4040E+02 -0.3327E+02E
 Action:ARG 22-06-16 12:10 OP:OBSP STATUS:               ID:20200101011320     I
 STAT SP IPHASW D HRMM SECON CODA AMPLIT PERI AZIMU VELO AIN AR TRES W  DIS CAZ7
 SRWZ    EP   3    11323.175                             115    0.00 2 18.3 158 
 SRWZ    ES   3    11326.424                             115   -0.00 2 18.3 158 
 EVSP    EP   4    11333.523                              68    1.17 0 67.9 279 
 EVSP    ES   3    11342.490                              68    0.00 2 67.9 279 
 YAIP    EP   4    11348.939                              47    2.30 0  158  61 
 YAIP    ES   4    11413.626                              47    6.13 0  158  61 
                                                                                
 2020  1 1 0114 60.0 L  36.255  52.018 15.2  New  9 0.4                        1
 GAP= 97        0.63       1.5     1.8  2.4  0.4673E+00 -0.4464E+00  0.2571E-02E
 Action:ARG 22-06-16 12:10 OP:OBSP STATUS:               ID:20200101011500     I
 STAT SP IPHASW D HRMM SECON CODA AMPLIT PERI AZIMU VELO AIN AR TRES W  DIS CAZ7
 TVCN    EP   2    115 5.018                             128    0.57 5 16.4  89 
 TVCN    ES   4    115 8.619                             128    0.81 0 16.4  89 
 SRWZ    EP   2    115 4.846                             117   -0.77 5 23.8 176 
 SRWZ    ES   2    11510.474                             117    0.64 5 23.8 176 
 YXLK    EP   1    115 8.483                             102   -0.39 7 42.3  46 
 YXLK    ES   3    11514.578                             102   -0.97 2 42.3  46 
 YIBA    EP   4    11512.072                              99    1.56 0 51.3   5 
 YIBA    ES   0    11518.341                              99   -0.0710 51.3   5 
 EVSP    EP   1    11513.962                              64   -0.21 7 72.4 273 
 EVSP    ES   1    11524.743                              64   -0.07 7 72.4 273 
 XIVZ    EP   0    11515.138                              64    0.1610 77.3   0 
 XIVZ    ES   0    11526.412                              64    0.1810 77.3   0 
 ZSCP    EP   1    11515.627                              64    0.29 7 79.4  92 
 ZSCP    ES   0    11526.836                              64   -0.0210 79.4  92 
 RVDG    EP   4    11517.061                              64    1.62 0 80.0  79 
 RVDG    ES   3    11527.711                              64    0.67 2 80.0  79 
 ZGXN    EP   1    11528.267                              53    0.33 6  163  92 
 ZGXN    ES   0    11548.536                              53   -0.36 8  163  92 
                                                                                
 2020  1 1 0116 39.9 L  36.044  52.239 21.5  New  6 0.2                        1
 GAP=186        0.44       6.6     4.3  4.7 -0.2476E+02 -0.1739E+02  0.2029E+02E
 Action:ARG 22-06-16 12:10 OP:OBSP STATUS:               ID:20200101011640     I
 STAT SP IPHASW D HRMM SECON CODA AMPLIT PERI AZIMU VELO AIN AR TRES W  DIS CAZ7
 SRWZ    EP   0    11645.068                             132   -0.2610 18.3 269 
 SRWZ    ES   1    11649.543                             132    0.13 7 18.3 269 
 TVCN    EP   3    11646.684                             123    0.63 2 23.9 352 
 TVCN    ES   4    11648.793                             123   -1.89 0 23.9 352 
 ZSCP    EP   4    11653.596                              96    1.26 0 63.1  71 
 ZSCP    ES   1    117 1.718                              96    0.04 7 63.1  71 
 RVDG    EP   0    11653.649                              95    0.1110 70.4  57 
 RVDG    ES   0    117 3.721                              95   -0.0610 70.4  57 
 EVSP    EP   4    11659.622                              62    2.23 0 96.2 287 
 EVSP    ES   4    11713.615                              62    3.09 0 96.2 287 
 ZGXN    EP   0    117 4.713                              62    0.23 8  144  83 
 ZGXN    ES   2    11722.660                              62   -0.27 4  144  83 
 YAIP    EP   2    117 4.558                              62   -0.23 4  146  51 
 YAIP    ES   4    11725.587                              62    2.13 0  146  51 
                                                                                
 2020  1 1 0118 20.9 L  35.860  51.959 20.0  New  4 0.2                        1
 GAP=309        0.33      29.9    35.8 77.3  0.1059E+04 -0.2747E+04 -0.2298E+04E
 Action:ARG 22-06-16 12:10 OP:OBSP STATUS:               ID:20200101011820     I
 STAT SP IPHASW D HRMM SECON CODA AMPLIT PERI AZIMU VELO AIN AR TRES W  DIS CAZ7
 YXLK    EP   3    11836.585                              62    0.24 3 81.6  26 
 YXLK    ES   1    11848.001                              62    0.04 8 81.6  26 
 ZSCP    EP   0    11838.166                              62   -0.0510 94.3  64 
 ZSCP    ES   0    11851.285                              62    0.0510 94.3  64 
 RVDG    EP   4    11837.804                              62   -1.65 0  103  55 
 RVDG    ES   0    11853.333                              62   -0.0710  103  55 
 ZGXN    EP   3    11850.364                              62    0.61 2  173  77 
 ZGXN    ES   4    119 9.889                              62   -1.53 0  173  77 
                                                                                
 2020  1 1 0119 59.9 L  36.008  52.098 11.0  New  6 0.3                        1
 GAP=210        0.56       3.7     2.2  1.8 -0.2627E+01 -0.6641E+00  0.1110E+01E
 Action:ARG 22-06-16 12:10 OP:OBSP STATUS:               ID:20200101012000     I
 STAT SP IPHASW D HRMM SECON CODA AMPLIT PERI AZIMU VELO AIN AR TRES W  DIS CAZ7
 SRWZ    ES   0    120 4.581                             144    0.0510 6.78 303 
 SRWZ    EP   4    120 5.004                             144    2.47 0 6.78 303 
 TVCN    EP   2    120 5.454                              96   -0.75 5 29.1  18 
 TVCN    ES   1    12011.026                              96    0.07 7 29.1  18 
 YXLK    EP   0    12012.223                              91    0.0210 61.5  22 
 YXLK    ES   4    12022.428                              91    0.97 0 61.5  22 
 YIBA    EP   4    12013.932                              91   -1.44 0 78.6 358 
 YIBA    ES   4    12025.533                              91   -1.46 0 78.6 358 
 RVDG    EP   4    12014.898                              64   -1.31 0 83.2  59 
 RVDG    ES   4    12026.354                              64   -2.11 0 83.2  59 
 EVSP    EP   4    12018.410                              64    1.83 0 85.5 292 
 EVSP    ES   0    12029.114                              64   -0.0110 85.5 292 
 ZGXN    EP   1    12027.124                              53   -0.32 6  157  82 
 ZGXN    ES   3    12049.176                              53    1.04 2  157  82 
 YAIP    EP   1    12028.096                              53    0.44 6  159  53 
 YAIP    ES   4    12046.883                              53   -1.62 0  159  53 
                                                                                
 2020  1 1 0121 39.3 L  35.988  51.893 17.8  New  6 0.3                        1
 GAP=293        0.62       4.8     5.5  1.9  0.1562E+02 -0.2111E+01 -0.4654E+01E
 Action:ARG 22-06-16 12:10 OP:OBSP STATUS:               ID:20200101012140     I
 STAT SP IPHASW D HRMM SECON CODA AMPLIT PERI AZIMU VELO AIN AR TRES W  DIS CAZ7
 SRWZ    EP   0    12143.783                             139   -0.0010 14.0  65 
 SRWZ    ES   0    12147.073                             139   -0.0910 14.0  65 
 EVSP    EP   4    12154.802                              64    1.99 0 69.7 299 
 EVSP    ES   4    122 5.615                              64    2.65 0 69.7 299 
 YXLK    EP   4    12152.271                              64   -0.98 0 72.3  35 
 YXLK    ES   4    122 1.326                              64   -2.40 0 72.3  35 
 YIBA    EP   1    12154.717                              64   -0.19 7 82.3  11 
 YIBA    ES   0    122 6.832                              64    0.2010 82.3  11 
 ZSCP    EP   4    12158.313                              53    1.45 0 94.6  73 
 ZSCP    ES   1    12210.420                              53    0.38 7 94.6  73 
 RVDG    EP   4    12156.839                              53   -0.88 0  100  63 
 RVDG    ES   1    12211.010                              53   -0.54 7  100  63 
 XIVZ    EP   2    12158.464                              53   -0.29 5  108   6 
 XIVZ    ES   3    12212.461                              53   -0.89 2  108   6 
 YAIP    EP   1    122 9.234                              53    0.53 6  175  56 
 YAIP    ES   4    12232.275                              53    1.51 0  175  56 
                                                                                
 2020  1 1 0123 20.3 L  36.170  51.848 17.6  New  4 0.1                        1
 GAP=194        0.36       2.5     2.5  6.4 -0.9513E+00 -0.1243E+02  0.2537E+01E
 Action:ARG 22-06-16 12:10 OP:OBSP STATUS:               ID:20200101012320     I
 STAT SP IPHASW D HRMM SECON CODA AMPLIT PERI AZIMU VELO AIN AR TRES W  DIS CAZ7
 EVSP    EP   0    12331.969                              64    0.0010 58.5 283 
 EVSP    ES   4    12339.796                              64   -0.93 0 58.5 283 
 YIBA    EP   0    12332.874                              64    0.0510 63.7  18 
 YIBA    ES   2    12342.046                              64   -0.19 5 63.7  18 
 RVDG    EP   1    12338.382                              53    0.14 7 97.1  75 
 RVDG    ES   0    12351.758                              53    0.04 9 97.1  75 
 ZGXN    EP   0    12350.014                              53   -0.20 8  179  89 
 ZGXN    ES   4    12411.299                              53   -1.37 0  179  89 
                                                                                
 2020  1 1 0124 59.7 L  36.253  51.898 10.0  New  7 0.4                        1
 GAP=122        0.59       3.3     4.3  7.1 -0.3132E+01 -0.1621E+02  0.9116E+00E
 Action:ARG 22-06-16 12:10 OP:OBSP STATUS:               ID:20200101012500     I
 STAT SP IPHASW D HRMM SECON CODA AMPLIT PERI AZIMU VELO AIN AR TRES W  DIS CAZ7
 SRWZ    EP   2    125 5.585                              68    0.00 5 26.6 152 
 SRWZ    ES   4    12512.102                              68    2.12 0 26.6 152 
 TVCN    EP   2    125 5.288                              68   -0.41 5 27.2  89 
 TVCN    ES   4    125 8.645                              68   -1.54 0 27.2  89 
 YXLK    EP   3    12511.006                              68    0.94 2 50.8  54 
 YXLK    ES   0    12517.627                              68   -0.2010 50.8  54 
 YIBA    EP   1    12510.901                              68    0.32 7 53.6  17 
 YIBA    ES   4    12517.014                              68   -1.72 0 53.6  17 
 EVSP    EP   4    12511.325                              68   -0.74 0 61.6 274 
 EVSP    ES   3    12520.871                              68   -0.45 2 61.6 274 
 XIVZ    EP   4    12516.079                              68    0.93 0 78.3   8 
 XIVZ    ES   4    12528.872                              68    2.14 0 78.3   8 
 ZSCP    EP   4    12519.842                              56    2.55 0 90.2  91 
 ZSCP    ES   4    12529.566                              56   -0.92 0 90.2  91 
 RVDG    EP   2    12516.993                              56   -0.39 5 90.8  80 
 RVDG    ES   1    12531.185                              56    0.55 7 90.8  80 
 YAIP    EP   0    12527.787                              47   -0.01 8  160  64 
 YAIP    ES   1    12548.578                              47   -0.29 6  160  64 
 ZGXN    EP   4    12531.242                              47    1.40 0  174  92 
 ZGXN    ES   4    12554.341                              47    1.89 0  174  92 
                                                                                
 2020  1 1 0126 39.6 L  36.129  52.083 12.0  New  6 0.3                        1
 GAP=215        0.47       5.4     2.6  3.3 -0.7014E+01 -0.3247E+01  0.1165E+02E
 Action:ARG 22-06-16 12:10 OP:OBSP STATUS:               ID:20200101012640     I
 STAT SP IPHASW D HRMM SECON CODA AMPLIT PERI AZIMU VELO AIN AR TRES W  DIS CAZ7
 TVCN    EP   4    12643.273                             116   -0.69 0 17.6  37 
 TVCN    ES   1    12647.258                             116    0.03 8 17.6  37 
 YIBA    EP   3    12652.105                              93   -0.52 3 65.1 359 
 YIBA    ES   4    127 3.826                              93    1.44 0 65.1 359 
 RVDG    EP   2    12654.620                              64   -0.45 5 78.4  68 
 RVDG    ES   2    127 7.185                              64    0.52 5 78.4  68 
 EVSP    EP   1    12655.325                              64   -0.04 8 80.2 283 
 EVSP    ES   4    127 6.384                              64   -0.79 0 80.2 283 
 XIVZ    EP   0    12657.364                              64    0.1410 91.4 357 
 XIVZ    ES   4    12712.531                              64    2.09 0 91.4 357 
 YAIP    EP   0    127 6.384                              53    0.06 9  152  57 
 YAIP    ES   0    12726.125                              53   -0.23 9  152  57 
                                                                                
 2020  1 1 0128 19.9 L  36.027  51.747 21.4  New  7 0.2                        1
 GAP=215        0.39       2.9     1.5  2.6  0.2643E+01 -0.2849E+01 -0.4890E+01E
 Action:ARG 22-06-16 12:10 OP:OBSP STATUS:               ID:20200101012820     I
 STAT SP IPHASW D HRMM SECON CODA AMPLIT PERI AZIMU VELO AIN AR TRES W  DIS CAZ7
 SRWZ    EP   1    12826.493                             119    0.08 7 26.0  87 
 SRWZ    ES   3    12831.546                             119    0.28 2 26.0  87 
 TVCN    EP   0    12829.769                             100   -0.1410 48.1  58 
 TVCN    ES   3    12837.722                             100    0.35 2 48.1  58 
 EVSP    EP   0    12831.105                              97   -0.1310 56.1 301 
 EVSP    ES   0    12839.732                              97    0.0410 56.1 301 
 YXLK    EP   2    12835.106                              62    0.40 5 77.4  45 
 YXLK    ES   1    12845.728                              62   -0.05 7 77.4  45 
 XIVZ    EP   4    12839.942                              62    1.11 0  105  14 
 XIVZ    ES   0    12853.060                              62    0.07 9  105  14 
 ZSCP    EP   2    12839.603                              62    0.65 5  106  77 
 ZSCP    ES   1    12853.118                              62   -0.09 7  106  77 
 RVDG    EP   0    12839.538                              62   -0.07 9  111  68 
 RVDG    ES   0    12854.314                              62   -0.03 9  111  68 
                                                                                
