 2020  1 1 0208 20.0 L  36.484  52.234 11.7  New  5 0.3                        1
 GAP=172        0.56       3.0     2.2  5.0  0.7323E-01  0.4185E+01  0.6449E+01E
 Action:ARG 22-06-18 16:58 OP:OBSP STATUS:               ID:20200101020820     I
 STAT SP IPHASW D HRMM SECON CODA AMPLIT PERI AZIMU VELO AIN AR TRES W  DIS CAZ7
 YXLK    EP   0    2 823.337                             129   -0.0710 11.7  69 
 YXLK    ES   3    2 826.547                             129    0.60 2 11.7  69 
 TVCN    EP   4    2 823.904                             103   -1.81 0 25.4 187 
 TVCN    ES   4    2 831.151                             103    1.16 0 25.4 187 
 SRWZ    EP   1    2 831.144                              93    0.48 7 52.3 200 
 SRWZ    ES   2    2 838.044                              93   -0.60 5 52.3 200 
 RVDG    EP   0    2 832.107                              92    0.0210 60.0 100 
 RVDG    ES   4    2 840.085                              92   -1.05 0 60.0 100 
 ZSCP    EP   0    2 833.126                              92   -0.0910 66.1 115 
 ZSCP    ES   0    2 843.160                              92    0.0410 66.1 115 
 EVSP    EP   1    2 837.900                              64   -0.21 7 94.1 257 
 EVSP    ES   3    2 852.688                              64    1.01 2 94.1 257 
                                                                                
 2020  1 1 0209 59.7 L  35.966  52.089  7.3  New 10 0.4                        1
 GAP=214        0.63       3.3     1.6  3.1  0.1331E+01 -0.9600E+00 -0.1541E+01E
 Action:ARG 22-06-18 16:58 OP:OBSP STATUS:               ID:20200101021000     I
 STAT SP IPHASW D HRMM SECON CODA AMPLIT PERI AZIMU VELO AIN AR TRES W  DIS CAZ7
 SRWZ    EP   2    210 1.760                             123   -0.50 5 9.58 330 
 SRWZ    ES   4    210 2.271                             123   -1.90 0 9.58 330 
 TVCN    EP   4    210 8.602                              97    1.72 0 33.7  17 
 TVCN    ES   3    21012.852                              97    0.59 3 33.7  17 
 YXLK    EP   2    21013.731                              68    0.63 5 66.1  21 
 YXLK    ES   4    21021.973                              68   -1.17 0 66.1  21 
 ZSCP    EP   0    21015.281                              68   -0.1710 78.8  68 
 ZSCP    ES   1    21027.609                              68    0.34 7 78.8  68 
 YIBA    EP   0    21016.510                              68    0.2510 83.2 359 
 YIBA    ES   2    21027.967                              68   -0.71 5 83.2 359 
 RVDG    EP   3    21017.891                              68    1.03 2 86.4  57 
 RVDG    ES   0    21029.563                              68   -0.1610 86.4  57 
 EVSP    EP   2    21016.502                              68   -0.38 5 86.5 295 
 EVSP    ES   0    21029.927                              68    0.1710 86.5 295 
 XIVZ    EP   2    21020.093                              47   -0.61 5  109 357 
 XIVZ    ES   0    21036.530                              47    0.08 9  109 357 
 ZGXN    EP   3    21028.909                              47    0.92 2  159  80 
 ZGXN    ES   0    21049.185                              47   -0.02 8  159  80 
 YAIP    EP   4    21027.156                              47   -1.33 0  162  52 
 YAIP    ES   2    21049.434                              47   -0.64 4  162  52 
                                                                                
 2020  1 1 0211 40.5 L  35.994  51.991 12.8  New  8 0.4                        1
 GAP=280        0.60       4.0     5.1  1.9  0.7591E+01 -0.3123E+01 -0.1430E+01E
 Action:ARG 22-06-18 16:58 OP:OBSP STATUS:               ID:20200101021140     I
 STAT SP IPHASW D HRMM SECON CODA AMPLIT PERI AZIMU VELO AIN AR TRES W  DIS CAZ7
 SRWZ    EP   0    21143.288                             150   -0.1910 6.52  37 
 SRWZ    ES   1    21145.976                             150    0.31 7 6.52  37 
 TVCN    EP   3    21148.675                             100    0.72 2 34.6  33 
 TVCN    ES   4    21155.337                             100    1.82 0 34.6  33 
 YXLK    EP   0    21153.967                              93    0.0410 67.0  29 
 YXLK    ES   2    212 3.648                              93   -0.31 5 67.0  29 
 EVSP    EP   4    21153.488                              64   -2.25 0 77.2 295 
 EVSP    ES   4    212 7.467                              64    0.34 0 77.2 295 
 YIBA    EP   1    21155.847                              64   -0.41 7 80.4   5 
 YIBA    ES   3    212 7.377                              64   -0.66 2 80.4   5 
 ZSCP    EP   2    21157.732                              64    0.53 5 86.0  72 
 ZSCP    ES   2    212 9.243                              64   -0.45 5 86.0  72 
 RVDG    EP   4    21155.765                              64   -2.49 0 92.4  61 
 RVDG    ES   4    21213.149                              64    1.61 0 92.4  61 
 XIVZ    EP   2    212 0.738                              53    0.35 5  106   2 
 XIVZ    ES   2    21216.050                              53    0.79 5  106   2 
 ZGXN    EP   0    212 9.236                              53   -0.12 8  167  82 
 ZGXN    ES   2    21231.681                              53    0.72 4  167  82 
 YAIP    EP   4    212 7.508                              53   -1.89 0  168  54 
 YAIP    ES   2    21230.778                              53   -0.26 4  168  54 
                                                                                
 2020  1 1 0213 20.0 L  35.764  51.990 19.3  New  4 0.1                        1
 GAP=290        0.37       4.0     3.9  3.8  0.8536E+01 -0.1062E+02 -0.4734E+01E
 Action:ARG 22-06-18 16:58 OP:OBSP STATUS:               ID:20200101021320     I
 STAT SP IPHASW D HRMM SECON CODA AMPLIT PERI AZIMU VELO AIN AR TRES W  DIS CAZ7
 SRWZ    EP   0    21327.113                             105   -0.0310 31.0   8 
 SRWZ    ES   4    21331.632                             105   -0.84 0 31.0   8 
 EVSP    EP   4    21338.443                              62    1.49 0 91.0 310 
 EVSP    ES   4    21351.130                              62    1.48 0 91.0 310 
 YIBA    EP   0    21339.187                              62    0.05 9  106   4 
 YIBA    ES   2    21353.194                              62   -0.27 5  106   4 
 RVDG    EP   4    21337.774                              62   -1.56 0  107  49 
 RVDG    ES   0    21353.938                              62    0.14 9  107  49 
 ZGXN    EP   0    21349.037                              62    0.05 8  173  74 
 ZGXN    ES   0    21410.519                              62   -0.17 8  173  74 
                                                                                
 2020  1 1 0214 59.4 L  35.742  51.861 17.9  New  6 0.2                        1
 GAP=264        0.46       4.9     3.2  7.0  0.3474E+01 -0.1432E+02 -0.1302E+02E
 Action:ARG 22-06-18 16:58 OP:OBSP STATUS:               ID:20200101021500     I
 STAT SP IPHASW D HRMM SECON CODA AMPLIT PERI AZIMU VELO AIN AR TRES W  DIS CAZ7
 SRWZ    EP   2    215 7.739                              64    0.31 6 36.7  25 
 SRWZ    ES   4    21513.576                              64    0.12 0 36.7  25 
 TVCN    EP   2    21511.575                              64   -0.53 6 64.8  28 
 TVCN    ES   1    21521.648                              64    0.01 8 64.8  28 
 EVSP    EP   2    21515.131                              64   -0.21 5 84.2 316 
 EVSP    ES   2    21527.094                              64   -0.20 5 84.2 316 
 RVDG    EP   0    21520.336                              53   -0.0210  118  52 
 RVDG    ES   0    21536.039                              53   -0.0410  118  52 
 XIVZ    EP   0    21523.234                              53    0.3310  135   6 
 XIVZ    ES   4    21537.889                              53   -2.63 0  135   6 
 YAIP    EP   4    21532.829                              53    1.24 0  194  50 
 YAIP    ES   0    21555.643                              53   -0.09 8  194  50 
                                                                                
 2020  1 1 0216 40.7 L  35.971  52.082 12.5  New  8 0.4                        1
 GAP=251        0.47       4.5     7.6  6.0  0.7176E+00 -0.3615E+02  0.1115E+02E
 Action:ARG 22-06-18 16:58 OP:OBSP STATUS:               ID:20200101021640     I
 STAT SP IPHASW D HRMM SECON CODA AMPLIT PERI AZIMU VELO AIN AR TRES W  DIS CAZ7
 SRWZ    EP   3    21642.720                             141   -1.06 2 8.78 331 
 SRWZ    ES   4    21644.627                             141   -1.49 0 8.78 331 
 TVCN    EP   0    21647.900                             100    0.0710 33.4  19 
 TVCN    ES   2    21653.420                             100    0.22 5 33.4  19 
 YXLK    EP   2    21653.447                              93   -0.36 5 65.8  22 
 YXLK    ES   4    217 3.274                              93   -0.39 0 65.8  22 
 ZSCP    EP   1    21656.509                              64    0.31 7 79.2  68 
 ZSCP    ES   4    217 9.818                              64    1.97 0 79.2  68 
 YIBA    EP   3    21657.648                              64    0.88 2 82.6 359 
 YIBA    ES   3    217 8.399                              64   -0.44 2 82.6 359 
 RVDG    EP   0    21657.296                              64   -0.1410 86.6  57 
 RVDG    ES   2    217 9.806                              64   -0.22 5 86.6  57 
 ZGXN    EP   3    217 8.923                              53    0.55 2  160  81 
 ZGXN    ES   0    21729.094                              53   -0.06 8  160  81 
 YAIP    EP   3    217 9.540                              53    0.73 2  163  52 
 YAIP    ES   4    21732.003                              53    2.08 0  163  52 
                                                                                
 2020  1 1 0218 21.1 L  36.018  52.110 15.0  New  4 0.0                        1
 GAP=231        0.29       6.5     5.4  6.2  0.3009E+02 -0.3065E+02 -0.3847E+02E
 Action:ARG 22-06-18 16:58 OP:OBSP STATUS:               ID:20200101021820     I
 STAT SP IPHASW D HRMM SECON CODA AMPLIT PERI AZIMU VELO AIN AR TRES W  DIS CAZ7
 SRWZ    EP   1    21824.448                             152   -0.01 7 7.24 291 
 SRWZ    ES   4    21825.663                             152   -1.31 0 7.24 291 
 YIBA    EP   1    21836.203                              64    0.04 7 77.5 357 
 YIBA    ES   1    21847.437                              64   -0.02 7 77.5 357 
 RVDG    EP   2    21836.829                              64   -0.04 5 81.7  59 
 RVDG    ES   2    21848.742                              64    0.06 5 81.7  59 
 XIVZ    EP   4    21841.109                              53    0.76 0  104 356 
 XIVZ    ES   4    21856.639                              53    1.86 0  104 356 
 YAIP    EP   4    21846.182                              53   -2.03 0  157  53 
 YAIP    ES   2    219 8.468                              53   -0.07 4  157  53 
                                                                                
 2020  1 1 0220  0.3 L  36.060  52.230  7.8  New  6 0.2                        1
 GAP=179        0.44       2.1     2.3  3.5 -0.1390E-01 -0.2746E+01 -0.2598E+01E
 Action:ARG 22-06-18 16:58 OP:OBSP STATUS:               ID:20200101022000     I
 STAT SP IPHASW D HRMM SECON CODA AMPLIT PERI AZIMU VELO AIN AR TRES W  DIS CAZ7
 SRWZ    EP   1    220 4.231                             109   -0.16 7 17.7 263 
 SRWZ    ES   3    220 7.639                             109    0.20 2 17.7 263 
 YXLK    EP   1    22011.508                              68    0.37 7 52.4  12 
 YXLK    ES   4    22018.338                              68   -0.91 0 52.4  12 
 ZSCP    EP   4    22011.536                              68   -1.62 0 63.3  72 
 ZSCP    ES   4    22021.300                              68   -1.48 0 63.3  72 
 YIBA    EP   0    22015.190                              68    0.0210 74.2 349 
 YIBA    ES   1    22026.036                              68   -0.27 7 74.2 349 
 EVSP    EP   1    22018.955                              56    0.03 7 94.9 286 
 EVSP    ES   2    22033.029                              56    0.15 5 94.9 286 
 XIVZ    EP   3    22020.552                              56    0.68 2  101 349 
 XIVZ    ES   4    22035.957                              56    1.43 0  101 349 
 ZGXN    EP   0    22026.343                              47   -0.13 8  145  84 
 ZGXN    ES   4    22046.939                              47    0.86 0  145  84 
                                                                                
 2020  1 1 0221 39.9 L  35.580  52.493 11.2  New  8 0.4                        1
 GAP=244        0.63       4.5     3.2  4.1  0.5792E+01 -0.4910E+01 -0.4289E+01E
 Action:ARG 22-06-18 16:58 OP:OBSP STATUS:               ID:20200101022140     I
 STAT SP IPHASW D HRMM SECON CODA AMPLIT PERI AZIMU VELO AIN AR TRES W  DIS CAZ7
 SRWZ    EP   4    22154.623                              91    1.58 0 65.7 321 
 SRWZ    ES   2    222 2.444                              91   -0.45 5 65.7 321 
 TVCN    EP   2    22156.379                              91    0.78 5 79.5 341 
 TVCN    ES   2    222 6.881                              91   -0.48 5 79.5 341 
 ZSCP    EP   1    22155.573                              64   -0.31 8 81.0  27 
 ZSCP    ES   1    222 8.349                              64    0.50 8 81.0  27 
 YXLK    EP   1    222 0.078                              53    0.29 7  105 353 
 YXLK    ES   0    22214.703                              53    0.0210  105 353 
 YIBA    EP   4    222 2.488                              53   -1.20 0  132 343 
 YIBA    ES   0    22221.623                              53    0.11 9  132 343 
 ZGXN    EP   3    222 3.888                              53   -0.83 2  139  60 
 ZGXN    ES   0    22223.087                              53   -0.22 9  139  60 
 EVSP    EP   1    222 5.081                              53    0.22 7  140 305 
 EVSP    ES   4    22224.845                              53    1.27 0  140 305 
 XIVZ    EP   3    222 6.527                              53   -1.01 2  158 345 
 XIVZ    ES   0    22228.003                              53   -0.25 9  158 345 
 YAIP    EP   4    22210.308                              53    1.02 0  170  33 
 YAIP    ES   4    22229.925                              53   -1.38 0  170  33 
                                                                                
 2020  1 1 0223 22.2 L  36.270  52.019 29.0  New  5 0.2                        1
 GAP=265        0.37       5.7    11.1  4.0  0.5399E+02  0.1371E+02 -0.5578E+00E
 Action:ARG 22-06-18 16:58 OP:OBSP STATUS:               ID:20200101022320     I
 STAT SP IPHASW D HRMM SECON CODA AMPLIT PERI AZIMU VELO AIN AR TRES W  DIS CAZ7
 TVCN    EP   4    22325.498                             143   -2.85 0 16.3  95 
 TVCN    ES   1    22332.954                             143    0.02 7 16.3  95 
 YIBA    EP   4    22332.974                             101    0.39 0 49.6   5 
 YIBA    ES   2    22340.049                             101   -0.30 5 49.6   5 
 XIVZ    EP   1    22336.335                              94   -0.03 7 75.6   0 
 XIVZ    ES   2    22347.293                              94    0.32 5 75.6   0 
 RVDG    EP   2    22337.034                              94    0.07 5 79.6  80 
 RVDG    ES   4    22349.524                              94    1.50 0 79.6  80 
 ZGXN    EP   2    22349.143                              91   -0.10 4  163  93 
 ZGXN    ES   4    22410.780                              91    1.27 0  163  93 
                                                                                
 2020  1 1 0225  0.3 L  35.948  52.563 14.6  New  9 0.4                        1
 GAP=206        0.54       2.5     1.8  2.6  0.2626E+00 -0.1590E+01 -0.2129E+01E
 Action:ARG 22-06-18 16:58 OP:OBSP STATUS:               ID:20200101022500     I
 STAT SP IPHASW D HRMM SECON CODA AMPLIT PERI AZIMU VELO AIN AR TRES W  DIS CAZ7
 ZSCP    EP   3    225 9.956                             101    0.57 2 43.7  44 
 ZSCP    ES   3    22515.087                             101   -1.14 2 43.7  44 
 TVCN    EP   1    22510.201                              99    0.16 7 47.2 316 
 TVCN    ES   4    22515.138                              99   -2.23 0 47.2 316 
 SRWZ    EP   0    22510.238                              99   -0.0610 48.7 282 
 SRWZ    ES   3    22518.457                              99    0.64 2 48.7 282 
 RVDG    EP   4    225 9.937                              97   -1.97 0 57.5  31 
 RVDG    ES   4    22521.627                              97    0.98 0 57.5  31 
 YXLK    EP   2    22513.828                              64    0.35 5 66.2 344 
 YXLK    ES   0    22523.215                              64   -0.1710 66.2 344 
 YIBA    EP   1    22518.702                              53    0.30 7 96.0 333 
 YIBA    ES   3    22531.191                              53   -0.82 2 96.0 333 
 ZGXN    EP   4    22523.108                              53    1.55 0  117  76 
 ZGXN    ES   0    22537.454                              53   -0.07 9  117  76 
 XIVZ    EP   4    22523.076                              53    0.95 0  121 337 
 XIVZ    ES   0    22538.516                              53   -0.00 9  121 337 
 EVSP    EP   1    22522.480                              53   -0.51 7  127 288 
 EVSP    ES   0    22540.149                              53    0.11 9  127 288 
 YAIP    EP   3    22522.842                              53   -0.99 2  133  40 
 YAIP    ES   1    22541.940                              53    0.43 6  133  40 
                                                                                
 2020  1 1 0226 39.8 L  35.951  52.016  8.8  New  4 0.3                        1
 GAP=240        0.51       3.3     2.3  6.9 -0.1010E+01 -0.9237E+01 -0.3255E+00E
 Action:ARG 22-06-18 16:58 OP:OBSP STATUS:               ID:20200101022640     I
 STAT SP IPHASW D HRMM SECON CODA AMPLIT PERI AZIMU VELO AIN AR TRES W  DIS CAZ7
 YXLK    EP   3    22653.024                              68   -0.80 3 70.2  26 
 YXLK    ES   4    227 3.243                              68   -1.11 0 70.2  26 
 EVSP    EP   1    22655.578                              68   -0.30 8 81.4 298 
 EVSP    ES   1    227 8.120                              68    0.16 8 81.4 298 
 YIBA    EP   0    22656.777                              68    0.2310 84.9   3 
 YIBA    ES   0    227 9.014                              68   -0.1110 84.9   3 
 RVDG    EP   4    22656.626                              56   -1.30 0 92.8  58 
 RVDG    ES   0    22711.550                              56    0.0110 92.8  58 
 XIVZ    EP   4    227 2.315                              47    1.52 0  111   0 
 XIVZ    ES   4    22714.764                              47   -1.79 0  111   0 
                                                                                
