 2020  1 1 0228 20.2 L  35.926  52.317 10.0  New  6 0.3                        1
 GAP=235        0.47       7.3     3.5  7.1 -0.2009E+02  0.1916E+02 -0.3158E+02E
 Action:ARG 22-06-18 16:58 OP:OBSP STATUS:               ID:20200101022820     I
 STAT SP IPHASW D HRMM SECON CODA AMPLIT PERI AZIMU VELO AIN AR TRES W  DIS CAZ7
 ZSCP    EP   1    22832.494                              68   -0.21 7 62.5  57 
 ZSCP    ES   1    22841.849                              68   -0.25 7 62.5  57 
 YXLK    EP   3    22833.992                              68    0.62 2 66.1   3 
 YXLK    ES   4    22841.672                              68   -1.60 0 66.1   3 
 RVDG    EP   0    22834.887                              68    0.2110 73.2  45 
 RVDG    ES   1    22845.388                              68   -0.17 7 73.2  45 
 EVSP    EP   1    22840.461                              47   -0.03 7  107 292 
 EVSP    ES   1    22855.500                              47   -0.22 7  107 292 
 XIVZ    EP   1    22842.029                              47    0.14 7  117 347 
 XIVZ    ES   3    22858.631                              47    0.47 2  117 347 
 ZGXN    EP   4    22847.387                              47    2.14 0  140  77 
 ZGXN    ES   4    229 6.687                              47    2.64 0  140  77 
 YAIP    EP   2    22847.280                              47    0.53 4  150  46 
 YAIP    ES   3    229 7.690                              47    1.02 2  150  46 
                                                                                
 2020  1 1 0230  1.4 L  36.016  52.092 19.4  New  3 0.0                        1
 GAP=271        0.34       7.7     9.1  4.4 -0.6013E+02  0.1919E+02 -0.4185E+01E
 Action:ARG 22-06-18 16:58 OP:OBSP STATUS:               ID:20200101023000     I
 STAT SP IPHASW D HRMM SECON CODA AMPLIT PERI AZIMU VELO AIN AR TRES W  DIS CAZ7
 SRWZ    EP   4    230 6.004                             160    0.63 0 5.84 299 
 SRWZ    ES   3    230 8.346                             160   -0.00 2 5.84 299 
 TVCN    EP   1    230 8.101                             109   -0.00 7 28.4  20 
 TVCN    ES   1    23013.125                             109   -0.00 7 28.4  20 
 EVSP    EP   1    23017.384                              62    0.00 7 84.7 291 
 EVSP    ES   4    23032.680                              62    3.32 0 84.7 291 
 YAIP    EP   4    23025.925                              62   -2.36 0  159  53 
 YAIP    ES   4    23049.657                              62    1.22 0  159  53 
                                                                                
 2020  1 1 0231 39.5 L  36.036  51.702 20.0  New  5 0.3                        1
 GAP=214        0.45       7.5     2.8  3.3  0.1859E+02 -0.5885E+01 -0.1635E+02E
 Action:ARG 22-06-18 16:58 OP:OBSP STATUS:               ID:20200101023140     I
 STAT SP IPHASW D HRMM SECON CODA AMPLIT PERI AZIMU VELO AIN AR TRES W  DIS CAZ7
 SRWZ    EP   3    23147.588                             109    1.12 2 30.0  89 
 SRWZ    ES   0    23151.646                             109   -0.0610 30.0  89 
 EVSP    EP   4    23151.793                              95    1.71 0 52.1 303 
 EVSP    ES   0    23157.983                              95   -0.0610 52.1 303 
 YIBA    EP   1    23155.335                              62    0.27 7 82.2  23 
 YIBA    ES   4    232 4.831                              62   -1.92 0 82.2  23 
 YAIP    EP   3    232 9.622                              62   -0.84 2  187  60 
 YAIP    ES   0    23233.583                              62   -0.10 7  187  60 
 ZGXN    EP   2    23211.070                              62   -0.21 4  193  84 
 ZGXN    ES   0    23235.142                              62    0.01 7  193  84 
                                                                                
 2020  1 1 0233 20.1 L  36.294  52.119  4.1  New  4 0.3                        1
 GAP=150        0.54       2.6     2.9 13.7  0.1126E+01 -0.2023E+02 -0.1386E+02E
 Action:ARG 22-06-18 16:58 OP:OBSP STATUS:               ID:20200101023320     I
 STAT SP IPHASW D HRMM SECON CODA AMPLIT PERI AZIMU VELO AIN AR TRES W  DIS CAZ7
 TVCN    ES   2    23323.244                              64   -0.14 5 8.42 120 
 TVCN    EP   4    23324.031                              64    2.05 0 8.42 120 
 YXLK    EP   3    23326.349                              64   -0.55 3 33.0  40 
 YXLK    ES   2    23331.869                              64   -0.11 5 33.0  40 
 XIVZ    EP   1    23335.342                              56    0.50 8 73.4 353 
 XIVZ    ES   2    23345.580                              56   -0.32 5 73.4 353 
 EVSP    EP   0    23336.215                              56   -0.1010 81.3 270 
 EVSP    ES   4    23347.355                              56   -1.12 0 81.3 270 
                                                                                
 2020  1 1 0235  0.0 L  35.889  51.878 24.0  New  6 0.2                        1
 GAP=313        0.38       6.2     6.1  5.3 -0.1777E+02 -0.1583E+02  0.1858E+02E
 Action:ARG 22-06-18 16:58 OP:OBSP STATUS:               ID:20200101023500     I
 STAT SP IPHASW D HRMM SECON CODA AMPLIT PERI AZIMU VELO AIN AR TRES W  DIS CAZ7
 TVCN    EP   4    23511.299                             104    0.91 0 50.0  35 
 TVCN    ES   2    23518.182                             104    0.01 5 50.0  35 
 YXLK    EP   0    23515.344                              62    0.0610 82.3  31 
 YXLK    ES   4    23526.004                              62   -0.73 0 82.3  31 
 ZSCP    EP   2    23518.220                              62    0.37 5 99.7  67 
 ZSCP    ES   4    23531.747                              62    0.53 0 99.7  67 
 RVDG    EP   4    23520.779                              62    1.84 0  107  58 
 RVDG    ES   1    23533.108                              62   -0.01 7  107  58 
 XIVZ    EP   4    23522.612                              62    1.99 0  119   6 
 XIVZ    ES   4    23539.369                              62    3.30 0  119   6 
 ZGXN    EP   2    23529.611                              62    0.06 4  179  79 
 ZGXN    ES   4    23548.847                              62   -2.85 0  179  79 
 YAIP    EP   0    23529.767                              62   -0.28 8  183  53 
 YAIP    ES   1    23552.620                              62    0.04 6  183  53 
                                                                                
 2020  1 1 0236 40.1 L  36.057  52.123 17.1  New 10 0.5                        1
 GAP=174        0.64       3.7     2.1  2.4  0.6698E+00 -0.1076E+01 -0.3862E+01E
 Action:ARG 22-06-18 16:58 OP:OBSP STATUS:               ID:20200101023640     I
 STAT SP IPHASW D HRMM SECON CODA AMPLIT PERI AZIMU VELO AIN AR TRES W  DIS CAZ7
 SRWZ    EP   4    23642.578                             153   -1.25 0 8.07 258 
 SRWZ    ES   2    23645.949                             153   -0.70 5 8.07 258 
 TVCN    EP   0    23646.005                             122    0.2110 23.2  18 
 TVCN    ES   4    23651.511                             122    1.43 0 23.2  18 
 YXLK    EP   3    23650.506                              64   -0.82 2 55.7  22 
 YXLK    ES   2    23659.196                              64   -0.56 5 55.7  22 
 ZSCP    EP   1    23654.308                              64    0.15 7 72.7  74 
 ZSCP    ES   1    237 4.835                              64    0.11 7 72.7  74 
 YIBA    EP   2    23654.740                              64    0.48 5 73.3 356 
 YIBA    ES   3    237 4.028                              64   -0.87 2 73.3 356 
 RVDG    EP   3    23655.934                              64    0.78 2 78.7  62 
 RVDG    ES   2    237 5.630                              64   -0.84 5 78.7  62 
 EVSP    EP   2    23656.925                              64    0.59 5 85.7 288 
 EVSP    ES   1    237 8.263                              64   -0.27 7 85.7 288 
 XIVZ    EP   1    23658.701                              53    0.24 7 99.6 355 
 XIVZ    ES   0    23712.315                              53    0.06 9 99.6 355 
 YAIP    EP   4    237 4.977                              53   -1.46 0  154  54 
 YAIP    ES   0    23726.188                              53   -0.03 8  154  54 
 ZGXN    EP   4    237 7.605                              53    1.06 0  155  84 
 ZGXN    ES   3    23725.289                              53   -1.12 2  155  84 
                                                                                
 2020  1 1 0238 19.6 L  35.958  52.057 17.9  New  7 0.2                        1
 GAP=216        0.47       3.8     1.8  5.9  0.2626E+01 -0.2587E+01 -0.1208E+02E
 Action:ARG 22-06-18 16:58 OP:OBSP STATUS:               ID:20200101023820     I
 STAT SP IPHASW D HRMM SECON CODA AMPLIT PERI AZIMU VELO AIN AR TRES W  DIS CAZ7
 TVCN    EP   4    23824.986                              64   -2.42 0 35.5  21 
 TVCN    ES   3    23833.804                              64    0.53 3 35.5  21 
 YXLK    EP   4    23831.020                              64   -1.81 0 68.0  23 
 YXLK    ES   2    23842.794                              64    0.04 5 68.0  23 
 ZSCP    EP   0    23835.106                              64   -0.0210 81.8  68 
 ZSCP    ES   1    23846.424                              64   -0.36 7 81.8  68 
 YIBA    EP   4    23836.678                              64    1.18 0 84.0   1 
 YIBA    ES   4    23844.762                              64   -2.67 0 84.0   1 
 EVSP    EP   4    23836.800                              64    1.25 0 84.3 296 
 EVSP    ES   1    23847.324                              64   -0.19 7 84.3 296 
 XIVZ    EP   1    23839.675                              53    0.24 7  110 358 
 XIVZ    ES   1    23854.379                              53    0.06 7  110 358 
 ZGXN    EP   4    23845.866                              53   -1.19 0  162  80 
 ZGXN    ES   1    239 8.026                              53    0.38 6  162  80 
 YAIP    EP   0    23847.730                              53    0.21 8  165  52 
 YAIP    ES   0    239 8.266                              53   -0.20 8  165  52 
                                                                                
 2020  1 1 0239 60.0 L  36.088  52.246 15.8  New 10 0.3                        1
 GAP=170        0.59       2.6     1.8  2.1 -0.2293E+00 -0.8180E+00 -0.1407E+01E
 Action:ARG 22-06-18 16:58 OP:OBSP STATUS:               ID:20200101024000     I
 STAT SP IPHASW D HRMM SECON CODA AMPLIT PERI AZIMU VELO AIN AR TRES W  DIS CAZ7
 TVCN    EP   0    240 4.878                             125   -0.0410 19.1 348 
 TVCN    ES   4    240 7.606                             125   -1.03 0 19.1 348 
 SRWZ    EP   0    240 5.196                             124    0.1910 19.7 255 
 SRWZ    ES   4    24010.620                             124    1.82 0 19.7 255 
 YXLK    EP   1    240 9.872                             101   -0.24 7 49.1  12 
 YXLK    ES   4    24019.620                             101    1.90 0 49.1  12 
 ZSCP    EP   1    24011.610                              64   -0.60 7 61.0  75 
 ZSCP    ES   1    24021.538                              64    0.15 7 61.0  75 
 RVDG    EP   1    24013.479                              64    0.24 7 67.2  60 
 RVDG    ES   1    24023.273                              64    0.07 7 67.2  60 
 YIBA    EP   2    24013.385                              64   -0.56 5 71.5 347 
 YIBA    ES   2    24025.239                              64    0.80 5 71.5 347 
 EVSP    EP   1    24017.715                              53   -0.18 7 95.5 284 
 EVSP    ES   1    24031.234                              53   -0.11 7 95.5 284 
 XIVZ    EP   0    24018.422                              53    0.19 9 97.8 348 
 XIVZ    ES   1    24031.770                              53   -0.16 7 97.8 348 
 ZGXN    EP   1    24025.130                              53    0.23 6  143  85 
 ZGXN    ES   3    24044.131                              53    0.53 2  143  85 
 YAIP    EP   3    24023.818                              53   -1.04 2  143  53 
 YAIP    ES   4    24044.390                              53    0.87 0  143  53 
                                                                                
 2020  1 1 0241 39.9 L  36.245  52.427 17.7  New  6 0.3                        1
 GAP=181        0.59       2.8     1.8  2.8  0.2260E+01  0.7528E+00  0.2987E+01E
 Action:ARG 22-06-18 16:58 OP:OBSP STATUS:               ID:20200101024140     I
 STAT SP IPHASW D HRMM SECON CODA AMPLIT PERI AZIMU VELO AIN AR TRES W  DIS CAZ7
 YXLK    EP   0    24146.946                             114   -0.0710 31.3 348 
 YXLK    ES   3    24153.117                             114    0.78 2 31.3 348 
 ZSCP    EP   0    24148.869                              64   -0.1010 42.7  92 
 ZSCP    ES   4    24157.027                              64    1.28 0 42.7  92 
 RVDG    EP   2    24148.704                              64   -0.65 5 44.9  69 
 RVDG    ES   1    24156.981                              64    0.57 7 44.9  69 
 XIVZ    EP   4    24157.399                              64    1.17 0 86.2 335 
 XIVZ    ES   0    242 8.320                              64   -0.1310 86.2 335 
 EVSP    EP   4    242 1.027                              53    1.37 0  109 273 
 EVSP    ES   0    24214.603                              53    0.15 9  109 273 
 ZGXN    EP   0    242 2.239                              53    0.03 9  126  92 
 ZGXN    ES   0    24218.836                              53   -0.08 9  126  92 
                                                                                
 2020  1 1 0243 19.9 L  35.639  52.079 17.4  New  4 0.3                        1
 GAP=307        0.59       6.6    51.7 53.5  0.4055E+02 -0.2751E+04 -0.3675E+02E
 Action:ARG 22-06-18 16:58 OP:OBSP STATUS:               ID:20200101024320     I
 STAT SP IPHASW D HRMM SECON CODA AMPLIT PERI AZIMU VELO AIN AR TRES W  DIS CAZ7
 SRWZ    EP   1    24329.774                              64    0.44 8 44.8 355 
 SRWZ    ES   2    24335.866                              64   -0.52 5 44.8 355 
 ZSCP    EP   1    24337.885                              53   -0.31 8 99.1  48 
 ZSCP    ES   1    24352.041                              53    0.14 8 99.1  48 
 RVDG    EP   1    24339.789                              53   -0.19 7  111  41 
 RVDG    ES   0    24355.005                              53   -0.0210  111  41 
 ZGXN    EP   4    24349.780                              53    1.20 0  170  68 
 ZGXN    ES   4    244 8.474                              53   -1.60 0  170  68 
 YAIP    EP   4    24349.888                              53   -1.34 0  188  43 
 YAIP    ES   2    24415.290                              53    0.59 4  188  43 
                                                                                
 2020  1 1 0245  0.4 L  36.116  52.157 12.7  New  5 0.3                        1
 GAP=266        0.54       6.4     5.7  3.7  0.2990E+02 -0.1853E+01 -0.7882E+01E
 Action:ARG 22-06-18 16:58 OP:OBSP STATUS:               ID:20200101024500     I
 STAT SP IPHASW D HRMM SECON CODA AMPLIT PERI AZIMU VELO AIN AR TRES W  DIS CAZ7
 TVCN    EP   1    245 4.298                             122   -0.25 8 16.1  14 
 TVCN    ES   4    245 9.970                             122    2.30 0 16.1  14 
 YXLK    EP   4    245 9.447                              96   -0.86 0 48.4  22 
 YXLK    ES   4    24516.802                              96   -0.96 0 48.4  22 
 ZSCP    EP   4    24512.363                              93   -1.60 0 68.2  79 
 ZSCP    ES   2    24523.921                              93   -0.24 5 68.2  79 
 RVDG    EP   1    24515.306                              93    0.46 8 73.0  65 
 RVDG    ES   4    24524.033                              93   -1.67 0 73.0  65 
 XIVZ    EP   0    24518.199                              64   -0.0710 93.4 353 
 XIVZ    ES   0    24531.752                              64    0.0710 93.4 353 
 ZGXN    EP   3    24527.515                              53    0.70 2  151  86 
 ZGXN    ES   2    24546.125                              53   -0.51 4  151  86 
                                                                                
 2020  1 1 0246 39.7 L  36.217  52.177 12.4  New  7 0.5                        1
 GAP=185        0.71       4.5     2.7  4.0  0.3991E+01  0.3701E+01  0.5748E+01E
 Action:ARG 22-06-18 16:58 OP:OBSP STATUS:               ID:20200101024640     I
 STAT SP IPHASW D HRMM SECON CODA AMPLIT PERI AZIMU VELO AIN AR TRES W  DIS CAZ7
 TVCN    EP   1    24642.829                             156    0.40 7 4.82  26 
 TVCN    ES   4    24646.276                             156    1.81 0 4.82  26 
 YXLK    EP   1    24647.002                              98   -0.62 7 37.4  25 
 YXLK    ES   4    24651.988                              98   -1.55 0 37.4  25 
 YIBA    EP   4    24649.767                              94   -1.32 0 56.2 350 
 YIBA    ES   2    24659.872                              94    0.27 5 56.2 350 
 ZSCP    EP   0    24652.647                              93   -0.0910 65.1  88 
 ZSCP    ES   2    247 2.026                              93   -0.47 5 65.1  88 
 RVDG    EP   0    24653.175                              93    0.0510 67.2  73 
 RVDG    ES   3    247 4.054                              93    0.88 2 67.2  73 
 EVSP    EP   4    24658.043                              64    1.47 0 87.0 276 
 EVSP    ES   1    247 9.264                              64    0.06 7 87.0 276 
 ZGXN    EP   2    247 5.513                              53   -0.37 4  149  91 
 ZGXN    ES   2    24726.572                              53    1.07 4  149  91 
                                                                                
