 2020  1 1  048 20.0 L  36.208  52.188 11.6       4 0.0 2.0l                   1
 Action:ARG 22-06-16 14:21 OP:OBSP STATUS:               ID:20200101004820     I
 STAT SP IPHASW D HRMM SECON CODA AMPLIT PERI AZIMU VELO AIN AR TRES W  DIS CAZ7
 EVSP    EP   0    04837.857                                           88.0 276 
 EVSP    ES   0    04850.766                                           88.0 276 
 XIVZ    EP   0    04835.785                                           83.7 349 
 XIVZ    ES   0    04849.026                                           83.7 349 
 TVCN    EP   0    04821.073                                           5.47  12 
 TVCN    ES   0    04825.700                                           5.47  12 
 YIBA    EP   0    04831.950                                           57.3 349 
 YIBA    ES   0    04840.621                                           57.3 349 
                                                                                

 2020  1 1  050  0.0 L  36.198  52.064 12.4       4 0.0 2.0l                   1
 Action:ARG 22-06-16 14:21 OP:OBSP STATUS:               ID:20200101005000     I
 STAT SP IPHASW D HRMM SECON CODA AMPLIT PERI AZIMU VELO AIN AR TRES W  DIS CAZ7
 ZGXN    EP   0    05028.541                                            159  89 
 ZGXN    ES   0    05047.936                                            159  89 
 YAIP    EP   0    05026.534                                            149  59 
 YAIP    ES   0    05046.019                                            149  59 
 YIBA    EP   0    05012.388                                           57.5   0 
 YIBA    ES   0    05019.030                                           57.5   0 
 XIVZ    EP   0    05016.439                                           83.6 357 
 XIVZ    ES   0    05028.131                                           83.6 357 
                                                                                

 2020  1 1  051 40.0 L  36.280  51.831  8.5       7 0.0 3.5l                   1
 Action:ARG 22-06-16 14:21 OP:OBSP STATUS:               ID:20200101005140     I
 STAT SP IPHASW D HRMM SECON CODA AMPLIT PERI AZIMU VELO AIN AR TRES W  DIS CAZ7
 TVCN    EP   0    05145.212                                           33.3  94 
 TVCN    ES   0    05150.094                                           33.3  94 
 ZSCP    EP   0    05155.700                                           96.3  92 
 ZSCP    ES   0    05213.632                                           96.3  92 
 YXLK    EP   0    05151.867                                           54.2  60 
 YXLK    ES   0    05159.431                                           54.2  60 
 EVSP    EP   0    05151.900                                           55.5 271 
 EVSP    ES   0    052 0.159                                           55.5 271 
 XIVZ    EP   0    05155.984                                           76.4  12 
 XIVZ    ES   0    052 5.550                                           76.4  12 
 SRWZ    EP   0    05149.226                                           32.3 145 
 SRWZ    ES   0    05150.750                                           32.3 145 
 YAIP    EP   0    052 8.206                                            164  66 
 YAIP    ES   0    05229.564                                            164  66 
                                                                                

 2020  1 1  053 20.0 L  35.933  52.115  8.5       3 0.0 1.5l                   1
 Action:ARG 22-06-16 14:21 OP:OBSP STATUS:               ID:20200101005320     I
 STAT SP IPHASW D HRMM SECON CODA AMPLIT PERI AZIMU VELO AIN AR TRES W  DIS CAZ7
 SRWZ    EP   0    05323.588                                           13.9 329 
 SRWZ    ES   0    05326.178                                           13.9 329 
 YIBA    EP   0    05338.356                                           86.9 357 
 YIBA    ES   0    05349.685                                           86.9 357 
 RVDG    EP   0    05336.988                                           86.6  53 
 RVDG    ES   0    05349.430                                           86.6  53 
                                                                                

 2020  1 1  055  0.0 L  35.983  52.109  8.3       4 0.0 2.0l                   1
 Action:ARG 22-06-16 14:21 OP:OBSP STATUS:               ID:20200101005500     I
 STAT SP IPHASW D HRMM SECON CODA AMPLIT PERI AZIMU VELO AIN AR TRES W  DIS CAZ7
 YXLK    EP   0    05513.838                                           63.7  20 
 YXLK    ES   0    05521.872                                           63.7  20 
 EVSP    EP   0    05517.191                                           87.5 293 
 EVSP    ES   0    05529.787                                           87.5 293 
 YAIP    EP   0    05526.315                                            159  51 
 YAIP    ES   0    05549.306                                            159  51 
 ZGXN    EP   0    05525.430                                            156  81 
 ZGXN    ES   0    05548.326                                            156  81 
                                                                                

 2020  1 1  056 40.0 L  36.340  52.253 11.9       5 0.0 2.5l                   1
 Action:ARG 22-06-16 14:21 OP:OBSP STATUS:               ID:20200101005640     I
 STAT SP IPHASW D HRMM SECON CODA AMPLIT PERI AZIMU VELO AIN AR TRES W  DIS CAZ7
 YXLK    EP   0    05645.606                                           22.2  24 
 YXLK    ES   0    05648.516                                           22.2  24 
 YAIP    EP   0    057 2.283                                            127  62 
 YAIP    ES   0    05719.271                                            127  62 
 SRWZ    EP   0    05645.444                                           38.5 210 
 SRWZ    ES   0    05654.025                                           38.5 210 
 ZGXN    EP   0    057 4.309                                            142  96 
 ZGXN    ES   0    05724.220                                            142  96 
 XIVZ    EP   0    05655.348                                           70.8 343 
 XIVZ    ES   0    057 4.036                                           70.8 343 
                                                                                

 2020  1 1  058 20.0 L  35.688  52.489  9.3       8 0.0 4.0l                   1
 Action:ARG 22-06-16 14:21 OP:OBSP STATUS:               ID:20200101005820     I
 STAT SP IPHASW D HRMM SECON CODA AMPLIT PERI AZIMU VELO AIN AR TRES W  DIS CAZ7
 TVCN    EP   0    05834.524                                           68.2 337 
 TVCN    ES   0    05843.631                                           68.2 337 
 ZSCP    EP   0    05832.515                                           70.8  31 
 ZSCP    ES   0    05843.778                                           70.8  31 
 YXLK    EP   0    05838.910                                           93.2 352 
 YXLK    ES   0    05852.296                                           93.2 352 
 XIVZ    EP   0    05846.685                                            146 343 
 XIVZ    ES   0    059 5.690                                            146 343 
 SRWZ    EP   0    05829.728                                           56.7 313 
 SRWZ    ES   0    05839.868                                           56.7 313 
 EVSP    EP   0    05843.027                                            132 300 
 EVSP    ES   0    059 3.456                                            132 300 
 RVDG    EP   0    05836.856                                           86.2  24 
 RVDG    ES   0    05849.337                                           86.2  24 
 YIBA    EP   0    05841.809                                            120 341 
 YIBA    ES   0    05859.362                                            120 341 
                                                                                

 2020  1 1  1 0  0.0 L  35.887  51.677  5.3       8 0.0 4.0l                   1
 Action:ARG 22-06-16 14:21 OP:OBSP STATUS:               ID:20200101010000     I
 STAT SP IPHASW D HRMM SECON CODA AMPLIT PERI AZIMU VELO AIN AR TRES W  DIS CAZ7
 EVSP    EP   0    1 010.610                                           61.1 317 
 EVSP    ES   0    1 021.686                                           61.1 317 
 ZGXN    EP   0    1 034.582                                            197  79 
 ZGXN    ES   0    1 058.348                                            197  79 
 TVCN    EP   0    1 013.619                                           62.5  48 
 TVCN    ES   0    1 020.382                                           62.5  48 
 SRWZ    EP   0    1 0 8.072                                           36.5  62 
 SRWZ    ES   0    1 013.218                                           36.5  62 
 YXLK    EP   0    1 019.756                                           93.2  40 
 YXLK    ES   0    1 032.543                                           93.2  40 
 RVDG    EP   0    1 024.193                                            122  62 
 RVDG    ES   0    1 041.326                                            122  62 
 ZSCP    EP   0    1 022.201                                            116  70 
 ZSCP    ES   0    1 038.137                                            116  70 
 YAIP    EP   0    1 033.989                                            197  56 
 YAIP    ES   0    1 059.865                                            197  56 
                                                                                

 2020  1 1  1 1 40.0 L  36.196  52.036 17.6       8 0.0 4.0l                   1
 Action:ARG 22-06-16 14:21 OP:OBSP STATUS:               ID:20200101010140     I
 STAT SP IPHASW D HRMM SECON CODA AMPLIT PERI AZIMU VELO AIN AR TRES W  DIS CAZ7
 ZSCP    EP   0    1 154.765                                           77.9  86 
 ZSCP    ES   0    1 2 7.595                                           77.9  86 
 TVCN    EP   0    1 144.172                                           16.3  65 
 TVCN    ES   0    1 148.807                                           16.3  65 
 YAIP    EP   0    1 2 6.953                                            152  60 
 YAIP    ES   0    1 226.066                                            152  60 
 XIVZ    EP   0    1 154.924                                           83.8 359 
 XIVZ    ES   0    1 2 7.921                                           83.8 359 
 RVDG    EP   0    1 155.338                                           80.1  74 
 RVDG    ES   0    1 2 5.773                                           80.1  74 
 SRWZ    EP   0    1 144.849                                           17.2 180 
 SRWZ    ES   0    1 149.047                                           17.2 180 
 YIBA    EP   0    1 150.029                                           57.8   2 
 YIBA    ES   0    1 2 0.126                                           57.8   2 
 ZGXN    EP   0    1 2 7.687                                            161  89 
 ZGXN    ES   0    1 228.831                                            161  89 
                                                                                

 2020  1 1  1 3 20.0 L  35.548  52.071 13.3       4 0.0 2.0l                   1
 Action:ARG 22-06-16 14:21 OP:OBSP STATUS:               ID:20200101010320     I
 STAT SP IPHASW D HRMM SECON CODA AMPLIT PERI AZIMU VELO AIN AR TRES W  DIS CAZ7
 TVCN    EP   0    1 336.594                                           79.5   8 
 TVCN    ES   0    1 347.067                                           79.5   8 
 XIVZ    EP   0    1 347.741                                            155 358 
 XIVZ    ES   0    1 4 4.576                                            155 358 
 ZSCP    EP   0    1 338.104                                            106  44 
 ZSCP    ES   0    1 355.165                                            106  44 
 ZGXN    EP   0    1 352.177                                            174  65 
 ZGXN    ES   0    1 410.897                                            174  65 
                                                                                

 2020  1 1  1 5  0.0 L  36.185  51.932 14.6       9 0.0 4.5l                   1
 Action:ARG 22-06-16 14:21 OP:OBSP STATUS:               ID:20200101010500     I
 STAT SP IPHASW D HRMM SECON CODA AMPLIT PERI AZIMU VELO AIN AR TRES W  DIS CAZ7
 RVDG    EP   0    1 516.350                                           89.4  74 
 RVDG    ES   0    1 529.452                                           89.4  74 
 YIBA    EP   0    1 511.746                                           60.1  11 
 YIBA    ES   0    1 519.813                                           60.1  11 
 XIVZ    EP   0    1 515.347                                           85.4   5 
 XIVZ    ES   0    1 531.609                                           85.4   5 
 EVSP    EP   0    1 513.185                                           65.5 280 
 EVSP    ES   0    1 521.914                                           65.5 280 
 ZGXN    EP   0    1 529.555                                            170  89 
 ZGXN    ES   0    1 550.879                                            170  89 
 YXLK    EP   0    1 5 9.768                                           53.3  45 
 YXLK    ES   0    1 519.044                                           53.3  45 
 TVCN    EP   0    1 5 5.852                                           25.4  71 
 TVCN    ES   0    1 511.180                                           25.4  71 
 ZSCP    EP   0    1 516.380                                           87.4  86 
 ZSCP    ES   0    1 527.171                                           87.4  86 
 YAIP    EP   0    1 529.749                                            160  61 
 YAIP    ES   0    1 546.058                                            160  61 
                                                                                

 2020  1 1  1 6 40.0 L  36.170  52.051  7.8       6 0.0 3.0l                   1
 Action:ARG 22-06-16 14:21 OP:OBSP STATUS:               ID:20200101010640     I
 STAT SP IPHASW D HRMM SECON CODA AMPLIT PERI AZIMU VELO AIN AR TRES W  DIS CAZ7
 YAIP    EP   0    1 7 7.257                                            152  59 
 YAIP    ES   0    1 727.622                                            152  59 
 RVDG    EP   0    1 656.355                                           79.6  71 
 RVDG    ES   0    1 7 6.395                                           79.6  71 
 ZSCP    EP   0    1 654.754                                           76.7  84 
 ZSCP    ES   0    1 7 4.463                                           76.7  84 
 YIBA    EP   0    1 653.852                                           60.5   1 
 YIBA    ES   0    1 7 1.912                                           60.5   1 
 XIVZ    EP   0    1 657.757                                           86.7 358 
 XIVZ    ES   0    1 7 9.336                                           86.7 358 
 YXLK    EP   0    1 650.638                                           47.6  35 
 YXLK    ES   0    1 657.934                                           47.6  35 
                                                                                

 2020  1 1  1 8 20.0 L  35.955  51.950 19.9      10 0.0 5.0l                   1
 Action:ARG 22-06-16 14:21 OP:OBSP STATUS:               ID:20200101010820     I
 STAT SP IPHASW D HRMM SECON CODA AMPLIT PERI AZIMU VELO AIN AR TRES W  DIS CAZ7
 TVCN    EP   0    1 829.091                                           40.3  33 
 TVCN    ES   0    1 833.901                                           40.3  33 
 XIVZ    EP   0    1 839.768                                            110   3 
 XIVZ    ES   0    1 854.297                                            110   3 
 ZSCP    EP   0    1 837.356                                           90.9  70 
 ZSCP    ES   0    1 851.056                                           90.9  70 
 YIBA    EP   0    1 836.210                                           85.1   7 
 YIBA    ES   0    1 847.763                                           85.1   7 
 EVSP    EP   0    1 834.720                                           76.0 299 
 EVSP    ES   0    1 844.528                                           76.0 299 
 RVDG    EP   0    1 837.884                                           97.7  60 
 RVDG    ES   0    1 852.190                                           97.7  60 
 YAIP    EP   0    1 849.262                                            173  53 
 YAIP    ES   0    1 9 9.207                                            173  53 
 YXLK    EP   0    1 831.243                                           72.6  30 
 YXLK    ES   0    1 844.004                                           72.6  30 
 ZGXN    EP   0    1 848.473                                            171  80 
 ZGXN    ES   0    1 910.465                                            171  80 
 SRWZ    EP   0    1 825.163                                           12.2  38 
 SRWZ    ES   0    1 826.326                                           12.2  38 
                                                                                

 2020  1 1  110  0.0 L  36.092  52.042 17.9       9 0.0 4.5l                   1
 Action:ARG 22-06-16 14:21 OP:OBSP STATUS:               ID:20200101011000     I
 STAT SP IPHASW D HRMM SECON CODA AMPLIT PERI AZIMU VELO AIN AR TRES W  DIS CAZ7
 ZGXN    EP   0    11027.726                                            161  85 
 ZGXN    ES   0    11046.573                                            161  85 
 YXLK    EP   0    11011.759                                           55.4  30 
 YXLK    ES   0    11018.669                                           55.4  30 
 EVSP    EP   0    11015.212                                           77.6 286 
 EVSP    ES   0    11026.536                                           77.6 286 
 XIVZ    EP   0    11017.612                                           95.4 359 
 XIVZ    ES   0    11030.403                                           95.4 359 
 YAIP    EP   0    11026.086                                            157  56 
 YAIP    ES   0    11045.873                                            157  56 
 SRWZ    EP   0    110 5.221                                           5.67 185 
 SRWZ    ES   0    110 6.923                                           5.67 185 
 TVCN    EP   0    110 7.679                                           23.2  37 
 TVCN    ES   0    11010.413                                           23.2  37 
 YIBA    EP   0    11013.878                                           69.3   2 
 YIBA    ES   0    11023.042                                           69.3   2 
 ZSCP    EP   0    11014.857                                           78.9  78 
 ZSCP    ES   0    11024.821                                           78.9  78 
                                                                                

