 2020  1 1  221 40.0 L  35.576  52.490 12.7       7 0.0 3.5l                   1
 Action:ARG 22-06-16 14:21 OP:OBSP STATUS:               ID:20200101022140     I
 STAT SP IPHASW D HRMM SECON CODA AMPLIT PERI AZIMU VELO AIN AR TRES W  DIS CAZ7
 ZSCP    EP   0    22154.053                                           81.6  26 
 ZSCP    ES   0    222 8.410                                           81.6  26 
 SRWZ    EP   0    22153.146                                           65.9 321 
 SRWZ    ES   0    222 2.008                                           65.9 321 
 TVCN    EP   0    22157.092                                           79.9 341 
 TVCN    ES   0    222 9.392                                           79.9 341 
 YAIP    EP   0    222 9.039                                            170  32 
 YAIP    ES   0    22230.059                                            170  32 
 ZGXN    EP   0    222 2.998                                            139  60 
 ZGXN    ES   0    22224.498                                            139  60 
 EVSP    EP   0    222 4.461                                            139 304 
 EVSP    ES   0    22224.019                                            139 304 
 YIBA    EP   0    222 3.064                                            132 343 
 YIBA    ES   0    22220.466                                            132 343 
                                                                                

 2020  1 1  223 20.0 L  36.202  51.855 19.3       6 0.0 3.0l                   1
 Action:ARG 22-06-16 14:21 OP:OBSP STATUS:               ID:20200101022320     I
 STAT SP IPHASW D HRMM SECON CODA AMPLIT PERI AZIMU VELO AIN AR TRES W  DIS CAZ7
 TVCN    EP   0    22327.496                                           31.6  78 
 TVCN    ES   0    22330.631                                           31.6  78 
 YIBA    EP   0    22331.465                                           60.2  18 
 YIBA    ES   0    22341.356                                           60.2  18 
 ZGXN    EP   0    22348.273                                            177  89 
 ZGXN    ES   0    22413.269                                            177  89 
 XIVZ    EP   0    22334.244                                           84.5  10 
 XIVZ    ES   0    22347.479                                           84.5  10 
 RVDG    EP   0    22336.464                                           95.6  76 
 RVDG    ES   0    22350.096                                           95.6  76 
 YXLK    EP   0    22330.992                                           57.3  51 
 YXLK    ES   0    22339.610                                           57.3  51 
                                                                                

 2020  1 1  225  0.0 L  35.944  52.565 13.7       3 0.0 1.5l                   1
 Action:ARG 22-06-16 14:21 OP:OBSP STATUS:               ID:20200101022500     I
 STAT SP IPHASW D HRMM SECON CODA AMPLIT PERI AZIMU VELO AIN AR TRES W  DIS CAZ7
 XIVZ    EP   0    22522.237                                            121 336 
 XIVZ    ES   0    22537.037                                            121 336 
 ZGXN    EP   0    22521.348                                            117  76 
 ZGXN    ES   0    22536.601                                            117  76 
 ZSCP    EP   0    225 8.901                                           43.9  43 
 ZSCP    ES   0    22514.922                                           43.9  43 
                                                                                

 2020  1 1  226 40.0 L  35.949  52.010 11.9       5 0.0 2.5l                   1
 Action:ARG 22-06-16 14:21 OP:OBSP STATUS:               ID:20200101022640     I
 STAT SP IPHASW D HRMM SECON CODA AMPLIT PERI AZIMU VELO AIN AR TRES W  DIS CAZ7
 YXLK    EP   0    22653.024                                           70.7  26 
 YXLK    ES   0    227 3.243                                           70.7  26 
 XIVZ    EP   0    227 2.315                                            111   0 
 XIVZ    ES   0    22714.764                                            111   0 
 YIBA    EP   0    22656.777                                           85.2   3 
 YIBA    ES   0    227 9.014                                           85.2   3 
 EVSP    EP   0    22655.578                                           81.0 297 
 EVSP    ES   0    227 8.120                                           81.0 297 
 RVDG    EP   0    22656.626                                           93.4  58 
 RVDG    ES   0    22711.550                                           93.4  58 
                                                                                

 2020  1 1  228 20.0 L  35.936  52.298  9.0       9 0.0 4.5l                   1
 Action:ARG 22-06-16 14:21 OP:OBSP STATUS:               ID:20200101022820     I
 STAT SP IPHASW D HRMM SECON CODA AMPLIT PERI AZIMU VELO AIN AR TRES W  DIS CAZ7
 YXLK    EP   0    22835.119                                           65.2   4 
 YXLK    ES   0    22845.219                                           65.2   4 
 ZGXN    EP   0    22845.742                                            141  78 
 ZGXN    ES   0    229 4.740                                            141  78 
 EVSP    EP   0    22840.542                                            105 292 
 EVSP    ES   0    22856.028                                            105 292 
 XIVZ    EP   0    22841.289                                            115 347 
 XIVZ    ES   0    22857.240                                            115 347 
 ZSCP    EP   0    22833.334                                           63.4  58 
 ZSCP    ES   0    22843.287                                           63.4  58 
 YAIP    EP   0    22846.931                                            150  46 
 YAIP    ES   0    229 6.462                                            150  46 
 RVDG    EP   0    22835.277                                           73.7  46 
 RVDG    ES   0    22845.225                                           73.7  46 
 YIBA    EP   0    22837.946                                           88.9 346 
 YIBA    ES   0    22850.033                                           88.9 346 
 SRWZ    EP   0    22828.407                                           26.4 296 
 SRWZ    ES   0    22828.730                                           26.4 296 
                                                                                

 2020  1 1  230  0.0 L  35.928  52.152 13.2       4 0.0 2.0l                   1
 Action:ARG 22-06-16 14:21 OP:OBSP STATUS:               ID:20200101023000     I
 STAT SP IPHASW D HRMM SECON CODA AMPLIT PERI AZIMU VELO AIN AR TRES W  DIS CAZ7
 TVCN    EP   0    230 8.101                                           36.6   6 
 TVCN    ES   0    23013.125                                           36.6   6 
 YAIP    EP   0    23025.925                                            160  49 
 YAIP    ES   0    23049.657                                            160  49 
 EVSP    EP   0    23017.384                                           93.5 295 
 EVSP    ES   0    23032.680                                           93.5 295 
 SRWZ    EP   0    230 6.004                                           16.3 319 
 SRWZ    ES   0    230 8.346                                           16.3 319 
                                                                                

 2020  1 1  231 40.0 L  36.070  51.715 19.4       6 0.0 3.0l                   1
 Action:ARG 22-06-16 14:21 OP:OBSP STATUS:               ID:20200101023140     I
 STAT SP IPHASW D HRMM SECON CODA AMPLIT PERI AZIMU VELO AIN AR TRES W  DIS CAZ7
 YIBA    EP   0    23152.546                                           78.3  23 
 YIBA    ES   0    232 4.844                                           78.3  23 
 SRWZ    EP   0    23146.344                                           29.0  96 
 SRWZ    ES   0    23152.894                                           29.0  96 
 YAIP    EP   0    232 9.720                                            184  60 
 YAIP    ES   0    23234.431                                            184  60 
 ZGXN    EP   0    23213.312                                            190  85 
 ZGXN    ES   0    23237.475                                            190  85 
 EVSP    EP   0    23148.395                                           51.3 298 
 EVSP    ES   0    23155.921                                           51.3 298 
 YXLK    EP   0    23153.732                                           76.3  48 
 YXLK    ES   0    232 6.214                                           76.3  48 
                                                                                

 2020  1 1  233 20.0 L  36.289  52.113  5.1       4 0.0 2.0l                   1
 Action:ARG 22-06-16 14:21 OP:OBSP STATUS:               ID:20200101023320     I
 STAT SP IPHASW D HRMM SECON CODA AMPLIT PERI AZIMU VELO AIN AR TRES W  DIS CAZ7
 TVCN    EP   0    23324.031                                           8.71 114 
 TVCN    ES   0    23323.244                                           8.71 114 
 EVSP    EP   0    23336.215                                           80.7 270 
 EVSP    ES   0    23347.355                                           80.7 270 
 XIVZ    EP   0    23335.342                                           73.9 353 
 XIVZ    ES   0    23345.580                                           73.9 353 
 YXLK    EP   0    23326.349                                           33.8  40 
 YXLK    ES   0    23331.869                                           33.8  40 
                                                                                

 2020  1 1  235  0.0 L  35.862  51.975 16.8       9 0.0 4.5l                   1
 Action:ARG 22-06-16 14:21 OP:OBSP STATUS:               ID:20200101023500     I
 STAT SP IPHASW D HRMM SECON CODA AMPLIT PERI AZIMU VELO AIN AR TRES W  DIS CAZ7
 XIVZ    EP   0    23520.324                                            120   2 
 XIVZ    ES   0    23537.164                                            120   2 
 TVCN    EP   0    23511.830                                           48.2  24 
 TVCN    ES   0    23518.240                                           48.2  24 
 YAIP    EP   0    23529.034                                            177  50 
 YAIP    ES   0    23551.264                                            177  50 
 RVDG    EP   0    23519.396                                            101  54 
 RVDG    ES   0    23533.904                                            101  54 
 ZGXN    EP   0    23528.537                                            171  77 
 ZGXN    ES   0    23550.381                                            171  77 
 ZSCP    EP   0    23516.074                                           92.9  63 
 ZSCP    ES   0    23531.454                                           92.9  63 
 YXLK    EP   0    23515.803                                           80.8  24 
 YXLK    ES   0    23525.589                                           80.8  24 
 SRWZ    EP   0    235 4.075                                           20.6  15 
 SRWZ    ES   0    235 6.930                                           20.6  15 
 EVSP    EP   0    23516.030                                           83.4 304 
 EVSP    ES   0    23527.526                                           83.4 304 
                                                                                

 2020  1 1  236 40.0 L  36.054  52.126 17.3      10 0.0 5.0l                   1
 Action:ARG 22-06-16 14:21 OP:OBSP STATUS:               ID:20200101023640     I
 STAT SP IPHASW D HRMM SECON CODA AMPLIT PERI AZIMU VELO AIN AR TRES W  DIS CAZ7
 TVCN    EP   0    23644.543                                           23.5  16 
 TVCN    ES   0    23649.388                                           23.5  16 
 ZGXN    EP   0    237 7.605                                            154  83 
 ZGXN    ES   0    23725.289                                            154  83 
 YIBA    EP   0    23654.740                                           73.6 356 
 YIBA    ES   0    237 4.028                                           73.6 356 
 ZSCP    EP   0    23654.308                                           72.5  74 
 ZSCP    ES   0    237 4.835                                           72.5  74 
 EVSP    EP   0    23656.925                                           86.1 287 
 EVSP    ES   0    237 8.263                                           86.1 287 
 SRWZ    EP   0    23644.040                                           8.30 260 
 SRWZ    ES   0    23648.071                                           8.30 260 
 YAIP    EP   0    237 4.977                                            153  53 
 YAIP    ES   0    23726.188                                            153  53 
 YXLK    EP   0    23650.506                                           55.8  21 
 YXLK    ES   0    23659.196                                           55.8  21 
 RVDG    EP   0    23655.934                                           78.6  61 
 RVDG    ES   0    237 5.630                                           78.6  61 
 XIVZ    EP   0    23658.701                                          100.0 354 
 XIVZ    ES   0    23712.315                                          100.0 354 
                                                                                

 2020  1 1  238 20.0 L  35.984  52.063 18.3       5 0.0 2.5l                   1
 Action:ARG 22-06-16 14:21 OP:OBSP STATUS:               ID:20200101023820     I
 STAT SP IPHASW D HRMM SECON CODA AMPLIT PERI AZIMU VELO AIN AR TRES W  DIS CAZ7
 YIBA    EP   0    23835.030                                           81.2   0 
 YIBA    ES   0    23846.065                                           81.2   0 
 YAIP    EP   0    23847.111                                            163  52 
 YAIP    ES   0    239 9.509                                            163  52 
 XIVZ    EP   0    23839.202                                            107 358 
 XIVZ    ES   0    23855.158                                            107 358 
 YXLK    EP   0    23831.218                                           65.2  23 
 YXLK    ES   0    23842.942                                           65.2  23 
 ZSCP    EP   0    23833.847                                           80.3  69 
 ZSCP    ES   0    23848.455                                           80.3  69 
                                                                                

 2020  1 1  240  0.0 L  36.083  52.259 16.1       5 0.0 2.5l                   1
 Action:ARG 22-06-16 14:21 OP:OBSP STATUS:               ID:20200101024000     I
 STAT SP IPHASW D HRMM SECON CODA AMPLIT PERI AZIMU VELO AIN AR TRES W  DIS CAZ7
 SRWZ    EP   0    240 4.095                                           20.7 257 
 SRWZ    ES   0    240 8.317                                           20.7 257 
 ZSCP    EP   0    24012.157                                           60.0  73 
 ZSCP    ES   0    24020.808                                           60.0  73 
 EVSP    EP   0    24017.808                                           96.8 283 
 EVSP    ES   0    24030.234                                           96.8 283 
 RVDG    EP   0    24012.799                                           66.5  58 
 RVDG    ES   0    24022.632                                           66.5  58 
 XIVZ    EP   0    24017.977                                           98.6 347 
 XIVZ    ES   0    24033.803                                           98.6 347 
                                                                                

 2020  1 1  241 40.0 L  36.248  52.426 17.1       8 0.0 4.0l                   1
 Action:ARG 22-06-16 14:21 OP:OBSP STATUS:               ID:20200101024140     I
 STAT SP IPHASW D HRMM SECON CODA AMPLIT PERI AZIMU VELO AIN AR TRES W  DIS CAZ7
 ZGXN    EP   0    242 1.580                                            126  92 
 ZGXN    ES   0    24219.513                                            126  92 
 RVDG    EP   0    24149.400                                           44.9  69 
 RVDG    ES   0    24157.413                                           44.9  69 
 YXLK    EP   0    24146.783                                           30.9 348 
 YXLK    ES   0    24153.377                                           30.9 348 
 ZSCP    EP   0    24150.369                                           42.8  92 
 ZSCP    ES   0    24155.951                                           42.8  92 
 EVSP    EP   0    242 0.861                                            109 272 
 EVSP    ES   0    24214.374                                            109 272 
 XIVZ    EP   0    24155.626                                           85.9 335 
 XIVZ    ES   0    242 9.847                                           85.9 335 
 YAIP    EP   0    24159.984                                            119  54 
 YAIP    ES   0    24218.950                                            119  54 
 SRWZ    EP   0    24150.246                                           42.0 236 
 SRWZ    ES   0    24154.413                                           42.0 236 
                                                                                

 2020  1 1  243 20.0 L  35.636  52.147 12.8       6 0.0 3.0l                   1
 Action:ARG 22-06-16 14:21 OP:OBSP STATUS:               ID:20200101024320     I
 STAT SP IPHASW D HRMM SECON CODA AMPLIT PERI AZIMU VELO AIN AR TRES W  DIS CAZ7
 RVDG    EP   0    24340.088                                            107  38 
 RVDG    ES   0    24354.928                                            107  38 
 ZGXN    EP   0    24348.343                                            164  67 
 ZGXN    ES   0    244 8.864                                            164  67 
 ZSCP    EP   0    24339.548                                           94.8  45 
 ZSCP    ES   0    24351.990                                           94.8  45 
 YAIP    EP   0    24350.788                                            183  41 
 YAIP    ES   0    24414.808                                            183  41 
 SRWZ    EP   0    24328.592                                           46.0 347 
 SRWZ    ES   0    24338.506                                           46.0 347 
 TVCN    EP   0    24334.379                                           69.0   3 
 TVCN    ES   0    24345.496                                           69.0   3 
                                                                                

