 2020  1 1  025  0.0 L  36.119  51.940 11.7       4 0.0 2.0l                   1
 Action:ARG 22-06-16 14:21 OP:OBSP STATUS:               ID:20200101002500     I
 STAT SP IPHASW D HRMM SECON CODA AMPLIT PERI AZIMU VELO AIN AR TRES W  DIS CAZ7
 TVCN    EP   0    025 6.034                                           28.0  56 
 TVCN    ES   0    025 9.868                                           28.0  56 
 XIVZ    EP   0    02518.863                                           92.7   4 
 XIVZ    ES   0    02531.781                                           92.7   4 
 YXLK    EP   0    025 9.699                                           58.2  39 
 YXLK    ES   0    02520.874                                           58.2  39 
 EVSP    EP   0    02511.771                                           68.0 286 
 EVSP    ES   0    02524.965                                           68.0 286 
                                                                                

 2020  1 1  026 40.0 L  35.911  51.845 15.8       6 0.0 3.0l                   1
 Action:ARG 22-06-16 14:21 OP:OBSP STATUS:               ID:20200101002640     I
 STAT SP IPHASW D HRMM SECON CODA AMPLIT PERI AZIMU VELO AIN AR TRES W  DIS CAZ7
 ZSCP    EP   0    027 0.548                                            101  69 
 ZSCP    ES   0    02713.596                                            101  69 
 XIVZ    EP   0    027 1.976                                            116   7 
 XIVZ    ES   0    02718.067                                            116   7 
 TVCN    EP   0    02649.903                                           49.9  39 
 TVCN    ES   0    02658.289                                           49.9  39 
 YIBA    EP   0    02656.437                                           91.5  12 
 YIBA    ES   0    02710.571                                           91.5  12 
 RVDG    EP   0    02659.137                                            108  60 
 RVDG    ES   0    02715.320                                            108  60 
 SRWZ    EP   0    02646.018                                           22.4  49 
 SRWZ    ES   0    02649.170                                           22.4  49 
                                                                                

 2020  1 1  028 20.0 L  35.811  51.846  8.4       8 0.0 4.0l                   1
 Action:ARG 22-06-16 14:21 OP:OBSP STATUS:               ID:20200101002820     I
 STAT SP IPHASW D HRMM SECON CODA AMPLIT PERI AZIMU VELO AIN AR TRES W  DIS CAZ7
 SRWZ    EP   0    02827.546                                           30.7  33 
 SRWZ    ES   0    02830.275                                           30.7  33 
 TVCN    EP   0    02832.041                                           58.8  32 
 TVCN    ES   0    02841.685                                           58.8  32 
 YAIP    EP   0    02852.185                                            190  51 
 YAIP    ES   0    02919.009                                            190  51 
 YXLK    EP   0    02836.697                                           91.2  30 
 YXLK    ES   0    02849.245                                           91.2  30 
 YIBA    EP   0    02839.605                                            102  11 
 YIBA    ES   0    02854.484                                            102  11 
 RVDG    EP   0    02841.790                                            114  55 
 RVDG    ES   0    02859.029                                            114  55 
 ZSCP    EP   0    02840.888                                            105  63 
 ZSCP    ES   0    02855.627                                            105  63 
 ZGXN    EP   0    02850.680                                            183  76 
 ZGXN    ES   0    02914.759                                            183  76 
                                                                                

 2020  1 1  030  0.0 L  35.997  51.850 19.2       9 0.0 4.5l                   1
 Action:ARG 22-06-16 14:21 OP:OBSP STATUS:               ID:20200101003000     I
 STAT SP IPHASW D HRMM SECON CODA AMPLIT PERI AZIMU VELO AIN AR TRES W  DIS CAZ7
 YAIP    EP   0    03029.684                                            177  56 
 YAIP    ES   0    03053.760                                            177  56 
 ZGXN    EP   0    03028.222                                            179  82 
 ZGXN    ES   0    03053.380                                            179  82 
 TVCN    EP   0    030 9.433                                           42.7  47 
 TVCN    ES   0    03014.347                                           42.7  47 
 YIBA    EP   0    03014.889                                           82.1  13 
 YIBA    ES   0    03025.715                                           82.1  13 
 XIVZ    EP   0    03020.072                                            106   8 
 XIVZ    ES   0    03034.651                                            106   8 
 SRWZ    EP   0    030 6.184                                           17.4  73 
 SRWZ    ES   0    03010.209                                           17.4  73 
 EVSP    EP   0    03013.482                                           65.8 299 
 EVSP    ES   0    03024.358                                           65.8 299 
 ZSCP    EP   0    03016.188                                           98.1  74 
 ZSCP    ES   0    03031.043                                           98.1  74 
 YXLK    EP   0    03013.789                                           73.8  37 
 YXLK    ES   0    03023.925                                           73.8  37 
                                                                                

 2020  1 1  031 40.0 L  36.052  51.750 18.5       5 0.0 2.5l                   1
 Action:ARG 22-06-16 14:21 OP:OBSP STATUS:               ID:20200101003140     I
 STAT SP IPHASW D HRMM SECON CODA AMPLIT PERI AZIMU VELO AIN AR TRES W  DIS CAZ7
 YIBA    EP   0    03156.368                                           79.0  21 
 YIBA    ES   0    032 5.879                                           79.0  21 
 SRWZ    EP   0    03146.534                                           25.7  92 
 SRWZ    ES   0    03151.600                                           25.7  92 
 ZGXN    EP   0    03211.748                                            188  84 
 ZGXN    ES   0    03234.250                                            188  84 
 TVCN    EP   0    03150.005                                           46.4  60 
 TVCN    ES   0    03156.507                                           46.4  60 
 RVDG    EP   0    03158.016                                            109  69 
 RVDG    ES   0    03214.233                                            109  69 
                                                                                

 2020  1 1  033 20.0 L  36.166  52.371  5.5       3 0.0 1.5l                   1
 Action:ARG 22-06-16 14:21 OP:OBSP STATUS:               ID:20200101003320     I
 STAT SP IPHASW D HRMM SECON CODA AMPLIT PERI AZIMU VELO AIN AR TRES W  DIS CAZ7
 XIVZ    EP   0    03335.775                                           92.5 340 
 XIVZ    ES   0    03354.368                                           92.5 340 
 YIBA    EP   0    03333.535                                           66.8 336 
 YIBA    ES   0    03344.479                                           66.8 336 
 YXLK    EP   0    03328.191                                           39.4 358 
 YXLK    ES   0    03335.201                                           39.4 358 
                                                                                

 2020  1 1  035  0.0 L  35.802  51.957  5.4       5 0.0 2.5l                   1
 Action:ARG 22-06-16 14:21 OP:OBSP STATUS:               ID:20200101003500     I
 STAT SP IPHASW D HRMM SECON CODA AMPLIT PERI AZIMU VELO AIN AR TRES W  DIS CAZ7
 YAIP    EP   0    03533.090                                            183  49 
 YAIP    ES   0    03556.316                                            183  49 
 YIBA    EP   0    03520.505                                            101   5 
 YIBA    ES   0    03535.319                                            101   5 
 ZGXN    EP   0    03529.506                                            174  75 
 ZGXN    ES   0    03554.124                                            174  75 
 TVCN    EP   0    03510.791                                           55.0  23 
 TVCN    ES   0    03520.226                                           55.0  23 
 XIVZ    EP   0    03522.860                                            127   2 
 XIVZ    ES   0    03540.802                                            127   2 
                                                                                

 2020  1 1  036 40.0 L  36.378  51.833 13.1       5 0.0 2.5l                   1
 Action:ARG 22-06-16 14:21 OP:OBSP STATUS:               ID:20200101003640     I
 STAT SP IPHASW D HRMM SECON CODA AMPLIT PERI AZIMU VELO AIN AR TRES W  DIS CAZ7
 RVDG    EP   0    03659.259                                           95.2  88 
 RVDG    ES   0    03711.653                                           95.2  88 
 TVCN    EP   0    03648.207                                           35.7 112 
 TVCN    ES   0    03653.132                                           35.7 112 
 YAIP    EP   0    037 5.951                                            160  69 
 YAIP    ES   0    03728.148                                            160  69 
 YXLK    EP   0    03652.428                                           49.5  71 
 YXLK    ES   0    03657.905                                           49.5  71 
 YIBA    EP   0    03648.409                                           43.0  29 
 YIBA    ES   0    03655.842                                           43.0  29 
                                                                                

 2020  1 1  038 20.0 L  35.858  52.011 19.1       5 0.0 2.5l                   1
 Action:ARG 22-06-16 14:21 OP:OBSP STATUS:               ID:20200101003820     I
 STAT SP IPHASW D HRMM SECON CODA AMPLIT PERI AZIMU VELO AIN AR TRES W  DIS CAZ7
 YXLK    EP   0    03836.211                                           79.9  22 
 YXLK    ES   0    03847.527                                           79.9  22 
 ZSCP    EP   0    03835.602                                           90.2  62 
 ZSCP    ES   0    03851.114                                           90.2  62 
 SRWZ    EP   0    03825.757                                           20.4   6 
 SRWZ    ES   0    03832.083                                           20.4   6 
 YIBA    EP   0    03836.967                                           95.4   3 
 YIBA    ES   0    03851.925                                           95.4   3 
 ZGXN    EP   0    03849.638                                            168  76 
 ZGXN    ES   0    039 8.813                                            168  76 
                                                                                

 2020  1 1  040  0.0 L  36.470  52.043 10.7       7 0.0 3.5l                   1
 Action:ARG 22-06-16 14:21 OP:OBSP STATUS:               ID:20200101004000     I
 STAT SP IPHASW D HRMM SECON CODA AMPLIT PERI AZIMU VELO AIN AR TRES W  DIS CAZ7
 YIBA    EP   0    040 6.444                                           27.4   4 
 YIBA    ES   0    04010.973                                           27.4   4 
 ZSCP    EP   0    04015.349                                           81.5 108 
 ZSCP    ES   0    04028.268                                           81.5 108 
 YAIP    EP   0    04024.705                                            138  71 
 YAIP    ES   0    04043.673                                            138  71 
 YXLK    EP   0    040 7.584                                           28.7  78 
 YXLK    ES   0    04011.716                                           28.7  78 
 RVDG    EP   0    04014.093                                           76.8  96 
 RVDG    ES   0    04027.082                                           76.8  96 
 SRWZ    EP   0    040 9.641                                           47.6 180 
 SRWZ    ES   0    04016.098                                           47.6 180 
 EVSP    EP   0    04016.825                                           77.0 255 
 EVSP    ES   0    04027.205                                           77.0 255 
                                                                                

 2020  1 1  041 40.0 L  36.138  52.027  8.2       9 0.0 4.5l                   1
 Action:ARG 22-06-16 14:21 OP:OBSP STATUS:               ID:20200101004140     I
 STAT SP IPHASW D HRMM SECON CODA AMPLIT PERI AZIMU VELO AIN AR TRES W  DIS CAZ7
 TVCN    EP   0    04144.884                                           20.4  49 
 TVCN    ES   0    04147.284                                           20.4  49 
 EVSP    EP   0    04155.128                                           75.0 283 
 EVSP    ES   0    042 6.154                                           75.0 283 
 YXLK    EP   0    04149.119                                           51.8  34 
 YXLK    ES   0    04159.020                                           51.8  34 
 YIBA    EP   0    04152.826                                           64.2   3 
 YIBA    ES   0    042 2.545                                           64.2   3 
 RVDG    EP   0    04156.993                                           82.8  69 
 RVDG    ES   0    042 9.760                                           82.8  69 
 ZGXN    EP   0    042 9.497                                            162  87 
 ZGXN    ES   0    04228.878                                            162  87 
 ZSCP    EP   0    04152.518                                           79.3  82 
 ZSCP    ES   0    042 7.626                                           79.3  82 
 XIVZ    EP   0    04157.468                                           90.2 359 
 XIVZ    ES   0    04210.382                                           90.2 359 
 SRWZ    EP   0    04141.706                                           10.8 176 
 SRWZ    ES   0    04144.034                                           10.8 176 
                                                                                

 2020  1 1  043 20.0 L  35.921  52.067 11.3       9 0.0 4.5l                   1
 Action:ARG 22-06-16 14:21 OP:OBSP STATUS:               ID:20200101004320     I
 STAT SP IPHASW D HRMM SECON CODA AMPLIT PERI AZIMU VELO AIN AR TRES W  DIS CAZ7
 ZSCP    EP   0    04335.782                                           82.6  65 
 ZSCP    ES   0    04348.168                                           82.6  65 
 YXLK    EP   0    04334.956                                           71.5  21 
 YXLK    ES   0    04343.715                                           71.5  21 
 YAIP    EP   0    04348.841                                            167  50 
 YAIP    ES   0    044 9.967                                            167  50 
 ZGXN    EP   0    04350.510                                            161  78 
 ZGXN    ES   0    044 8.736                                            161  78 
 XIVZ    EP   0    04340.286                                            114 358 
 XIVZ    ES   0    04359.123                                            114 358 
 TVCN    EP   0    04327.001                                           39.1  17 
 TVCN    ES   0    04333.893                                           39.1  17 
 EVSP    EP   0    04334.893                                           87.0 298 
 EVSP    ES   0    04349.331                                           87.0 298 
 SRWZ    EP   0    04324.371                                           13.6 347 
 SRWZ    ES   0    04325.025                                           13.6 347 
 YIBA    EP   0    04336.375                                           88.2   0 
 YIBA    ES   0    04349.432                                           88.2   0 
                                                                                

 2020  1 1  045  0.0 L  35.922  51.745  5.4       6 0.0 3.0l                   1
 Action:ARG 22-06-16 14:21 OP:OBSP STATUS:               ID:20200101004500     I
 STAT SP IPHASW D HRMM SECON CODA AMPLIT PERI AZIMU VELO AIN AR TRES W  DIS CAZ7
 YXLK    EP   0    04517.119                                           86.3  39 
 YXLK    ES   0    04528.878                                           86.3  39 
 RVDG    EP   0    04522.679                                            115  62 
 RVDG    ES   0    04539.747                                            115  62 
 ZSCP    EP   0    04521.359                                            109  71 
 ZSCP    ES   0    04538.900                                            109  71 
 YIBA    EP   0    04518.348                                           92.8  18 
 YIBA    ES   0    04531.695                                           92.8  18 
 TVCN    EP   0    04510.728                                           55.3  47 
 TVCN    ES   0    04518.147                                           55.3  47 
 SRWZ    EP   0    045 5.252                                           29.3  63 
 SRWZ    ES   0    045 9.206                                           29.3  63 
                                                                                

 2020  1 1  046 40.0 L  36.131  51.953  8.3      10 0.0 5.0l                   1
 Action:ARG 22-06-16 14:21 OP:OBSP STATUS:               ID:20200101004640     I
 STAT SP IPHASW D HRMM SECON CODA AMPLIT PERI AZIMU VELO AIN AR TRES W  DIS CAZ7
 YAIP    EP   0    047 9.471                                            162  59 
 YAIP    ES   0    04732.017                                            162  59 
 TVCN    EP   0    04645.334                                           26.2  57 
 TVCN    ES   0    04650.027                                           26.2  57 
 YXLK    EP   0    04652.674                                           56.4  39 
 YXLK    ES   0    04659.551                                           56.4  39 
 ZSCP    EP   0    04658.691                                           86.0  82 
 ZSCP    ES   0    04710.679                                           86.0  82 
 RVDG    EP   0    04657.861                                           89.3  70 
 RVDG    ES   0    047 9.194                                           89.3  70 
 EVSP    EP   0    04652.107                                           68.8 284 
 EVSP    ES   0    047 1.581                                           68.8 284 
 XIVZ    EP   0    047 0.629                                           91.2   3 
 XIVZ    ES   0    04711.586                                           91.2   3 
 YIBA    EP   0    04652.780                                           65.7   9 
 YIBA    ES   0    047 2.604                                           65.7   9 
 SRWZ    EP   0    04642.450                                           12.4 143 
 SRWZ    ES   0    04644.905                                           12.4 143 
 ZGXN    EP   0    047 8.708                                            169  87 
 ZGXN    ES   0    04730.575                                            169  87 
                                                                                

