 2020  1 1  111 40.0 L  36.027  52.044  6.8       4 0.0 2.0l                   1
 Action:ARG 22-06-16 14:21 OP:OBSP STATUS:               ID:20200101011140     I
 STAT SP IPHASW D HRMM SECON CODA AMPLIT PERI AZIMU VELO AIN AR TRES W  DIS CAZ7
 ZSCP    EP   0    11156.427                                           80.4  73 
 ZSCP    ES   0    112 8.587                                           80.4  73 
 YAIP    EP   0    112 8.696                                            161  54 
 YAIP    ES   0    11229.093                                            161  54 
 YXLK    EP   0    11152.436                                           61.6  26 
 YXLK    ES   0    112 2.002                                           61.6  26 
 YIBA    EP   0    11156.012                                           76.5   1 
 YIBA    ES   0    112 7.368                                           76.5   1 
                                                                                

 2020  1 1  113 20.0 L  36.084  51.850 10.0       3 0.0 1.5l                   1
 Action:ARG 22-06-16 14:21 OP:OBSP STATUS:               ID:20200101011320     I
 STAT SP IPHASW D HRMM SECON CODA AMPLIT PERI AZIMU VELO AIN AR TRES W  DIS CAZ7
 YAIP    EP   0    11348.939                                            172  59 
 YAIP    ES   0    11413.626                                            172  59 
 EVSP    EP   0    11333.523                                           61.6 291 
 EVSP    ES   0    11342.490                                           61.6 291 
 SRWZ    EP   0    11323.175                                           17.4 106 
 SRWZ    ES   0    11326.424                                           17.4 106 
                                                                                

 2020  1 1  115  0.0 L  36.253  52.027 15.8       9 0.0 4.5l                   1
 Action:ARG 22-06-16 14:21 OP:OBSP STATUS:               ID:20200101011500     I
 STAT SP IPHASW D HRMM SECON CODA AMPLIT PERI AZIMU VELO AIN AR TRES W  DIS CAZ7
 XIVZ    EP   0    11515.138                                           77.5 359 
 XIVZ    ES   0    11526.412                                           77.5 359 
 TVCN    EP   0    115 5.018                                           15.6  88 
 TVCN    ES   0    115 8.619                                           15.6  88 
 YIBA    EP   0    11512.072                                           51.5   4 
 YIBA    ES   0    11518.341                                           51.5   4 
 SRWZ    EP   0    115 4.846                                           23.5 178 
 SRWZ    ES   0    11510.474                                           23.5 178 
 YXLK    EP   0    115 8.483                                           42.0  44 
 YXLK    ES   0    11514.578                                           42.0  44 
 RVDG    EP   0    11517.061                                           79.3  78 
 RVDG    ES   0    11527.711                                           79.3  78 
 EVSP    EP   0    11513.962                                           73.2 273 
 EVSP    ES   0    11524.743                                           73.2 273 
 ZSCP    EP   0    11515.627                                           78.6  91 
 ZSCP    ES   0    11526.836                                           78.6  91 
 ZGXN    EP   0    11528.267                                            162  91 
 ZGXN    ES   0    11548.536                                            162  91 
                                                                                

 2020  1 1  116 40.0 L  36.041  52.268 15.7       7 0.0 3.5l                   1
 Action:ARG 22-06-16 14:21 OP:OBSP STATUS:               ID:20200101011640     I
 STAT SP IPHASW D HRMM SECON CODA AMPLIT PERI AZIMU VELO AIN AR TRES W  DIS CAZ7
 RVDG    EP   0    11653.649                                           68.4  55 
 RVDG    ES   0    117 3.721                                           68.4  55 
 SRWZ    EP   0    11645.068                                           21.0 269 
 SRWZ    ES   0    11649.543                                           21.0 269 
 YAIP    EP   0    117 4.558                                            144  50 
 YAIP    ES   0    11725.587                                            144  50 
 ZSCP    EP   0    11653.596                                           60.7  69 
 ZSCP    ES   0    117 1.718                                           60.7  69 
 EVSP    EP   0    11659.622                                           98.8 286 
 EVSP    ES   0    11713.615                                           98.8 286 
 ZGXN    EP   0    117 4.713                                            141  82 
 ZGXN    ES   0    11722.660                                            141  82 
 TVCN    EP   0    11646.684                                           24.6 345 
 TVCN    ES   0    11648.793                                           24.6 345 
                                                                                

 2020  1 1  118 20.0 L  35.857  51.916 19.0       4 0.0 2.0l                   1
 Action:ARG 22-06-16 14:21 OP:OBSP STATUS:               ID:20200101011820     I
 STAT SP IPHASW D HRMM SECON CODA AMPLIT PERI AZIMU VELO AIN AR TRES W  DIS CAZ7
 RVDG    EP   0    11837.804                                            106  55 
 RVDG    ES   0    11853.333                                            106  55 
 ZSCP    EP   0    11838.166                                           98.0  64 
 ZSCP    ES   0    11851.285                                           98.0  64 
 YXLK    EP   0    11836.585                                           83.6  28 
 YXLK    ES   0    11848.001                                           83.6  28 
 ZGXN    EP   0    11850.364                                            176  77 
 ZGXN    ES   0    119 9.889                                            176  77 
                                                                                

 2020  1 1  120  0.0 L  36.017  52.095 11.3       8 0.0 4.0l                   1
 Action:ARG 22-06-16 14:21 OP:OBSP STATUS:               ID:20200101012000     I
 STAT SP IPHASW D HRMM SECON CODA AMPLIT PERI AZIMU VELO AIN AR TRES W  DIS CAZ7
 YIBA    EP   0    12013.932                                           77.5 358 
 YIBA    ES   0    12025.533                                           77.5 358 
 RVDG    EP   0    12014.898                                           83.0  59 
 RVDG    ES   0    12026.354                                           83.0  59 
 SRWZ    EP   0    120 5.004                                           5.97 295 
 SRWZ    ES   0    120 4.581                                           5.97 295 
 YAIP    EP   0    12028.096                                            158  53 
 YAIP    ES   0    12046.883                                            158  53 
 EVSP    EP   0    12018.410                                           84.8 291 
 EVSP    ES   0    12029.114                                           84.8 291 
 ZGXN    EP   0    12027.124                                            157  82 
 ZGXN    ES   0    12049.176                                            157  82 
 YXLK    EP   0    12012.223                                           60.7  22 
 YXLK    ES   0    12022.428                                           60.7  22 
 TVCN    EP   0    120 5.454                                           28.2  19 
 TVCN    ES   0    12011.026                                           28.2  19 
                                                                                

 2020  1 1  121 40.0 L  36.010  51.923 17.5       8 0.0 4.0l                   1
 Action:ARG 22-06-16 14:21 OP:OBSP STATUS:               ID:20200101012140     I
 STAT SP IPHASW D HRMM SECON CODA AMPLIT PERI AZIMU VELO AIN AR TRES W  DIS CAZ7
 EVSP    EP   0    12154.802                                           71.0 296 
 EVSP    ES   0    122 5.615                                           71.0 296 
 XIVZ    EP   0    12158.464                                            104   4 
 XIVZ    ES   0    12212.461                                            104   4 
 YAIP    EP   0    122 9.234                                            171  55 
 YAIP    ES   0    12232.275                                            171  55 
 RVDG    EP   0    12156.839                                           97.0  63 
 RVDG    ES   0    12211.010                                           97.0  63 
 SRWZ    EP   0    12143.783                                           10.7  71 
 SRWZ    ES   0    12147.073                                           10.7  71 
 YIBA    EP   0    12154.717                                           79.4   9 
 YIBA    ES   0    122 6.832                                           79.4   9 
 YXLK    EP   0    12152.271                                           68.8  34 
 YXLK    ES   0    122 1.326                                           68.8  34 
 ZSCP    EP   0    12158.313                                           91.4  74 
 ZSCP    ES   0    12210.420                                           91.4  74 
                                                                                

 2020  1 1  123 20.0 L  36.156  51.861 15.1       4 0.0 2.0l                   1
 Action:ARG 22-06-16 14:21 OP:OBSP STATUS:               ID:20200101012320     I
 STAT SP IPHASW D HRMM SECON CODA AMPLIT PERI AZIMU VELO AIN AR TRES W  DIS CAZ7
 ZGXN    EP   0    12350.014                                            177  88 
 ZGXN    ES   0    12411.299                                            177  88 
 RVDG    EP   0    12338.382                                           96.4  73 
 RVDG    ES   0    12351.758                                           96.4  73 
 YIBA    EP   0    12332.874                                           64.8  16 
 YIBA    ES   0    12342.046                                           64.8  16 
 EVSP    EP   0    12331.969                                           60.1 284 
 EVSP    ES   0    12339.796                                           60.1 284 
                                                                                

 2020  1 1  125  0.0 L  36.274  51.900  9.6      10 0.0 5.0l                   1
 Action:ARG 22-06-16 14:21 OP:OBSP STATUS:               ID:20200101012500     I
 STAT SP IPHASW D HRMM SECON CODA AMPLIT PERI AZIMU VELO AIN AR TRES W  DIS CAZ7
 YAIP    EP   0    12527.787                                            158  65 
 YAIP    ES   0    12548.578                                            158  65 
 ZGXN    EP   0    12531.242                                            173  92 
 ZGXN    ES   0    12554.341                                            173  92 
 YXLK    EP   0    12511.006                                           49.3  56 
 YXLK    ES   0    12517.627                                           49.3  56 
 XIVZ    EP   0    12516.079                                           76.0   8 
 XIVZ    ES   0    12528.872                                           76.0   8 
 SRWZ    EP   0    125 5.585                                           28.6 154 
 SRWZ    ES   0    12512.102                                           28.6 154 
 EVSP    EP   0    12511.325                                           61.7 271 
 EVSP    ES   0    12520.871                                           61.7 271 
 ZSCP    EP   0    12519.842                                           90.1  92 
 ZSCP    ES   0    12529.566                                           90.1  92 
 TVCN    EP   0    125 5.288                                           27.1  94 
 TVCN    ES   0    125 8.645                                           27.1  94 
 YIBA    EP   0    12510.901                                           51.3  17 
 YIBA    ES   0    12517.014                                           51.3  17 
 RVDG    EP   0    12516.993                                           90.2  81 
 RVDG    ES   0    12531.185                                           90.2  81 
                                                                                

 2020  1 1  126 40.0 L  36.133  52.090 13.8       6 0.0 3.0l                   1
 Action:ARG 22-06-16 14:21 OP:OBSP STATUS:               ID:20200101012640     I
 STAT SP IPHASW D HRMM SECON CODA AMPLIT PERI AZIMU VELO AIN AR TRES W  DIS CAZ7
 XIVZ    EP   0    12657.364                                           91.0 356 
 XIVZ    ES   0    12712.531                                           91.0 356 
 TVCN    EP   0    12643.273                                           16.9  35 
 TVCN    ES   0    12647.258                                           16.9  35 
 EVSP    EP   0    12655.325                                           80.7 282 
 EVSP    ES   0    127 6.384                                           80.7 282 
 YIBA    EP   0    12652.105                                           64.7 358 
 YIBA    ES   0    127 3.826                                           64.7 358 
 RVDG    EP   0    12654.620                                           77.7  68 
 RVDG    ES   0    127 7.185                                           77.7  68 
 YAIP    EP   0    127 6.384                                            151  57 
 YAIP    ES   0    12726.125                                            151  57 
                                                                                

 2020  1 1  128 20.0 L  36.038  51.755 18.2       7 0.0 3.5l                   1
 Action:ARG 22-06-16 14:21 OP:OBSP STATUS:               ID:20200101012820     I
 STAT SP IPHASW D HRMM SECON CODA AMPLIT PERI AZIMU VELO AIN AR TRES W  DIS CAZ7
 ZSCP    EP   0    12839.603                                            105  77 
 ZSCP    ES   0    12853.118                                            105  77 
 XIVZ    EP   0    12839.942                                            104  13 
 XIVZ    ES   0    12853.060                                            104  13 
 SRWZ    EP   0    12826.493                                           25.2  89 
 SRWZ    ES   0    12831.546                                           25.2  89 
 RVDG    EP   0    12839.538                                            109  68 
 RVDG    ES   0    12854.314                                            109  68 
 EVSP    EP   0    12831.105                                           56.1 299 
 EVSP    ES   0    12839.732                                           56.1 299 
 YXLK    EP   0    12835.106                                           76.1  45 
 YXLK    ES   0    12845.728                                           76.1  45 
 TVCN    EP   0    12829.769                                           46.8  58 
 TVCN    ES   0    12837.722                                           46.8  58 
                                                                                

 2020  1 1  130  0.0 L  35.787  52.166 17.7       6 0.0 3.0l                   1
 Action:ARG 22-06-16 14:21 OP:OBSP STATUS:               ID:20200101013000     I
 STAT SP IPHASW D HRMM SECON CODA AMPLIT PERI AZIMU VELO AIN AR TRES W  DIS CAZ7
 SRWZ    EP   0    130 6.753                                           30.6 337 
 SRWZ    ES   0    13010.499                                           30.6 337 
 XIVZ    EP   0    13022.950                                            129 354 
 XIVZ    ES   0    13039.648                                            129 354 
 TVCN    EP   0    13012.307                                           52.2   3 
 TVCN    ES   0    13021.623                                           52.2   3 
 ZGXN    EP   0    13026.732                                            156  72 
 ZGXN    ES   0    13046.030                                            156  72 
 YAIP    EP   0    13028.719                                            170  45 
 YAIP    ES   0    13049.699                                            170  45 
 EVSP    EP   0    13018.042                                            102 303 
 EVSP    ES   0    13033.609                                            102 303 
                                                                                

 2020  1 1  131 40.0 L  36.007  51.940 12.6       5 0.0 2.5l                   1
 Action:ARG 22-06-16 14:21 OP:OBSP STATUS:               ID:20200101013140     I
 STAT SP IPHASW D HRMM SECON CODA AMPLIT PERI AZIMU VELO AIN AR TRES W  DIS CAZ7
 SRWZ    EP   0    13142.338                                           9.31  66 
 SRWZ    ES   0    13146.224                                           9.31  66 
 XIVZ    EP   0    13158.828                                            104   4 
 XIVZ    ES   0    13214.011                                            104   4 
 YAIP    EP   0    13211.068                                            170  55 
 YAIP    ES   0    13230.232                                            170  55 
 YXLK    EP   0    13153.477                                           68.2  33 
 YXLK    ES   0    132 3.350                                           68.2  33 
 RVDG    EP   0    13159.565                                           95.7  63 
 RVDG    ES   0    13211.960                                           95.7  63 
                                                                                

 2020  1 1  133 20.0 L  36.070  51.693 13.8       4 0.0 2.0l                   1
 Action:ARG 22-06-16 14:21 OP:OBSP STATUS:               ID:20200101013320     I
 STAT SP IPHASW D HRMM SECON CODA AMPLIT PERI AZIMU VELO AIN AR TRES W  DIS CAZ7
 YXLK    EP   0    13335.804                                           77.8  49 
 YXLK    ES   0    13346.989                                           77.8  49 
 EVSP    EP   0    13331.991                                           49.5 299 
 EVSP    ES   0    13338.853                                           49.5 299 
 YAIP    EP   0    13353.238                                            185  61 
 YAIP    ES   0    13414.121                                            185  61 
 RVDG    EP   0    13339.890                                            113  71 
 RVDG    ES   0    13356.681                                            113  71 
                                                                                

 2020  1 1  135  0.0 L  35.808  52.189  5.5       3 0.0 1.5l                   1
 Action:ARG 22-06-16 14:21 OP:OBSP STATUS:               ID:20200101013500     I
 STAT SP IPHASW D HRMM SECON CODA AMPLIT PERI AZIMU VELO AIN AR TRES W  DIS CAZ7
 SRWZ    EP   0    135 6.566                                           29.4 331 
 SRWZ    ES   0    135 7.936                                           29.4 331 
 XIVZ    EP   0    13523.295                                            127 353 
 XIVZ    ES   0    13542.227                                            127 353 
 YAIP    EP   0    13529.480                                            167  45 
 YAIP    ES   0    13552.318                                            167  45 
                                                                                

