 2020  1 1  245  0.0 L  36.094  52.135 13.4       8 0.0 4.0l                   1
 Action:ARG 22-06-16 14:21 OP:OBSP STATUS:               ID:20200101024500     I
 STAT SP IPHASW D HRMM SECON CODA AMPLIT PERI AZIMU VELO AIN AR TRES W  DIS CAZ7
 TVCN    EP   0    245 5.187                                           19.0  18 
 TVCN    ES   0    245 7.000                                           19.0  18 
 ZSCP    EP   0    24514.537                                           70.6  77 
 ZSCP    ES   0    24522.398                                           70.6  77 
 ZGXN    EP   0    24525.496                                            153  85 
 ZGXN    ES   0    24547.539                                            153  85 
 YXLK    EP   0    24511.054                                           51.4  22 
 YXLK    ES   0    24516.725                                           51.4  22 
 XIVZ    EP   0    24519.932                                           95.6 354 
 XIVZ    ES   0    24531.886                                           95.6 354 
 RVDG    EP   0    24516.205                                           75.8  63 
 RVDG    ES   0    24525.040                                           75.8  63 
 EVSP    EP   0    24516.680                                           85.6 284 
 EVSP    ES   0    24528.073                                           85.6 284 
 YAIP    EP   0    24525.319                                            150  55 
 YAIP    ES   0    24544.802                                            150  55 
                                                                                

 2020  1 1  246 40.0 L  36.234  52.181 11.4       9 0.0 4.5l                   1
 Action:ARG 22-06-16 14:21 OP:OBSP STATUS:               ID:20200101024640     I
 STAT SP IPHASW D HRMM SECON CODA AMPLIT PERI AZIMU VELO AIN AR TRES W  DIS CAZ7
 RVDG    EP   0    24651.658                                           66.3  74 
 RVDG    ES   0    247 2.773                                           66.3  74 
 YXLK    EP   0    24648.683                                           35.6  26 
 YXLK    ES   0    24653.875                                           35.6  26 
 EVSP    EP   0    24657.469                                           87.2 274 
 EVSP    ES   0    24711.222                                           87.2 274 
 YIBA    EP   0    24649.475                                           54.4 349 
 YIBA    ES   0    24658.285                                           54.4 349 
 TVCN    EP   0    24642.825                                           3.06  34 
 TVCN    ES   0    24642.362                                           3.06  34 
 ZGXN    EP   0    247 6.655                                            148  91 
 ZGXN    ES   0    24725.338                                            148  91 
 ZSCP    EP   0    24652.274                                           64.7  90 
 ZSCP    ES   0    247 2.700                                           64.7  90 
 YAIP    EP   0    247 4.378                                            138  59 
 YAIP    ES   0    24723.157                                            138  59 
 SRWZ    EP   0    24645.281                                           25.1 211 
 SRWZ    ES   0    24648.317                                           25.1 211 
                                                                                

