 2020  1 1  0 1 40.0 L  35.863  52.363  7.0       9 0.0 4.5l                   1
 Action:ARG 22-06-16 14:21 OP:OBSP STATUS:               ID:20200101000140     I
 STAT SP IPHASW D HRMM SECON CODA AMPLIT PERI AZIMU VELO AIN AR TRES W  DIS CAZ7
 RVDG    EP   0    0 153.276                                           75.6  39 
 RVDG    ES   0    0 2 5.454                                           75.6  39 
 ZSCP    EP   0    0 152.083                                           63.3  49 
 ZSCP    ES   0    0 2 2.546                                           63.3  49 
 YAIP    EP   0    0 2 7.270                                            151  42 
 YAIP    ES   0    0 226.247                                            151  42 
 SRWZ    EP   0    0 147.509                                           35.6 303 
 SRWZ    ES   0    0 155.343                                           35.6 303 
 YXLK    EP   0    0 156.500                                           73.0 359 
 YXLK    ES   0    0 2 5.509                                           73.0 359 
 ZGXN    EP   0    0 2 5.771                                            137  74 
 ZGXN    ES   0    0 223.371                                            137  74 
 EVSP    EP   0    0 2 1.344                                            113 294 
 EVSP    ES   0    0 215.705                                            113 294 
 YIBA    EP   0    0 158.749                                           98.2 344 
 YIBA    ES   0    0 212.579                                           98.2 344 
 TVCN    EP   0    0 150.464                                           46.0 341 
 TVCN    ES   0    0 157.434                                           46.0 341 
                                                                                

 2020  1 1  0 3 20.0 L  35.760  51.882 17.7       5 0.0 2.5l                   1
 Action:ARG 22-06-16 14:21 OP:OBSP STATUS:               ID:20200101000320     I
 STAT SP IPHASW D HRMM SECON CODA AMPLIT PERI AZIMU VELO AIN AR TRES W  DIS CAZ7
 TVCN    EP   0    0 332.382                                           62.1  27 
 TVCN    ES   0    0 340.407                                           62.1  27 
 YIBA    EP   0    0 338.976                                            107   8 
 YIBA    ES   0    0 354.554                                            107   8 
 YAIP    EP   0    0 349.711                                            191  49 
 YAIP    ES   0    0 415.845                                            191  49 
 ZSCP    EP   0    0 338.180                                            105  60 
 ZSCP    ES   0    0 354.531                                            105  60 
 YXLK    EP   0    0 337.771                                           94.6  26 
 YXLK    ES   0    0 349.277                                           94.6  26 
                                                                                

 2020  1 1  0 5  0.0 L  35.485  52.194 16.5       3 0.0 1.5l                   1
 Action:ARG 22-06-16 14:21 OP:OBSP STATUS:               ID:20200101000500     I
 STAT SP IPHASW D HRMM SECON CODA AMPLIT PERI AZIMU VELO AIN AR TRES W  DIS CAZ7
 YIBA    EP   0    0 524.787                                            136 355 
 YIBA    ES   0    0 540.513                                            136 355 
 TVCN    EP   0    0 515.880                                           85.5   0 
 TVCN    ES   0    0 527.769                                           85.5   0 
 ZGXN    EP   0    0 527.356                                            167  61 
 ZGXN    ES   0    0 548.909                                            167  61 
                                                                                

 2020  1 1  0 6 40.0 L  35.830  52.390  8.8       6 0.0 3.0l                   1
 Action:ARG 22-06-16 14:21 OP:OBSP STATUS:               ID:20200101000640     I
 STAT SP IPHASW D HRMM SECON CODA AMPLIT PERI AZIMU VELO AIN AR TRES W  DIS CAZ7
 TVCN    EP   0    0 650.152                                           50.3 340 
 TVCN    ES   0    0 657.958                                           50.3 340 
 XIVZ    EP   0    0 7 5.566                                            128 345 
 XIVZ    ES   0    0 721.575                                            128 345 
 EVSP    EP   0    0 7 1.994                                            117 296 
 EVSP    ES   0    0 719.296                                            117 296 
 SRWZ    EP   0    0 649.503                                           39.7 306 
 SRWZ    ES   0    0 654.624                                           39.7 306 
 YAIP    EP   0    0 7 7.839                                            153  41 
 YAIP    ES   0    0 726.715                                            153  41 
 YXLK    EP   0    0 654.946                                           76.8 357 
 YXLK    ES   0    0 7 6.362                                           76.8 357 
                                                                                

 2020  1 1  0 8 20.0 L  35.944  52.071 12.4       6 0.0 3.0l                   1
 Action:ARG 22-06-16 14:21 OP:OBSP STATUS:               ID:20200101000820     I
 STAT SP IPHASW D HRMM SECON CODA AMPLIT PERI AZIMU VELO AIN AR TRES W  DIS CAZ7
 YAIP    EP   0    0 849.463                                            165  51 
 YAIP    ES   0    0 910.350                                            165  51 
 YIBA    EP   0    0 838.189                                           85.6 359 
 YIBA    ES   0    0 848.217                                           85.6 359 
 RVDG    EP   0    0 837.273                                           89.1  55 
 RVDG    ES   0    0 849.410                                           89.1  55 
 YXLK    EP   0    0 832.894                                           69.0  21 
 YXLK    ES   0    0 843.754                                           69.0  21 
 XIVZ    EP   0    0 840.918                                            111 357 
 XIVZ    ES   0    0 856.640                                            111 357 
 ZSCP    EP   0    0 836.404                                           81.2  66 
 ZSCP    ES   0    0 850.056                                           81.2  66 
                                                                                

 2020  1 1  010  0.0 L  35.539  52.327 11.7       7 0.0 3.5l                   1
 Action:ARG 22-06-16 14:21 OP:OBSP STATUS:               ID:20200101001000     I
 STAT SP IPHASW D HRMM SECON CODA AMPLIT PERI AZIMU VELO AIN AR TRES W  DIS CAZ7
 ZGXN    EP   0    01027.405                                            153  61 
 ZGXN    ES   0    01046.975                                            153  61 
 XIVZ    EP   0    01027.010                                            158 350 
 XIVZ    ES   0    01048.706                                            158 350 
 ZSCP    EP   0    01016.609                                           92.6  33 
 ZSCP    ES   0    01030.917                                           92.6  33 
 RVDG    EP   0    01020.871                                            107  28 
 RVDG    ES   0    01035.364                                            107  28 
 YXLK    EP   0    01019.984                                            108   1 
 YXLK    ES   0    01037.881                                            108   1 
 YIBA    EP   0    01023.923                                            132 349 
 YIBA    ES   0    01041.178                                            132 349 
 SRWZ    EP   0    01012.461                                           61.6 334 
 SRWZ    ES   0    01021.007                                           61.6 334 
                                                                                

 2020  1 1  011 40.0 L  35.914  51.928 14.8       4 0.0 2.0l                   1
 Action:ARG 22-06-16 14:21 OP:OBSP STATUS:               ID:20200101001140     I
 STAT SP IPHASW D HRMM SECON CODA AMPLIT PERI AZIMU VELO AIN AR TRES W  DIS CAZ7
 SRWZ    EP   0    01145.272                                           17.1  34 
 SRWZ    ES   0    01148.860                                           17.1  34 
 YAIP    EP   0    01211.709                                            177  53 
 YAIP    ES   0    01232.355                                            177  53 
 ZSCP    EP   0    01157.826                                           94.5  67 
 ZSCP    ES   0    01211.545                                           94.5  67 
 TVCN    EP   0    01148.693                                           45.2  32 
 TVCN    ES   0    01156.420                                           45.2  32 
                                                                                

 2020  1 1  013 20.0 L  35.754  52.254 16.8       8 0.0 4.0l                   1
 Action:ARG 22-06-16 14:21 OP:OBSP STATUS:               ID:20200101001320     I
 STAT SP IPHASW D HRMM SECON CODA AMPLIT PERI AZIMU VELO AIN AR TRES W  DIS CAZ7
 EVSP    EP   0    01341.234                                            110 302 
 EVSP    ES   0    01355.639                                            110 302 
 RVDG    EP   0    01338.259                                           91.3  39 
 RVDG    ES   0    01350.390                                           91.3  39 
 ZSCP    EP   0    01335.570                                           78.8  47 
 ZSCP    ES   0    01346.746                                           78.8  47 
 SRWZ    EP   0    01326.378                                           37.4 328 
 SRWZ    ES   0    01334.934                                           37.4 328 
 YAIP    EP   0    01348.953                                            167  42 
 YAIP    ES   0    01410.279                                            167  42 
 XIVZ    EP   0    01341.883                                            134 351 
 XIVZ    ES   0    01359.511                                            134 351 
 TVCN    EP   0    01330.474                                           55.9 355 
 TVCN    ES   0    01339.420                                           55.9 355 
 YXLK    EP   0    01336.612                                           85.6   6 
 YXLK    ES   0    01348.497                                           85.6   6 
                                                                                

 2020  1 1  015  0.0 L  35.804  51.961  6.4       6 0.0 3.0l                   1
 Action:ARG 22-06-16 14:21 OP:OBSP STATUS:               ID:20200101001500     I
 STAT SP IPHASW D HRMM SECON CODA AMPLIT PERI AZIMU VELO AIN AR TRES W  DIS CAZ7
 ZGXN    EP   0    01531.256                                            174  75 
 ZGXN    ES   0    01553.947                                            174  75 
 RVDG    EP   0    01521.326                                            106  51 
 RVDG    ES   0    01536.118                                            106  51 
 EVSP    EP   0    01516.509                                           86.2 308 
 EVSP    ES   0    01529.250                                           86.2 308 
 YIBA    EP   0    01518.770                                            101   5 
 YIBA    ES   0    01535.142                                            101   5 
 TVCN    EP   0    01511.978                                           54.6  23 
 TVCN    ES   0    01521.549                                           54.6  23 
 ZSCP    EP   0    01519.745                                           97.1  60 
 ZSCP    ES   0    01533.864                                           97.1  60 
                                                                                

 2020  1 1  016 40.0 L  36.130  52.009  5.4      10 0.0 5.0l                   1
 Action:ARG 22-06-16 14:21 OP:OBSP STATUS:               ID:20200101001640     I
 STAT SP IPHASW D HRMM SECON CODA AMPLIT PERI AZIMU VELO AIN AR TRES W  DIS CAZ7
 TVCN    EP   0    01643.622                                           22.2  50 
 TVCN    ES   0    01650.433                                           22.2  50 
 ZGXN    EP   0    017 8.789                                            164  87 
 ZGXN    ES   0    01729.717                                            164  87 
 YAIP    EP   0    017 9.528                                            157  58 
 YAIP    ES   0    01731.736                                            157  58 
 YIBA    EP   0    01654.376                                           65.2   4 
 YIBA    ES   0    017 3.093                                           65.2   4 
 RVDG    EP   0    01657.138                                           84.6  69 
 RVDG    ES   0    017 9.998                                           84.6  69 
 ZSCP    EP   0    01657.681                                           81.0  81 
 ZSCP    ES   0    01710.054                                           81.0  81 
 EVSP    EP   0    01655.322                                           73.7 284 
 EVSP    ES   0    017 6.162                                           73.7 284 
 YXLK    EP   0    01650.365                                           53.4  35 
 YXLK    ES   0    01657.667                                           53.4  35 
 XIVZ    EP   0    01659.877                                           91.1   0 
 XIVZ    ES   0    01710.351                                           91.1   0 
 SRWZ    EP   0    01642.673                                           10.2 166 
 SRWZ    ES   0    01645.014                                           10.2 166 
                                                                                

 2020  1 1  018 20.0 L  36.256  51.754 17.5       3 0.0 1.5l                   1
 Action:ARG 22-06-16 14:21 OP:OBSP STATUS:               ID:20200101001820     I
 STAT SP IPHASW D HRMM SECON CODA AMPLIT PERI AZIMU VELO AIN AR TRES W  DIS CAZ7
 RVDG    EP   0    01839.401                                            103  81 
 RVDG    ES   0    01854.842                                            103  81 
 SRWZ    EP   0    01828.296                                           34.8 133 
 SRWZ    ES   0    01832.079                                           34.8 133 
 ZSCP    EP   0    01839.509                                            103  91 
 ZSCP    ES   0    01854.032                                            103  91 
                                                                                

 2020  1 1  020  0.0 L  36.112  52.202 11.5      10 0.0 5.0l                   1
 Action:ARG 22-06-16 14:21 OP:OBSP STATUS:               ID:20200101002000     I
 STAT SP IPHASW D HRMM SECON CODA AMPLIT PERI AZIMU VELO AIN AR TRES W  DIS CAZ7
 XIVZ    EP   0    02018.876                                           94.4 350 
 XIVZ    ES   0    02032.278                                           94.4 350 
 SRWZ    EP   0    020 5.701                                           17.0 242 
 SRWZ    ES   0    020 8.274                                           17.0 242 
 TVCN    EP   0    020 3.900                                           16.0 359 
 TVCN    ES   0    020 6.729                                           16.0 359 
 YAIP    EP   0    02028.186                                            144  54 
 YAIP    ES   0    02044.540                                            144  54 
 RVDG    EP   0    02012.980                                           69.5  63 
 RVDG    ES   0    02022.953                                           69.5  63 
 YIBA    EP   0    02013.584                                           68.0 349 
 YIBA    ES   0    02023.754                                           68.0 349 
 ZGXN    EP   0    02025.639                                            146  86 
 ZGXN    ES   0    02045.410                                            146  86 
 EVSP    EP   0    02017.874                                           91.0 282 
 EVSP    ES   0    02031.500                                           91.0 282 
 YXLK    EP   0    02010.786                                           47.4  16 
 YXLK    ES   0    02017.167                                           47.4  16 
 ZSCP    EP   0    02011.016                                           64.3  78 
 ZSCP    ES   0    02023.114                                           64.3  78 
                                                                                

 2020  1 1  021 40.0 L  35.847  52.201 16.4      10 0.0 5.0l                   1
 Action:ARG 22-06-16 14:21 OP:OBSP STATUS:               ID:20200101002140     I
 STAT SP IPHASW D HRMM SECON CODA AMPLIT PERI AZIMU VELO AIN AR TRES W  DIS CAZ7
 YAIP    EP   0    022 7.344                                            163  45 
 YAIP    ES   0    02227.453                                            163  45 
 XIVZ    EP   0    022 0.599                                            123 352 
 XIVZ    ES   0    02217.928                                            123 352 
 ZGXN    EP   0    022 6.797                                            151  74 
 ZGXN    ES   0    02226.594                                            151  74 
 YIBA    EP   0    02159.229                                           97.1 352 
 YIBA    ES   0    02213.512                                           97.1 352 
 YXLK    EP   0    02156.447                                           76.1  10 
 YXLK    ES   0    022 6.439                                           76.1  10 
 ZSCP    EP   0    02156.083                                           76.1  55 
 ZSCP    ES   0    022 6.459                                           76.1  55 
 EVSP    EP   0    02158.219                                            101 299 
 EVSP    ES   0    02213.681                                            101 299 
 RVDG    EP   0    02156.607                                           86.8  45 
 RVDG    ES   0    022 8.720                                           86.8  45 
 SRWZ    EP   0    02148.174                                           26.2 325 
 SRWZ    ES   0    02151.526                                           26.2 325 
 TVCN    EP   0    02149.034                                           45.4 359 
 TVCN    ES   0    02156.550                                           45.4 359 
                                                                                

 2020  1 1  023 20.0 L  35.791  51.973  5.0       7 0.0 3.5l                   1
 Action:ARG 22-06-16 14:21 OP:OBSP STATUS:               ID:20200101002320     I
 STAT SP IPHASW D HRMM SECON CODA AMPLIT PERI AZIMU VELO AIN AR TRES W  DIS CAZ7
 YAIP    EP   0    02352.884                                            182  48 
 YAIP    ES   0    02416.972                                            182  48 
 EVSP    EP   0    02337.779                                           87.9 309 
 EVSP    ES   0    02351.602                                           87.9 309 
 YXLK    EP   0    02335.890                                           88.1  22 
 YXLK    ES   0    02351.639                                           88.1  22 
 ZGXN    EP   0    02350.523                                            173  74 
 ZGXN    ES   0    02413.539                                            173  74 
 YIBA    EP   0    02340.130                                            102   4 
 YIBA    ES   0    02355.949                                            102   4 
 RVDG    EP   0    02342.038                                            106  50 
 RVDG    ES   0    02355.053                                            106  50 
 TVCN    EP   0    02332.119                                           55.6  21 
 TVCN    ES   0    02338.319                                           55.6  21 
                                                                                

