 2020  1 1  2 0  0.0 L  36.168  52.194  5.4       8 0.0 4.0l                   1
 Action:ARG 22-06-16 14:21 OP:OBSP STATUS:               ID:20200101020000     I
 STAT SP IPHASW D HRMM SECON CODA AMPLIT PERI AZIMU VELO AIN AR TRES W  DIS CAZ7
 XIVZ    EP   0    2 016.309                                           88.2 350 
 XIVZ    ES   0    2 030.786                                           88.2 350 
 ZSCP    EP   0    2 011.318                                           64.0  83 
 ZSCP    ES   0    2 022.952                                           64.0  83 
 YAIP    EP   0    2 023.683                                            141  56 
 YAIP    ES   0    2 045.050                                            141  56 
 YIBA    EP   0    2 012.221                                           61.8 349 
 YIBA    ES   0    2 022.415                                           61.8 349 
 RVDG    EP   0    2 013.660                                           67.6  68 
 RVDG    ES   0    2 023.977                                           67.6  68 
 EVSP    EP   0    2 017.045                                           89.2 278 
 EVSP    ES   0    2 030.578                                           89.2 278 
 TVCN    EP   0    2 0 0.159                                           9.84   3 
 TVCN    ES   0    2 0 2.917                                           9.84   3 
 YXLK    EP   0    2 0 7.902                                           41.8  20 
 YXLK    ES   0    2 016.960                                           41.8  20 
                                                                                

 2020  1 1  2 1 40.0 L  36.031  52.118  5.7       4 0.0 2.0l                   1
 Action:ARG 22-06-16 14:21 OP:OBSP STATUS:               ID:20200101020140     I
 STAT SP IPHASW D HRMM SECON CODA AMPLIT PERI AZIMU VELO AIN AR TRES W  DIS CAZ7
 TVCN    EP   0    2 144.654                                           26.1  16 
 TVCN    ES   0    2 149.510                                           26.1  16 
 EVSP    EP   0    2 157.193                                           86.3 289 
 EVSP    ES   0    2 2 8.746                                           86.3 289 
 ZGXN    EP   0    2 2 5.765                                            155  82 
 ZGXN    ES   0    2 227.392                                            155  82 
 SRWZ    EP   0    2 141.733                                           7.58 278 
 SRWZ    ES   0    2 142.624                                           7.58 278 
                                                                                

 2020  1 1  2 3 20.0 L  36.138  52.017 15.6       7 0.0 3.5l                   1
 Action:ARG 22-06-16 14:21 OP:OBSP STATUS:               ID:20200101020320     I
 STAT SP IPHASW D HRMM SECON CODA AMPLIT PERI AZIMU VELO AIN AR TRES W  DIS CAZ7
 YIBA    EP   0    2 331.839                                           64.2   4 
 YIBA    ES   0    2 341.852                                           64.2   4 
 XIVZ    EP   0    2 336.477                                           90.2   0 
 XIVZ    ES   0    2 349.933                                           90.2   0 
 SRWZ    EP   0    2 324.338                                           10.9 171 
 SRWZ    ES   0    2 327.050                                           10.9 171 
 YAIP    EP   0    2 347.010                                            156  58 
 YAIP    ES   0    2 4 6.971                                            156  58 
 TVCN    EP   0    2 324.555                                           21.0  51 
 TVCN    ES   0    2 329.908                                           21.0  51 
 YXLK    EP   0    2 329.665                                           52.3  35 
 YXLK    ES   0    2 338.330                                           52.3  35 
 EVSP    EP   0    2 335.931                                           74.2 283 
 EVSP    ES   0    2 343.495                                           74.2 283 
                                                                                

 2020  1 1  2 5  0.0 L  36.153  52.052 19.7       4 0.0 2.0l                   1
 Action:ARG 22-06-16 14:21 OP:OBSP STATUS:               ID:20200101020500     I
 STAT SP IPHASW D HRMM SECON CODA AMPLIT PERI AZIMU VELO AIN AR TRES W  DIS CAZ7
 ZGXN    EP   0    2 528.728                                            160  87 
 ZGXN    ES   0    2 545.739                                            160  87 
 YIBA    EP   0    2 511.613                                           62.5   1 
 YIBA    ES   0    2 522.317                                           62.5   1 
 YAIP    EP   0    2 523.865                                            153  58 
 YAIP    ES   0    2 546.201                                            153  58 
 XIVZ    EP   0    2 515.735                                           88.6 358 
 XIVZ    ES   0    2 529.257                                           88.6 358 
                                                                                

 2020  1 1  2 6 40.0 L  35.456  51.931 13.9      10 0.0 5.0l                   1
 Action:ARG 22-06-16 14:21 OP:OBSP STATUS:               ID:20200101020640     I
 STAT SP IPHASW D HRMM SECON CODA AMPLIT PERI AZIMU VELO AIN AR TRES W  DIS CAZ7
 TVCN    EP   0    2 658.325                                           92.1  15 
 TVCN    ES   0    2 710.329                                           92.1  15 
 RVDG    EP   0    2 7 4.715                                            135  39 
 RVDG    ES   0    2 722.483                                            135  39 
 SRWZ    EP   0    2 651.094                                           65.6   8 
 SRWZ    ES   0    2 7 2.938                                           65.6   8 
 ZSCP    EP   0    2 7 1.356                                            122  45 
 ZSCP    ES   0    2 720.062                                            122  45 
 ZGXN    EP   0    2 712.084                                            190  64 
 ZGXN    ES   0    2 736.427                                            190  64 
 YAIP    EP   0    2 716.568                                            211  41 
 YAIP    ES   0    2 741.539                                            211  41 
 YXLK    EP   0    2 7 0.964                                            124  17 
 YXLK    ES   0    2 719.592                                            124  17 
 EVSP    EP   0    2 7 2.129                                            112 325 
 EVSP    ES   0    2 717.810                                            112 325 
 YIBA    EP   0    2 7 3.974                                            140   5 
 YIBA    ES   0    2 725.770                                            140   5 
 XIVZ    EP   0    2 7 9.124                                            166   2 
 XIVZ    ES   0    2 730.981                                            166   2 
                                                                                

 2020  1 1  2 8 20.0 L  36.489  52.232 10.9       8 0.0 4.0l                   1
 Action:ARG 22-06-16 14:21 OP:OBSP STATUS:               ID:20200101020820     I
 STAT SP IPHASW D HRMM SECON CODA AMPLIT PERI AZIMU VELO AIN AR TRES W  DIS CAZ7
 SRWZ    EP   0    2 830.091                                           52.8 199 
 SRWZ    ES   0    2 840.543                                           52.8 199 
 RVDG    EP   0    2 831.673                                           60.3 100 
 RVDG    ES   0    2 841.185                                           60.3 100 
 YXLK    EP   0    2 823.641                                           11.7  72 
 YXLK    ES   0    2 825.062                                           11.7  72 
 EVSP    EP   0    2 838.274                                           94.1 256 
 EVSP    ES   0    2 851.493                                           94.1 256 
 ZSCP    EP   0    2 832.525                                           66.5 115 
 ZSCP    ES   0    2 842.062                                           66.5 115 
 TVCN    EP   0    2 823.529                                           26.0 186 
 TVCN    ES   0    2 828.283                                           26.0 186 
 YIBA    EP   0    2 826.270                                           29.1 329 
 YIBA    ES   0    2 830.145                                           29.1 329 
 YAIP    EP   0    2 842.109                                            122  69 
 YAIP    ES   0    2 859.402                                            122  69 
                                                                                

 2020  1 1  210  0.0 L  35.978  52.099  7.6       7 0.0 3.5l                   1
 Action:ARG 22-06-16 14:21 OP:OBSP STATUS:               ID:20200101021000     I
 STAT SP IPHASW D HRMM SECON CODA AMPLIT PERI AZIMU VELO AIN AR TRES W  DIS CAZ7
 ZGXN    EP   0    21031.951                                            157  80 
 ZGXN    ES   0    21048.002                                            157  80 
 YXLK    EP   0    21013.228                                           64.6  20 
 YXLK    ES   0    21024.251                                           64.6  20 
 XIVZ    EP   0    21020.759                                            108 356 
 XIVZ    ES   0    21036.335                                            108 356 
 YIBA    EP   0    21015.983                                           81.9 358 
 YIBA    ES   0    21030.462                                           81.9 358 
 ZSCP    EP   0    21013.753                                           77.5  68 
 ZSCP    ES   0    21027.205                                           77.5  68 
 EVSP    EP   0    21018.498                                           86.8 293 
 EVSP    ES   0    21033.426                                           86.8 293 
 SRWZ    EP   0    210 1.774                                           9.06 320 
 SRWZ    ES   0    210 4.884                                           9.06 320 
                                                                                

 2020  1 1  211 40.0 L  35.973  51.969 12.5       6 0.0 3.0l                   1
 Action:ARG 22-06-16 14:21 OP:OBSP STATUS:               ID:20200101021140     I
 STAT SP IPHASW D HRMM SECON CODA AMPLIT PERI AZIMU VELO AIN AR TRES W  DIS CAZ7
 YIBA    EP   0    21155.004                                           82.8   6 
 YIBA    ES   0    212 6.574                                           82.8   6 
 YAIP    EP   0    212 8.127                                            170  54 
 YAIP    ES   0    21232.179                                            170  54 
 XIVZ    EP   0    212 1.223                                            108   2 
 XIVZ    ES   0    21214.868                                            108   2 
 ZGXN    EP   0    212 9.315                                            169  81 
 ZGXN    ES   0    21231.043                                            169  81 
 YXLK    EP   0    21155.281                                           70.0  29 
 YXLK    ES   0    212 3.516                                           70.0  29 
 ZSCP    EP   0    21156.608                                           88.6  70 
 ZSCP    ES   0    21210.724                                           88.6  70 
                                                                                

 2020  1 1  213 20.0 L  35.749  52.004 19.7       5 0.0 2.5l                   1
 Action:ARG 22-06-16 14:21 OP:OBSP STATUS:               ID:20200101021320     I
 STAT SP IPHASW D HRMM SECON CODA AMPLIT PERI AZIMU VELO AIN AR TRES W  DIS CAZ7
 SRWZ    EP   0    21327.113                                           32.5   4 
 SRWZ    ES   0    21331.632                                           32.5   4 
 ZGXN    EP   0    21349.037                                            172  72 
 ZGXN    ES   0    21410.519                                            172  72 
 EVSP    EP   0    21338.443                                           93.1 310 
 EVSP    ES   0    21351.130                                           93.1 310 
 YIBA    EP   0    21339.187                                            107   3 
 YIBA    ES   0    21353.194                                            107   3 
 RVDG    EP   0    21337.774                                            107  48 
 RVDG    ES   0    21353.938                                            107  48 
                                                                                

 2020  1 1  215  0.0 L  35.777  51.884 16.6       7 0.0 3.5l                   1
 Action:ARG 22-06-16 14:21 OP:OBSP STATUS:               ID:20200101021500     I
 STAT SP IPHASW D HRMM SECON CODA AMPLIT PERI AZIMU VELO AIN AR TRES W  DIS CAZ7
 RVDG    EP   0    21519.627                                            113  52 
 RVDG    ES   0    21536.804                                            113  52 
 XIVZ    EP   0    21524.762                                            130   5 
 XIVZ    ES   0    21537.708                                            130   5 
 TVCN    EP   0    21514.225                                           60.3  28 
 TVCN    ES   0    21520.151                                           60.3  28 
 EVSP    EP   0    21516.563                                           82.9 313 
 EVSP    ES   0    21528.014                                           82.9 313 
 SRWZ    EP   0    215 8.357                                           32.3  24 
 SRWZ    ES   0    21512.074                                           32.3  24 
 YAIP    EP   0    21532.594                                            189  50 
 YAIP    ES   0    21556.639                                            189  50 
 YXLK    EP   0    21518.130                                           92.9  27 
 YXLK    ES   0    21530.278                                           92.9  27 
                                                                                

 2020  1 1  216 40.0 L  35.934  52.056 13.1      10 0.0 5.0l                   1
 Action:ARG 22-06-16 14:21 OP:OBSP STATUS:               ID:20200101021640     I
 STAT SP IPHASW D HRMM SECON CODA AMPLIT PERI AZIMU VELO AIN AR TRES W  DIS CAZ7
 ZGXN    EP   0    217 7.823                                            162  79 
 ZGXN    ES   0    21730.000                                            162  79 
 XIVZ    EP   0    217 0.571                                            112 358 
 XIVZ    ES   0    21716.816                                            112 358 
 RVDG    EP   0    21658.495                                           90.9  55 
 RVDG    ES   0    21711.049                                           90.9  55 
 YXLK    EP   0    21653.616                                           70.6  22 
 YXLK    ES   0    217 5.772                                           70.6  22 
 ZSCP    EP   0    21659.253                                           83.0  66 
 ZSCP    ES   0    217 7.416                                           83.0  66 
 YIBA    EP   0    21656.902                                           86.8   0 
 YIBA    ES   0    217 8.421                                           86.8   0 
 YAIP    EP   0    217 7.100                                            166  51 
 YAIP    ES   0    21731.641                                            166  51 
 SRWZ    EP   0    21643.804                                           12.0 351 
 SRWZ    ES   0    21648.183                                           12.0 351 
 TVCN    EP   0    21648.058                                           38.1  19 
 TVCN    ES   0    21655.136                                           38.1  19 
 EVSP    EP   0    21654.149                                           85.4 297 
 EVSP    ES   0    217 8.019                                           85.4 297 
                                                                                

 2020  1 1  218 20.0 L  35.961  52.111 17.9       5 0.0 2.5l                   1
 Action:ARG 22-06-16 14:21 OP:OBSP STATUS:               ID:20200101021820     I
 STAT SP IPHASW D HRMM SECON CODA AMPLIT PERI AZIMU VELO AIN AR TRES W  DIS CAZ7
 SRWZ    EP   0    21824.448                                           11.2 322 
 SRWZ    ES   0    21825.663                                           11.2 322 
 XIVZ    EP   0    21841.109                                            110 355 
 XIVZ    ES   0    21856.639                                            110 355 
 YAIP    EP   0    21846.182                                            161  51 
 YAIP    ES   0    219 8.468                                            161  51 
 RVDG    EP   0    21836.829                                           85.1  55 
 RVDG    ES   0    21848.742                                           85.1  55 
 YIBA    EP   0    21836.203                                           83.8 357 
 YIBA    ES   0    21847.437                                           83.8 357 
                                                                                

 2020  1 1  220  0.0 L  36.048  52.221  8.5      10 0.0 5.0l                   1
 Action:ARG 22-06-16 14:21 OP:OBSP STATUS:               ID:20200101022000     I
 STAT SP IPHASW D HRMM SECON CODA AMPLIT PERI AZIMU VELO AIN AR TRES W  DIS CAZ7
 SRWZ    EP   0    220 6.295                                           16.7 267 
 SRWZ    ES   0    220 8.206                                           16.7 267 
 YIBA    EP   0    22014.260                                           75.4 349 
 YIBA    ES   0    22026.837                                           75.4 349 
 EVSP    EP   0    22017.849                                           94.5 286 
 EVSP    ES   0    22032.083                                           94.5 286 
 YXLK    EP   0    22011.432                                           53.9  13 
 YXLK    ES   0    22017.863                                           53.9  13 
 ZSCP    EP   0    22014.716                                           64.5  71 
 ZSCP    ES   0    22022.022                                           64.5  71 
 ZGXN    EP   0    22026.500                                            145  83 
 ZGXN    ES   0    22045.796                                            145  83 
 XIVZ    EP   0    22022.250                                            101 350 
 XIVZ    ES   0    22034.944                                            101 350 
 YAIP    EP   0    22025.458                                            147  51 
 YAIP    ES   0    22046.449                                            147  51 
 TVCN    EP   0    220 4.930                                           23.2 355 
 TVCN    ES   0    220 7.744                                           23.2 355 
 RVDG    EP   0    22015.139                                           71.5  57 
 RVDG    ES   0    22024.287                                           71.5  57 
                                                                                

