 2020  1 1  136 40.0 L  35.707  52.078  8.6       3 0.0 1.5l                   1
 Action:ARG 22-06-16 14:21 OP:OBSP STATUS:               ID:20200101013640     I
 STAT SP IPHASW D HRMM SECON CODA AMPLIT PERI AZIMU VELO AIN AR TRES W  DIS CAZ7
 ZGXN    EP   0    137 6.583                                            167  70 
 ZGXN    ES   0    13731.056                                            167  70 
 ZSCP    EP   0    13657.767                                           94.3  51 
 ZSCP    ES   0    13714.902                                           94.3  51 
 YXLK    EP   0    13657.000                                           93.8  15 
 YXLK    ES   0    13710.573                                           93.8  15 
                                                                                

 2020  1 1  138 20.0 L  35.639  51.991 17.0       6 0.0 3.0l                   1
 Action:ARG 22-06-16 14:21 OP:OBSP STATUS:               ID:20200101013820     I
 STAT SP IPHASW D HRMM SECON CODA AMPLIT PERI AZIMU VELO AIN AR TRES W  DIS CAZ7
 YXLK    EP   0    13838.500                                            103  18 
 YXLK    ES   0    13853.904                                            103  18 
 TVCN    EP   0    13835.757                                           71.1  15 
 TVCN    ES   0    13842.488                                           71.1  15 
 ZSCP    EP   0    13839.617                                            105  51 
 ZSCP    ES   0    13852.741                                            105  51 
 YIBA    EP   0    13841.738                                            119   3 
 YIBA    ES   0    13857.133                                            119   3 
 XIVZ    EP   0    13844.102                                            145   1 
 XIVZ    ES   0    139 4.220                                            145   1 
 ZGXN    EP   0    13850.984                                            177  69 
 ZGXN    ES   0    13912.795                                            177  69 
                                                                                

 2020  1 1  140  0.0 L  36.091  52.251 11.2       6 0.0 3.0l                   1
 Action:ARG 22-06-16 14:21 OP:OBSP STATUS:               ID:20200101014000     I
 STAT SP IPHASW D HRMM SECON CODA AMPLIT PERI AZIMU VELO AIN AR TRES W  DIS CAZ7
 YIBA    EP   0    14014.012                                           71.2 346 
 YIBA    ES   0    14024.501                                           71.2 346 
 SRWZ    EP   0    140 5.186                                           20.2 253 
 SRWZ    ES   0    140 7.410                                           20.2 253 
 ZSCP    EP   0    14012.540                                           60.5  75 
 ZSCP    ES   0    14020.031                                           60.5  75 
 TVCN    EP   0    140 4.602                                           18.8 346 
 TVCN    ES   0    140 6.242                                           18.8 346 
 EVSP    EP   0    14017.615                                           95.8 283 
 EVSP    ES   0    14033.475                                           95.8 283 
 XIVZ    EP   0    14020.755                                           97.5 348 
 XIVZ    ES   0    14032.290                                           97.5 348 
                                                                                

 2020  1 1  141 40.0 L  35.827  51.994  7.6       7 0.0 3.5l                   1
 Action:ARG 22-06-16 14:21 OP:OBSP STATUS:               ID:20200101014140     I
 STAT SP IPHASW D HRMM SECON CODA AMPLIT PERI AZIMU VELO AIN AR TRES W  DIS CAZ7
 YAIP    EP   0    14211.454                                            178  49 
 YAIP    ES   0    14234.498                                            178  49 
 EVSP    EP   0    14157.668                                           87.1 306 
 EVSP    ES   0    14210.036                                           87.1 306 
 TVCN    EP   0    14150.986                                           51.2  21 
 TVCN    ES   0    14158.139                                           51.2  21 
 YIBA    EP   0    142 0.679                                           98.9   3 
 YIBA    ES   0    14214.214                                           98.9   3 
 YXLK    EP   0    14157.485                                           83.7  22 
 YXLK    ES   0    142 8.537                                           83.7  22 
 ZGXN    EP   0    142 9.874                                            170  75 
 ZGXN    ES   0    14231.895                                            170  75 
 XIVZ    EP   0    142 1.967                                            124   1 
 XIVZ    ES   0    14219.399                                            124   1 
                                                                                

 2020  1 1  143 20.0 L  36.440  52.285 13.2      10 0.0 5.0l                   1
 Action:ARG 22-06-16 14:21 OP:OBSP STATUS:               ID:20200101014320     I
 STAT SP IPHASW D HRMM SECON CODA AMPLIT PERI AZIMU VELO AIN AR TRES W  DIS CAZ7
 EVSP    EP   0    14338.264                                           97.6 260 
 EVSP    ES   0    14352.653                                           97.6 260 
 XIVZ    EP   0    14329.659                                           61.3 337 
 XIVZ    ES   0    14342.148                                           61.3 337 
 YXLK    EP   0    14323.431                                           11.1  35 
 YXLK    ES   0    14326.202                                           11.1  35 
 RVDG    EP   0    14330.660                                           54.9  95 
 RVDG    ES   0    14339.416                                           54.9  95 
 TVCN    EP   0    14325.230                                           21.7 200 
 TVCN    ES   0    14329.173                                           21.7 200 
 ZGXN    EP   0    14345.161                                            141 100 
 ZGXN    ES   0    144 3.224                                            141 100 
 YAIP    EP   0    14339.995                                            119  66 
 YAIP    ES   0    14359.356                                            119  66 
 SRWZ    EP   0    14329.992                                           49.6 206 
 SRWZ    ES   0    14335.814                                           49.6 206 
 ZSCP    EP   0    14331.229                                           60.0 112 
 ZSCP    ES   0    14341.399                                           60.0 112 
 YIBA    EP   0    14326.394                                           36.2 327 
 YIBA    ES   0    14334.772                                           36.2 327 
                                                                                

 2020  1 1  145  0.0 L  36.276  51.585 15.5       5 0.0 2.5l                   1
 Action:ARG 22-06-16 14:21 OP:OBSP STATUS:               ID:20200101014500     I
 STAT SP IPHASW D HRMM SECON CODA AMPLIT PERI AZIMU VELO AIN AR TRES W  DIS CAZ7
 YIBA    EP   0    14512.263                                           65.3  41 
 YIBA    ES   0    14523.687                                           65.3  41 
 YXLK    EP   0    14515.861                                           74.4  68 
 YXLK    ES   0    14527.573                                           74.4  68 
 SRWZ    EP   0    14510.551                                           48.2 122 
 SRWZ    ES   0    14517.339                                           48.2 122 
 EVSP    EP   0    145 8.080                                           33.3 272 
 EVSP    ES   0    14513.509                                           33.3 272 
 ZGXN    EP   0    14531.948                                            202  92 
 ZGXN    ES   0    14558.708                                            202  92 
                                                                                

 2020  1 1  146 40.0 L  36.076  52.364 15.1      10 0.0 5.0l                   1
 Action:ARG 22-06-16 14:21 OP:OBSP STATUS:               ID:20200101014640     I
 STAT SP IPHASW D HRMM SECON CODA AMPLIT PERI AZIMU VELO AIN AR TRES W  DIS CAZ7
 SRWZ    EP   0    14646.215                                           29.9 262 
 SRWZ    ES   0    14650.959                                           29.9 262 
 YAIP    EP   0    147 4.240                                            135  49 
 YAIP    ES   0    14720.969                                            135  49 
 XIVZ    EP   0    14658.883                                            101 342 
 XIVZ    ES   0    14712.709                                            101 342 
 YXLK    EP   0    14648.901                                           49.4 359 
 YXLK    ES   0    14655.752                                           49.4 359 
 ZGXN    EP   0    147 3.951                                            132  84 
 ZGXN    ES   0    14721.554                                            132  84 
 ZSCP    EP   0    14650.299                                           51.3  70 
 ZSCP    ES   0    14658.233                                           51.3  70 
 RVDG    EP   0    14654.072                                           59.1  53 
 RVDG    ES   0    147 1.359                                           59.1  53 
 EVSP    EP   0    14659.039                                            106 283 
 EVSP    ES   0    14713.837                                            106 283 
 TVCN    EP   0    14645.912                                           24.9 323 
 TVCN    ES   0    14648.896                                           24.9 323 
 YIBA    EP   0    14653.895                                           75.8 339 
 YIBA    ES   0    147 6.220                                           75.8 339 
                                                                                

 2020  1 1  148 20.0 L  36.193  51.732 10.6      10 0.0 5.0l                   1
 Action:ARG 22-06-16 14:21 OP:OBSP STATUS:               ID:20200101014820     I
 STAT SP IPHASW D HRMM SECON CODA AMPLIT PERI AZIMU VELO AIN AR TRES W  DIS CAZ7
 YIBA    EP   0    14833.104                                           65.4  27 
 YIBA    ES   0    14843.022                                           65.4  27 
 RVDG    EP   0    14838.363                                            106  77 
 RVDG    ES   0    14856.560                                            106  77 
 ZSCP    EP   0    14840.516                                            105  87 
 ZSCP    ES   0    14854.659                                            105  87 
 TVCN    EP   0    14826.739                                           42.7  80 
 TVCN    ES   0    14834.190                                           42.7  80 
 EVSP    EP   0    14829.660                                           47.8 283 
 EVSP    ES   0    14838.338                                           47.8 283 
 XIVZ    EP   0    14837.403                                           88.1  17 
 XIVZ    ES   0    14850.227                                           88.1  17 
 YAIP    EP   0    14848.394                                            176  64 
 YAIP    ES   0    14913.798                                            176  64 
 SRWZ    EP   0    14826.714                                           32.1 121 
 SRWZ    ES   0    14832.540                                           32.1 121 
 YXLK    EP   0    14832.232                                           66.8  56 
 YXLK    ES   0    14843.809                                           66.8  56 
 ZGXN    EP   0    14852.235                                            188  89 
 ZGXN    ES   0    14914.928                                            188  89 
                                                                                

 2020  1 1  150  0.0 L  35.865  51.960 11.6       9 0.0 4.5l                   1
 Action:ARG 22-06-16 14:21 OP:OBSP STATUS:               ID:20200101015000     I
 STAT SP IPHASW D HRMM SECON CODA AMPLIT PERI AZIMU VELO AIN AR TRES W  DIS CAZ7
 YAIP    EP   0    15031.107                                            178  51 
 YAIP    ES   0    15052.626                                            178  51 
 TVCN    EP   0    15010.212                                           48.6  26 
 TVCN    ES   0    15019.372                                           48.6  26 
 YXLK    EP   0    15015.278                                           81.1  25 
 YXLK    ES   0    15028.010                                           81.1  25 
 SRWZ    EP   0    150 3.285                                           20.7  19 
 SRWZ    ES   0    150 8.665                                           20.7  19 
 RVDG    EP   0    15019.403                                            102  54 
 RVDG    ES   0    15034.590                                            102  54 
 XIVZ    EP   0    15022.066                                            120   2 
 XIVZ    ES   0    15038.159                                            120   2 
 ZGXN    EP   0    15029.547                                            172  77 
 ZGXN    ES   0    15051.586                                            172  77 
 EVSP    EP   0    15015.739                                           82.0 305 
 EVSP    ES   0    15027.273                                           82.0 305 
 YIBA    EP   0    15017.454                                           94.9   5 
 YIBA    ES   0    15030.815                                           94.9   5 
                                                                                

 2020  1 1  151 40.0 L  36.123  51.725 12.6       4 0.0 2.0l                   1
 Action:ARG 22-06-16 14:21 OP:OBSP STATUS:               ID:20200101015140     I
 STAT SP IPHASW D HRMM SECON CODA AMPLIT PERI AZIMU VELO AIN AR TRES W  DIS CAZ7
 YAIP    EP   0    15210.073                                            180  62 
 YAIP    ES   0    15234.152                                            180  62 
 RVDG    EP   0    152 1.139                                            109  73 
 RVDG    ES   0    15214.568                                            109  73 
 YXLK    EP   0    15154.142                                           71.9  51 
 YXLK    ES   0    152 2.611                                           71.9  51 
 XIVZ    EP   0    15157.173                                           95.7  16 
 XIVZ    ES   0    15212.062                                           95.7  16 
                                                                                

 2020  1 1  153 20.0 L  35.861  52.177 16.7       4 0.0 2.0l                   1
 Action:ARG 22-06-16 14:21 OP:OBSP STATUS:               ID:20200101015320     I
 STAT SP IPHASW D HRMM SECON CODA AMPLIT PERI AZIMU VELO AIN AR TRES W  DIS CAZ7
 YIBA    EP   0    15337.695                                           95.4 354 
 YIBA    ES   0    15352.556                                           95.4 354 
 RVDG    EP   0    15335.788                                           87.3  47 
 RVDG    ES   0    15349.105                                           87.3  47 
 SRWZ    EP   0    15326.814                                           23.8 327 
 SRWZ    ES   0    15329.073                                           23.8 327 
 YXLK    EP   0    15334.134                                           75.0  12 
 YXLK    ES   0    15344.759                                           75.0  12 
                                                                                

 2020  1 1  155  0.0 L  35.744  52.116 12.8      10 0.0 5.0l                   1
 Action:ARG 22-06-16 14:21 OP:OBSP STATUS:               ID:20200101015500     I
 STAT SP IPHASW D HRMM SECON CODA AMPLIT PERI AZIMU VELO AIN AR TRES W  DIS CAZ7
 XIVZ    EP   0    15522.360                                            134 356 
 XIVZ    ES   0    15541.409                                            134 356 
 YIBA    EP   0    15520.180                                            107 357 
 YIBA    ES   0    15534.929                                            107 357 
 YXLK    EP   0    15517.123                                           88.9  13 
 YXLK    ES   0    15529.585                                           88.9  13 
 SRWZ    EP   0    155 6.952                                           33.7 347 
 SRWZ    ES   0    15512.961                                           33.7 347 
 RVDG    EP   0    15518.490                                            100  44 
 RVDG    ES   0    15532.863                                            100  44 
 EVSP    EP   0    15519.602                                            101 306 
 EVSP    ES   0    15534.685                                            101 306 
 YAIP    EP   0    15529.170                                            176  44 
 YAIP    ES   0    15553.541                                            176  44 
 TVCN    EP   0    155 9.995                                           57.3   7 
 TVCN    ES   0    15519.950                                           57.3   7 
 ZGXN    EP   0    15530.270                                            162  71 
 ZGXN    ES   0    15547.685                                            162  71 
 ZSCP    EP   0    15516.005                                           89.0  52 
 ZSCP    ES   0    15529.345                                           89.0  52 
                                                                                

 2020  1 1  156 40.0 L  36.010  52.179 10.9       3 0.0 1.5l                   1
 Action:ARG 22-06-16 14:21 OP:OBSP STATUS:               ID:20200101015640     I
 STAT SP IPHASW D HRMM SECON CODA AMPLIT PERI AZIMU VELO AIN AR TRES W  DIS CAZ7
 YIBA    EP   0    15654.824                                           78.9 352 
 YIBA    ES   0    157 6.630                                           78.9 352 
 EVSP    EP   0    15659.402                                           92.2 289 
 EVSP    ES   0    15710.410                                           92.2 289 
 TVCN    EP   0    15646.672                                           27.4   3 
 TVCN    ES   0    15649.703                                           27.4   3 
                                                                                

 2020  1 1  158 20.0 L  35.977  51.958 12.3       4 0.0 2.0l                   1
 Action:ARG 22-06-16 14:21 OP:OBSP STATUS:               ID:20200101015820     I
 STAT SP IPHASW D HRMM SECON CODA AMPLIT PERI AZIMU VELO AIN AR TRES W  DIS CAZ7
 YAIP    EP   0    15849.200                                            171  54 
 YAIP    ES   0    15911.892                                            171  54 
 SRWZ    EP   0    15823.842                                           9.89  44 
 SRWZ    ES   0    15824.250                                           9.89  44 
 XIVZ    EP   0    15840.481                                            108   3 
 XIVZ    ES   0    15856.754                                            108   3 
 YIBA    EP   0    15836.367                                           82.5   6 
 YIBA    ES   0    15847.521                                           82.5   6 
                                                                                

