 2021  4 4 0837 48.6 L  28.947  50.934 15.9  SLT 12 0.1                        1
 GAP=145        0.23       0.9     0.9  0.8 -0.2538E+00 -0.1841E+00  0.9562E-01E
 STAT SP IPHASW D HRMN SECON CODA AMPLIT PERI AZIMU VELO AIN AR TRES W  DIS CAZ7
 P2       P   0 ? 0837 51.80                             173   -0.0210 1.70 1404
 P2       S   0   0837 54.28                             173   -0.1210 1.70 1404
 P1       P   0 ? 0837 51.92                             167    0.0710 3.05 2304
 P1       S   0   0837 54.49                             167    0.0310 3.05 2304
 P3       P   0 ? 0837 52.01                             163    0.1110 4.12  874
 P3       S   0   0837 54.59                             163    0.0410 4.12  874
 N9       P   0 ? 0837 52.16                             149    0.0210 7.71 2224
 N15      P   0 ? 0837 52.17                             147   -0.0210 8.28 2474
 N15      S   0   0837 55.16                             147    0.0810 8.28 2474
 N18      P   0 ? 0837 52.39                             141    0.0310 10.0 2614
 N18      S   0   0837 55.29                             141   -0.0810 10.0 2614
 CAMP     P   0 ? 0837 52.59                             135    0.0010 12.2 1924
 CAMP     S   0   0837 55.77                             135   -0.0210 12.2 1924
 N5       P   0 ? 0837 52.57                             134   -0.0510 12.4 2034
 N2       P   0 ? 0837 52.63                             133   -0.0210 12.8 1984
 N3       P   0 ? 0837 52.75                             132    0.0110 13.4 2054
 JNAK     P   0 ? 0837 53.95                             115    0.0110 22.3 1424
 ABTL     P   0 ? 0837 54.24                             112   -0.0610 24.7  464
                                                                                
 2021  4 4 0838 38.7 L  28.929  50.921 10.6  SLT 13 0.1                        1
 GAP=139        0.23       0.6     0.6  0.8 -0.6099E-01 -0.8269E-03  0.1212E+00E
 STAT SP IPHASW D HRMN SECON CODA AMPLIT PERI AZIMU VELO AIN AR TRES W  DIS CAZ7
 P1       P   0 ? 0838 41.02                             173    0.0510 1.04 2684
 P1       S   0   0838 42.74                             173   -0.1010 1.04 2684
 P2       P   0 ? 0838 41.15                             164    0.1310 2.46  754
 P2       S   0   0838 43.02                             164    0.0910 2.46  754
 N9       P   0 ? 0838 41.27                             146    0.0310 5.43 2254
 N9       S   0   0838 43.25                             146   -0.0810 5.43 2254
 N19      P   0 ? 0838 41.30                             145    0.0310 5.64 2894
 N19      S   0   0838 43.33                             145   -0.0510 5.64 2894
 P3       P   0 ? 0838 41.27                             144   -0.0110 5.82  684
 P3       S   0   0838 43.32                             144   -0.0810 5.82  684
 N15      P   0 ? 0838 41.36                             141    0.0110 6.45 2584
 N15      S   0   0838 43.53                             141    0.0010 6.45 2584
 N6       P   0 ? 0838 41.53                             136    0.0610 7.47 2204
 N6       S   0   0838 43.80                             136    0.0610 7.47 2204
 N18      P   0 ? 0838 41.56                             131   -0.0510 8.65 2734
 N18      S   0   0838 44.07                             131    0.0710 8.65 2734
 N11      P   0 ? 0838 41.71                             128   -0.0310 9.59 2524
 CAMP     P   0 ? 0838 41.83                             126    0.0210 10.1 1874
 CAMP     S   0   0838 44.39                             126    0.0410 10.1 1874
 N5       P   0 ? 0838 41.79                             125   -0.0310 10.2 2004
 N5       S   0   0838 44.41                             125    0.0310 10.2 2004
 N2       P   0 ? 0838 41.76                             124   -0.1110 10.6 1954
 N3       P   0 ? 0838 41.90                             122   -0.0610 11.2 2044
                                                                                
 2021  4 4 0839 54.3 L  28.923  50.921 10.4  SLT 11 0.1                        1
 GAP=126        0.26       0.7     0.6  0.9 -0.8829E-01  0.1930E-01  0.9572E-01E
 STAT SP IPHASW D HRMN SECON CODA AMPLIT PERI AZIMU VELO AIN AR TRES W  DIS CAZ7
 P1       P   0 ? 0839 56.64                             172    0.0610 1.24 3004
 P1       S   0   0839 58.59                             172    0.1710 1.24 3004
 P2       P   0 ? 0839 56.63                             162   -0.0110 2.66  614
 P2       S   0   0839 58.59                             162    0.0610 2.66  614
 N9       P   0 ? 0839 56.84                             148    0.0310 5.02 2314
 N9       S   0   0839 58.80                             148   -0.0510 5.02 2314
 N19      P   0 ? 0839 56.86                             143   -0.0510 5.92 2954
 N19      S   0   0839 58.89                             143   -0.1310 5.92 2954
 P3       P   0 ? 0839 56.88                             142   -0.0410 6.06  624
 P3       S   0   0839 58.94                             142   -0.0910 6.06  624
 N15      P   0 ? 0839 56.98                             141    0.0310 6.38 2644
 N15      S   0   0839 59.08                             141   -0.0210 6.38 2644
 N6       P   0 ? 0839 57.00                             138   -0.0310 7.01 2244
 N6       S   0   0839 59.04                             138   -0.2010 7.01 2244
 N14      P   0 ? 0839 57.27                             132    0.0810 8.31 2674
 N14      S   0   0839 59.56                             132    0.0410 8.31 2674
 N18      P   0 ? 0839 57.20                             130   -0.0410 8.75 2774
 N18      S   0   0839 59.66                             130    0.0410 8.75 2774
 CAMP     P   0 ? 0839 57.32                             127   -0.0110 9.44 1884
 CAMP     S   0   0839 59.86                             127    0.0710 9.44 1884
 N11      P   0 ? 0839 57.38                             127    0.0410 9.45 2564
 N11      S   0   0839 59.84                             127    0.0410 9.45 2564
                                                                                
 2021  4 4 0841 45.8 L  28.928  50.927 12.1  SLT 15 0.1                        1
 GAP=131        0.24       0.5     0.7  0.8 -0.1384E-01 -0.1699E+00  0.3111E-01E
 STAT SP IPHASW D HRMN SECON CODA AMPLIT PERI AZIMU VELO AIN AR TRES W  DIS CAZ7
 P1       P   0 ? 0841 48.32                             170   -0.0010 1.70 2734
 P1       S   0   0841 50.40                             170   -0.0010 1.70 2734
 P2       P   0 ? 0841 48.38                             169    0.0510 1.87  664
 P2       S   0   0841 50.33                             169   -0.0810 1.87  664
 N9       P   0 ? 0841 48.58                             147    0.0110 5.84 2314
 N9       S   0   0841 50.97                             147    0.1110 5.84 2314
 N19      P   0 ? 0841 48.68                             144    0.0610 6.30 2884
 N19      S   0   0841 50.98                             144    0.0410 6.30 2884
 N15      P   0 ? 0841 48.67                             141   -0.0310 7.08 2604
 N15      S   0   0841 51.13                             141    0.0510 7.08 2604
 N6       P   0 ? 0841 48.80                             137    0.0210 7.83 2254
 N6       S   0   0841 51.32                             137    0.0910 7.83 2254
 N18      P   0 ? 0841 48.83                             131   -0.1110 9.32 2734
 N18      S   0   0841 51.38                             131   -0.1510 9.32 2734
 N20      P   0 ? 0841 49.04                             129    0.0310 9.84 2954
 CAMP     P   0 ? 0841 49.09                             128    0.0510 10.1 1914
 CAMP     S   0   0841 51.74                             128    0.0410 10.1 1914
 N11      P   0 ? 0841 49.16                             127    0.1010 10.2 2544
 N11      S   0   0841 51.65                             127   -0.0810 10.2 2544
 N5       P   0 ? 0841 49.11                             127    0.0410 10.3 2044
 N5       S   0   0841 51.77                             127    0.0110 10.3 2044
 N2       P   0 ? 0841 49.15                             126    0.0410 10.6 1984
 N2       S   0   0841 51.71                             126   -0.1210 10.6 1984
 N3       P   0 ? 0841 49.17                             123   -0.0310 11.3 2074
 N1       P   0 ? 0841 49.34                             121    0.0310 12.1 1934
 N1       S   0   0841 52.07                             121   -0.1210 12.1 1934
 TOLS     P   0 ? 0841 50.34                             103   -0.0610 19.3  734
                                                                                
 2021  4 4 0843 10.8 L  28.927  50.911 10.3  SLT 13 0.1                        1
 GAP=107        0.27       0.5     0.5  0.8 -0.9581E-01 -0.1406E+00  0.9772E-01E
 STAT SP IPHASW D HRMN SECON CODA AMPLIT PERI AZIMU VELO AIN AR TRES W  DIS CAZ7
 P1       P   0 ? 0843 13.08                             178    0.0210 0.26 3294
 P1       S   0   0843 14.80                             178   -0.0910 0.26 3294
 P2       P   0 ? 0843 13.18                             157   -0.0010 3.40  754
 P2       S   0   0843 15.20                             157    0.1010 3.40  754
 N9       P   0 ? 0843 13.34                             150    0.0610 4.62 2204
 N9       S   0   0843 15.40                             150    0.1210 4.62 2204
 N19      P   0 ? 0843 13.45                             148    0.1410 4.90 2954
 N19      S   0   0843 15.29                             148   -0.0410 4.90 2954
 N15      P   0 ? 0843 13.42                             145    0.0610 5.51 2584
 N15      S   0   0843 15.50                             145    0.0710 5.51 2584
 P3       P   0 ? 0843 13.55                             139    0.0510 6.76  694
 P3       S   0   0843 15.56                             139   -0.1110 6.76  694
 N18      P   0 ? 0843 13.54                             134   -0.0810 7.77 2754
 N18      S   0   0843 15.87                             134   -0.0210 7.77 2754
 N11      P   0 ? 0843 13.73                             130   -0.0010 8.65 2524
 N11      S   0   0843 15.94                             130   -0.1610 8.65 2524
 N5       P   0 ? 0843 13.89                             126    0.0210 9.66 1954
 N5       S   0   0843 16.17                             126   -0.1810 9.66 1954
 CAMP     P   0 ? 0843 13.89                             126    0.0110 9.76 1824
 CAMP     S   0   0843 16.41                             126    0.0410 9.76 1824
 N2       P   0 ? 0843 14.00                             124    0.0710 10.1 1904
 N1       P   0 ? 0843 14.13                             119   -0.0410 11.7 1864
 N1       S   0   0843 16.92                             119    0.0310 11.7 1864
 TOLS     P   0 ? 0843 15.63                             104   -0.0410 20.8  744
 TOLS     S   0   0843 19.56                             104   -0.0410 20.8  744
                                                                                
 2021  4 4 0843 35.4 L  28.926  50.917  9.7  SLT 16 0.1                        1
 GAP=117        0.22       0.3     0.4  0.6 -0.4236E-01 -0.5057E-01  0.8983E-02E
 STAT SP IPHASW D HRMN SECON CODA AMPLIT PERI AZIMU VELO AIN AR TRES W  DIS CAZ7
 P1       P   0 ? 0843 37.61                             174    0.0910 0.82 2984
 P1       S   0   0843 39.24                             174   -0.0210 0.82 2984
 P2       P   0 ? 0843 37.57                             159   -0.0410 2.89  694
 P2       S   0   0843 39.40                             159   -0.0110 2.89  694
 N9       P   0 ? 0843 37.89                             146    0.1110 4.91 2264
 N9       S   0   0843 39.72                             146    0.0110 4.91 2264
 N19      P   0 ? 0843 37.86                             142    0.0210 5.50 2944
 N19      S   0   0843 39.85                             142    0.0210 5.50 2944
 N15      P   0 ? 0843 37.88                             139   -0.0210 6.06 2614
 N15      S   0   0843 39.90                             139   -0.0410 6.06 2614
 P3       P   0 ? 0843 38.00                             138    0.0810 6.28  664
 P3       S   0   0843 40.04                             138    0.0610 6.28  664
 N6       P   0 ? 0843 38.01                             134    0.0010 6.95 2214
 N6       S   0   0843 40.07                             134   -0.0710 6.95 2214
 N14      P   0 ? 0843 38.15                             129    0.0110 7.97 2654
 N14      S   0   0843 40.46                             129    0.0810 7.97 2654
 N18      P   0 ? 0843 38.17                             128   -0.0210 8.37 2764
 N18      S   0   0843 40.38                             128   -0.0910 8.37 2764
 N11      P   0 ? 0843 38.26                             124   -0.0510 9.16 2544
 N11      S   0   0843 40.70                             124    0.0310 9.16 2544
 N17      P   0 ? 0843 38.36                             123    0.0010 9.55 2804
 CAMP     P   0 ? 0843 38.40                             122    0.0310 9.63 1854
 CAMP     S   0   0843 40.73                             122   -0.0610 9.63 1854
 N5       P   0 ? 0843 38.44                             122    0.0610 9.68 1994
 N5       S   0   0843 40.80                             122   -0.0110 9.68 1994
 N2       P   0 ? 0843 38.53                             121    0.1010 10.1 1944
 N2       S   0   0843 40.75                             121   -0.1610 10.1 1944
 N1       P   0 ? 0843 38.70                             116    0.0310 11.6 1894
 N1       S   0   0843 41.38                             116    0.0410 11.6 1894
 ABTL     P   0 ? 0843 41.27                              98   -0.0910 27.5  454
 ABTL     S   0   0843 46.12                              98   -0.0810 27.5  454
                                                                                
 2021  4 4 0843 58.9 L  28.925  50.920 10.3  SLT 17 0.1                        1
 GAP=124        0.25       0.4     0.5  0.7  0.1146E-01  0.1012E-01  0.4678E-01E
 STAT SP IPHASW D HRMN SECON CODA AMPLIT PERI AZIMU VELO AIN AR TRES W  DIS CAZ7
 P1       P   0 ? 0844  1.23                             173    0.0910 1.07 2974
 P1       S   0   0844  3.02                             173    0.0510 1.07 2974
 P2       P   0 ? 0844  1.25                             162    0.0510 2.72  654
 P2       S   0   0844  3.17                             162    0.0810 2.72  654
 N9       P   0 ? 0844  1.48                             148    0.1010 5.00 2294
 N9       S   0   0844  3.42                             148    0.0210 5.00 2294
 N19      P   0 ? 0844  1.47                             144    0.0110 5.75 2944
 N19      S   0   0844  3.65                             144    0.1110 5.75 2944
 P3       P   0 ? 0844  1.48                             142   -0.0110 6.12  644
 P3       S   0   0844  3.40                             142   -0.2010 6.12  644
 N15      P   0 ? 0844  1.43                             141   -0.0810 6.27 2624
 N15      S   0   0844  3.60                             141   -0.0410 6.27 2624
 N6       P   0 ? 0844  1.67                             137    0.0710 7.02 2234
 N6       S   0   0844  3.71                             137   -0.0910 7.02 2234
 N10      P   0 ? 0844  1.69                             135    0.0410 7.48 2424
 N10      S   0   0844  4.02                             135    0.1310 7.48 2424
 N18      P   0 ? 0844  1.83                             130    0.0410 8.61 2764
 N18      S   0   0844  4.05                             130   -0.1010 8.61 2764
 N11      P   0 ? 0844  1.87                             127   -0.0210 9.36 2554
 N11      S   0   0844  4.22                             127   -0.1210 9.36 2554
 N20      P   0 ? 0844  1.84                             127   -0.0510 9.37 2994
 N20      S   0   0844  4.22                             127   -0.1110 9.37 2994
 CAMP     P   0 ? 0844  1.93                             126    0.0110 9.55 1874
 CAMP     S   0   0844  4.40                             126    0.0210 9.55 1874
 N5       P   0 ? 0844  1.91                             126   -0.0310 9.66 2014
 N5       S   0   0844  4.46                             126    0.0510 9.66 2014
 N17      P   0 ? 0844  2.05                             125    0.1010 9.80 2814
 N17      S   0   0844  4.47                             125    0.0310 9.80 2814
 N2       P   0 ? 0844  1.98                             124   -0.0010 10.0 1954
 N2       S   0   0844  4.39                             124   -0.1110 10.0 1954
 N13      P   0 ? 0844  1.98                             125   -0.0110 10.0 2594
 N1       P   0 ? 0844  2.21                             120   -0.0010 11.5 1904
 N1       S   0   0844  4.87                             120   -0.0410 11.5 1904
                                                                                
 2021  4 4 0844 38.5 L  28.928  50.918 10.5  SLT 17 0.1                        1
 GAP=129        0.23       0.4     0.5  0.7 -0.2039E-02  0.3568E-02  0.3906E-01E
 STAT SP IPHASW D HRMN SECON CODA AMPLIT PERI AZIMU VELO AIN AR TRES W  DIS CAZ7
 P1       P   0 ? 0844 40.79                             175    0.0010 0.78 2804
 P1       S   0   0844 42.61                             175   -0.0310 0.78 2804
 P2       P   0 ? 0844 40.83                             162   -0.0310 2.76  734
 P2       S   0   0844 42.80                             162    0.0310 2.76  734
 N9       P   0 ? 0844 41.13                             148    0.1010 5.11 2254
 N9       S   0   0844 43.07                             148   -0.0210 5.11 2254
 N19      P   0 ? 0844 41.12                             146    0.0510 5.45 2924
 N19      S   0   0844 43.14                             146   -0.0210 5.45 2924
 P3       P   0 ? 0844 41.06                             142   -0.0810 6.14  674
 P3       S   0   0844 43.27                             142   -0.0010 6.14  674
 N15      P   0 ? 0844 41.20                             142    0.0610 6.15 2594
 N15      S   0   0844 43.42                             142    0.1410 6.15 2594
 N6       P   0 ? 0844 41.25                             137   -0.0110 7.16 2204
 N6       S   0   0844 43.62                             137    0.1310 7.16 2204
 N10      P   0 ? 0844 41.32                             136    0.0310 7.49 2394
 N10      S   0   0844 43.47                             136   -0.0910 7.49 2394
 N14      P   0 ? 0844 41.26                             133   -0.1010 8.04 2634
 N18      P   0 ? 0844 41.38                             132   -0.0210 8.39 2744
 N18      S   0   0844 43.82                             132    0.0610 8.39 2744
 N20      P   0 ? 0844 41.52                             129    0.0310 9.04 2984
 N11      P   0 ? 0844 41.50                             128   -0.0210 9.28 2534
 N11      S   0   0844 43.94                             128   -0.0310 9.28 2534
 N17      P   0 ? 0844 41.56                             127    0.0010 9.56 2794
 N17      S   0   0844 43.88                             127   -0.1610 9.56 2794
 CAMP     P   0 ? 0844 41.64                             126    0.0410 9.88 1864
 CAMP     S   0   0844 43.99                             126   -0.1310 9.88 1864
 N5       P   0 ? 0844 41.62                             126    0.0110 9.92 1994
 N5       S   0   0844 44.15                             126    0.0110 9.92 1994
 N2       P   0 ? 0844 41.67                             124    0.0110 10.3 1944
 N2       S   0   0844 44.26                             124    0.0310 10.3 1944
 N1       P   0 ? 0844 41.99                             120    0.0910 11.9 1894
 N1       S   0   0844 44.56                             120   -0.0910 11.9 1894
                                                                                
