 2021  4 4 0903 59.6 L  28.928  50.918 10.9  SLT 19 0.1                        1
 GAP=129        0.26       0.5     0.5  0.6  0.4357E-02 -0.1170E+00  0.1999E-01E
 STAT SP IPHASW D HRMN SECON CODA AMPLIT PERI AZIMU VELO AIN AR TRES W  DIS CAZ7
 P1       P   0 ? 0904  2.17                             175    0.1710 0.83 2814
 P1       S   0   0904  3.99                             175    0.0710 0.83 2814
 P2       P   0 ? 0904  2.08                             163    0.0110 2.72  724
 P2       S   0   0904  3.97                             163   -0.0710 2.72  724
 N9       P   0 ? 0904  2.28                             149    0.0410 5.13 2254
 N9       S   0   0904  4.50                             149    0.1510 5.13 2254
 N19      P   0 ? 0904  2.39                             147    0.1110 5.50 2924
 N19      S   0   0904  4.33                             147   -0.0910 5.50 2924
 P3       P   0 ? 0904  2.35                             144    0.0210 6.10  674
 P3       S   0   0904  4.45                             144   -0.0710 6.10  674
 N15      P   0 ? 0904  2.39                             144    0.0410 6.19 2594
 N15      S   0   0904  4.46                             144   -0.0810 6.19 2594
 N6       P   0 ? 0904  2.55                             139    0.0910 7.18 2204
 N6       S   0   0904  4.85                             139    0.1110 7.18 2204
 N10      P   0 ? 0904  2.49                             138   -0.0010 7.52 2394
 N10      S   0   0904  4.90                             138    0.0910 7.52 2394
 N14      P   0 ? 0904  2.57                             135    0.0110 8.09 2634
 N14      S   0   0904  4.94                             135    0.0110 8.09 2634
 N18      P   0 ? 0904  2.59                             134   -0.0110 8.44 2744
 N18      S   0   0904  4.95                             134   -0.0510 8.44 2744
 N20      P   0 ? 0904  2.74                             131    0.0610 9.09 2984
 N20      S   0   0904  4.99                             131   -0.1610 9.09 2984
 N11      P   0 ? 0904  2.75                             130    0.0310 9.32 2534
 N11      S   0   0904  4.99                             130   -0.2210 9.32 2534
 N17      P   0 ? 0904  2.80                             129    0.0510 9.61 2794
 N17      S   0   0904  5.27                             129   -0.0010 9.61 2794
 CAMP     P   0 ? 0904  2.83                             128    0.0410 9.86 1864
 CAMP     S   0   0904  5.24                             128   -0.1010 9.86 1864
 N5       P   0 ? 0904  2.77                             128   -0.0310 9.92 1994
 N5       S   0   0904  5.35                             128   -0.0110 9.92 1994
 N13      P   0 ? 0904  2.82                             128    0.0210 9.95 2574
 N13      S   0   0904  5.39                             128    0.0210 9.95 2574
 N2       P   0 ? 0904  2.88                             126    0.0310 10.3 1944
 N2       S   0   0904  5.30                             126   -0.1510 10.3 1944
 N1       P   0 ? 0904  3.06                             122   -0.0110 11.8 1894
 N1       S   0   0904  5.85                             122   -0.0110 11.8 1894
 KHIA     P   0 ? 0904  5.05                              68   -0.1210 24.9 1044
 KHIA     S   0   0904  9.64                              68   -0.0110 24.9 1044
                                                                                
 2021  4 4 0904 53.1 L  28.927  50.921 10.7  SLT 23 0.1                        1
 GAP=114        0.25       0.4     0.5  0.6 -0.3075E-01 -0.7066E-01 -0.1985E-01E
 STAT SP IPHASW D HRMN SECON CODA AMPLIT PERI AZIMU VELO AIN AR TRES W  DIS CAZ7
 P1       P   0 ? 0904 55.52                             173    0.0510 1.04 2804
 P1       S   0   0904 57.51                             173    0.1510 1.04 2804
 P2       P   0 ? 0904 55.62                             164    0.1010 2.53  704
 P2       S   0   0904 57.38                             164   -0.0710 2.53  704
 N9       P   0 ? 0904 55.84                             148    0.1210 5.27 2274
 N9       S   0   0904 57.92                             148    0.1010 5.27 2274
 N19      P   0 ? 0904 55.81                             145    0.0410 5.70 2914
 N19      S   0   0904 57.88                             145   -0.0210 5.70 2914
 P3       P   0 ? 0904 55.85                             144    0.0610 5.92  664
 P3       S   0   0904 57.81                             144   -0.1210 5.92  664
 N15      P   0 ? 0904 55.90                             142    0.0610 6.40 2604
 N15      S   0   0904 58.10                             142    0.0710 6.40 2604
 N6       P   0 ? 0904 55.98                             138    0.0410 7.30 2214
 N6       S   0   0904 58.24                             138    0.0310 7.30 2214
 N10      P   0 ? 0904 55.99                             136    0.0010 7.69 2404
 N14      P   0 ? 0904 56.12                             133    0.0610 8.30 2644
 N14      S   0   0904 58.24                             133   -0.1910 8.30 2644
 N18      P   0 ? 0904 56.03                             132   -0.0810 8.66 2744
 N18      S   0   0904 58.44                             132   -0.0710 8.66 2744
 N20      P   0 ? 0904 56.15                             129   -0.0410 9.29 2974
 N11      P   0 ? 0904 56.20                             128   -0.0210 9.51 2544
 N11      S   0   0904 58.73                             128    0.0110 9.51 2544
 N17      P   0 ? 0904 56.39                             127    0.1310 9.82 2794
 N17      S   0   0904 58.67                             127   -0.1210 9.82 2794
 CAMP     P   0 ? 0904 56.28                             127    0.0110 9.87 1874
 CAMP     S   0   0904 58.64                             127   -0.1610 9.87 1874
 N5       P   0 ? 0904 56.34                             127    0.0510 9.97 2004
 N5       S   0   0904 58.89                             127    0.0610 9.97 2004
 N4       P   0 ? 0904 56.26                             126   -0.0410 10.1 2204
 N4       S   0   0904 58.84                             126   -0.0110 10.1 2204
 N2       P   0 ? 0904 56.40                             125    0.0710 10.4 1954
 N2       S   0   0904 58.83                             125   -0.0910 10.4 1954
 N3       P   0 ? 0904 56.41                             123   -0.0110 10.9 2044
 N1       P   0 ? 0904 56.59                             121    0.0310 11.9 1904
 N1       S   0   0904 59.27                             121   -0.0610 11.9 1904
 P4       P   0 ? 0904 56.71                             117   -0.0610 13.3  714
 SHIF     P   0 ? 0904 57.26                             111    0.0010 16.3 3444
 TOLS     P   0 ? 0904 57.86                             106   -0.0110 20.0  734
 ABTL     P   0 ? 0904 58.99                              68   -0.0610 27.1  454
                                                                                
 2021  4 4 0914  5.4 L  28.935  50.918 10.9  SLT 15 0.1                        1
 GAP=150        0.22       0.6     0.5  0.6 -0.8691E-01 -0.5314E-01  0.7531E-01E
 STAT SP IPHASW D HRMN SECON CODA AMPLIT PERI AZIMU VELO AIN AR TRES W  DIS CAZ7
 P1       P   0 ? 0914  7.79                             174    0.0610 1.00 2324
 P1       S   0   0914  9.64                             174    0.0010 1.00 2324
 P2       P   0 ? 0914  7.75                             163   -0.0310 2.63  894
 P2       S   0   0914  9.72                             163   -0.0210 2.63  894
 N19      P   0 ? 0914  8.00                             149    0.0210 5.23 2844
 N19      S   0   0914 10.02                             149   -0.0710 5.23 2844
 N9       P   0 ? 0914  8.02                             146    0.0010 5.68 2194
 N9       S   0   0914 10.27                             146    0.1110 5.68 2194
 P3       P   0 ? 0914  8.19                             145    0.1610 5.87  744
 P3       S   0   0914 10.14                             145   -0.0510 5.87  744
 N15      P   0 ? 0914  8.05                             143   -0.0410 6.36 2524
 N15      S   0   0914 10.35                             143    0.0610 6.36 2524
 N6       P   0 ? 0914  8.22                             136   -0.0310 7.77 2164
 N6       S   0   0914 10.56                             136   -0.0210 7.77 2164
 N14      P   0 ? 0914  8.31                             135    0.0110 8.18 2584
 N14      S   0   0914 10.58                             135   -0.0910 8.18 2584
 N18      P   0 ? 0914  8.36                             134    0.0410 8.39 2694
 N17      P   0 ? 0914  8.47                             129    0.0110 9.49 2744
 CAMP     P   0 ? 0914  8.58                             125   -0.0410 10.6 1854
 N2       P   0 ? 0914  8.71                             124    0.0310 11.1 1934
 N3       P   0 ? 0914  8.73                             122   -0.0310 11.6 2014
 N1       P   0 ? 0914  8.90                             120   -0.0110 12.6 1884
 N1       S   0   0914 11.77                             120   -0.0110 12.6 1884
 TOLS     P   0 ? 0914 10.05                             107   -0.0510 20.0  764
                                                                                
 2021  4 4 0916  4.0 L  28.934  50.921 11.6  SLT 19 0.1                        1
 GAP= 90        0.24       0.5     0.5  0.6 -0.4764E-01 -0.9357E-01  0.3678E-02E
 STAT SP IPHASW D HRMN SECON CODA AMPLIT PERI AZIMU VELO AIN AR TRES W  DIS CAZ7
 P1       P   0 ? 0916  6.62                             172    0.1110 1.27 2424
 P1       S   0   0916  8.50                             172   -0.0210 1.27 2424
 P2       P   0 ? 0916  6.49                             165   -0.0610 2.30  884
 P2       S   0   0916  8.48                             165   -0.1010 2.30  884
 P3       S   0   0916  9.07                             146    0.1010 5.56  734
 N19      P   0 ? 0916  6.84                             146    0.0710 5.56 2834
 P3       P   0 ? 0916  6.85                             146    0.0810 5.56  734
 N19      S   0   0916  8.93                             146   -0.0510 5.56 2834
 N9       P   0 ? 0916  6.84                             145    0.0510 5.88 2224
 N9       S   0   0916  9.10                             145    0.0710 5.88 2224
 N6       P   0 ? 0916  7.02                             134    0.0010 7.95 2184
 N6       S   0   0916  9.43                             134   -0.0010 7.95 2184
 N10      P   0 ? 0916  7.10                             133    0.0610 8.18 2364
 N14      P   0 ? 0916  7.10                             132    0.0210 8.51 2584
 N14      S   0   0916  9.39                             132   -0.1510 8.51 2584
 N20      P   0 ? 0916  7.17                             129    0.0310 9.04 2934
 N17      P   0 ? 0916  7.23                             126   -0.0110 9.82 2744
 N11      P   0 ? 0916  7.23                             126   -0.0210 9.85 2494
 CAMP     P   0 ? 0916  7.32                             123   -0.0310 10.6 1874
 CAMP     S   0   0916 10.10                             123    0.0710 10.6 1874
 N5       P   0 ? 0916  7.42                             122    0.0510 10.7 1994
 N5       S   0   0916  9.95                             122   -0.1110 10.7 1994
 N2       P   0 ? 0916  7.38                             121   -0.0310 11.1 1944
 N2       S   0   0916 10.19                             121    0.0410 11.1 1944
 N3       P   0 ? 0916  7.49                             119   -0.0110 11.7 2034
 N3       S   0   0916 10.28                             119   -0.0210 11.7 2034
 P4       P   0 ? 0916  7.64                             115   -0.0410 12.9  744
 SHIF     P   0 ? 0916  8.02                             107   -0.0610 15.6 3434
 TOLS     P   0 ? 0916  8.73                              98    0.0010 19.7  754
 KHIA     P   0 ? 0916  9.66                              94    0.1110 24.8 1064
 KHIA     S   0   0916 13.85                              94   -0.1710 24.8 1064
                                                                                
 2021  4 4 0937  7.6 L  28.929  50.923  9.1  SLT 15 0.1                        1
 GAP=142        0.25       0.6     0.6  0.9 -0.4818E-01 -0.6872E-01  0.7465E-01E
 STAT SP IPHASW D HRMN SECON CODA AMPLIT PERI AZIMU VELO AIN AR TRES W  DIS CAZ7
 P1       P   0 ? 0937  9.67                             170    0.0510 1.30 2724
 P2       P   0 ? 0937  9.71                             162    0.0510 2.24  714
 P2       S   0   0937 11.29                             162   -0.0710 2.24  714
 N9       P   0 ? 0937  9.99                             139    0.0510 5.55 2284
 N9       S   0   0937 11.96                             139    0.0810 5.55 2284
 N19      P   0 ? 0937  9.96                             137   -0.0310 5.91 2894
 N15      P   0 ? 0937 10.16                             133    0.0810 6.68 2594
 N15      S   0   0937 12.19                             133    0.0610 6.68 2594
 N6       P   0 ? 0937 10.23                             128    0.0310 7.57 2224
 N6       S   0   0937 12.42                             128    0.0710 7.57 2224
 N10      P   0 ? 0937 10.24                             126   -0.0210 7.99 2404
 N14      P   0 ? 0937 10.30                             123   -0.0410 8.58 2634
 N18      P   0 ? 0937 10.44                             122    0.0510 8.91 2734
 N18      S   0   0937 12.60                             122   -0.0810 8.91 2734
 N11      P   0 ? 0937 10.55                             118    0.0210 9.81 2534
 N11      S   0   0937 12.79                             118   -0.1410 9.81 2534
 CAMP     P   0 ? 0937 10.45                             117   -0.1110 10.0 1894
 CAMP     S   0   0937 12.88                             117   -0.1110 10.0 1894
 N5       P   0 ? 0937 10.56                             117   -0.0210 10.2 2024
 N2       P   0 ? 0937 10.67                             116    0.0310 10.6 1964
 N1       P   0 ? 0937 10.98                             111    0.1010 12.0 1914
 P4       P   0 ? 0937 10.99                             109   -0.0410 13.0  714
                                                                                
 2021  4 4 0942 54.2 L  28.923  50.919 10.3  SLT 23 0.1                        1
 GAP= 96        0.28       0.5     0.4  0.7 -0.5290E-01 -0.1129E+00  0.1068E-01E
 STAT SP IPHASW D HRMN SECON CODA AMPLIT PERI AZIMU VELO AIN AR TRES W  DIS CAZ7
 P1       P   0 ? 0942 56.49                             172    0.0310 1.15 3084
 P1       S   0   0942 58.40                             172    0.1110 1.15 3084
 P2       P   0 ? 0942 56.60                             161    0.0610 2.87  614
 P2       S   0   0942 58.54                             161    0.1210 2.87  614
 N9       P   0 ? 0942 56.72                             149    0.0310 4.82 2314
 N9       S   0   0942 58.72                             149    0.0310 4.82 2314
 N19      P   0 ? 0942 56.79                             143    0.0010 5.81 2974
 N19      S   0   0942 58.78                             143   -0.0910 5.81 2974
 N15      P   0 ? 0942 56.87                             141    0.0410 6.20 2644
 N15      S   0   0942 59.03                             141    0.0910 6.20 2644
 P3       P   0 ? 0942 56.96                             141    0.1310 6.26  624
 P3       S   0   0942 58.90                             141   -0.0510 6.26  624
 N6       P   0 ? 0942 57.00                             138    0.1010 6.82 2244
 N6       S   0   0942 59.08                             138    0.0010 6.82 2244
 N10      P   0 ? 0942 57.00                             135    0.0410 7.33 2434
 N10      S   0   0942 59.27                             135    0.0910 7.33 2434
 N14      P   0 ? 0942 57.11                             132    0.0510 8.13 2674
 N14      S   0   0942 59.25                             132   -0.1110 8.13 2674
 N18      P   0 ? 0942 57.14                             130    0.0310 8.59 2784
 N18      S   0   0942 59.35                             130   -0.1210 8.59 2784
 N11      P   0 ? 0942 57.25                             127    0.0410 9.25 2564
 N11      S   0   0942 59.46                             127   -0.1810 9.25 2564
 CAMP     P   0 ? 0942 57.25                             127    0.0410 9.32 1874
 N5       P   0 ? 0942 57.25                             127    0.0210 9.43 2014
 N5       S   0   0942 59.65                             127   -0.0310 9.43 2014
 N20      P   0 ? 0942 57.35                             126    0.1210 9.44 3014
 N20      S   0   0942 59.37                             126   -0.3110 9.44 3014
 N4       P   0 ? 0942 57.24                             126   -0.0110 9.58 2224
 N4       S   0   0942 59.71                             126   -0.0010 9.58 2224
 N17      P   0 ? 0942 57.32                             125    0.0410 9.80 2824
 N17      S   0   0942 59.90                             125    0.1310 9.80 2824
 N2       P   0 ? 0942 57.20                             125   -0.0810 9.82 1954
 N2       S   0   0942 59.53                             125   -0.2410 9.82 1954
 N13      P   0 ? 0942 57.37                             125    0.0710 9.93 2604
 N13      S   0   0942 59.84                             125    0.0310 9.93 2604
 N1       P   0 ? 0942 57.50                             120   -0.0110 11.3 1904
 P4       P   0 ? 0942 57.88                             114    0.0210 13.6  694
 P4       S   0   0943  0.72                             114   -0.0910 13.6  694
 TOLS     P   0 ? 0942 58.99                             104    0.0310 20.3  724
 TOLS     S   0   0943  2.72                             104   -0.0910 20.3  724
 KHIA     P   0 ? 0942 59.69                             101   -0.0310 24.7 1034
 KHIA     S   0   0943  4.16                             101   -0.0210 24.7 1034
 ABTL     P   0 ? 0943  0.27                              99    0.0510 27.6  444
 ABTL     S   0   0943  4.98                              99   -0.1110 27.6  444
                                                                                
