 2021  2 2 0357 10.6 L  28.962  50.927 10.6  SLT 18 0.1                        1
 GAP=110        0.22       0.5     0.5  0.6 -0.4606E-01 -0.7275E-02 -0.8102E-01E
 STAT SP IPHASW D HRMN SECON CODA AMPLIT PERI AZIMU VELO AIN AR TRES W  DIS CAZ7
 P2       P   0 ? 0357 13.05                             158    0.0710 3.45 1494
 P2       S   0   0357 14.94                             158    0.0010 3.45 1494
 P1       P   0 ? 0357 13.07                             154    0.0510 3.99 2054
 P1       S   0   0357 14.99                             154   -0.0110 3.99 2054
 P3       P   0 ? 0357 13.06                             149   -0.0410 4.98 1074
 P3       S   0   0357 15.10                             149   -0.0610 4.98 1074
 N19      P   0 ? 0357 13.23                             142    0.0010 6.20 2544
 N19      S   0   0357 15.27                             142   -0.1110 6.20 2544
 N16      P   0 ? 0357 13.32                             140    0.0510 6.70 2364
 N16      S   0   0357 15.59                             140    0.1210 6.70 2364
 N15      P   0 ? 0357 13.49                             132   -0.0110 8.52 2344
 N15      S   0   0357 15.77                             132   -0.1110 8.52 2344
 N9       P   0 ? 0357 13.65                             131    0.1410 8.66 2114
 N9       S   0   0357 15.98                             131    0.0710 8.66 2114
 N20      P   0 ? 0357 13.54                             130   -0.0010 8.88 2734
 N20      S   0   0357 16.02                             130    0.0610 8.88 2734
 N18      P   0 ? 0357 13.75                             127    0.0810 9.80 2514
 N18      S   0   0357 16.22                             127    0.0410 9.80 2514
 N14      P   0 ? 0357 13.77                             126    0.0610 10.1 2424
 N14      S   0   0357 16.20                             126   -0.0610 10.1 2424
 N17      P   0 ? 0357 13.77                             124   -0.0110 10.6 2574
 N17      S   0   0357 16.45                             124    0.0710 10.6 2574
 N6       P   0 ? 0357 13.75                             124   -0.0610 10.8 2104
 N6       S   0   0357 16.35                             124   -0.1010 10.8 2104
 N7       P   0 ? 0357 13.93                             121    0.0010 11.5 2204
 N7       S   0   0357 16.57                             121   -0.0810 11.5 2204
 N11      P   0 ? 0357 13.98                             121    0.0310 11.7 2364
 N11      S   0   0357 16.65                             121   -0.0410 11.7 2364
 N13      P   0 ? 0357 14.00                             119   -0.0110 12.1 2404
 N13      S   0   0357 16.72                             119   -0.0910 12.1 2404
 N4       P   0 ? 0357 14.25                             116    0.0310 13.5 2124
 N4       S   0   0357 17.14                             116   -0.0510 13.5 2124
 CAMP     P   0 ? 0357 14.32                             115    0.0710 13.7 1884
 CAMP     S   0   0357 17.28                             115    0.0410 13.7 1884
 NOKA     P   0 ? 0357 16.32                              68   -0.1210 26.9  234
                                                                                
 2021  2 2 0131  5.1 L  28.964  50.926 11.0  SLT 19 0.1                        1
 GAP=132        0.23       0.6     0.5  0.7 -0.7670E-01  0.3821E-01 -0.1169E+00E
 STAT SP IPHASW D HRMN SECON CODA AMPLIT PERI AZIMU VELO AIN AR TRES W  DIS CAZ7
 P2       P   0 ? 0131  7.56                             157   -0.0310 3.69 1494
 P2       S   0   0131  9.69                             157    0.0810 3.69 1494
 P1       P   0 ? 0131  7.71                             155    0.0910 4.13 2024
 P1       S   0   0131  9.60                             155   -0.0610 4.13 2024
 P3       P   0 ? 0131  7.67                             149   -0.0410 5.17 1084
 P3       S   0   0131  9.73                             149   -0.0910 5.17 1084
 N19      P   0 ? 0131  7.90                             144    0.1010 6.13 2514
 N19      S   0   0131  9.93                             144   -0.0710 6.13 2514
 N16      P   0 ? 0131  7.90                             141    0.0410 6.71 2344
 N16      S   0   0131 10.22                             141    0.1210 6.71 2344
 N12      P   0 ? 0131  8.04                             133   -0.0410 8.53 2254
 N15      P   0 ? 0131  8.11                             133    0.0310 8.53 2334
 N12      S   0   0131 10.53                             133    0.0410 8.53 2254
 N15      S   0   0131 10.52                             133    0.0310 8.53 2334
 N20      P   0 ? 0131  8.08                             133   -0.0210 8.74 2724
 N20      S   0   0131 10.57                             133    0.0410 8.74 2724
 N9       P   0 ? 0131  8.08                             133   -0.0210 8.76 2104
 N9       S   0   0131 10.63                             133    0.0910 8.76 2104
 N18      P   0 ? 0131  8.28                             129    0.0510 9.74 2504
 N18      S   0   0131 10.74                             129   -0.0310 9.74 2504
 N14      P   0 ? 0131  8.27                             128   -0.0110 10.0 2414
 N14      S   0   0131 10.88                             128    0.0210 10.0 2414
 N17      P   0 ? 0131  8.24                             126   -0.1010 10.5 2564
 N17      S   0   0131 10.85                             126   -0.1110 10.5 2564
 N10      P   0 ? 0131  8.36                             126    0.0010 10.6 2234
 N10      S   0   0131 11.09                             126    0.0910 10.6 2234
 N6       P   0 ? 0131  8.42                             125    0.0210 10.9 2094
 N6       S   0   0131 10.94                             125   -0.1310 10.9 2094
 N7       P   0 ? 0131  8.60                             123    0.1010 11.6 2194
 N7       S   0   0131 11.12                             123   -0.1410 11.6 2194
 N11      P   0 ? 0131  8.50                             122   -0.0210 11.7 2354
 N11      S   0   0131 11.36                             122    0.0710 11.7 2354
 N13      P   0 ? 0131  8.56                             121   -0.0210 12.1 2394
 N13      S   0   0131 11.32                             121   -0.0810 12.1 2394
 SHIF     P   0 ? 0131  8.66                             120   -0.0010 12.7 3374
 N4       P   0 ? 0131  8.79                             117   -0.0110 13.6 2114
                                                                                
 2021  3 3 2329 13.7 L  28.910  50.969 10.6  SLT 25 0.1                        1
 GAP= 57        0.27       0.4     0.3  0.5 -0.3421E-01 -0.8911E-01  0.1100E-01E
 STAT SP IPHASW D HRMN SECON CODA AMPLIT PERI AZIMU VELO AIN AR TRES W  DIS CAZ7
 P2       P   0 ? 2329 16.18                             157    0.0810 3.58 3204
 P2       S   0   2329 17.97                             157   -0.0910 3.58 3204
 P3       P   0 ? 2329 16.29                             152    0.1310 4.34   94
 P3       S   0   2329 18.29                             152    0.1210 4.34   94
 P1       P   0 ? 2329 16.38                             143    0.0610 6.08 2904
 P1       S   0   2329 18.37                             143   -0.0910 6.08 2904
 N9       P   0 ? 2329 16.65                             131    0.0210 8.72 2594
 N9       S   0   2329 19.07                             131    0.0410 8.72 2594
 P4       P   0 ? 2329 16.75                             126   -0.0610 10.0  514
 P4       S   0   2329 19.28                             126   -0.0710 10.0  514
 N6       P   0 ? 2329 16.95                             126    0.1110 10.2 2494
 N6       S   0   2329 19.48                             126    0.0810 10.2 2494
 N19      P   0 ? 2329 16.90                             124   -0.0210 10.8 2924
 N19      S   0   2329 19.47                             124   -0.0810 10.8 2924
 N15      P   0 ? 2329 16.96                             123    0.0010 11.0 2744
 N2       P   0 ? 2329 17.04                             123    0.1010 11.0 2224
 N15      S   0   2329 19.57                             123   -0.0410 11.0 2744
 N2       S   0   2329 19.65                             123    0.0610 11.0 2224
 N5       P   0 ? 2329 17.02                             123    0.0610 11.1 2284
 N5       S   0   2329 19.53                             123   -0.0910 11.1 2284
 N10      P   0 ? 2329 17.18                             121    0.1510 11.5 2604
 N10      S   0   2329 19.61                             121   -0.1510 11.5 2604
 N1       P   0 ? 2329 17.19                             120    0.1010 11.9 2154
 N1       S   0   2329 19.84                             120   -0.0110 11.9 2154
 N3       P   0 ? 2329 17.24                             119    0.1110 12.2 2284
 N3       S   0   2329 19.84                             119   -0.1010 12.2 2284
 N4       P   0 ? 2329 17.23                             118    0.0410 12.6 2434
 N4       S   0   2329 20.16                             118    0.1210 12.6 2434
 N14      S   0   2329 20.00                             117   -0.1510 13.0 2744
 N18      P   0 ? 2329 17.39                             116    0.0510 13.6 2814
 N18      S   0   2329 20.25                             116   -0.0610 13.6 2814
 N11      P   0 ? 2329 17.37                             115   -0.0210 13.8 2674
 N11      S   0   2329 20.27                             115   -0.1210 13.8 2674
 N20      S   0   2329 20.45                             114   -0.0810 14.3 2964
 TOLS     P   0 ? 2329 17.87                             110    0.0810 16.3  624
 TOLS     S   0   2329 21.10                             110   -0.0210 16.3  624
 KHIA     P   0 ? 2329 18.40                             106    0.0510 19.7 1024
 KHIA     S   0   2329 21.96                             106   -0.1710 19.7 1024
 P9       S   0   2329 23.81                              68   -0.0510 25.4  664
 ABTL     S   0   2329 23.99                              68    0.0610 25.6  344
 DLRM     S   0   2329 24.81                              68   -0.1510 29.2 1594
 NOKA     P   0 ? 2329 20.27                              68    0.0310 31.2  124
 NOKA     S   0   2329 25.53                              68   -0.0210 31.2  124
 AHRM     P   0 ? 2329 20.46                              68    0.0410 32.2  994
 AHRM     S   0   2329 25.82                              68   -0.0610 32.2  994
                                                                                
 2021  4 4 0835 16.3 L  28.926  50.919 11.0  SLT 16 0.1                        1
 GAP=133        0.24       0.5     0.5  0.6 -0.6841E-01 -0.1066E+00  0.2649E-01E
 STAT SP IPHASW D HRMN SECON CODA AMPLIT PERI AZIMU VELO AIN AR TRES W  DIS CAZ7
 P1       P   0 ? 0835 18.64                             174    0.0110 0.92 2894
 P1       S   0   0835 20.54                             174   -0.0210 0.92 2894
 P2       P   0 ? 0835 18.74                             163    0.0410 2.72  694
 P2       S   0   0835 20.62                             163   -0.0510 2.72  694
 N9       P   0 ? 0835 18.94                             150    0.0810 5.07 2274
 N9       S   0   0835 20.97                             150   -0.0010 5.07 2274
 N19      P   0 ? 0835 19.03                             147    0.1110 5.60 2934
 N19      S   0   0835 21.10                             147    0.0310 5.60 2934
 P3       P   0 ? 0835 19.02                             144    0.0610 6.11  664
 P3       S   0   0835 21.22                             144    0.0710 6.11  664
 N15      P   0 ? 0835 19.06                             144    0.0810 6.22 2614
 N15      S   0   0835 21.09                             144   -0.0910 6.22 2614
 N6       P   0 ? 0835 19.11                             140    0.0310 7.10 2214
 N6       S   0   0835 21.45                             140    0.0910 7.10 2214
 N10      P   0 ? 0835 19.17                             138    0.0510 7.49 2414
 N18      P   0 ? 0835 19.20                             134   -0.0410 8.51 2754
 N18      S   0   0835 21.52                             134   -0.1310 8.51 2754
 N11      P   0 ? 0835 19.32                             130   -0.0310 9.33 2544
 N11      S   0   0835 21.82                             130   -0.0210 9.33 2544
 CAMP     P   0 ? 0835 19.45                             129    0.0610 9.73 1864
 CAMP     S   0   0835 21.82                             129   -0.1110 9.73 1864
 N5       P   0 ? 0835 19.32                             129   -0.0910 9.80 2004
 N5       S   0   0835 21.84                             129   -0.1210 9.80 2004
 N2       P   0 ? 0835 19.48                             127    0.0210 10.2 1944
 N2       S   0   0835 22.15                             127    0.1010 10.2 1944
 N1       P   0 ? 0835 19.72                             122    0.0410 11.7 1904
 N1       S   0   0835 22.46                             122    0.0110 11.7 1904
 P4       P   0 ? 0835 19.86                             118   -0.0810 13.5  704
 TOLS     P   0 ? 0835 20.91                              68   -0.1110 20.2  734
                                                                                
 2021  4 4 0836 57.6 L  28.922  50.913  8.9  SLT  8 0.1                        1
 GAP=200        0.27       0.8     2.1  3.5  0.1210E+01 -0.6557E+01 -0.1930E+01E
 STAT SP IPHASW D HRMN SECON CODA AMPLIT PERI AZIMU VELO AIN AR TRES W  DIS CAZ7
 N18      P   0 ? 0837  0.27                             125    0.0110 7.98 2784
 N18      S   0   0837  2.52                             125    0.0910 7.98 2784
 N11      P   0 ? 0837  0.42                             121    0.0510 8.65 2564
 N11      S   0   0837  2.41                             121   -0.2010 8.65 2564
 N20      P   0 ? 0837  0.41                             120    0.0110 8.92 3034
 N20      S   0   0837  2.65                             120   -0.0310 8.92 3034
 N4       P   0 ? 0837  0.49                             119    0.0510 9.17 2194
 N4       S   0   0837  2.77                             119    0.0210 9.17 2194
 N5       P   0 ? 0837  0.38                             119   -0.0710 9.21 1974
 N5       S   0   0837  2.82                             119    0.0510 9.21 1974
 N13      P   0 ? 0837  0.48                             119    0.0110 9.32 2594
 N13      S   0   0837  2.86                             119    0.0710 9.32 2594
 N1       P   0 ? 0837  0.75                             112   -0.0110 11.2 1874
 N1       S   0   0837  3.31                             112   -0.0310 11.2 1874
 SHIF     P   0 ? 0837  1.66                             101   -0.0210 16.7 3474
                                                                                
 2021  4 4 0836 57.1 L  28.930  50.916 10.7  SLT 18 0.1                        1
 GAP=141        0.22       0.5     0.5  0.6 -0.1180E+00 -0.4878E-01  0.3591E-01E
 STAT SP IPHASW D HRMN SECON CODA AMPLIT PERI AZIMU VELO AIN AR TRES W  DIS CAZ7
 P1       P   0 ? 0836 59.36                             176   -0.0010 0.64 2584
 P1       S   0   0837  1.33                             176    0.0910 0.64 2584
 P2       P   0 ? 0836 59.38                             162   -0.0610 2.83  794
 P2       S   0   0837  1.50                             162    0.1210 2.83  794
 N9       P   0 ? 0836 59.68                             148    0.0610 5.22 2224
 N19      P   0 ? 0836 59.66                             148    0.0310 5.22 2904
 N9       S   0   0837  1.72                             148    0.0210 5.22 2224
 N15      P   0 ? 0836 59.73                             143    0.0210 6.08 2564
 N15      S   0   0837  1.73                             143   -0.1310 6.08 2564
 P3       P   0 ? 0836 59.72                             143    0.0010 6.17  704
 P3       S   0   0837  1.76                             143   -0.1110 6.17  704
 N6       P   0 ? 0836 59.91                             137    0.0610 7.29 2174
 N6       S   0   0837  1.99                             137   -0.1210 7.29 2174
 N10      P   0 ? 0836 59.84                             136   -0.0310 7.52 2374
 N14      P   0 ? 0836 59.98                             135    0.0610 7.94 2614
 N14      S   0   0837  2.22                             135   -0.0310 7.94 2614
 N17      P   0 ? 0837  0.07                             129   -0.0310 9.38 2774
 N13      P   0 ? 0837  0.26                             127    0.0910 9.85 2554
 CAMP     P   0 ? 0837  0.21                             126    0.0010 10.1 1854
 CAMP     S   0   0837  2.80                             126    0.0310 10.1 1854
 N5       P   0 ? 0837  0.16                             126   -0.0510 10.1 1984
 N2       P   0 ? 0837  0.27                             124    0.0010 10.6 1924
 N3       P   0 ? 0837  0.37                             123    0.0210 11.1 2014
 N3       S   0   0837  3.04                             123    0.0210 11.1 2014
 N1       P   0 ? 0837  0.46                             120   -0.0410 12.1 1884
 P4       P   0 ? 0837  0.69                             116   -0.0310 13.5  724
 TOLS     P   0 ? 0837  1.82                             105   -0.0010 20.3  744
                                                                                
 2021  4 4 0837 23.2 L  28.927  50.922 11.0  SLT 15 0.1                        1
 GAP=120        0.24       0.4     0.5  0.6 -0.3906E-01 -0.4860E-01 -0.1389E-01E
 STAT SP IPHASW D HRMN SECON CODA AMPLIT PERI AZIMU VELO AIN AR TRES W  DIS CAZ7
 P1       P   0 ? 0837 25.67                             173    0.0510 1.16 2834
 P1       S   0   0837 27.65                             173    0.1110 1.16 2834
 P2       P   0 ? 0837 25.59                             165   -0.0810 2.46  684
 P2       S   0   0837 27.65                             165    0.0210 2.46  684
 N9       P   0 ? 0837 25.92                             148    0.0510 5.29 2284
 N9       S   0   0837 27.93                             148   -0.0610 5.29 2284
 N19      P   0 ? 0837 25.90                             146   -0.0210 5.83 2924
 P3       P   0 ? 0837 26.03                             145    0.1110 5.85  654
 P3       S   0   0837 27.99                             145   -0.1010 5.85  654
 N15      P   0 ? 0837 25.96                             142   -0.0310 6.49 2604
 N15      S   0   0837 28.30                             142    0.0910 6.49 2604
 N6       P   0 ? 0837 26.15                             139    0.0710 7.31 2224
 N6       S   0   0837 28.34                             139   -0.0410 7.31 2224
 N18      P   0 ? 0837 26.25                             132   -0.0010 8.77 2754
 N18      S   0   0837 28.60                             132   -0.0910 8.77 2754
 N11      P   0 ? 0837 26.35                             129   -0.0210 9.59 2544
 N11      S   0   0837 28.92                             129    0.0310 9.59 2544
 CAMP     P   0 ? 0837 26.47                             128    0.0810 9.81 1884
 CAMP     S   0   0837 28.81                             128   -0.1210 9.81 1884
 N5       P   0 ? 0837 26.49                             128    0.0810 9.94 2014
 N17      P   0 ? 0837 26.43                             128    0.0210 9.94 2794
 N17      S   0   0837 28.91                             128   -0.0610 9.94 2794
 N5       S   0   0837 29.04                             128    0.0610 9.94 2014
 N2       P   0 ? 0837 26.48                             127    0.0210 10.3 1964
 N2       S   0   0837 28.93                             127   -0.1310 10.3 1964
 N1       P   0 ? 0837 26.67                             122   -0.0110 11.8 1914
 N1       S   0   0837 29.50                             122    0.0410 11.8 1914
 ABTL     P   0 ? 0837 29.07                              68   -0.0710 27.1  454
                                                                                
