 2021  4 4 0943 25.4 L  28.931  50.920 10.5  SLT 15 0.1                        1
 GAP=142        0.22       0.4     0.5  0.6 -0.4359E-01 -0.4723E-01  0.4856E-01E
 STAT SP IPHASW D HRMN SECON CODA AMPLIT PERI AZIMU VELO AIN AR TRES W  DIS CAZ7
 P1       P   0 ? 0943 27.75                             174    0.0710 0.95 2594
 P1       S   0   0943 29.49                             174   -0.0510 0.95 2594
 P2       P   0 ? 0943 27.75                             163    0.0210 2.53  794
 P2       S   0   0943 29.67                             163    0.0310 2.53  794
 N9       P   0 ? 0943 28.04                             146    0.0910 5.45 2244
 N9       S   0   0943 30.03                             146   -0.0110 5.45 2244
 N19      P   0 ? 0943 27.95                             146   -0.0110 5.49 2884
 N19      S   0   0943 30.12                             146    0.0610 5.49 2884
 P3       P   0 ? 0943 28.01                             144    0.0110 5.87  704
 P3       S   0   0943 30.08                             144   -0.0410 5.87  704
 N15      P   0 ? 0943 28.08                             141    0.0310 6.38 2564
 N15      S   0   0943 30.23                             141    0.0110 6.38 2564
 N6       P   0 ? 0943 28.17                             136   -0.0110 7.51 2194
 N6       S   0   0943 30.51                             136    0.0510 7.51 2194
 N14      P   0 ? 0943 28.15                             133   -0.1310 8.25 2614
 N18      P   0 ? 0943 28.33                             131    0.0210 8.54 2724
 N18      S   0   0943 30.58                             131   -0.1010 8.54 2724
 N11      P   0 ? 0943 28.42                             128   -0.0210 9.53 2514
 N11      S   0   0943 30.93                             128    0.0010 9.53 2514
 CAMP     P   0 ? 0943 28.56                             125    0.0310 10.2 1864
 CAMP     S   0   0943 30.93                             125   -0.1610 10.2 1864
 N5       P   0 ? 0943 28.53                             125   -0.0210 10.3 1994
 N5       S   0   0943 31.16                             125    0.0410 10.3 1994
 N2       P   0 ? 0943 28.65                             123    0.0510 10.7 1944
 N2       S   0   0943 31.26                             123    0.0510 10.7 1944
 N1       P   0 ? 0943 28.91                             119    0.0810 12.2 1894
 N1       S   0   0943 31.58                             119   -0.0510 12.2 1894
 TOLS     P   0 ? 0943 30.04                             105   -0.0510 20.0  744
                                                                                
 2021  4 4 0943 57.7 L  28.929  50.925 12.1  SLT 25 0.1                        1
 GAP=109        0.27       0.4     0.4  0.7 -0.2596E-01 -0.1414E+00  0.3714E-02E
 STAT SP IPHASW D HRMN SECON CODA AMPLIT PERI AZIMU VELO AIN AR TRES W  DIS CAZ7
 P1       P   0 ? 0944  0.30                             171    0.0910 1.45 2694
 P1       S   0   0944  2.42                             171    0.1410 1.45 2694
 P2       P   0 ? 0944  0.21                             168   -0.0210 2.07  724
 P2       S   0   0944  2.27                             168   -0.0510 2.07  724
 P3       P   0 ? 0944  0.53                             149    0.0910 5.45  664
 P3       S   0   0944  2.64                             149   -0.0510 5.45  664
 N9       P   0 ? 0944  0.56                             147    0.1010 5.72 2284
 N9       S   0   0944  2.98                             147    0.2410 5.72 2284
 N19      P   0 ? 0944  0.51                             146    0.0110 6.03 2884
 N19      S   0   0944  2.69                             146   -0.1010 6.03 2884
 N15      P   0 ? 0944  0.56                             142   -0.0110 6.85 2594
 N15      S   0   0944  2.99                             142    0.0610 6.85 2594
 N6       P   0 ? 0944  0.69                             137    0.0210 7.74 2234
 N6       S   0   0944  3.09                             137   -0.0210 7.74 2234
 N10      P   0 ? 0944  0.71                             136   -0.0010 8.16 2404
 N10      S   0   0944  3.22                             136    0.0310 8.16 2404
 N14      P   0 ? 0944  0.78                             133    0.0010 8.74 2634
 N14      S   0   0944  3.32                             133    0.0110 8.74 2634
 N18      P   0 ? 0944  0.86                             132    0.0510 9.06 2734
 N18      S   0   0944  3.37                             132   -0.0010 9.06 2734
 N20      P   0 ? 0944  0.83                             130   -0.0510 9.57 2954
 N20      S   0   0944  3.31                             130   -0.1710 9.57 2954
 N11      P   0 ? 0944  0.99                             128    0.0610 9.98 2534
 N11      S   0   0944  3.31                             128   -0.2710 9.98 2534
 CAMP     P   0 ? 0944  0.87                             127   -0.0810 10.1 1894
 CAMP     S   0   0944  3.54                             127   -0.0710 10.1 1894
 N17      P   0 ? 0944  0.96                             127    0.0110 10.2 2774
 N17      S   0   0944  3.61                             127   -0.0210 10.2 2774
 N5       P   0 ? 0944  1.06                             127    0.0910 10.3 2024
 N5       S   0   0944  3.47                             127   -0.1910 10.3 2024
 N4       P   0 ? 0944  1.03                             126    0.0410 10.5 2214
 N4       S   0   0944  3.70                             126    0.0010 10.5 2214
 N13      P   0 ? 0944  1.06                             126    0.0510 10.6 2574
 N13      S   0   0944  3.76                             126    0.0310 10.6 2574
 N2       P   0 ? 0944  1.04                             125    0.0310 10.7 1974
 N2       S   0   0944  3.67                             125   -0.0610 10.7 1974
 N3       P   0 ? 0944  1.23                             123    0.1310 11.3 2054
 N3       S   0   0944  3.82                             123   -0.0710 11.3 2054
 N1       P   0 ? 0944  1.22                             120   -0.0010 12.1 1924
 N1       S   0   0944  4.22                             120    0.1110 12.1 1924
 P4       P   0 ? 0944  1.30                             118   -0.0110 12.8  714
 KHIA     P   0 ? 0944  3.05                              97   -0.0510 24.3 1054
 KHIA     S   0   0944  7.38                              97   -0.1410 24.3 1054
 ABTL     P   0 ? 0944  3.49                              96    0.0110 26.7  444
 P9       P   0 ? 0944  3.83                              95    0.0410 28.7  734
 AHRM     P   0 ? 0944  5.14                              93    0.0210 36.8 1014
                                                                                
 2021  4 4 0944 31.0 L  28.926  50.917 10.7  SLT 12 0.1                        1
 GAP=131        0.25       0.7     0.6  0.9 -0.6959E-01 -0.2994E-03  0.7009E-01E
 STAT SP IPHASW D HRMN SECON CODA AMPLIT PERI AZIMU VELO AIN AR TRES W  DIS CAZ7
 P1       P   0 ? 0944 33.28                             175   -0.0010 0.72 2964
 P2       P   0 ? 0944 33.31                             161   -0.0510 2.93  704
 P2       S   0   0944 35.33                             161    0.0210 2.93  704
 N9       P   0 ? 0944 33.60                             150    0.0910 4.90 2254
 N9       S   0   0944 35.68                             150    0.1110 4.90 2254
 N19      P   0 ? 0944 33.48                             147   -0.0810 5.41 2944
 N19      S   0   0944 35.70                             147    0.0310 5.41 2944
 N15      P   0 ? 0944 33.61                             144   -0.0110 6.00 2604
 N15      S   0   0944 35.72                             144   -0.0510 6.00 2604
 P3       P   0 ? 0944 33.61                             142   -0.0410 6.31  664
 P3       S   0   0944 35.83                             142    0.0110 6.31  664
 N6       P   0 ? 0944 33.73                             139    0.0110 6.95 2204
 N6       S   0   0944 36.05                             139    0.0910 6.95 2204
 N18      P   0 ? 0944 33.89                             133    0.0110 8.29 2754
 N18      S   0   0944 36.19                             133   -0.0510 8.29 2754
 N11      P   0 ? 0944 34.11                             130    0.1210 9.11 2544
 N11      S   0   0944 36.31                             130   -0.1310 9.11 2544
 N17      P   0 ? 0944 34.07                             129    0.0410 9.47 2804
 CAMP     P   0 ? 0944 34.08                             128    0.0210 9.70 1854
 CAMP     S   0   0944 36.45                             128   -0.1210 9.70 1854
 N5       P   0 ? 0944 34.06                             128   -0.0110 9.72 1994
                                                                                
 2021  4 4 0944 47.4 L  28.930  50.923 12.3  SLT 12 0.1                        1
 GAP=112        0.24       0.7     0.8  0.8 -0.1658E+00 -0.9940E-01 -0.1170E+00E
 STAT SP IPHASW D HRMN SECON CODA AMPLIT PERI AZIMU VELO AIN AR TRES W  DIS CAZ7
 P1       P   0 ? 0944 49.95                             173   -0.0210 1.25 2644
 P1       S   0   0944 52.07                             173    0.0010 1.25 2644
 P2       P   0 ? 0944 50.05                             167    0.0510 2.23  764
 P2       S   0   0944 52.13                             167    0.0110 2.23  764
 P3       P   0 ? 0944 50.19                             149   -0.0210 5.59  684
 N9       P   0 ? 0944 50.28                             148    0.0610 5.65 2264
 N9       S   0   0944 52.56                             148    0.0510 5.65 2264
 N15      P   0 ? 0944 50.45                             143    0.1410 6.67 2574
 N15      S   0   0944 52.69                             143    0.0110 6.67 2574
 N6       P   0 ? 0944 50.49                             139    0.0710 7.68 2214
 N6       S   0   0944 52.77                             139   -0.1010 7.68 2214
 N11      P   0 ? 0944 50.69                             130    0.0310 9.82 2524
 N11      S   0   0944 53.24                             130   -0.0810 9.82 2524
 N17      P   0 ? 0944 50.61                             129   -0.0710 9.99 2774
 CAMP     P   0 ? 0944 50.70                             128   -0.0110 10.2 1884
 CAMP     S   0   0944 53.34                             128   -0.0610 10.2 1884
 N5       P   0 ? 0944 50.78                             128    0.0510 10.3 2014
 SHIF     P   0 ? 0944 51.50                             111   -0.0410 16.1 3434
 TOLS     P   0 ? 0944 52.04                             104   -0.0610 19.7  744
                                                                                
 2021  4 4 0947 14.1 L  28.925  50.921 10.9  SLT 24 0.1                        1
 GAP=106        0.27       0.4     0.5  0.5 -0.1505E-01 -0.1093E+00  0.2875E-02E
 STAT SP IPHASW D HRMN SECON CODA AMPLIT PERI AZIMU VELO AIN AR TRES W  DIS CAZ7
 P1       P   0 ? 0947 16.67                             172    0.1610 1.19 2934
 P1       S   0   0947 18.54                             172    0.1210 1.19 2934
 P2       P   0 ? 0947 16.56                             164    0.0010 2.57  644
 P2       S   0   0947 18.51                             164   -0.0010 2.57  644
 N9       P   0 ? 0947 16.83                             149    0.0910 5.14 2304
 N9       S   0   0947 18.82                             149   -0.0210 5.14 2304
 N19      P   0 ? 0947 16.87                             145    0.0510 5.88 2934
 N19      S   0   0947 18.91                             145   -0.0710 5.88 2934
 P3       P   0 ? 0947 16.92                             145    0.1010 5.97  634
 P3       S   0   0947 18.87                             145   -0.1210 5.97  634
 N15      P   0 ? 0947 16.90                             142    0.0310 6.43 2624
 N15      S   0   0947 18.85                             142   -0.2310 6.43 2624
 N6       P   0 ? 0947 17.01                             139    0.0610 7.14 2234
 N6       S   0   0947 19.27                             139    0.0410 7.14 2234
 N10      P   0 ? 0947 17.07                             137    0.0610 7.63 2424
 N10      S   0   0947 19.43                             137    0.1110 7.63 2424
 N14      P   0 ? 0947 17.18                             134    0.0810 8.34 2664
 N14      S   0   0947 19.51                             134    0.0310 8.34 2664
 N18      P   0 ? 0947 17.06                             132   -0.0810 8.75 2764
 N18      S   0   0947 19.75                             132    0.1810 8.75 2764
 N20      P   0 ? 0947 17.23                             129   -0.0110 9.48 2994
 N20      S   0   0947 19.52                             129   -0.2210 9.48 2994
 N11      P   0 ? 0947 17.28                             129    0.0310 9.51 2554
 N11      S   0   0947 19.75                             129   -0.0110 9.51 2554
 CAMP     P   0 ? 0947 17.23                             129   -0.0210 9.60 1884
 CAMP     S   0   0947 19.85                             129    0.0810 9.60 1884
 N5       P   0 ? 0947 17.24                             128   -0.0410 9.74 2014
 N5       S   0   0947 19.79                             128   -0.0210 9.74 2014
 N4       P   0 ? 0947 17.25                             128   -0.0510 9.90 2224
 N4       S   0   0947 19.84                             128   -0.0110 9.90 2224
 N17      P   0 ? 0947 17.29                             128   -0.0110 9.94 2804
 N17      S   0   0947 19.79                             128   -0.0610 9.94 2804
 N2       P   0 ? 0947 17.38                             127    0.0610 10.1 1964
 N2       S   0   0947 19.74                             127   -0.1510 10.1 1964
 N13      P   0 ? 0947 17.32                             127   -0.0210 10.2 2594
 N13      S   0   0947 19.98                             127    0.0610 10.2 2594
 N3       P   0 ? 0947 17.45                             125    0.0410 10.7 2054
 N3       S   0   0947 20.04                             125   -0.0210 10.7 2054
 N1       P   0 ? 0947 17.58                             122    0.0410 11.6 1914
 N1       S   0   0947 20.16                             122   -0.1310 11.6 1914
 P4       P   0 ? 0947 17.78                             118   -0.0110 13.3  694
 JNAK     P   0 ? 0947 19.00                              68   -0.0910 21.3 1364
 ABTL     P   0 ? 0947 20.02                              68   -0.0510 27.3  444
 AHRM     P   0 ? 0947 21.68                              68    0.0310 37.1 1004
                                                                                
 2021  4 4 0958 49.7 L  28.927  50.924 11.2  SLT 19 0.1                        1
 GAP=133        0.23       0.4     0.5  0.6 -0.6138E-01 -0.9479E-01  0.6316E-01E
 STAT SP IPHASW D HRMN SECON CODA AMPLIT PERI AZIMU VELO AIN AR TRES W  DIS CAZ7
 P1       P   0 ? 0958 52.06                             170   -0.0210 1.44 2804
 P1       S   0   0958 53.94                             170   -0.0910 1.44 2804
 P2       P   0 ? 0958 52.23                             165    0.1310 2.20  654
 P2       S   0   0958 54.19                             165    0.1110 2.20  654
 N9       P   0 ? 0958 52.38                             145    0.0510 5.51 2304
 N9       S   0   0958 54.59                             145    0.1010 5.51 2304
 P3       P   0 ? 0958 52.31                             145   -0.0310 5.60  644
 P3       S   0   0958 54.41                             145   -0.1010 5.60  644
 N19      P   0 ? 0958 52.30                             142   -0.0910 6.09 2914
 N19      S   0   0958 54.60                             142   -0.0010 6.09 2914
 N15      P   0 ? 0958 52.44                             138   -0.0210 6.77 2614
 N15      S   0   0958 54.83                             138    0.1110 6.77 2614
 N6       P   0 ? 0958 52.58                             134    0.0310 7.51 2244
 N6       S   0   0958 54.79                             134   -0.0910 7.51 2244
 N18      P   0 ? 0958 52.78                             127    0.0510 9.05 2744
 N18      S   0   0958 55.24                             127    0.0310 9.05 2744
 CAMP     P   0 ? 0958 52.89                             123    0.0610 9.85 1894
 CAMP     S   0   0958 55.45                             123    0.0610 9.85 1894
 N11      P   0 ? 0958 52.88                             123    0.0410 9.86 2554
 N11      S   0   0958 55.25                             123   -0.1610 9.86 2554
 N5       P   0 ? 0958 52.87                             123    0.0110 10.0 2034
 N5       S   0   0958 55.40                             123   -0.0510 10.0 2034
 N4       S   0   0958 55.52                             122    0.0210 10.2 2224
 N17      P   0 ? 0958 52.84                             122   -0.0410 10.2 2794
 N4       P   0 ? 0958 52.94                             122    0.0510 10.2 2224
 N2       P   0 ? 0958 52.91                             121    0.0110 10.4 1974
 N2       S   0   0958 55.51                             121   -0.0210 10.4 1974
 N3       P   0 ? 0958 52.98                             118   -0.0210 11.0 2064
 N1       P   0 ? 0958 53.16                             115    0.0410 11.9 1924
 N1       S   0   0958 55.80                             115   -0.1210 11.9 1924
 P4       P   0 ? 0958 53.20                             111   -0.0810 12.9  704
 TOLS     P   0 ? 0958 54.34                              93    0.0010 19.6  734
 JNAK     P   0 ? 0958 54.61                              92    0.0210 21.2 1374
                                                                                
