 2021  4 4 0849 24.0 L  28.931  50.922 11.1  SLT 13 0.1                        1
 GAP=143        0.23       0.5     0.6  0.8 -0.7663E-01 -0.4409E-01  0.1134E+00E
 STAT SP IPHASW D HRMN SECON CODA AMPLIT PERI AZIMU VELO AIN AR TRES W  DIS CAZ7
 P1       P   0 ? 0849 26.39                             172    0.0110 1.18 2574
 P1       S   0   0849 28.26                             172   -0.0710 1.18 2574
 P2       P   0 ? 0849 26.47                             165    0.0510 2.30  804
 P2       S   0   0849 28.35                             165   -0.0510 2.30  804
 P3       P   0 ? 0849 26.70                             144    0.0510 5.64  704
 P3       S   0   0849 28.91                             144    0.0910 5.64  704
 N9       P   0 ? 0849 26.66                             144    0.0010 5.66 2254
 N19      P   0 ? 0849 26.71                             144    0.0510 5.67 2874
 N19      S   0   0849 28.76                             144   -0.0810 5.67 2874
 N15      P   0 ? 0849 26.67                             139   -0.0810 6.61 2564
 N15      S   0   0849 29.09                             139    0.0910 6.61 2564
 N6       P   0 ? 0849 26.89                             133    0.0110 7.71 2204
 N6       S   0   0849 29.34                             133    0.1110 7.71 2204
 N18      P   0 ? 0849 26.96                             128   -0.0410 8.76 2714
 N18      S   0   0849 29.40                             128   -0.0510 8.76 2714
 N11      P   0 ? 0849 27.13                             124   -0.0010 9.76 2514
 N11      S   0   0849 29.74                             124    0.0510 9.76 2514
 CAMP     P   0 ? 0849 27.16                             121   -0.0510 10.3 1874
 CAMP     S   0   0849 29.70                             121   -0.1210 10.3 1874
 N5       P   0 ? 0849 27.31                             121    0.0810 10.4 2004
 N5       S   0   0849 29.90                             121    0.0410 10.4 2004
 N2       P   0 ? 0849 27.31                             119    0.0410 10.8 1954
 N2       S   0   0849 29.89                             119   -0.0510 10.8 1954
 P4       P   0 ? 0849 27.53                             111   -0.0710 13.0  724
                                                                                
 2021  4 4 0849 31.6 L  28.931  50.918 10.9  SLT 10 0.1                        1
 GAP=142        0.26       1.4     0.8  1.0 -0.2859E+00 -0.1887E+00  0.4465E+00E
 STAT SP IPHASW D HRMN SECON CODA AMPLIT PERI AZIMU VELO AIN AR TRES W  DIS CAZ7
 P1       P   0 ? 0849 34.00                             175    0.0010 0.84 2574
 P1       S   0   0849 35.98                             175    0.0810 0.84 2574
 P2       P   0 ? 0849 34.03                             163   -0.0310 2.64  804
 P2       S   0   0849 36.00                             163   -0.0110 2.64  804
 N19      P   0 ? 0849 34.29                             148    0.0210 5.38 2884
 N19      S   0   0849 36.22                             148   -0.1710 5.38 2884
 P3       P   0 ? 0849 34.28                             145   -0.0410 5.97  704
 N15      P   0 ? 0849 34.37                             143    0.0210 6.27 2564
 N15      S   0   0849 36.64                             143    0.1010 6.27 2564
 N6       P   0 ? 0849 34.50                             138    0.0110 7.45 2184
 N18      P   0 ? 0849 34.65                             133    0.0510 8.42 2724
 N18      S   0   0849 37.01                             133    0.0210 8.42 2724
 N11      P   0 ? 0849 34.70                             129   -0.0310 9.42 2514
 CAMP     P   0 ? 0849 34.75                             127   -0.0910 10.2 1864
 P4       P   0 ? 0849 35.37                             118    0.0710 13.3  724
                                                                                
 2021  4 4 0849 52.4 L  28.931  50.925 10.3  SLT 16 0.1                        1
 GAP=142        0.22       0.5     0.6  0.8 -0.6025E-01 -0.1941E+00  0.5416E-01E
 STAT SP IPHASW D HRMN SECON CODA AMPLIT PERI AZIMU VELO AIN AR TRES W  DIS CAZ7
 P1       P   0 ? 0849 54.66                             170    0.0510 1.44 2614
 P1       S   0   0849 56.40                             170   -0.0510 1.44 2614
 P2       P   0 ? 0849 54.74                             166    0.1010 2.04  784
 P3       P   0 ? 0849 54.89                             145    0.0110 5.39  684
 N9       P   0 ? 0849 54.98                             143    0.0510 5.83 2274
 N9       S   0   0849 57.02                             143    0.0110 5.83 2274
 N19      P   0 ? 0849 55.03                             142    0.0910 5.95 2864
 N19      S   0   0849 57.06                             142    0.0210 5.95 2864
 N15      P   0 ? 0849 55.05                             138    0.0110 6.87 2574
 N6       P   0 ? 0849 55.18                             133    0.0110 7.87 2224
 N18      P   0 ? 0849 55.35                             128    0.0310 9.03 2714
 N18      S   0   0849 57.64                             128   -0.0810 9.03 2714
 N11      P   0 ? 0849 55.51                             124    0.0510 10.0 2524
 N17      P   0 ? 0849 55.49                             124    0.0210 10.1 2764
 N17      S   0   0849 57.90                             124   -0.1010 10.1 2764
 CAMP     P   0 ? 0849 55.45                             123   -0.0510 10.3 1894
 N5       P   0 ? 0849 55.54                             123    0.0110 10.5 2024
 N4       P   0 ? 0849 55.49                             122   -0.0510 10.6 2204
 N4       S   0   0849 58.13                             122    0.0010 10.6 2204
 N2       P   0 ? 0849 55.63                             121    0.0610 10.9 1964
 N2       S   0   0849 58.14                             121   -0.0410 10.9 1964
 P4       P   0 ? 0849 55.84                             116   -0.0310 12.8  724
 TOLS     P   0 ? 0849 56.85                             105   -0.1210 19.5  744
                                                                                
 2021  4 4 0853 39.4 L  28.928  50.915 11.2  SLT 11 0.1                        1
 GAP=139        0.28       0.9     1.3  1.4 -0.2388E+00 -0.8290E+00  0.4433E+00E
 STAT SP IPHASW D HRMN SECON CODA AMPLIT PERI AZIMU VELO AIN AR TRES W  DIS CAZ7
 P1       P   0 ? 0853 41.84                             176   -0.0010 0.54 2814
 P1       S   0   0853 43.80                             176    0.0210 0.54 2814
 P2       P   0 ? 0853 41.97                             160    0.0510 2.99  754
 N9       P   0 ? 0853 42.19                             148    0.1310 4.97 2224
 N19      P   0 ? 0853 42.07                             147   -0.0210 5.21 2924
 N19      S   0   0853 44.31                             147    0.0810 5.21 2924
 N15      P   0 ? 0853 42.19                             143    0.0410 5.92 2584
 N15      S   0   0853 44.13                             143   -0.2210 5.92 2584
 N6       P   0 ? 0853 42.26                             137   -0.0110 7.04 2184
 N18      P   0 ? 0853 42.46                             131    0.0610 8.15 2744
 N5       P   0 ? 0853 42.59                             123   -0.0310 9.89 1974
 CAMP     P   0 ? 0853 42.60                             123   -0.0210 9.90 1844
 N2       P   0 ? 0853 42.66                             121   -0.0110 10.3 1924
 N2       S   0   0853 45.33                             121    0.0410 10.3 1924
 P4       P   0 ? 0853 43.09                             109   -0.0810 13.7  724
                                                                                
 2021  4 4 0854 29.2 L  28.926  50.918 10.1  SLT 23 0.1                        1
 GAP=127        0.27       0.4     0.4  0.7 -0.3337E-01 -0.1065E+00  0.2977E-01E
 STAT SP IPHASW D HRMN SECON CODA AMPLIT PERI AZIMU VELO AIN AR TRES W  DIS CAZ7
 P1       P   0 ? 0854 31.43                             174    0.0510 0.84 2934
 P2       P   0 ? 0854 31.56                             160    0.1010 2.82  694
 P2       S   0   0854 33.23                             160   -0.0810 2.82  694
 N9       P   0 ? 0854 31.70                             147    0.0710 4.98 2264
 N9       S   0   0854 33.71                             147    0.0910 4.98 2264
 N19      P   0 ? 0854 31.80                             144    0.1110 5.52 2944
 N19      S   0   0854 33.72                             144   -0.0110 5.52 2944
 N15      P   0 ? 0854 31.89                             141    0.1410 6.12 2614
 N15      S   0   0854 33.75                             141   -0.0910 6.12 2614
 P3       P   0 ? 0854 31.77                             140    0.0210 6.21  664
 P3       S   0   0854 33.92                             140    0.0710 6.21  664
 N6       P   0 ? 0854 31.93                             136    0.0810 7.02 2214
 N6       S   0   0854 34.07                             136    0.0410 7.02 2214
 N10      P   0 ? 0854 31.82                             134   -0.0810 7.39 2404
 N14      P   0 ? 0854 31.97                             131   -0.0110 8.02 2644
 N14      S   0   0854 34.35                             131    0.0910 8.02 2644
 N18      P   0 ? 0854 32.04                             130    0.0210 8.41 2754
 N18      S   0   0854 34.34                             130   -0.0010 8.41 2754
 N20      P   0 ? 0854 32.11                             127   -0.0110 9.13 2994
 N20      S   0   0854 34.42                             127   -0.1010 9.13 2994
 N11      P   0 ? 0854 32.14                             126    0.0010 9.22 2544
 N11      S   0   0854 34.48                             126   -0.0710 9.22 2544
 N17      P   0 ? 0854 32.17                             125   -0.0210 9.59 2804
 N17      S   0   0854 34.34                             125   -0.2910 9.59 2804
 CAMP     P   0 ? 0854 32.15                             125   -0.0510 9.69 1864
 CAMP     S   0   0854 34.73                             125    0.0710 9.69 1864
 N5       P   0 ? 0854 32.26                             124    0.0510 9.74 1994
 N5       S   0   0854 34.55                             124   -0.1310 9.74 1994
 N4       P   0 ? 0854 32.25                             124    0.0410 9.78 2204
 N4       S   0   0854 34.71                             124    0.0210 9.78 2204
 N13      S   0   0854 34.87                             124    0.1610 9.87 2584
 N2       P   0 ? 0854 32.30                             123    0.0410 10.1 1944
 N2       S   0   0854 34.62                             123   -0.1510 10.1 1944
 N3       P   0 ? 0854 32.38                             121    0.0310 10.7 2034
 N3       S   0   0854 35.01                             121    0.0810 10.7 2034
 N1       P   0 ? 0854 32.56                             118    0.0610 11.7 1894
 N1       S   0   0854 35.05                             118   -0.1510 11.7 1894
 P4       P   0 ? 0854 32.75                             113   -0.0410 13.6  704
 P4       S   0   0854 35.72                             113   -0.0110 13.6  704
 TOLS     P   0 ? 0854 33.87                             103   -0.0410 20.3  734
 TOLS     S   0   0854 37.71                             103   -0.0410 20.3  734
 JNAK     P   0 ? 0854 34.06                             102   -0.0710 21.6 1354
                                                                                
 2021  4 4 0855 23.7 L  28.926  50.917 10.3  SLT 19 0.1                        1
 GAP= 81        0.26       0.4     0.4  0.8 -0.5146E-01 -0.1361E+00 -0.1362E-02E
 STAT SP IPHASW D HRMN SECON CODA AMPLIT PERI AZIMU VELO AIN AR TRES W  DIS CAZ7
 P1       P   0 ? 0855 25.94                             175   -0.0310 0.73 2994
 P2       P   0 ? 0855 26.12                             160    0.0610 2.96  704
 P2       S   0   0855 28.06                             160    0.1110 2.96  704
 N9       P   0 ? 0855 26.27                             149    0.0610 4.86 2254
 N9       S   0   0855 28.30                             149    0.0810 4.86 2254
 N19      P   0 ? 0855 26.24                             146   -0.0210 5.41 2944
 N19      S   0   0855 28.41                             146    0.0910 5.41 2944
 N15      P   0 ? 0855 26.35                             142    0.0310 5.98 2614
 N15      S   0   0855 28.42                             142   -0.0010 5.98 2614
 P3       P   0 ? 0855 26.45                             141    0.0910 6.35  664
 P3       S   0   0855 28.45                             141   -0.0410 6.35  664
 N6       P   0 ? 0855 26.42                             138   -0.0010 6.91 2204
 N6       S   0   0855 28.63                             138    0.0110 6.91 2204
 N10      P   0 ? 0855 26.45                             136   -0.0110 7.27 2404
 N10      S   0   0855 28.62                             136   -0.0710 7.27 2404
 N18      P   0 ? 0855 26.69                             131    0.1010 8.28 2764
 N18      S   0   0855 28.77                             131   -0.1410 8.28 2764
 N11      P   0 ? 0855 26.73                             128    0.0310 9.09 2544
 N11      S   0   0855 28.92                             128   -0.1910 9.09 2544
 CAMP     P   0 ? 0855 26.87                             126    0.1010 9.66 1854
 CAMP     S   0   0855 29.35                             126    0.1010 9.66 1854
 N5       P   0 ? 0855 26.79                             126    0.0110 9.68 1994
 N5       S   0   0855 29.26                             126   -0.0010 9.68 1994
 N13      S   0   0855 29.27                             126   -0.0010 9.73 2584
 N2       P   0 ? 0855 26.87                             124    0.0410 10.1 1934
 N2       S   0   0855 29.21                             124   -0.1510 10.1 1934
 N1       S   0   0855 29.73                             119   -0.0510 11.6 1884
 P4       P   0 ? 0855 27.45                             114    0.0610 13.7  714
 P4       S   0   0855 30.24                             114   -0.1210 13.7  714
 SHIF     P   0 ? 0855 27.78                             109   -0.0410 16.4 3454
 TOLS     P   0 ? 0855 28.59                             104    0.0910 20.4  734
 TOLS     S   0   0855 32.22                             104   -0.1510 20.4  734
 KHIA     P   0 ? 0855 29.35                             101    0.0610 25.0 1034
 KHIA     S   0   0855 33.69                             101   -0.1010 25.0 1034
                                                                                
 2021  4 4 0856 27.6 L  28.922  50.919 10.5  SLT 21 0.1                        1
 GAP=109        0.26       0.4     0.4  0.7 -0.2263E-01 -0.1057E+00  0.2242E-01E
 STAT SP IPHASW D HRMN SECON CODA AMPLIT PERI AZIMU VELO AIN AR TRES W  DIS CAZ7
 P1       P   0 ? 0856 29.98                             172    0.0510 1.14 3124
 P1       S   0   0856 31.72                             172   -0.0810 1.14 3124
 P2       P   0 ? 0856 30.18                             161    0.1710 2.94  614
 P2       S   0   0856 32.05                             161    0.1210 2.94  614
 N9       P   0 ? 0856 30.24                             150    0.1010 4.75 2314
 N9       S   0   0856 32.26                             150    0.0910 4.75 2314
 N19      P   0 ? 0856 30.24                             144   -0.0010 5.78 2974
 N19      S   0   0856 32.30                             144   -0.0610 5.78 2974
 N15      P   0 ? 0856 30.32                             142    0.0410 6.14 2654
 N15      S   0   0856 32.31                             142   -0.1110 6.14 2654
 P3       P   0 ? 0856 30.31                             141    0.0110 6.33  624
 P3       S   0   0856 32.44                             141   -0.0110 6.33  624
 N6       P   0 ? 0856 30.45                             140    0.1010 6.75 2244
 N6       S   0   0856 32.58                             140    0.0310 6.75 2244
 N10      S   0   0856 32.57                             137   -0.0810 7.26 2444
 N14      S   0   0856 32.69                             133   -0.1410 8.07 2684
 N18      P   0 ? 0856 30.47                             131   -0.0910 8.54 2784
 N18      S   0   0856 32.98                             131    0.0510 8.54 2784
 N11      P   0 ? 0856 30.64                             129   -0.0110 9.19 2574
 N11      S   0   0856 33.07                             129   -0.0210 9.19 2574
 CAMP     P   0 ? 0856 30.66                             128    0.0110 9.27 1864
 CAMP     S   0   0856 33.06                             128   -0.0410 9.27 1864
 N5       P   0 ? 0856 30.70                             128    0.0310 9.36 2014
 N5       S   0   0856 33.14                             128    0.0110 9.36 2014
 N20      S   0   0856 33.19                             128    0.0510 9.42 3014
 N17      P   0 ? 0856 30.74                             127    0.0210 9.75 2824
 N17      S   0   0856 33.10                             127   -0.1310 9.75 2824
 N2       P   0 ? 0856 30.78                             127    0.0610 9.76 1954
 N2       S   0   0856 33.29                             127    0.0710 9.76 1954
 N13      P   0 ? 0856 30.71                             126   -0.0310 9.86 2604
 N13      S   0   0856 33.32                             126    0.0610 9.86 2604
 N1       P   0 ? 0856 31.03                             122    0.0910 11.2 1904
 N1       S   0   0856 33.48                             122   -0.1410 11.2 1904
 P4       P   0 ? 0856 31.35                             115    0.0410 13.6  694
 TOLS     P   0 ? 0856 32.41                             105    0.0010 20.3  724
 TOLS     S   0   0856 36.21                             105   -0.0610 20.3  724
 KHIA     S   0   0856 37.42                             101   -0.2110 24.7 1034
                                                                                
 2021  4 4 0858  1.6 L  28.925  50.922 11.4  SLT  9 0.1                        1
 GAP=135        0.28       1.4     1.0  1.3 -0.1623E+00  0.4887E-01  0.7402E+00E
 STAT SP IPHASW D HRMN SECON CODA AMPLIT PERI AZIMU VELO AIN AR TRES W  DIS CAZ7
 P1       P   0 ? 0858  4.05                             172    0.0410 1.28 2894
 P1       S   0   0858  5.79                             172   -0.2010 1.28 2894
 P2       P   0 ? 0858  4.04                             164   -0.0110 2.46  644
 P2       S   0   0858  6.18                             164    0.1210 2.46  644
 N15      P   0 ? 0858  4.35                             141   -0.0110 6.54 2624
 N15      S   0   0858  6.74                             141    0.1110 6.54 2624
 N6       P   0 ? 0858  4.54                             137    0.1010 7.25 2244
 N6       S   0   0858  6.76                             137   -0.0110 7.25 2244
 N18      P   0 ? 0858  4.59                             129   -0.0310 8.86 2764
 N18      S   0   0858  7.07                             129   -0.0310 8.86 2764
 N11      P   0 ? 0858  4.67                             126   -0.0510 9.62 2554
 N11      S   0   0858  7.32                             126    0.0310 9.62 2554
 CAMP     P   0 ? 0858  4.66                             126   -0.0610 9.66 1884
 N5       P   0 ? 0858  4.72                             125   -0.0210 9.81 2024
 N4       P   0 ? 0858  4.78                             125    0.011010.00 2224
                                                                                
