 2021  4 4 0900 30.2 L  28.925  50.915 11.0  SLT 26 0.1                        1
 GAP= 59        0.28       0.4     0.4  0.5 -0.2493E-01 -0.1283E+00 -0.7532E-02E
 STAT SP IPHASW D HRMN SECON CODA AMPLIT PERI AZIMU VELO AIN AR TRES W  DIS CAZ7
 P1       P   0 ? 0900 32.52                             176   -0.0510 0.60 3114
 P1       S   0   0900 34.43                             176   -0.0510 0.60 3114
 P2       P   0 ? 0900 32.71                             160    0.0510 3.14  704
 P2       S   0   0900 34.73                             160    0.0810 3.14  704
 N9       P   0 ? 0900 32.88                             151    0.1110 4.71 2244
 N9       S   0   0900 35.01                             151    0.1610 4.71 2244
 N19      P   0 ? 0900 32.91                             149    0.0810 5.26 2964
 N19      S   0   0900 34.95                             149   -0.0010 5.26 2964
 N15      P   0 ? 0900 32.98                             146    0.1110 5.80 2614
 N15      S   0   0900 35.09                             146    0.0510 5.80 2614
 P3       P   0 ? 0900 32.93                             142   -0.0210 6.52  664
 P3       S   0   0900 35.31                             142    0.1410 6.52  664
 N6       P   0 ? 0900 33.14                             141    0.1610 6.77 2194
 N6       S   0   0900 35.28                             141    0.0510 6.77 2194
 N10      P   0 ? 0900 33.05                             140    0.0410 7.09 2404
 N10      S   0   0900 35.18                             140   -0.1110 7.09 2404
 N18      P   0 ? 0900 33.18                             135    0.0510 8.11 2764
 N18      S   0   0900 35.39                             135   -0.1110 8.11 2764
 N20      P   0 ? 0900 33.30                             132    0.0810 8.89 3004
 N20      S   0   0900 35.41                             132   -0.2610 8.89 3004
 N11      P   0 ? 0900 33.26                             132    0.0310 8.91 2544
 N11      S   0   0900 35.61                             132   -0.0710 8.91 2544
 N17      P   0 ? 0900 33.33                             130    0.0510 9.30 2814
 N17      S   0   0900 35.72                             130   -0.0510 9.30 2814
 N4       P   0 ? 0900 33.37                             129    0.0610 9.54 2184
 N4       S   0   0900 35.84                             129    0.0110 9.54 2184
 N13      P   0 ? 0900 33.33                             129    0.0210 9.55 2584
 N13      S   0   0900 35.74                             129   -0.1010 9.55 2584
 N5       P   0 ? 0900 33.40                             129    0.0810 9.59 1984
 N5       S   0   0900 35.76                             129   -0.0810 9.59 1984
 CAMP     P   0 ? 0900 33.33                             129    0.0110 9.61 1844
 CAMP     S   0   0900 35.61                             129   -0.2310 9.61 1844
 N2       P   0 ? 0900 33.43                             128    0.0610 10.0 1924
 N2       S   0   0900 35.94                             128    0.0010 10.0 1924
 N3       P   0 ? 0900 33.44                             126   -0.0110 10.5 2024
 N3       S   0   0900 36.07                             126   -0.0110 10.5 2024
 N1       P   0 ? 0900 33.56                             123   -0.0410 11.6 1884
 N1       S   0   0900 36.33                             123   -0.0210 11.6 1884
 P4       P   0 ? 0900 33.98                             117    0.0310 13.9  714
 P4       S   0   0900 36.79                             117   -0.1910 13.9  714
 SHIF     P   0 ? 0900 34.29                             112   -0.0510 16.4 3464
 TOLS     P   0 ? 0900 35.05                              68    0.0210 20.6  734
 KHIA     P   0 ? 0900 35.72                              68   -0.0610 25.2 1034
 KHIA     S   0   0900 40.10                              68   -0.1910 25.2 1034
 ABTL     P   0 ? 0900 36.22                              68    0.0410 27.7  454
 P9       P   0 ? 0900 36.49                              68   -0.0210 29.7  734
 KOLO     P   0 ? 0900 38.19                              68    0.1310 39.3 1264
                                                                                
 2021  4 4 0901 11.7 L  28.924  50.923 10.8  SLT 22 0.1                        1
 GAP=117        0.23       0.4     0.4  0.5 -0.2088E-01 -0.5840E-01 -0.2746E-01E
 STAT SP IPHASW D HRMN SECON CODA AMPLIT PERI AZIMU VELO AIN AR TRES W  DIS CAZ7
 P1       P   0 ? 0901 14.13                             171    0.0310 1.40 2954
 P1       S   0   0901 15.91                             171   -0.0910 1.40 2954
 P2       P   0 ? 0901 14.21                             164    0.0710 2.49  594
 P2       S   0   0901 16.17                             164    0.1010 2.49  594
 N9       P   0 ? 0901 14.41                             148    0.0810 5.18 2324
 N9       S   0   0901 16.52                             148    0.1010 5.18 2324
 P3       P   0 ? 0901 14.46                             145    0.0610 5.88  614
 P3       S   0   0901 16.43                             145   -0.1210 5.88  614
 N19      P   0 ? 0901 14.46                             144    0.0410 6.09 2944
 N19      S   0   0901 16.53                             144   -0.0610 6.09 2944
 N15      P   0 ? 0901 14.58                             141    0.1110 6.58 2644
 N15      S   0   0901 16.59                             141   -0.0910 6.58 2644
 N6       P   0 ? 0901 14.54                             139   -0.0010 7.16 2254
 N6       S   0   0901 16.87                             139    0.0710 7.16 2254
 N10      P   0 ? 0901 14.58                             136   -0.0210 7.71 2444
 N10      S   0   0901 17.00                             136    0.0810 7.71 2444
 N14      P   0 ? 0901 14.71                             133    0.0110 8.50 2674
 N14      S   0   0901 17.12                             133    0.0210 8.50 2674
 N18      P   0 ? 0901 14.73                             131   -0.0210 8.94 2774
 N18      S   0   0901 17.14                             131   -0.0510 8.94 2774
 CAMP     P   0 ? 0901 14.83                             129    0.0010 9.49 1894
 CAMP     S   0   0901 17.23                             129   -0.0910 9.49 1894
 N11      P   0 ? 0901 14.78                             128   -0.0710 9.64 2564
 N11      S   0   0901 17.26                             128   -0.1110 9.64 2564
 N5       P   0 ? 0901 14.94                             128    0.0810 9.67 2034
 N5       S   0   0901 17.19                             128   -0.1810 9.67 2034
 N20      P   0 ? 0901 14.87                             128    0.0110 9.70 2994
 N20      S   0   0901 17.43                             128    0.0510 9.70 2994
 N4       P   0 ? 0901 14.89                             127    0.0010 9.91 2234
 N2       P   0 ? 0901 14.97                             127    0.0710 10.0 1974
 N2       S   0   0901 17.47                             127    0.0210 10.0 1974
 N17      P   0 ? 0901 14.93                             127    0.0110 10.1 2814
 N17      S   0   0901 17.47                             127   -0.0110 10.1 2814
 N13      P   0 ? 0901 14.95                             126    0.0110 10.3 2604
 N13      S   0   0901 17.55                             126    0.0210 10.3 2604
 P4       P   0 ? 0901 15.41                             118    0.0410 13.2  694
 SHIF     P   0 ? 0901 15.92                             110   -0.0210 16.8 3434
 TOLS     P   0 ? 0901 16.41                             106   -0.0510 19.9  724
 ABTL     P   0 ? 0901 17.57                              68   -0.1010 27.3  444
                                                                                
 2021  4 4 0901 11.6 L  28.932  50.917 11.3  SLT 19 0.1                        1
 GAP=101        0.23       0.5     0.5  0.6 -0.5042E-01 -0.2621E-01  0.2180E-01E
 STAT SP IPHASW D HRMN SECON CODA AMPLIT PERI AZIMU VELO AIN AR TRES W  DIS CAZ7
 P1       P   0 ? 0901 14.11                             175    0.0610 0.74 2404
 P1       S   0   0901 16.02                             175    0.0110 0.74 2404
 P2       P   0 ? 0901 14.18                             162    0.0610 2.78  844
 P2       S   0   0901 16.22                             162    0.0910 2.78  844
 N19      P   0 ? 0901 14.31                             148    0.0210 5.16 2874
 N19      S   0   0901 16.44                             148   -0.0010 5.16 2874
 N9       P   0 ? 0901 14.40                             146    0.0910 5.40 2204
 N9       S   0   0901 16.41                             146   -0.0610 5.40 2204
 P3       P   0 ? 0901 14.48                             142    0.1110 6.08  724
 P3       S   0   0901 16.42                             142   -0.1710 6.08  724
 N15      P   0 ? 0901 14.37                             142   -0.0110 6.15 2544
 N15      S   0   0901 16.48                             142   -0.1210 6.15 2544
 N6       P   0 ? 0901 14.61                             135    0.0810 7.49 2164
 N6       S   0   0901 16.93                             135    0.0610 7.49 2164
 N10      P   0 ? 0901 14.52                             134   -0.0210 7.66 2354
 N14      P   0 ? 0901 14.63                             133    0.0510 8.00 2594
 N18      P   0 ? 0901 14.56                             131   -0.0510 8.25 2714
 N18      S   0   0901 17.07                             131    0.0510 8.25 2714
 N20      P   0 ? 0901 14.63                             129   -0.0310 8.70 2954
 N11      P   0 ? 0901 14.72                             127   -0.0310 9.32 2504
 N11      S   0   0901 17.27                             127    0.0010 9.32 2504
 CAMP     P   0 ? 0901 14.88                             122   -0.0010 10.4 1854
 CAMP     S   0   0901 17.44                             122   -0.0710 10.4 1854
 N5       P   0 ? 0901 14.90                             122    0.0110 10.4 1974
 N2       P   0 ? 0901 14.94                             120    0.0010 10.8 1924
 N3       P   0 ? 0901 15.05                             118    0.0310 11.3 2014
 N1       P   0 ? 0901 15.08                             114   -0.0910 12.3 1884
 P4       P   0 ? 0901 15.32                             110   -0.0110 13.5  734
 SHIF     P   0 ? 0901 15.62                             103   -0.0610 15.7 3454
                                                                                
 2021  4 4 0901 45.7 L  28.927  50.921 10.5  SLT 18 0.1                        1
 GAP=128        0.24       0.4     0.5  0.7 -0.5520E-02 -0.2498E-01  0.3781E-01E
 STAT SP IPHASW D HRMN SECON CODA AMPLIT PERI AZIMU VELO AIN AR TRES W  DIS CAZ7
 P1       P   0 ? 0901 48.12                             172    0.1610 1.13 2814
 P1       S   0   0901 49.85                             172    0.0310 1.13 2814
 P2       P   0 ? 0901 48.03                             164    0.0210 2.47  694
 P2       S   0   0901 49.89                             164   -0.0210 2.47  694
 N9       P   0 ? 0901 48.30                             147    0.0710 5.31 2284
 N9       S   0   0901 50.37                             147    0.0810 5.31 2284
 N19      P   0 ? 0901 48.29                             144    0.0110 5.79 2914
 N19      S   0   0901 50.30                             144   -0.0910 5.79 2914
 P3       P   0 ? 0901 48.36                             144    0.0810 5.85  654
 P3       S   0   0901 50.28                             144   -0.1110 5.85  654
 N15      P   0 ? 0901 48.35                             141    0.0010 6.47 2604
 N15      S   0   0901 50.64                             141    0.1310 6.47 2604
 N6       P   0 ? 0901 48.37                             137   -0.0810 7.33 2224
 N6       S   0   0901 50.82                             137    0.1210 7.33 2224
 N10      P   0 ? 0901 48.50                             135    0.0010 7.75 2414
 N18      P   0 ? 0901 48.63                             130    0.0110 8.74 2744
 N18      S   0   0901 51.07                             130    0.0610 8.74 2744
 N20      P   0 ? 0901 48.76                             128    0.0510 9.37 2974
 N20      S   0   0901 51.01                             128   -0.1510 9.37 2974
 N11      P   0 ? 0901 48.72                             127   -0.0210 9.58 2544
 N11      S   0   0901 51.13                             127   -0.0910 9.58 2544
 CAMP     P   0 ? 0901 48.75                             126   -0.0210 9.85 1884
 CAMP     S   0   0901 51.13                             126   -0.1510 9.85 1884
 N17      P   0 ? 0901 48.73                             126   -0.0510 9.91 2794
 N17      S   0   0901 51.28                             126   -0.0210 9.91 2794
 N5       P   0 ? 0901 48.83                             126    0.0410 9.97 2014
 N5       S   0   0901 51.23                             126   -0.0910 9.97 2014
 N2       P   0 ? 0901 48.84                             124   -0.0010 10.4 1954
 N2       S   0   0901 51.44                             124    0.0310 10.4 1954
 N3       P   0 ? 0901 48.95                             122    0.0210 11.0 2044
 N3       S   0   0901 51.58                             122    0.0110 11.0 2044
 N1       P   0 ? 0901 49.08                             120    0.0110 11.8 1914
 N1       S   0   0901 51.80                             120   -0.0210 11.8 1914
 P4       P   0 ? 0901 49.27                             116   -0.0110 13.2  704
                                                                                
 2021  4 4 0902 14.7 L  28.925  50.918 10.8  SLT 17 0.1                        1
 GAP=127        0.23       0.4     0.5  0.7 -0.2627E-01 -0.3700E-01  0.4221E-01E
 STAT SP IPHASW D HRMN SECON CODA AMPLIT PERI AZIMU VELO AIN AR TRES W  DIS CAZ7
 P1       P   0 ? 0902 17.11                             174    0.0910 0.88 2984
 P1       S   0   0902 18.88                             174   -0.0410 0.88 2984
 P2       P   0 ? 0902 17.21                             162    0.1210 2.85  684
 P2       S   0   0902 19.10                             162    0.0510 2.85  684
 N9       P   0 ? 0902 17.27                             150    0.0310 4.92 2274
 N9       S   0   0902 19.39                             150    0.0710 4.92 2274
 N19      P   0 ? 0902 17.36                             146    0.0510 5.57 2944
 N19      S   0   0902 19.52                             146    0.0810 5.57 2944
 N15      P   0 ? 0902 17.34                             144   -0.0210 6.11 2614
 N15      S   0   0902 19.45                             144   -0.0810 6.11 2614
 P3       P   0 ? 0902 17.36                             143   -0.0110 6.24  654
 P3       S   0   0902 19.44                             143   -0.1110 6.24  654
 N6       P   0 ? 0902 17.38                             140   -0.0710 6.96 2214
 N6       S   0   0902 19.84                             140    0.1410 6.96 2214
 N18      P   0 ? 0902 17.66                             133    0.0410 8.43 2764
 N18      S   0   0902 19.86                             133   -0.1510 8.43 2764
 N11      P   0 ? 0902 17.74                             130    0.0110 9.21 2554
 N11      S   0   0902 20.11                             130   -0.0910 9.21 2554
 CAMP     P   0 ? 0902 17.81                             129    0.0310 9.60 1864
 CAMP     S   0   0902 20.22                             129   -0.0710 9.60 1864
 N17      P   0 ? 0902 17.83                             128    0.0510 9.62 2814
 N17      S   0   0902 20.22                             128   -0.0710 9.62 2814
 N5       P   0 ? 0902 17.77                             128   -0.0210 9.66 1994
 N5       S   0   0902 20.34                             128    0.0310 9.66 1994
 N13      P   0 ? 0902 17.80                             128   -0.0210 9.86 2584
 N13      S   0   0902 20.44                             128    0.0810 9.86 2584
 N2       P   0 ? 0902 17.82                             127   -0.0210 10.1 1944
 N2       S   0   0902 20.29                             127   -0.1110 10.1 1944
 N3       P   0 ? 0902 17.94                             125    0.0210 10.6 2034
 N3       S   0   0902 20.59                             125    0.0410 10.6 2034
 N1       P   0 ? 0902 18.05                             122   -0.0110 11.6 1894
 P4       P   0 ? 0902 18.31                             117   -0.0510 13.6  704
                                                                                
 2021  4 4 0903 25.7 L  28.930  50.916 11.3  SLT  7 0.1                        1
 GAP=149        0.30       1.0     1.3  1.3 -0.1373E+00 -0.1530E+00  0.3649E+00E
 STAT SP IPHASW D HRMN SECON CODA AMPLIT PERI AZIMU VELO AIN AR TRES W  DIS CAZ7
 P1       P   0 ? 0903 28.13                             176    0.0210 0.55 2594
 P1       S   0   0903 30.05                             176   -0.0110 0.55 2594
 P2       P   0 ? 0903 28.17                             161   -0.0110 2.92  794
 P2       S   0   0903 30.25                             161    0.0510 2.92  794
 N9       P   0 ? 0903 28.35                             148    0.0110 5.14 2214
 N9       S   0   0903 30.48                             148   -0.0110 5.14 2214
 N19      P   0 ? 0903 28.35                             148    0.0010 5.15 2904
 N19      S   0   0903 30.30                             148   -0.2010 5.15 2904
 N15      P   0 ? 0903 28.50                             143    0.0810 5.99 2564
 N15      S   0   0903 30.83                             143    0.2010 5.99 2564
 N6       P   0 ? 0903 28.55                             136   -0.0010 7.22 2174
 N6       S   0   0903 30.81                             136   -0.0610 7.22 2174
 CAMP     P   0 ? 0903 28.84                             123   -0.0610 10.1 1844
 CAMP     S   0   0903 31.50                             123   -0.0110 10.1 1844
                                                                                
