 2021  4 4 1017 58.8 L  28.925  50.920 10.8  SLT 23 0.1                        1
 GAP=115        0.26       0.4     0.5  0.6 -0.2491E-02 -0.1255E+00 -0.3569E-01E
 STAT SP IPHASW D HRMN SECON CODA AMPLIT PERI AZIMU VELO AIN AR TRES W  DIS CAZ7
 P1       P   0 ? 1018  1.12                             173    0.0210 1.09 2964
 P1       S   0   1018  3.12                             173    0.1210 1.09 2964
 P2       P   0 ? 1018  1.23                             163    0.0710 2.69  654
 P2       S   0   1018  3.04                             163   -0.0610 2.69  654
 N9       P   0 ? 1018  1.33                             149    0.0110 5.03 2294
 N9       S   0   1018  3.55                             149    0.1410 5.03 2294
 N19      P   0 ? 1018  1.43                             145    0.0310 5.78 2944
 N19      S   0   1018  3.35                             145   -0.1910 5.78 2944
 P3       P   0 ? 1018  1.46                             144    0.0310 6.09  644
 N15      P   0 ? 1018  1.47                             143    0.0210 6.30 2624
 N15      S   0   1018  3.41                             143   -0.2310 6.30 2624
 N6       P   0 ? 1018  1.58                             139    0.0510 7.04 2234
 N6       S   0   1018  3.72                             139   -0.0710 7.04 2234
 N10      P   0 ? 1018  1.68                             137    0.0910 7.50 2424
 N10      S   0   1018  3.92                             137    0.0410 7.50 2424
 N14      P   0 ? 1018  1.66                             134   -0.0110 8.22 2664
 N14      S   0   1018  4.23                             134    0.1910 8.22 2664
 N18      P   0 ? 1018  1.76                             132    0.0410 8.63 2764
 N18      S   0   1018  4.23                             132    0.1010 8.63 2764
 N11      P   0 ? 1018  1.85                             129    0.0310 9.38 2554
 N11      S   0   1018  4.24                             129   -0.0710 9.38 2554
 N20      P   0 ? 1018  1.78                             129   -0.0410 9.39 2994
 N20      S   0   1018  4.29                             129   -0.0210 9.39 2994
 CAMP     P   0 ? 1018  1.85                             129    0.0110 9.56 1874
 CAMP     S   0   1018  4.24                             129   -0.1110 9.56 1874
 N5       P   0 ? 1018  1.91                             128    0.0510 9.67 2014
 N5       S   0   1018  4.26                             128   -0.1210 9.67 2014
 N4       P   0 ? 1018  1.86                             128   -0.0210 9.80 2214
 N4       S   0   1018  4.38                             128   -0.0310 9.80 2214
 N17      P   0 ? 1018  1.87                             128   -0.0110 9.83 2814
 N17      S   0   1018  4.39                             128   -0.0210 9.83 2814
 N13      P   0 ? 1018  1.83                             127   -0.0810 10.0 2594
 N13      S   0   1018  4.52                             127    0.0410 10.0 2594
 N2       P   0 ? 1018  1.98                             127    0.0710 10.1 1954
 N2       S   0   1018  4.49                             127    0.0210 10.1 1954
 N3       P   0 ? 1018  2.09                             125    0.0910 10.6 2044
 N3       S   0   1018  4.65                             125    0.0210 10.6 2044
 N1       P   0 ? 1018  2.19                             122    0.0610 11.5 1904
 N1       S   0   1018  4.75                             122   -0.1210 11.5 1904
 P4       P   0 ? 1018  2.38                             117   -0.0310 13.4  694
 TOLS     P   0 ? 1018  3.52                             106    0.0210 20.1  734
 NOKA     P   0 ? 1018  5.15                              68   -0.1210 31.0  214
                                                                                
 2021  4 4 1019 28.7 L  28.924  50.924 11.5  SLT 19 0.1                        1
 GAP=121        0.24       0.4     0.4  0.7 -0.1819E-01 -0.1122E+00  0.2665E-01E
 STAT SP IPHASW D HRMN SECON CODA AMPLIT PERI AZIMU VELO AIN AR TRES W  DIS CAZ7
 P1       P   0 ? 1019 31.19                             171   -0.0110 1.45 2934
 P1       S   0   1019 33.25                             171    0.0510 1.45 2934
 P2       P   0 ? 1019 31.24                             164    0.0110 2.42  594
 P2       S   0   1019 33.29                             164    0.0310 2.42  594
 N9       P   0 ? 1019 31.51                             148    0.0910 5.25 2334
 N9       S   0   1019 33.74                             148    0.1410 5.25 2334
 P3       P   0 ? 1019 31.39                             145   -0.0810 5.81  614
 P3       S   0   1019 33.76                             145    0.0710 5.81  614
 N19      P   0 ? 1019 31.64                             143    0.1310 6.14 2944
 N19      S   0   1019 33.63                             143   -0.1310 6.14 2944
 N15      P   0 ? 1019 31.62                             140    0.0610 6.64 2634
 N15      S   0   1019 33.74                             140   -0.1010 6.64 2634
 N6       P   0 ? 1019 31.64                             138    0.0210 7.23 2254
 N6       S   0   1019 33.94                             138   -0.0210 7.23 2254
 N18      P   0 ? 1019 31.79                             129   -0.0310 9.00 2774
 N18      S   0   1019 34.16                             129   -0.1710 9.00 2774
 CAMP     P   0 ? 1019 31.98                             127    0.0910 9.52 1894
 CAMP     S   0   1019 34.38                             127   -0.0610 9.52 1894
 N11      P   0 ? 1019 31.95                             126    0.0310 9.71 2564
 N11      S   0   1019 34.56                             126    0.0610 9.71 2564
 N5       P   0 ? 1019 31.95                             126    0.0310 9.72 2034
 N5       S   0   1019 34.37                             126   -0.1310 9.72 2034
 N20      P   0 ? 1019 31.93                             126    0.0110 9.74 2994
 N20      S   0   1019 34.48                             126   -0.0210 9.74 2994
 N4       P   0 ? 1019 31.94                             125   -0.0110 9.97 2234
 N4       S   0   1019 34.56                             125    0.0110 9.97 2234
 N2       P   0 ? 1019 31.97                             125    0.0110 10.1 1974
 N2       S   0   1019 34.65                             125    0.0810 10.1 1974
 N17      P   0 ? 1019 32.04                             124    0.0710 10.2 2814
 N17      S   0   1019 34.56                             124   -0.0410 10.2 2814
 N1       P   0 ? 1019 32.24                             119    0.0810 11.5 1924
 N1       S   0   1019 34.83                             119   -0.1110 11.5 1924
 P4       P   0 ? 1019 32.35                             114   -0.0410 13.1  694
 TOLS     P   0 ? 1019 33.40                              97   -0.0410 19.8  724
 KHIA     P   0 ? 1019 34.18                              94    0.0210 24.3 1034
 KHIA     S   0   1019 38.46                              94   -0.1010 24.3 1034
                                                                                
 2021  4 4 1019 55.0 L  28.930  50.925 11.3  SLT 19 0.1                        1
 GAP=114        0.22       0.4     0.5  0.6  0.8560E-02 -0.1120E+00 -0.2102E-01E
 STAT SP IPHASW D HRMN SECON CODA AMPLIT PERI AZIMU VELO AIN AR TRES W  DIS CAZ7
 P1       P   0 ? 1019 57.43                             170    0.0210 1.46 2654
 P1       S   0   1019 59.35                             170   -0.0410 1.46 2654
 P2       P   0 ? 1019 57.47                             167    0.0410 2.03  754
 P2       S   0   1019 59.39                             167   -0.0310 2.03  754
 N9       P   0 ? 1019 57.74                             144    0.0510 5.79 2284
 N9       S   0   1019 59.96                             144    0.0710 5.79 2284
 N19      P   0 ? 1019 57.65                             143   -0.0610 6.00 2874
 N19      S   0   1020  0.00                             143    0.0710 6.00 2874
 N15      P   0 ? 1019 57.80                             138    0.0010 6.88 2584
 N15      S   0   1020  0.16                             138    0.0710 6.88 2584
 N6       P   0 ? 1019 57.93                             134    0.0210 7.82 2224
 N6       S   0   1020  0.35                             134    0.0710 7.82 2224
 N10      P   0 ? 1019 58.01                             132    0.0610 8.22 2404
 N10      S   0   1020  0.33                             132   -0.0410 8.22 2404
 N14      P   0 ? 1019 58.05                             129    0.0310 8.76 2624
 N14      S   0   1020  0.56                             129    0.0710 8.76 2624
 N18      P   0 ? 1019 58.17                             128    0.1210 9.06 2724
 N18      S   0   1020  0.42                             128   -0.1310 9.06 2724
 N20      P   0 ? 1019 58.18                             126    0.0710 9.53 2954
 N20      S   0   1020  0.66                             126    0.0010 9.53 2954
 N11      P   0 ? 1019 58.16                             124   -0.0210 10.0 2524
 N11      S   0   1020  0.68                             124   -0.1010 10.0 2524
 CAMP     P   0 ? 1019 58.17                             123   -0.0410 10.2 1894
 CAMP     S   0   1020  0.72                             123   -0.1010 10.2 1894
 N17      P   0 ? 1019 58.15                             123   -0.0510 10.2 2774
 N17      S   0   1020  0.68                             123   -0.1410 10.2 2774
 N5       P   0 ? 1019 58.29                             122    0.0610 10.4 2024
 N5       S   0   1020  0.94                             122    0.0610 10.4 2024
 N2       P   0 ? 1019 58.30                             121    0.0210 10.8 1974
 N2       S   0   1020  0.81                             121   -0.1410 10.8 1974
 N1       P   0 ? 1019 58.51                             115    0.0210 12.2 1924
 N1       S   0   1020  1.40                             115    0.0510 12.2 1924
 P4       P   0 ? 1019 58.54                             113   -0.0310 12.8  714
 SHIF     P   0 ? 1019 59.09                             102    0.0010 16.2 3424
 TOLS     P   0 ? 1019 59.57                              95   -0.0510 19.5  744
                                                                                
 2021  4 4 1030 47.8 L  28.928  50.926 10.9  SLT 17 0.1                        1
 GAP=128        0.24       0.6     0.7  0.9  0.2734E-01 -0.3310E+00  0.1694E-01E
 STAT SP IPHASW D HRMN SECON CODA AMPLIT PERI AZIMU VELO AIN AR TRES W  DIS CAZ7
 P1       P   0 ? 1030 50.23                             170    0.0410 1.59 2754
 P2       P   0 ? 1030 50.16                             167   -0.0410 2.00  664
 P3       P   0 ? 1030 50.49                             148    0.0610 5.39  644
 N9       P   0 ? 1030 50.50                             146    0.0410 5.71 2314
 N19      P   0 ? 1030 50.58                             144    0.0610 6.21 2894
 N19      S   0   1030 52.73                             144    0.0210 6.21 2894
 N15      P   0 ? 1030 50.67                             140    0.0810 6.95 2604
 N15      S   0   1030 52.90                             140    0.0510 6.95 2604
 N6       P   0 ? 1030 50.80                             137    0.1210 7.71 2244
 N6       S   0   1030 52.95                             137   -0.0610 7.71 2244
 N18      P   0 ? 1030 50.83                             130   -0.0410 9.21 2744
 N18      S   0   1030 53.40                             130    0.0610 9.21 2744
 N20      P   0 ? 1030 50.87                             128   -0.0710 9.77 2964
 CAMP     P   0 ? 1030 50.99                             128    0.0210 9.99 1904
 CAMP     S   0   1030 53.39                             128   -0.1410 9.99 1904
 N11      P   0 ? 1030 50.93                             127   -0.0510 10.0 2544
 N11      S   0   1030 53.62                             127    0.0610 10.0 2544
 N5       P   0 ? 1030 50.97                             127   -0.0410 10.2 2034
 N5       S   0   1030 53.67                             127    0.0710 10.2 2034
 N17      P   0 ? 1030 51.00                             126   -0.0210 10.4 2784
 N17      S   0   1030 53.46                             126   -0.1710 10.4 2784
 N13      P   0 ? 1030 51.09                             125    0.0110 10.7 2584
 N1       P   0 ? 1030 51.25                             121   -0.0210 12.0 1934
 P4       P   0 ? 1030 51.30                             119   -0.0710 12.7  704
 DLRM     P   0 ? 1030 54.61                              68    0.0310 32.6 1534
                                                                                
 2021  4 4 1159  6.4 L  28.922  50.919 10.3  SLT 27 0.1                        1
 GAP= 59        0.24       0.3     0.4  0.5 -0.1515E-01 -0.8232E-01 -0.8594E-02E
 STAT SP IPHASW D HRMN SECON CODA AMPLIT PERI AZIMU VELO AIN AR TRES W  DIS CAZ7
 P1       P   0 ? 1159  8.64                             172    0.0210 1.19 3104
 P1       S   0   1159 10.31                             172   -0.1410 1.19 3104
 P2       P   0 ? 1159  8.74                             161    0.0510 2.88  604
 P2       S   0   1159 10.60                             161    0.0210 2.88  604
 N9       P   0 ? 1159  8.85                             149    0.0110 4.80 2314
 N9       S   0   1159 10.87                             149    0.0310 4.80 2314
 N19      P   0 ? 1159  9.04                             143    0.1010 5.84 2974
 N19      S   0   1159 10.98                             143   -0.0610 5.84 2974
 N15      P   0 ? 1159  9.06                             141    0.0810 6.21 2654
 N15      S   0   1159 11.17                             141    0.0710 6.21 2654
 P3       P   0 ? 1159  9.06                             141    0.0710 6.27  624
 P3       S   0   1159 11.24                             141    0.1310 6.27  624
 N6       P   0 ? 1159  9.14                             138    0.0910 6.80 2244
 N6       S   0   1159 11.23                             138    0.0010 6.80 2244
 N10      P   0 ? 1159  9.20                             136    0.0910 7.32 2444
 N10      S   0   1159 11.29                             136   -0.0510 7.32 2444
 N14      P   0 ? 1159  9.25                             132    0.0410 8.14 2684
 N14      S   0   1159 11.74                             132    0.2210 8.14 2684
 N18      P   0 ? 1159  9.30                             130    0.0310 8.60 2784
 N18      S   0   1159 11.44                             130   -0.1910 8.60 2784
 N11      P   0 ? 1159  9.28                             127   -0.0810 9.25 2574
 N11      S   0   1159 11.69                             127   -0.1010 9.25 2574
 CAMP     P   0 ? 1159  9.41                             127    0.0510 9.28 1874
 CAMP     S   0   1159 11.70                             127   -0.0910 9.28 1874
 N5       P   0 ? 1159  9.45                             127    0.0710 9.39 2014
 N5       S   0   1159 11.83                             127    0.0110 9.39 2014
 N20      P   0 ? 1159  9.37                             126   -0.0210 9.47 3014
 N20      S   0   1159 11.87                             126    0.0310 9.47 3014
 N4       P   0 ? 1159  9.44                             126    0.0410 9.55 2224
 N4       S   0   1159 11.77                             126   -0.0910 9.55 2224
 N2       P   0 ? 1159  9.42                             125   -0.0110 9.78 1954
 N17      P   0 ? 1159  9.43                             125   -0.0110 9.82 2824
 N17      S   0   1159 11.80                             125   -0.1310 9.82 2824
 N13      P   0 ? 1159  9.49                             125    0.0310 9.93 2604
 N3       P   0 ? 1159  9.51                             123   -0.0110 10.4 2054
 N3       S   0   1159 12.17                             123    0.1010 10.4 2054
 N1       P   0 ? 1159  9.63                             120   -0.0210 11.3 1904
 N1       S   0   1159 12.24                             120   -0.0810 11.3 1904
 P4       P   0 ? 1159  9.95                             114   -0.0610 13.6  684
 SHIF     P   0 ? 1159 10.53                             108   -0.0110 16.9 3454
 SHIF     S   0   1159 13.89                             108   -0.0410 16.9 3454
 TOLS     P   0 ? 1159 11.07                             104   -0.0410 20.3  724
 TOLS     S   0   1159 14.86                             104   -0.1010 20.3  724
 JNAK     P   0 ? 1159 11.17                             103   -0.1010 21.2 1354
 ABTL     P   0 ? 1159 12.40                              99    0.0310 27.6  444
 P9       P   0 ? 1159 12.63                              68   -0.0310 29.4  724
 AHRM     P   0 ? 1159 13.95                              68    0.0310 37.2 1004
                                                                                
 2021  4 4 1206 57.3 L  28.923  50.921 11.3  SLT 11 0.1                        1
 GAP=127        0.24       0.7     0.9  1.3  0.8152E-01  0.2549E+00  0.1948E+00E
 STAT SP IPHASW D HRMN SECON CODA AMPLIT PERI AZIMU VELO AIN AR TRES W  DIS CAZ7
 P1       P   0 ? 1206 59.67                             172   -0.0510 1.24 3024
 P2       P   0 ? 1206 59.82                             162    0.0510 2.70  614
 P2       S   0   1207  1.80                             162    0.0110 2.70  614
 N19      P   0 ? 1207  0.03                             144    0.0210 5.92 2954
 N15      P   0 ? 1207  0.03                             141   -0.0310 6.36 2644
 N10      P   0 ? 1207  0.21                             135    0.0310 7.49 2444
 N14      P   0 ? 1207  0.25                             132   -0.0210 8.28 2674
 N18      P   0 ? 1207  0.28                             129   -0.0410 8.73 2774
 N18      S   0   1207  2.76                             129   -0.0310 8.73 2774
 CAMP     P   0 ? 1207  0.41                             127    0.0110 9.40 1884
 CAMP     S   0   1207  2.79                             127   -0.1410 9.40 1884
 N11      P   0 ? 1207  0.38                             127   -0.0310 9.42 2564
 N11      S   0   1207  3.00                             127    0.0510 9.42 2564
 N5       P   0 ? 1207  0.50                             126    0.0710 9.54 2024
 N5       S   0   1207  3.07                             126    0.1010 9.54 2024
 N1       P   0 ? 1207  0.68                             118   -0.0010 11.4 1914
                                                                                
