 2021  4 4 1209 48.5 L  28.922  50.924 10.6  SLT 19 0.1                        1
 GAP=130        0.23       0.4     0.5  0.6  0.3581E-02  0.1815E-02  0.4525E-01E
 STAT SP IPHASW D HRMN SECON CODA AMPLIT PERI AZIMU VELO AIN AR TRES W  DIS CAZ7
 P1       P   0 ? 1209 50.83                             170    0.0210 1.56 2984
 P1       S   0   1209 52.87                             170    0.1810 1.56 2984
 P2       P   0 ? 1209 50.88                             164    0.0410 2.47  564
 P2       S   0   1209 52.76                             164    0.0110 2.47  564
 N9       P   0 ? 1209 51.19                             148    0.1510 5.19 2344
 N9       S   0   1209 53.06                             148   -0.0510 5.19 2344
 P3       P   0 ? 1209 51.08                             144   -0.0310 5.85  604
 P3       S   0   1209 53.14                             144   -0.0910 5.85  604
 N19      P   0 ? 1209 51.07                             142   -0.0810 6.24 2954
 N19      S   0   1209 53.20                             142   -0.1110 6.24 2954
 N15      P   0 ? 1209 51.20                             140    0.0010 6.67 2654
 N15      S   0   1209 53.45                             140    0.0610 6.67 2654
 N6       P   0 ? 1209 51.30                             138    0.0510 7.15 2264
 N6       S   0   1209 53.49                             138   -0.0010 7.15 2264
 N10      P   0 ? 1209 51.37                             135    0.0510 7.75 2454
 N10      S   0   1209 53.71                             135    0.0910 7.75 2454
 N14      P   0 ? 1209 51.44                             131    0.0110 8.60 2674
 N18      P   0 ? 1209 51.48                             130   -0.0110 9.06 2774
 N18      S   0   1209 53.81                             130   -0.1110 9.06 2774
 CAMP     P   0 ? 1209 51.50                             128   -0.0310 9.38 1904
 CAMP     S   0   1209 53.88                             128   -0.1110 9.38 1904
 N5       P   0 ? 1209 51.55                             128   -0.0110 9.60 2034
 N11      P   0 ? 1209 51.55                             127   -0.0310 9.71 2574
 N11      S   0   1209 54.11                             127    0.0210 9.71 2574
 N20      P   0 ? 1209 51.60                             127    0.0010 9.85 2994
 N20      S   0   1209 54.15                             127    0.0310 9.85 2994
 N4       P   0 ? 1209 51.66                             126    0.0610 9.89 2244
 N4       S   0   1209 54.13                             126    0.0010 9.89 2244
 N2       P   0 ? 1209 51.67                             126    0.0710 9.94 1984
 N2       S   0   1209 54.02                             126   -0.1110 9.94 1984
 N17      P   0 ? 1209 51.59                             125   -0.0610 10.3 2824
 N17      S   0   1209 54.18                             125   -0.0410 10.3 2824
 N3       P   0 ? 1209 51.71                             124    0.0110 10.6 2074
 N1       P   0 ? 1209 51.86                             121    0.0410 11.4 1924
 N1       S   0   1209 54.53                             121    0.0110 11.4 1924
                                                                                
 2021  4 4 1210 14.9 L  28.918  50.928 11.2  SLT 12 0.1                        1
 GAP=122        0.24       0.8     0.7  0.8 -0.1510E+00 -0.1835E+00  0.1866E+00E
 STAT SP IPHASW D HRMN SECON CODA AMPLIT PERI AZIMU VELO AIN AR TRES W  DIS CAZ7
 P1       P   0 ? 1210 17.37                             166   -0.0110 2.08 3054
 P1       S   0   1210 19.39                             166    0.0310 2.08 3054
 P2       P   0 ? 1210 17.40                             163   -0.0010 2.51  434
 P2       S   0   1210 19.32                             163   -0.0710 2.51  434
 N9       P   0 ? 1210 17.63                             147    0.0410 5.23 2404
 N9       S   0   1210 19.83                             147    0.1010 5.23 2404
 P3       P   0 ? 1210 17.65                             143    0.0010 5.81  544
 N19      P   0 ? 1210 17.84                             138    0.1010 6.74 2974
 N19      S   0   1210 20.01                             138    0.0010 6.74 2974
 N6       P   0 ? 1210 17.79                             137    0.0110 7.11 2314
 N6       S   0   1210 20.00                             137   -0.0810 7.11 2314
 CAMP     P   0 ? 1210 18.02                             127    0.0210 9.00 1924
 N5       P   0 ? 1210 18.14                             126    0.0910 9.33 2064
 N18      P   0 ? 1210 17.99                             125   -0.0810 9.46 2804
 N18      S   0   1210 20.62                             125    0.0310 9.46 2804
 N11      P   0 ? 1210 18.16                             123    0.0310 9.96 2604
 N11      S   0   1210 20.61                             123   -0.1110 9.96 2604
 N1       P   0 ? 1210 18.22                             119   -0.0610 11.0 1954
 TOLS     P   0 ? 1210 19.60                              93   -0.0210 19.6  704
                                                                                
 2021  4 4 1211 44.5 L  28.926  50.921 10.6  SLT 15 0.1                        1
 GAP=132        0.23       0.4     0.6  0.7  0.3292E-01 -0.4485E-01  0.4454E-01E
 STAT SP IPHASW D HRMN SECON CODA AMPLIT PERI AZIMU VELO AIN AR TRES W  DIS CAZ7
 P1       P   0 ? 1211 46.84                             173    0.0310 1.09 2874
 P1       S   0   1211 48.78                             173    0.1010 1.09 2874
 P2       P   0 ? 1211 46.86                             163   -0.0010 2.57  674
 P2       S   0   1211 48.72                             163   -0.0610 2.57  674
 N9       P   0 ? 1211 47.06                             148    0.0110 5.18 2284
 N9       S   0   1211 49.19                             148    0.0610 5.18 2284
 N19      P   0 ? 1211 47.16                             145    0.0510 5.77 2934
 N19      S   0   1211 49.26                             145    0.0210 5.77 2934
 P3       P   0 ? 1211 47.05                             144   -0.0810 5.96  654
 N15      P   0 ? 1211 47.24                             142    0.0610 6.39 2614
 N15      S   0   1211 49.26                             142   -0.0910 6.39 2614
 N6       P   0 ? 1211 47.29                             138    0.0210 7.20 2224
 N6       S   0   1211 49.48                             138   -0.0410 7.20 2224
 N14      P   0 ? 1211 47.51                             133    0.1110 8.30 2654
 N14      S   0   1211 49.73                             133   -0.0310 8.30 2654
 N18      P   0 ? 1211 47.46                             131    0.0110 8.68 2754
 N18      S   0   1211 49.93                             131    0.0910 8.68 2754
 N11      P   0 ? 1211 47.52                             128   -0.0410 9.49 2544
 N11      S   0   1211 49.96                             128   -0.0810 9.49 2544
 CAMP     P   0 ? 1211 47.47                             127   -0.1210 9.73 1874
 CAMP     S   0   1211 50.00                             127   -0.0910 9.73 1874
 N5       P   0 ? 1211 47.67                             127    0.0610 9.84 2014
 N5       S   0   1211 50.17                             127    0.0410 9.84 2014
 N17      P   0 ? 1211 47.66                             127    0.0510 9.86 2804
 N17      S   0   1211 49.99                             127   -0.1410 9.86 2804
 N2       P   0 ? 1211 47.63                             125   -0.0310 10.2 1954
 N2       S   0   1211 50.28                             125    0.0610 10.2 1954
 N1       P   0 ? 1211 47.85                             121   -0.0310 11.7 1904
 N1       S   0   1211 50.69                             121    0.0610 11.7 1904
                                                                                
 2021  4 4 1217 59.4 L  28.925  50.927 11.8  SLT 17 0.1                        1
 GAP=126        0.23       0.4     0.5  0.7 -0.3426E-01 -0.1128E+00  0.3814E-01E
 STAT SP IPHASW D HRMN SECON CODA AMPLIT PERI AZIMU VELO AIN AR TRES W  DIS CAZ7
 P1       P   0 ? 1218  1.90                             169   -0.0010 1.76 2854
 P2       P   0 ? 1218  1.91                             167   -0.0010 2.05  574
 P2       S   0   1218  3.96                             167   -0.0110 2.05  574
 P3       P   0 ? 1218  2.09                             148   -0.0410 5.44  614
 P3       S   0   1218  4.43                             148    0.0810 5.44  614
 N9       P   0 ? 1218  2.24                             147    0.1010 5.61 2344
 N9       S   0   1218  4.48                             147    0.1010 5.61 2344
 N19      P   0 ? 1218  2.22                             143   -0.0010 6.43 2914
 N19      S   0   1218  4.54                             143    0.0210 6.43 2914
 N15      P   0 ? 1218  2.33                             140    0.0510 7.02 2634
 N15      S   0   1218  4.56                             140   -0.0710 7.02 2634
 N6       P   0 ? 1218  2.38                             137    0.0410 7.57 2274
 N6       S   0   1218  4.69                             137   -0.0510 7.57 2274
 N18      P   0 ? 1218  2.57                             129    0.0210 9.35 2764
 N18      S   0   1218  4.96                             129   -0.1510 9.35 2764
 CAMP     P   0 ? 1218  2.62                             128    0.0310 9.71 1914
 CAMP     S   0   1218  5.07                             128   -0.1110 9.71 1914
 N5       P   0 ? 1218  2.64                             127    0.0110 9.98 2054
 N5       S   0   1218  5.22                             127   -0.0410 9.98 2054
 N11      P   0 ? 1218  2.62                             126   -0.0210 10.1 2564
 N11      S   0   1218  5.27                             126   -0.0110 10.1 2564
 N2       P   0 ? 1218  2.65                             125   -0.0110 10.3 1994
 N2       S   0   1218  5.42                             125    0.1010 10.3 1994
 N17      P   0 ? 1218  2.72                             125    0.0210 10.5 2804
 N17      S   0   1218  5.43                             125    0.0510 10.5 2804
 N1       P   0 ? 1218  2.98                             120    0.1210 11.7 1944
 N1       S   0   1218  5.61                             120   -0.0710 11.7 1944
 P4       P   0 ? 1218  2.86                             117   -0.1410 12.7  684
 TOLS     P   0 ? 1218  4.04                             100    0.0110 19.4  724
 JNAK     P   0 ? 1218  4.25                              98   -0.0110 20.9 1374
                                                                                
 2021  4 4 1223  6.3 L  28.918  50.917 11.6  SLT 14 0.1                        1
 GAP=126        0.23       0.8     0.6  0.8 -0.8376E-02 -0.5051E-01  0.1634E+00E
 STAT SP IPHASW D HRMN SECON CODA AMPLIT PERI AZIMU VELO AIN AR TRES W  DIS CAZ7
 P1       P   0 ? 1223  8.82                             171    0.0110 1.36 3314
 P1       S   0   1223 10.83                             171    0.0210 1.36 3314
 P2       P   0 ? 1223  8.92                             159    0.0310 3.33  564
 P2       S   0   1223 10.92                             159   -0.0410 3.33  564
 N9       P   0 ? 1223  9.01                             153    0.0510 4.33 2344
 N9       S   0   1223 11.16                             153    0.0810 4.33 2344
 N19      P   0 ? 1223  9.10                             145    0.0210 5.83 3024
 N15      P   0 ? 1223  9.24                             144    0.1510 5.92 2694
 N15      S   0   1223 11.22                             144   -0.1110 5.92 2694
 N6       P   0 ? 1223  9.13                             142   -0.0010 6.30 2254
 N6       S   0   1223 11.44                             142    0.0410 6.30 2254
 P3       P   0 ? 1223  9.11                             140   -0.0610 6.71  594
 N18      P   0 ? 1223  9.30                             132   -0.0610 8.42 2814
 N18      S   0   1223 11.79                             132   -0.0210 8.42 2814
 CAMP     P   0 ? 1223  9.35                             130   -0.0510 8.82 1864
 N5       P   0 ? 1223  9.46                             130    0.0410 8.89 2004
 N11      P   0 ? 1223  9.48                             130    0.0610 8.91 2594
 N11      S   0   1223 11.87                             130   -0.0510 8.91 2594
 N2       P   0 ? 1223  9.39                             128   -0.0710 9.29 1944
 N17      P   0 ? 1223  9.56                             127    0.0510 9.67 2854
 N17      S   0   1223 12.04                             127   -0.0510 9.67 2854
 N1       P   0 ? 1223  9.60                             122   -0.0610 10.8 1894
                                                                                
 2021  4 4 1223 19.1 L  28.927  50.917 11.0  SLT 13 0.1                        1
 GAP=133        0.23       0.7     0.6  0.8 -0.8542E-01 -0.1122E+00  0.8712E-01E
 STAT SP IPHASW D HRMN SECON CODA AMPLIT PERI AZIMU VELO AIN AR TRES W  DIS CAZ7
 P1       P   0 ? 1223 21.48                             175   -0.0110 0.71 2934
 P1       S   0   1223 23.48                             175    0.0710 0.71 2934
 P2       P   0 ? 1223 21.56                             162   -0.0010 2.91  714
 P2       S   0   1223 23.55                             162    0.0010 2.91  714
 N9       P   0 ? 1223 21.72                             150    0.0110 4.94 2254
 N9       S   0   1223 23.88                             150    0.0710 4.94 2254
 N19      P   0 ? 1223 21.79                             148    0.0310 5.40 2944
 N15      P   0 ? 1223 21.85                             145    0.0410 6.02 2604
 N15      S   0   1223 23.90                             145   -0.1010 6.02 2604
 P3       P   0 ? 1223 21.78                             143   -0.0610 6.29  674
 N6       P   0 ? 1223 21.91                             140   -0.0110 6.99 2204
 N18      P   0 ? 1223 22.19                             134    0.1210 8.29 2754
 N18      S   0   1223 24.37                             134   -0.0910 8.29 2754
 N11      P   0 ? 1223 22.22                             131    0.0410 9.13 2534
 N11      S   0   1223 24.60                             131   -0.0510 9.13 2534
 CAMP     P   0 ? 1223 22.21                             129   -0.0410 9.74 1854
 CAMP     S   0   1223 24.81                             129    0.0210 9.74 1854
 N2       P   0 ? 1223 22.22                             127   -0.0910 10.2 1934
 N1       P   0 ? 1223 22.58                             123    0.0410 11.7 1894
 P4       P   0 ? 1223 22.82                             117   -0.0110 13.6  714
                                                                                
 2021  4 4 1228 55.4 L  28.926  50.920 10.5  SLT 18 0.1                        1
 GAP=126        0.21       0.4     0.4  0.6 -0.3726E-01 -0.6999E-01  0.3894E-01E
 STAT SP IPHASW D HRMN SECON CODA AMPLIT PERI AZIMU VELO AIN AR TRES W  DIS CAZ7
 P1       P   0 ? 1228 57.73                             173    0.0510 1.04 2894
 P1       S   0   1228 59.50                             173   -0.0410 1.04 2894
 P2       P   0 ? 1228 57.79                             163    0.0510 2.63  674
 P2       S   0   1228 59.61                             163   -0.0310 2.63  674
 N9       P   0 ? 1228 58.00                             148    0.0810 5.12 2284
 N9       S   0   1228 59.92                             148   -0.0610 5.12 2284
 N19      P   0 ? 1228 58.04                             145    0.0510 5.72 2934
 N19      S   0   1229  0.04                             145   -0.0510 5.72 2934
 P3       P   0 ? 1228 58.01                             143   -0.0010 6.03  654
 P3       S   0   1229  0.17                             143    0.0310 6.03  654
 N15      P   0 ? 1228 58.10                             141    0.0510 6.32 2614
 N15      S   0   1229  0.24                             141    0.0410 6.32 2614
 N6       P   0 ? 1228 58.23                             138    0.0910 7.14 2224
 N6       S   0   1229  0.36                             138   -0.0210 7.14 2224
 N10      P   0 ? 1228 58.10                             136   -0.0910 7.57 2414
 N18      P   0 ? 1228 58.28                             131   -0.0410 8.62 2754
 N18      S   0   1229  0.68                             131   -0.0210 8.62 2754
 N20      P   0 ? 1228 58.37                             128   -0.0410 9.32 2994
 N11      P   0 ? 1228 58.43                             128   -0.0010 9.42 2544
 N11      S   0   1229  0.98                             128    0.0810 9.42 2544
 CAMP     P   0 ? 1228 58.45                             127   -0.0110 9.70 1874
 CAMP     S   0   1229  1.06                             127    0.1010 9.70 1874
 N5       P   0 ? 1228 58.47                             126   -0.0110 9.80 2004
 N5       S   0   1229  0.87                             126   -0.1210 9.80 2004
 N2       P   0 ? 1228 58.49                             125   -0.0410 10.2 1954
 N1       P   0 ? 1228 58.72                             120   -0.0410 11.7 1904
 N1       S   0   1229  1.56                             120    0.0710 11.7 1904
 P4       P   0 ? 1228 59.01                             116   -0.0010 13.4  704
 TOLS     P   0 ? 1229  0.13                             105    0.0110 20.1  734
 JNAK     P   0 ? 1229  0.27                             104   -0.0710 21.4 1364
                                                                                
