 2021  5 5 1914 22.8 L  29.788  50.568 11.0  SLT 26 0.1                        1
 GAP=336        0.27      36.0    19.0 97.2 -0.6807E+03 -0.1842E+04  0.3494E+04E
 STAT SP IPHASW D HRMN SECON CODA AMPLIT PERI AZIMU VELO AIN AR TRES W  DIS CAZ7
 NOKA     P   0 ? 1914 37.21                              68   -0.0910 80.6 1464
 NOKA     S   0   1914 49.00                              68   -0.0410 80.6 1464
 ABTL     P   0 ? 1914 39.25                              68   -0.04 9 92.9 1454
 ABTL     S   0   1914 52.54                              68   -0.12 9 92.9 1454
 N20      P   0 ? 1914 39.45                              68   -0.12 9 94.7 1644
 N20      S   0   1914 53.08                              68   -0.08 9 94.7 1644
 N17      P   0 ? 1914 39.90                              68   -0.04 9 97.0 1654
 N17      S   0   1914 53.50                              68   -0.33 9 97.0 1654
 N18      P   0 ? 1914 40.04                              68   -0.09 9 98.1 1654
 N18      S   0   1914 54.21                              68    0.05 9 98.1 1654
 N15      P   0 ? 1914 40.51                              68    0.00 9  100 1644
 P3       P   0 ? 1914 40.52                              68   -0.08 9  101 1574
 N11      P   0 ? 1914 40.65                              68    0.02 9  101 1664
 N11      S   0   1914 55.07                              68   -0.00 9  101 1664
 P4       P   0 ? 1914 40.74                              68   -0.05 9  102 1534
 P4       S   0   1914 55.19                              68   -0.18 9  102 1534
 N9       S   0   1914 55.59                              68   -0.14 9  104 1634
 N7       P   0 ? 1914 41.09                              68   -0.00 9  104 1654
 TOLS     S   0   1914 55.84                              68   -0.13 9  104 1494
 N7       S   0   1914 55.92                              68    0.01 9  104 1654
 TOLS     P   0 ? 1914 41.05                              68   -0.07 9  104 1494
 N9       P   0 ? 1914 41.04                              68    0.05 9  104 1634
 N6       P   0 ? 1914 41.25                              68    0.01 9  105 1644
 N6       S   0   1914 56.14                              68   -0.05 9  105 1644
 P9       P   0 ? 1914 41.47                              68   -0.03 9  107 1444
 ABAD     P   0 ? 1914 41.62                              68    0.04 9  107 1424
 P9       S   0   1914 56.67                              68    0.02 9  107 1444
 N4       P   0 ? 1914 41.41                              68   -0.10 9  107 1654
 N4       S   0   1914 56.65                              68   -0.02 9  107 1654
 N5       P   0 ? 1914 41.90                              68   -0.00 9  109 1644
 N5       S   0   1914 57.62                              68    0.24 9  109 1644
 CAMP     P   0 ? 1914 42.11                              68    0.04 9  110 1624
 N2       P   0 ? 1914 42.09                              68    0.06 9  110 1634
 N2       S   0   1914 57.59                              68   -0.03 9  110 1634
 CAMP     S   0   1914 57.82                              68    0.13 9  110 1624
 N3       P   0 ? 1914 41.96                              68    0.00 9  110 1644
 N3       S   0   1914 57.46                              68   -0.02 9  110 1644
 N1       P   0 ? 1914 42.46                              68    0.13 9  112 1634
 N1       S   0   1914 58.21                              68    0.07 9  112 1634
 KHIA     P   0 ? 1914 43.20                              68    0.05 8  117 1504
 KHIA     S   0   1914 59.66                              68    0.02 8  117 1504
 JNAK     P   0 ? 1914 43.90                              68    0.04 8  121 1564
 JNAK     S   0   1915  1.16                              68    0.24 8  121 1564
 DLRM     P   0 ? 1914 46.07                              68    0.17 8  134 1584
 DLRM     S   0   1915  4.83                              68    0.22 8  134 1584
 KOLO     P   0 ? 1914 46.36                              68    0.20 7  136 1514
 KOLO     S   0   1915  5.19                              68    0.10 7  136 1514
 ABAS     P   0 ? 1914 49.66                              68    0.21 7  156 1534
 ABAS     S   0   1915 11.48                              68    0.44 7  156 1534
                                                                                
 2021  5 5 2128 10.6 L  29.669  50.836 48.1  SLT 35 0.1                        1
 GAP=329        0.21       1.1     1.3  2.1 -0.4653E+00  0.1011E+01 -0.2061E+01E
 STAT SP IPHASW D HRMN SECON CODA AMPLIT PERI AZIMU VELO AIN AR TRES W  DIS CAZ7
 NOKA     P   0 ? 2128 23.44                             128    0.0510 56.9 1604
 NOKA     S   0   2128 33.77                             128    0.0010 56.9 1604
 SHIF     P   0 ? 2128 24.61                             123   -0.0510 66.6 1774
 SHIF     S   0   2128 36.03                             123   -0.0510 66.6 1774
 ABTL     P   0 ? 2128 24.99                             122    0.0410 68.6 1564
 ABTL     S   0   2128 36.69                             122    0.1010 68.6 1564
 N20      P   0 ? 2128 26.18                             119   -0.05 9 77.9 1804
 N20      S   0   2128 38.84                             119   -0.07 9 77.9 1804
 N19      P   0 ? 2128 26.55                             118   -0.01 9 80.2 1784
 N19      S   0   2128 39.68                             118    0.18 9 80.2 1784
 P5       P   0 ? 2128 26.51                             118   -0.06 9 80.3 1624
 P4       P   0 ? 2128 26.63                             118    0.03 9 80.5 1654
 N17      P   0 ? 2128 26.59                             118   -0.03 9 80.7 1814
 N17      S   0   2128 39.52                             118   -0.10 9 80.7 1814
 P3       P   0 ? 2128 26.59                             118   -0.07 9 81.0 1704
 TOLS     P   0 ? 2128 26.71                             118    0.01 9 81.2 1604
 ABAD     P   0 ? 2128 26.83                             118    0.07 9 81.6 1504
 ABAD     S   0   2128 39.99                             118    0.11 9 81.6 1504
 N18      P   0 ? 2128 26.80                             118    0.05 9 81.6 1804
 P9       P   0 ? 2128 26.84                             118    0.04 9 81.9 1544
 P9       S   0   2128 39.80                             118   -0.15 9 81.9 1544
 P2       P   0 ? 2128 26.86                             118    0.05 9 82.1 1734
 P2       S   0   2128 39.85                             118   -0.12 9 82.1 1734
 N16      P   0 ? 2128 26.80                             118   -0.04 9 82.2 1784
 P1       P   0 ? 2128 26.88                             117    0.03 9 82.3 1754
 P1       S   0   2128 39.93                             117   -0.12 9 82.3 1754
 N14      P   0 ? 2128 26.93                             117   -0.04 9 83.1 1804
 N14      S   0   2128 40.38                             117    0.12 9 83.1 1804
 N15      P   0 ? 2128 26.89                             117   -0.12 9 83.4 1794
 N15      S   0   2128 40.30                             117   -0.02 9 83.4 1794
 N13      P   0 ? 2128 27.20                             117    0.04 9 84.5 1814
 N13      S   0   2128 40.72                             117    0.11 9 84.5 1814
 N11      P   0 ? 2128 27.18                             117   -0.05 9 84.9 1814
 N11      S   0   2128 40.63                             117   -0.09 9 84.9 1814
 N9       P   0 ? 2128 27.34                             116   -0.03 9 85.9 1774
 N9       S   0   2128 41.06                             116    0.08 9 85.9 1774
 N10      P   0 ? 2128 27.32                             116   -0.07 9 86.0 1794
 N10      S   0   2128 41.07                             116    0.05 9 86.0 1794
 N7       P   0 ? 2128 27.59                             116    0.02 9 87.3 1794
 N7       S   0   2128 41.51                             116    0.17 9 87.3 1794
 N6       P   0 ? 2128 27.59                             116   -0.05 9 87.7 1784
 N6       S   0   2128 41.36                             116   -0.11 9 87.7 1784
 N4       P   0 ? 2128 27.99                             115    0.04 9 89.9 1794
 N4       S   0   2128 42.13                             115    0.10 9 89.9 1794
 N5       P   0 ? 2128 28.14                             115   -0.07 9 91.7 1774
 N5       S   0   2128 42.54                             115    0.04 9 91.7 1774
 CAMP     S   0   2128 42.65                             115    0.00 9 92.3 1764
 N3       P   0 ? 2128 28.40                             115    0.10 9 92.3 1784
 N3       S   0   2128 42.55                             115   -0.11 9 92.3 1784
 CAMP     P   0 ? 2128 28.31                             115    0.02 9 92.3 1764
 N2       P   0 ? 2128 28.28                             115   -0.03 9 92.4 1774
 N2       S   0   2128 42.74                             115    0.07 9 92.4 1774
 KHIA     P   0 ? 2128 28.53                             114   -0.01 8 93.9 1604
 KHIA     S   0   2128 42.87                             114   -0.23 8 93.9 1604
 N1       P   0 ? 2128 28.61                             114    0.05 8 94.1 1764
 N1       S   0   2128 43.20                             114    0.06 8 94.1 1764
 JNAK     P   0 ? 2128 29.52                             113    0.02 8  100 1674
 JNAK     S   0   2128 44.81                             113   -0.03 8  100 1674
 KOLO     P   0 ? 2128 31.35                             110    0.01 8  113 1594
 DLRM     P   0 ? 2128 31.56                             110    0.06 8  114 1684
 DLRM     S   0   2128 48.47                             110    0.02 8  114 1684
 ABAS     P   0 ? 2128 34.63                             107    0.10 7  134 1614
                                                                                
 2021  5 5 2007 23.4 L  29.835  50.540 10.8  SLT 14 0.2                        1
 GAP=306        0.41      10.6     2.6 25.3 -0.1900E+02 -0.4749E+02  0.2648E+03E
 STAT SP IPHASW D HRMN SECON CODA AMPLIT PERI AZIMU VELO AIN AR TRES W  DIS CAZ7
 KHRK     P   0 ? 2007 35.86                              68   -0.0710 68.0 1994
 KHRK     S   0   2007 45.99                              68   -0.0510 68.0 1994
 NOKA     P   0 ? 2007 38.62                              68   -0.27 9 86.4 1464
 NOKA     S   0   2007 51.03                              68   -0.37 9 86.4 1464
 ABTL     P   0 ? 2007 40.81                              68   -0.07 9 98.7 1454
 ABTL     S   0   2007 54.78                              68   -0.23 9 98.7 1454
 N19      P   0 ? 2007 41.67                              68    0.03 8  103 1624
 N19      S   0   2007 56.18                              68   -0.21 8  103 1624
 N18      P   0 ? 2007 41.66                              68   -0.05 8  104 1644
 N18      S   0   2007 56.30                              68   -0.20 8  104 1644
 N7       P   0 ? 2007 42.68                              68    0.01 8  110 1644
 N7       S   0   2007 58.33                              68    0.08 8  110 1644
 N6       P   0 ? 2007 42.84                              68    0.01 8  111 1634
 N6       S   0   2007 58.61                              68    0.08 8  111 1634
 P9       P   0 ? 2007 43.14                              68    0.05 8  112 1454
 P9       S   0   2007 58.87                              68   -0.13 8  112 1454
 KHIA     P   0 ? 2007 44.84                              68    0.09 8  123 1504
 KHIA     S   0   2008  2.18                              68    0.17 8  123 1504
 JNAK     P   0 ? 2007 45.53                              68    0.07 7  127 1564
 JNAK     S   0   2008  3.48                              68    0.19 7  127 1564
 AHRM     P   0 ? 2007 46.01                              68    0.04 7  130 1464
 AHRM     S   0   2008  4.37                              68    0.16 7  130 1464
 DLRM     P   0 ? 2007 47.63                              68    0.13 7  140 1584
 DLRM     S   0   2008  7.27                              68    0.29 7  140 1584
 KOLO     P   0 ? 2007 48.03                              68    0.27 7  141 1514
 KOLO     S   0   2008  7.67                              68    0.21 7  141 1514
 ABAS     P   0 ? 2007 51.36                              68    0.31 6  162 1534
 ABAS     S   0   2008 14.00                              68    0.58 6  162 1534
                                                                                
 2021  5 5 2128 55.4 L  29.720  50.774 11.0  SLT 23 0.1                        1
 GAP=288        0.33       6.3     1.9 15.9 -0.3818E+01 -0.1127E+02  0.9776E+02E
 STAT SP IPHASW D HRMN SECON CODA AMPLIT PERI AZIMU VELO AIN AR TRES W  DIS CAZ7
 NOKA     P   0 ? 2129  7.14                              68   -0.1710 64.3 1574
 NOKA     S   0   2129 16.67                              68   -0.2610 64.3 1574
 KHRK     P   0 ? 2129  7.87                              68   -0.0710 68.3 2214
 SHIF     P   0 ? 2129  8.57                              68   -0.1010 72.8 1724
 SHIF     S   0   2129 19.27                              68   -0.1310 72.8 1724
 ABTL     P   0 ? 2129  9.09                              68   -0.15 9 76.3 1544
 ABTL     S   0   2129 20.20                              68   -0.22 9 76.3 1544
 N20      P   0 ? 2129 10.38                              68   -0.06 9 83.8 1764
 N20      S   0   2129 22.45                              68   -0.15 9 83.8 1764
 N19      P   0 ? 2129 10.86                              68    0.02 9 86.3 1744
 N18      P   0 ? 2129 10.98                              68   -0.04 9 87.4 1764
 N18      S   0   2129 23.77                              68    0.11 9 87.4 1764
 TOLS     P   0 ? 2129 11.15                              68   -0.07 9 88.6 1584
 P1       P   0 ? 2129 11.19                              68   -0.03 9 88.7 1714
 P1       S   0   2129 23.90                              68   -0.12 9 88.7 1714
 ABAD     P   0 ? 2129 11.33                              68   -0.04 9 89.5 1494
 N9       P   0 ? 2129 11.83                              68    0.06 9 92.0 1734
 N9       S   0   2129 25.14                              68    0.13 9 92.0 1734
 N10      P   0 ? 2129 11.71                              68   -0.05 9 92.0 1754
 N7       P   0 ? 2129 12.00                              68    0.04 9 93.2 1754
 N7       S   0   2129 25.38                              68    0.02 9 93.2 1754
 N6       P   0 ? 2129 12.04                              68   -0.02 9 93.8 1744
 N4       P   0 ? 2129 12.46                              68    0.07 9 95.9 1754
 N4       S   0   2129 26.02                              68   -0.11 9 95.9 1754
 N5       P   0 ? 2129 12.73                              68    0.03 9 97.8 1744
 N3       P   0 ? 2129 12.90                              68    0.11 9 98.4 1744
 N3       S   0   2129 26.91                              68    0.05 9 98.4 1744
 CAMP     P   0 ? 2129 12.89                              68    0.08 9 98.5 1724
 CAMP     S   0   2129 27.03                              68    0.13 9 98.5 1724
 N1       P   0 ? 2129 13.22                              68    0.12 8  100 1734
 N1       S   0   2129 27.44                              68    0.02 8  100 1734
 KHIA     P   0 ? 2129 13.34                              68    0.07 8  101 1584
 AHRM     P   0 ? 2129 14.40                              68    0.11 8  108 1524
 AHRM     S   0   2129 29.81                              68    0.24 8  108 1524
 KOLO     P   0 ? 2129 16.47                              68    0.17 8  120 1584
 KOLO     S   0   2129 33.55                              68    0.34 8  120 1584
 DLRM     P   0 ? 2129 16.65                              68    0.27 8  121 1664
 DLRM     S   0   2129 33.58                              68    0.23 8  121 1664
                                                                                
