 2021  4 4 0912 53.0 L  29.814  50.704 40.4  SLT 20 0.1                        1
 GAP=335        0.18       1.6     1.8  4.9 -0.9751E+00  0.4259E+01 -0.7143E+01E
 STAT SP IPHASW D HRMN SECON CODA AMPLIT PERI AZIMU VELO AIN AR TRES W  DIS CAZ7
 NOKA     P   0 ? 0913  7.91                             114   -0.0210 76.6 1554
 ABTL     P   0 ? 0913  9.69                             111   -0.03 9 88.6 1534
 ABTL     S   0   0913 23.19                             111   -0.06 9 88.6 1534
 N17      P   0 ? 0913 11.10                             109    0.05 9 97.4 1734
 N18      P   0 ? 0913 11.25                             109    0.05 9 98.4 1734
 N18      S   0   0913 25.87                             109   -0.06 9 98.4 1734
 P4       P   0 ? 0913 11.42                             109    0.03 9 99.6 1604
 P4       S   0   0913 26.30                             109    0.03 9 99.6 1604
 N14      S   0   0913 26.31                             109   -0.06 9100.0 1734
 N15      P   0 ? 0913 11.59                             109    0.07 9  100 1724
 N15      S   0   0913 26.57                             109    0.06 9  100 1724
 N14      P   0 ? 0913 11.44                             109   -0.01 9100.0 1734
 ABAD     P   0 ? 0913 11.75                             108    0.00 9  102 1484
 ABAD     S   0   0913 26.99                             108    0.08 9  102 1484
 N10      P   0 ? 0913 12.02                             108    0.10 9  103 1724
 N10      S   0   0913 27.30                             108    0.08 9  103 1724
 N4       P   0 ? 0913 12.55                             107    0.04 9  107 1724
 N4       S   0   0913 28.20                             107   -0.09 9  107 1724
 N5       P   0 ? 0913 12.84                             107    0.01 9  109 1714
 N5       S   0   0913 28.78                             107   -0.10 9  109 1714
 CAMP     S   0   0913 29.08                             107   -0.02 9  110 1704
 N3       S   0   0913 29.06                             107    0.05 9  110 1714
 N2       P   0 ? 0913 12.89                             107   -0.05 9  110 1704
 CAMP     P   0 ? 0913 12.91                             107   -0.04 9  110 1704
 N3       P   0 ? 0913 12.92                             107    0.01 9  110 1714
 N2       S   0   0913 29.13                             107    0.05 9  110 1704
 N1       P   0 ? 0913 13.11                             107   -0.11 8  112 1704
 JNAK     P   0 ? 0913 14.36                             106   -0.06 8  119 1624
 JNAK     S   0   0913 31.84                             106    0.08 8  119 1624
 AHRM     P   0 ? 0913 14.50                             106   -0.03 8  120 1514
 KOLO     P   0 ? 0913 16.43                             104   -0.02 8  132 1574
 DLRM     P   0 ? 0913 16.43                             104   -0.03 8  132 1644
 DLRM     S   0   0913 35.41                             104   -0.04 8  132 1644
 ABAS     P   0 ? 0913 19.73                             102    0.01 7  153 1584
                                                                                
 2021  4 4 0938 55.2 L  29.700  50.596 72.0  SLT 12 0.1                        1
 GAP=345        0.21       6.2     5.4  7.1  0.2613E+02 -0.2520E+02 -0.4286E+02E
 STAT SP IPHASW D HRMN SECON CODA AMPLIT PERI AZIMU VELO AIN AR TRES W  DIS CAZ7
 P1       P   0 ? 0939 14.73                             127   -0.0110 90.8 1604
 P1       S   0   0939 30.50                             127   -0.0310 90.8 1604
 N10      P   0 ? 0939 15.02                             126   -0.0010 92.9 1644
 N10      S   0   0939 31.15                             126    0.1110 92.9 1644
 N4       P   0 ? 0939 15.55                             125    0.0310 96.7 1654
 N4       S   0   0939 31.89                             125   -0.0510 96.7 1654
 N5       P   0 ? 0939 15.90                             124    0.0610 99.1 1634
 N5       S   0   0939 32.37                             124   -0.1510 99.1 1634
 N3       P   0 ? 0939 15.89                             124    0.0010 99.4 1644
 N3       S   0   0939 32.60                             124   -0.0010 99.4 1644
 N2       P   0 ? 0939 15.92                             124   -0.0310 99.9 1634
 N2       S   0   0939 32.81                             124    0.1010 99.9 1634
 CAMP     P   0 ? 0939 15.98                             124    0.0010  100 1624
 CAMP     S   0   0939 32.83                             124    0.0610  100 1624
 N1       P   0 ? 0939 16.08                             124   -0.11 9  102 1634
 N1       S   0   0939 33.19                             124    0.04 9  102 1634
 JNAK     P   0 ? 0939 17.51                             121    0.01 9  111 1554
 JNAK     S   0   0939 35.41                             121   -0.12 9  111 1554
 DLRM     P   0 ? 0939 19.20                             118   -0.07 8  124 1584
 DLRM     S   0   0939 38.75                             118    0.03 8  124 1584
 KOLO     P   0 ? 0939 19.64                             118    0.11 8  126 1504
 KOLO     S   0   0939 39.23                             118    0.03 8  126 1504
 ABAS     P   0 ? 0939 22.47                             114    0.00 7  146 1524
                                                                                
 2021  4 4 0938 55.2 L  29.838  50.718 49.0  SLT 20 0.1                        1
 GAP=338        0.18       3.4     2.5  7.9  0.4577E+01 -0.9096E+01 -0.2568E+02E
 STAT SP IPHASW D HRMN SECON CODA AMPLIT PERI AZIMU VELO AIN AR TRES W  DIS CAZ7
 SHIF     P   0 ? 0939 12.22                             117    0.0410 86.6 1704
 N20      P   0 ? 0939 13.73                             114   -0.02 9 97.3 1734
 N17      P   0 ? 0939 14.18                             113    0.04 9 99.9 1744
 N17      S   0   0939 29.47                             113    0.02 9 99.9 1744
 N18      P   0 ? 0939 14.19                             113   -0.09 9  101 1744
 N18      S   0   0939 29.64                             113   -0.08 9  101 1744
 P1       S   0   0939 30.06                             113   -0.07 9  102 1694
 P2       S   0   0939 30.06                             113   -0.08 9  102 1684
 P1       P   0 ? 0939 14.57                             113    0.06 9  102 1694
 P2       P   0 ? 0939 14.53                             113    0.01 9  102 1684
 N14      P   0 ? 0939 14.63                             113    0.11 9  103 1744
 N14      S   0   0939 30.21                             113    0.06 9  103 1744
 N15      P   0 ? 0939 14.62                             113    0.03 9  103 1734
 N15      S   0   0939 30.37                             113    0.10 9  103 1734
 N11      P   0 ? 0939 14.75                             112   -0.02 9  104 1744
 N13      P   0 ? 0939 14.65                             113   -0.04 9  104 1754
 N9       P   0 ? 0939 15.02                             112    0.02 9  106 1714
 N9       S   0   0939 31.14                             112    0.13 9  106 1714
 N6       P   0 ? 0939 15.25                             112   -0.01 9  107 1724
 N4       P   0 ? 0939 15.55                             111   -0.00 9  109 1734
 N4       S   0   0939 32.05                             111    0.03 9  109 1734
 N5       P   0 ? 0939 15.90                             111    0.04 9  111 1724
 N5       S   0   0939 32.51                             111   -0.07 9  111 1724
 CAMP     S   0   0939 32.82                             111    0.04 9  112 1714
 N2       P   0 ? 0939 15.93                             111   -0.04 9  112 1714
 N2       S   0   0939 32.66                             111   -0.12 9  112 1714
 CAMP     P   0 ? 0939 15.91                             111   -0.07 9  112 1714
 N1       P   0 ? 0939 16.22                             111   -0.02 9  114 1714
 N1       S   0   0939 33.28                             111    0.02 9  114 1714
 JNAK     P   0 ? 0939 17.33                             109   -0.05 8  121 1634
 JNAK     S   0   0939 35.25                             109   -0.07 8  121 1634
 AHRM     P   0 ? 0939 17.40                             109   -0.02 8  122 1524
 AHRM     S   0   0939 35.36                             109   -0.03 8  122 1524
 KOLO     P   0 ? 0939 19.37                             107    0.03 8  134 1584
 KOLO     S   0   0939 39.01                             107    0.15 8  134 1584
                                                                                
 2021  4 4 0942  8.1 L  29.711  50.713 56.6  SLT 14 0.1                        1
 GAP=336        0.21       3.4     2.3  5.8  0.3916E+01 -0.5735E+01 -0.1917E+02E
 STAT SP IPHASW D HRMN SECON CODA AMPLIT PERI AZIMU VELO AIN AR TRES W  DIS CAZ7
 N17      P   0 ? 0942 25.51                             121   -0.0410 86.0 1734
 N17      S   0   0942 39.59                             121   -0.1110 86.0 1734
 N18      P   0 ? 0942 25.70                             121    0.0110 87.0 1724
 N18      S   0   0942 40.05                             121    0.1010 87.0 1724
 P4       P   0 ? 0942 25.86                             120   -0.0610 88.7 1584
 N11      P   0 ? 0942 26.13                             120   -0.0110 90.2 1734
 N10      P   0 ? 0942 26.45                             119    0.1110 91.7 1724
 N10      S   0   0942 41.16                             119    0.0210 91.7 1724
 N9       P   0 ? 0942 26.39                             119    0.0210 91.9 1704
 N9       S   0   0942 41.25                             119    0.0610 91.9 1704
 N4       P   0 ? 0942 26.92                             118    0.0310 95.5 1724
 N4       S   0   0942 42.02                             118   -0.1010 95.5 1724
 N5       P   0 ? 0942 27.17                             118   -0.02 9 97.6 1704
 N5       S   0   0942 42.77                             118    0.10 9 97.6 1704
 N3       P   0 ? 0942 27.16                             118   -0.10 9 98.1 1714
 N3       S   0   0942 42.76                             118   -0.03 9 98.1 1714
 KHIA     P   0 ? 0942 27.95                             117    0.02 9  103 1554
 KHIA     S   0   0942 44.05                             117    0.04 9  103 1554
 AHRM     P   0 ? 0942 28.87                             115   -0.06 9  110 1494
 AHRM     S   0   0942 45.85                             115    0.03 9  110 1494
 DLRM     P   0 ? 0942 30.66                             113    0.03 8  121 1634
 DLRM     S   0   0942 48.84                             113   -0.06 8  121 1634
 KOLO     P   0 ? 0942 30.68                             113   -0.00 8  122 1554
 KOLO     S   0   0942 48.93                             113   -0.06 8  122 1554
 ABAS     P   0 ? 0942 33.92                             109    0.12 7  142 1574
                                                                                
 2021  4 4 0957 30.1 L  29.703  50.685 72.1  SLT 15 0.1                        1
 GAP=332        0.21       2.6     3.0  4.5 -0.8113E+00  0.7285E+01 -0.8983E+01E
 STAT SP IPHASW D HRMN SECON CODA AMPLIT PERI AZIMU VELO AIN AR TRES W  DIS CAZ7
 ABTL     P   0 ? 0957 48.21                             131    0.0610 78.8 1484
 N18      P   0 ? 0957 49.01                             128   -0.0910 86.5 1704
 N15      P   0 ? 0957 49.39                             127    0.0110 88.7 1694
 N11      P   0 ? 0957 49.57                             127    0.0510 89.7 1714
 N10      P   0 ? 0957 49.77                             127    0.06 9 91.2 1704
 P9       P   0 ? 0957 49.84                             126   -0.03 9 92.4 1474
 ABAD     P   0 ? 0957 49.90                             126   -0.01 9 92.7 1444
 ABAD     S   0   0958  5.91                             126   -0.02 9 92.7 1444
 N4       P   0 ? 0957 50.22                             125    0.01 9 95.1 1704
 N3       P   0 ? 0957 50.53                             125   -0.03 9 97.7 1694
 KHIA     P   0 ? 0957 51.23                             123   -0.07 9  103 1534
 KHIA     S   0   0958  8.51                             123    0.08 9  103 1534
 JNAK     P   0 ? 0957 51.91                             122   -0.07 9  108 1604
 JNAK     S   0   0958  9.65                             122   -0.03 9  108 1604
 AHRM     P   0 ? 0957 52.27                             121   -0.00 9  110 1474
 DLRM     P   0 ? 0957 53.86                             119    0.08 8  121 1624
 DLRM     S   0   0958 12.89                             119   -0.04 8  121 1624
 KOLO     P   0 ? 0957 53.87                             119   -0.02 8  122 1544
 ABAS     P   0 ? 0957 56.93                             115    0.08 7  142 1554
                                                                                
 2021  4 4 1117 13.3 L  29.752  50.704 51.6  SLT 21 0.1                        1
 GAP=336        0.19       1.8     1.5  3.8  0.2485E+00  0.3862E+00 -0.6402E+01E
 STAT SP IPHASW D HRMN SECON CODA AMPLIT PERI AZIMU VELO AIN AR TRES W  DIS CAZ7
 NOKA     P   0 ? 1117 28.35                             124    0.1210 70.4 1534
 N17      P   0 ? 1117 31.09                             117    0.05 9 90.6 1734
 N18      P   0 ? 1117 31.17                             117   -0.01 9 91.6 1724
 N18      S   0   1117 45.71                             117    0.05 9 91.6 1724
 P4       P   0 ? 1117 31.41                             116   -0.01 9 93.2 1594
 P4       S   0   1117 45.97                             116   -0.11 9 93.2 1594
 N14      P   0 ? 1117 31.44                             116    0.02 9 93.2 1724
 N14      S   0   1117 46.17                             116    0.09 9 93.2 1724
 N15      P   0 ? 1117 31.49                             116    0.00 9 93.7 1714
 N15      S   0   1117 46.20                             116   -0.01 9 93.7 1714
 N13      P   0 ? 1117 31.54                             116   -0.04 9 94.3 1734
 P9       P   0 ? 1117 31.89                             116    0.06 9 96.0 1494
 P9       S   0   1117 46.74                             116   -0.09 9 96.0 1494
 N10      P   0 ? 1117 31.86                             116   -0.00 9 96.3 1714
 N10      S   0   1117 46.79                             116   -0.10 9 96.3 1714
 N9       P   0 ? 1117 31.92                             116    0.02 9 96.5 1704
 N9       S   0   1117 46.83                             116   -0.12 9 96.5 1704
 N6       P   0 ? 1117 32.18                             115    0.03 9 98.2 1704
 N4       P   0 ? 1117 32.32                             115   -0.10 9  100 1724
 N4       S   0   1117 47.85                             115   -0.05 9  100 1724
 N5       P   0 ? 1117 32.66                             114   -0.08 9  102 1704
 N5       S   0   1117 48.52                             114    0.05 9  102 1704
 N3       P   0 ? 1117 32.76                             114   -0.05 9  103 1714
 N3       S   0   1117 48.71                             114    0.11 9  103 1714
 N2       P   0 ? 1117 32.81                             114   -0.04 9  103 1704
 N2       S   0   1117 48.70                             114    0.03 9  103 1704
 KHIA     P   0 ? 1117 33.42                             113   -0.06 8  107 1554
 KHIA     S   0   1117 49.91                             113    0.09 8  107 1554
 JNAK     P   0 ? 1117 34.31                             112    0.01 8  113 1614
 JNAK     S   0   1117 51.37                             112    0.07 8  113 1614
 AHRM     P   0 ? 1117 34.45                             112   -0.03 8  114 1504
 AHRM     S   0   1117 51.58                             112   -0.05 8  114 1504
 KOLO     P   0 ? 1117 36.39                             110    0.09 8  126 1554
 DLRM     P   0 ? 1117 36.23                             110   -0.03 8  126 1634
 KOLO     S   0   1117 54.96                             110    0.04 8  126 1554
 DLRM     S   0   1117 54.89                             110    0.04 8  126 1634
 ABAS     P   0 ? 1117 39.46                             107   -0.01 7  147 1574
                                                                                
