 2021  4 4 0701  6.0 L  29.806  50.718 30.7  SLT 13 0.0                        1
 GAP=338        0.22      95.5    33.9 33.9 -0.3175E+04 -0.9466E+03  0.2475E+04E
 STAT SP IPHASW D HRMN SECON CODA AMPLIT PERI AZIMU VELO AIN AR TRES W  DIS CAZ7
 SHIF     P   0 ? 0701 21.35                             106   -0.0110 83.1 1694
 N20      P   0 ? 0701 23.02                             104   -0.0210 93.8 1734
 N17      P   0 ? 0701 23.48                             104    0.04 9 96.4 1744
 N18      P   0 ? 0701 23.63                             103    0.03 9 97.4 1734
 P1       P   0 ? 0701 23.87                             103    0.03 9 99.0 1694
 N6       P   0 ? 0701 24.54                             102   -0.09 9  104 1724
 N3       P   0 ? 0701 25.35                             102    0.01 9  108 1724
 N5       P   0 ? 0701 25.26                             102   -0.00 9  108 1714
 CAMP     P   0 ? 0701 25.37                             102   -0.01 9  109 1704
 KHIA     P   0 ? 0701 25.97                             101    0.03 9  112 1574
 AHRM     P   0 ? 0701 26.94                             101   -0.00 8  118 1524
 DLRM     P   0 ? 0701 28.99                             100    0.05 8  131 1644
 KOLO     P   0 ? 0701 28.86                             100   -0.05 8  131 1574
                                                                                
 2021  4 4 0710 28.4 L  29.848  50.718 47.9  SLT 25 0.1                        1
 GAP=336        0.20       2.4     1.8  5.9 -0.6560E+00  0.2966E+01 -0.1331E+02E
 STAT SP IPHASW D HRMN SECON CODA AMPLIT PERI AZIMU VELO AIN AR TRES W  DIS CAZ7
 SHIF     P   0 ? 0710 45.42                             116   -0.0210 87.6 1704
 N17      P   0 ? 0710 47.45                             113    0.04 9  101 1744
 N18      P   0 ? 0710 47.60                             112    0.04 9  102 1744
 P4       S   0   0711  3.49                             112    0.21 9  103 1624
 P3       P   0 ? 0710 47.66                             112   -0.01 9  103 1664
 P3       S   0   0711  3.14                             112   -0.13 9  103 1664
 P4       P   0 ? 0710 47.67                             112   -0.01 9  103 1624
 ABAD     P   0 ? 0710 47.91                             112   -0.03 9  104 1504
 P1       P   0 ? 0710 47.67                             112   -0.12 9  104 1704
 ABAD     S   0   0711  3.80                             112    0.04 9  104 1504
 N15      S   0   0711  3.51                             112   -0.11 9  104 1734
 N14      S   0   0711  3.53                             112    0.03 9  104 1744
 P1       S   0   0711  3.56                             112    0.08 9  104 1704
 N15      P   0 ? 0710 47.89                             112    0.02 9  104 1734
 N14      P   0 ? 0710 47.72                             112   -0.08 9  104 1744
 P9       S   0   0711  3.81                             112   -0.01 9  105 1534
 N11      S   0   0711  3.98                             112    0.03 9  105 1744
 N13      S   0   0711  3.83                             112    0.02 9  105 1754
 N11      P   0 ? 0710 48.02                             112   -0.03 9  105 1744
 N13      P   0 ? 0710 47.94                             112   -0.03 9  105 1754
 P9       P   0 ? 0710 47.96                             112   -0.02 9  105 1534
 N10      P   0 ? 0710 48.20                             111   -0.06 9  107 1734
 N10      S   0   0711  4.23                             111   -0.10 9  107 1734
 N9       P   0 ? 0710 48.30                             111    0.02 9  107 1714
 N9       S   0   0711  4.41                             111    0.04 9  107 1714
 N4       P   0 ? 0710 48.83                             111   -0.00 9  110 1734
 N4       S   0   0711  5.32                             111   -0.06 9  110 1734
 CAMP     S   0   0711  6.27                             110    0.12 9  113 1714
 N3       P   0 ? 0710 49.32                             110    0.10 9  113 1724
 N2       P   0 ? 0710 49.31                             110    0.05 9  113 1714
 N3       S   0   0711  6.15                             110    0.07 9  113 1724
 CAMP     P   0 ? 0710 49.23                             110   -0.03 9  113 1714
 N5       P   0 ? 0710 49.17                             110    0.02 9  113 1724
 N1       P   0 ? 0710 49.53                             110    0.00 9  115 1714
 KHIA     P   0 ? 0710 49.82                             110    0.07 9  116 1584
 KHIA     S   0   0711  6.82                             110   -0.21 9  116 1584
 JNAK     P   0 ? 0710 50.68                             109    0.02 8  123 1644
 JNAK     S   0   0711  8.74                             109    0.05 8  123 1644
 KOLO     P   0 ? 0710 52.70                             107    0.07 8  135 1584
 DLRM     P   0 ? 0710 52.66                             107   -0.02 8  136 1654
 DLRM     S   0   0711 12.23                             107   -0.11 8  136 1654
 ABAS     P   0 ? 0710 55.92                             105    0.06 7  156 1594
                                                                                
 2021  4 4 0730  9.3 L  29.760  50.720 47.3  SLT 17 0.1                        1
 GAP=336        0.19       2.5     1.6  5.5  0.8403E+00 -0.9540E+00 -0.1281E+02E
 STAT SP IPHASW D HRMN SECON CODA AMPLIT PERI AZIMU VELO AIN AR TRES W  DIS CAZ7
 N18      P   0 ? 0730 26.99                             114   -0.0110 92.3 1734
 N14      P   0 ? 0730 27.35                             114    0.1110 93.9 1734
 N14      S   0   0730 41.66                             114   -0.0910 93.9 1734
 P2       P   0 ? 0730 27.26                             114    0.0110 94.0 1674
 P2       S   0   0730 41.81                             114    0.0410 94.0 1674
 N15      P   0 ? 0730 27.37                             114    0.0610 94.4 1724
 N15      S   0   0730 41.83                             114   -0.0410 94.4 1724
 N13      P   0 ? 0730 27.47                             114    0.0710 95.0 1744
 N13      S   0   0730 41.97                             114   -0.0810 95.0 1744
 N11      P   0 ? 0730 27.38                             113   -0.1010 95.6 1744
 N11      S   0   0730 42.19                             113   -0.0010 95.6 1744
 P9       P   0 ? 0730 27.58                             113    0.0210 96.1 1504
 P9       S   0   0730 42.41                             113    0.0710 96.1 1504
 N9       P   0 ? 0730 27.75                             113    0.0410 97.2 1714
 N4       P   0 ? 0730 28.21                             112   -0.0510  101 1734
 N4       S   0   0730 43.68                             112    0.0810  101 1734
 N3       S   0   0730 44.41                             112    0.11 9  103 1724
 N5       P   0 ? 0730 28.51                             112   -0.06 9  103 1714
 N5       S   0   0730 44.14                             112   -0.03 9  103 1714
 N3       P   0 ? 0730 28.61                             112   -0.04 9  103 1724
 KHIA     P   0 ? 0730 29.26                             111   -0.00 9  107 1564
 KHIA     S   0   0730 45.30                             111   -0.12 9  107 1564
 JNAK     P   0 ? 0730 30.12                             110    0.00 9  113 1624
 JNAK     S   0   0730 47.05                             110    0.08 9  113 1624
 AHRM     P   0 ? 0730 30.25                             110   -0.00 9  114 1514
 AHRM     S   0   0730 47.17                             110   -0.04 9  114 1514
 DLRM     P   0 ? 0730 32.06                             108   -0.06 8  126 1644
 DLRM     S   0   0730 50.65                             108    0.07 8  126 1644
 KOLO     P   0 ? 0730 32.08                             108   -0.04 8  126 1564
 KOLO     S   0   0730 50.52                             108   -0.06 8  126 1564
 ABAS     P   0 ? 0730 35.37                             105    0.04 7  147 1584
                                                                                
 2021  4 4 0802  4.6 L  29.686  50.831 45.3  SLT 15 0.1                        1
 GAP=330        0.21       1.9     1.6  3.8 -0.3926E+00  0.9109E+00 -0.6565E+01E
 STAT SP IPHASW D HRMN SECON CODA AMPLIT PERI AZIMU VELO AIN AR TRES W  DIS CAZ7
 ABTL     P   0 ? 0802 18.97                             120   -0.0410 70.5 1574
 ABTL     S   0   0802 30.73                             120    0.0510 70.5 1574
 N17      P   0 ? 0802 20.82                             116    0.10 9 82.6 1814
 N17      S   0   0802 33.80                             116    0.03 9 82.6 1814
 N18      S   0   0802 33.98                             115   -0.03 9 83.5 1804
 ABAD     P   0 ? 0802 20.86                             115   -0.00 9 83.5 1514
 N18      P   0 ? 0802 20.84                             115   -0.01 9 83.5 1804
 P2       P   0 ? 0802 20.87                             115   -0.05 9 84.0 1724
 P2       S   0   0802 34.21                             115    0.07 9 84.0 1724
 N15      P   0 ? 0802 21.16                             115    0.04 9 85.3 1784
 N15      S   0   0802 34.56                             115    0.07 9 85.3 1784
 N9       P   0 ? 0802 21.47                             114   -0.02 9 87.8 1774
 N9       S   0   0802 35.07                             114   -0.09 9 87.8 1774
 N10      P   0 ? 0802 21.53                             114    0.02 9 87.9 1794
 N10      S   0   0802 35.13                             114   -0.06 9 87.9 1794
 N4       P   0 ? 0802 22.05                             113   -0.03 9 91.8 1794
 N4       S   0   0802 36.12                             113   -0.11 9 91.8 1794
 KHIA     P   0 ? 0802 22.61                             112   -0.07 9 95.8 1604
 KHIA     S   0   0802 37.35                             112    0.03 9 95.8 1604
 AHRM     P   0 ? 0802 23.60                             111    0.04 9  102 1544
 AHRM     S   0   0802 38.81                             111   -0.11 9  102 1544
 JNAK     P   0 ? 0802 23.70                             111    0.04 9  102 1674
 KOLO     P   0 ? 0802 25.54                             109    0.03 8  115 1604
 DLRM     P   0 ? 0802 25.66                             108   -0.02 8  116 1684
 DLRM     S   0   0802 42.90                             108    0.15 8  116 1684
 ABAS     P   0 ? 0802 28.71                             106   -0.03 7  135 1614
                                                                                
 2021  4 4 0811 20.2 L  29.738  50.694 43.5  SLT 14 0.1                        1
 GAP=337        0.21       4.0     2.4  9.2  0.4417E+01 -0.8702E+01 -0.3583E+02E
 STAT SP IPHASW D HRMN SECON CODA AMPLIT PERI AZIMU VELO AIN AR TRES W  DIS CAZ7
 N18      P   0 ? 0811 37.35                             113    0.0410 90.2 1714
 N18      S   0   0811 51.26                             113    0.0810 90.2 1714
 N15      P   0 ? 0811 37.61                             112   -0.0210 92.3 1704
 N15      S   0   0811 51.81                             112    0.0510 92.3 1704
 N11      P   0 ? 0811 37.80                             112    0.0110 93.4 1724
 N11      S   0   0811 52.05                             112   -0.0010 93.4 1724
 N9       P   0 ? 0811 38.03                             111   -0.0210 95.2 1694
 N9       S   0   0811 52.37                             111   -0.1510 95.2 1694
 N4       P   0 ? 0811 38.64                             111    0.0510 98.8 1714
 N4       S   0   0811 53.45                             111   -0.0510 98.8 1714
 N5       P   0 ? 0811 38.88                             110   -0.04 9  101 1694
 N2       P   0 ? 0811 39.04                             110    0.01 9  102 1694
 N2       S   0   0811 54.36                             110    0.07 9  102 1694
 CAMP     P   0 ? 0811 38.99                             110   -0.05 9  102 1684
 KHIA     P   0 ? 0811 39.71                             109   -0.03 9  106 1544
 KHIA     S   0   0811 55.63                             109    0.05 9  106 1544
 JNAK     P   0 ? 0811 40.52                             108   -0.03 9  112 1614
 AHRM     P   0 ? 0811 40.83                             108    0.04 9  113 1494
 AHRM     S   0   0811 57.45                             108   -0.03 9  113 1494
 DLRM     S   0   0812  0.64                             106   -0.02 8  125 1624
 KOLO     P   0 ? 0811 42.54                             106   -0.08 8  125 1554
 DLRM     P   0 ? 0811 42.53                             106   -0.02 8  125 1624
 ABAS     P   0 ? 0811 46.03                             104    0.19 7  146 1564
                                                                                
 2021  4 4 0850 40.6 L  29.828  50.711 40.8  SLT 24 0.1                        1
 GAP=335        0.18       1.6     1.4  5.1 -0.3247E+00  0.2068E+01 -0.7363E+01E
 STAT SP IPHASW D HRMN SECON CODA AMPLIT PERI AZIMU VELO AIN AR TRES W  DIS CAZ7
 NOKA     P   0 ? 0850 55.71                             114   -0.0310 77.8 1564
 SHIF     P   0 ? 0850 56.90                             112    0.0010 85.6 1694
 ABTL     P   0 ? 0850 57.50                             111   -0.02 9 89.7 1544
 N17      P   0 ? 0850 58.92                             109    0.02 9 98.9 1744
 N17      S   0   0851 13.88                             109    0.17 9 98.9 1744
 N18      P   0 ? 0850 59.05                             109   -0.01 9 99.9 1734
 N18      S   0   0851 13.99                             109   -0.00 9 99.9 1734
 P4       P   0 ? 0850 59.21                             109   -0.00 9  101 1614
 P4       S   0   0851 14.17                             109   -0.10 9  101 1614
 N15      P   0 ? 0850 59.42                             109    0.04 9  102 1724
 N14      P   0 ? 0850 59.28                             109   -0.02 9  102 1734
 N14      S   0   0851 14.29                             109   -0.15 9  102 1734
 ABAD     S   0   0851 14.83                             108   -0.01 9  103 1494
 N11      P   0 ? 0850 59.61                             108    0.05 9  103 1744
 ABAD     P   0 ? 0850 59.59                             108    0.06 9  103 1494
 P9       P   0 ? 0850 59.57                             108    0.02 9  103 1524
 P9       S   0   0851 14.92                             108    0.03 9  103 1524
 N9       P   0 ? 0850 59.83                             108    0.03 9  105 1714
 N9       S   0   0851 15.37                             108    0.04 9  105 1714
 N6       P   0 ? 0851  0.04                             108   -0.03 9  106 1724
 N4       P   0 ? 0851  0.37                             107    0.01 9  108 1734
 N4       S   0   0851 16.31                             107   -0.04 9  108 1734
 N5       S   0   0851 16.83                             107   -0.10 9  111 1714
 N3       S   0   0851 17.11                             107    0.04 9  111 1724
 N2       S   0   0851 17.27                             107    0.13 8  111 1714
 N3       P   0 ? 0851  0.85                             107    0.09 9  111 1724
 N2       P   0 ? 0851  0.84                             107    0.04 8  111 1714
 N5       P   0 ? 0851  0.65                             107   -0.03 9  111 1714
 N1       P   0 ? 0851  1.00                             107   -0.07 8  113 1714
 N1       S   0   0851 17.52                             107   -0.11 8  113 1714
 KHIA     P   0 ? 0851  1.31                             106   -0.03 8  115 1574
 KHIA     S   0   0851 18.16                             106    0.03 8  115 1574
 AHRM     P   0 ? 0851  2.26                             106   -0.06 8  121 1524
 AHRM     S   0   0851 19.98                             106    0.08 8  121 1524
 JNAK     P   0 ? 0851  2.20                             106   -0.05 8  121 1634
 JNAK     S   0   0851 19.75                             106   -0.02 8  121 1634
 DLRM     P   0 ? 0851  4.32                             104    0.02 7  134 1644
 DLRM     S   0   0851 23.51                             104    0.04 7  134 1644
 KOLO     P   0 ? 0851  4.24                             104   -0.02 7  134 1574
 ABAS     P   0 ? 0851  7.48                             102   -0.05 7  154 1584
                                                                                
 2021  4 4 0911 10.8 L  29.770  50.683 46.6  SLT 23 0.1                        1
 GAP=334        0.18       1.5     1.7  3.9 -0.6343E+00  0.3033E+01 -0.5032E+01E
 STAT SP IPHASW D HRMN SECON CODA AMPLIT PERI AZIMU VELO AIN AR TRES W  DIS CAZ7
 NOKA     P   0 ? 0911 25.68                             120   -0.0210 73.2 1524
 SHIF     P   0 ? 0911 26.69                             117    0.0410 79.9 1674
 ABTL     P   0 ? 0911 27.43                             116   -0.01 9 85.3 1504
 ABTL     S   0   0911 40.87                             116   -0.03 9 85.3 1504
 N17      P   0 ? 0911 28.60                             114    0.06 9 92.9 1724
 N18      P   0 ? 0911 28.73                             113    0.04 9 93.9 1714
 P3       P   0 ? 0911 28.89                             113   -0.02 9 95.4 1634
 P3       S   0   0911 43.66                             113    0.10 9 95.4 1634
 N14      P   0 ? 0911 28.89                             113   -0.04 9 95.5 1714
 P4       P   0 ? 0911 29.06                             113    0.08 9 95.9 1584
 P4       S   0   0911 43.62                             113   -0.07 9 95.9 1584
 N15      P   0 ? 0911 29.02                             113    0.01 9 96.0 1704
 N15      S   0   0911 43.79                             113    0.05 9 96.0 1704
 N10      P   0 ? 0911 29.28                             112   -0.11 9 98.6 1704
 N10      S   0   0911 44.42                             112   -0.01 9 98.6 1704
 ABAD     P   0 ? 0911 29.42                             112   -0.03 9 98.9 1464
 P9       P   0 ? 0911 29.47                             112    0.04 9 98.9 1494
 P9       S   0   0911 44.57                             112    0.06 9 98.9 1494
 N4       P   0 ? 0911 29.94                             112   -0.03 9  102 1714
 N4       S   0   0911 45.38                             112   -0.09 9  102 1714
 N3       P   0 ? 0911 30.31                             111   -0.05 9  105 1704
 N2       P   0 ? 0911 30.44                             111    0.03 9  105 1694
 N2       S   0   0911 46.37                             111    0.10 9  105 1694
 N3       S   0   0911 46.08                             111   -0.11 9  105 1704
 N5       P   0 ? 0911 30.26                             111   -0.03 9  105 1694
 N5       S   0   0911 46.10                             111    0.04 9  105 1694
 N1       P   0 ? 0911 30.62                             111   -0.06 9  107 1694
 N1       S   0   0911 46.83                             111    0.08 9  107 1694
 KHIA     P   0 ? 0911 31.09                             110   -0.02 8  110 1554
 KHIA     S   0   0911 47.42                             110   -0.11 8  110 1554
 JNAK     P   0 ? 0911 31.93                             109    0.01 8  115 1614
 JNAK     S   0   0911 48.91                             109   -0.10 8  115 1614
 AHRM     P   0 ? 0911 32.20                             109    0.06 8  117 1494
 DLRM     P   0 ? 0911 33.92                             107    0.01 8  128 1634
 DLRM     S   0   0911 52.67                             107    0.06 8  128 1634
 KOLO     P   0 ? 0911 33.95                             107   -0.02 8  129 1554
 ABAS     P   0 ? 0911 37.27                             105    0.09 7  149 1574
                                                                                
