 2021  4 4 2259 52.7 L  29.805  50.780 26.7  SLT 27 0.1                        1
 GAP=336        0.20       2.1     1.7 10.9  0.4919E+00  0.7891E-01 -0.2126E+02E
 STAT SP IPHASW D HRMN SECON CODA AMPLIT PERI AZIMU VELO AIN AR TRES W  DIS CAZ7
 SHIF     P   0 ? 2300  7.70                             103   -0.0610 82.1 1744
 N20      P   0 ? 2300  9.56                             101    0.05 9 93.2 1774
 N20      S   0   2300 23.13                             101    0.03 9 93.2 1774
 N19      P   0 ? 2300  9.86                             101   -0.04 9 95.6 1754
 N17      P   0 ? 2300  9.97                             101    0.03 9 95.8 1784
 P4       P   0 ? 2300  9.98                             101   -0.06 9 96.5 1644
 P4       S   0   2300 24.07                             101    0.02 9 96.5 1644
 P3       S   0   2300 24.21                             101    0.07 9 96.8 1694
 N18      P   0 ? 2300 10.10                             101    0.01 9 96.8 1774
 P3       P   0 ? 2300  9.95                             101   -0.13 9 96.8 1694
 P2       P   0 ? 2300 10.24                             101    0.00 9 97.7 1714
 P2       S   0   2300 24.34                             101   -0.07 9 97.7 1714
 P9       P   0 ? 2300 10.24                             101   -0.01 9 97.8 1554
 P9       S   0   2300 24.63                             101    0.18 9 97.8 1554
 N14      P   0 ? 2300 10.35                             101    0.01 9 98.4 1774
 N15      P   0 ? 2300 10.43                             101    0.04 9 98.7 1764
 N15      S   0   2300 24.72                             101    0.02 9 98.7 1764
 N13      P   0 ? 2300 10.49                             101   -0.04 9 99.6 1784
 N11      P   0 ? 2300 10.67                             100    0.06 9  100 1774
 N10      P   0 ? 2300 10.81                             100    0.00 9  101 1764
 N9       P   0 ? 2300 10.74                             100   -0.07 9  101 1744
 N9       S   0   2300 25.35                             100   -0.10 9  101 1744
 N6       P   0 ? 2300 11.13                             100    0.03 9  103 1754
 N6       S   0   2300 25.88                             100   -0.09 9  103 1754
 N4       P   0 ? 2300 11.43                             100    0.01 9  105 1764
 N4       S   0   2300 26.54                             100   -0.02 9  105 1764
 N5       P   0 ? 2300 11.67                             100   -0.06 9  107 1754
 N3       P   0 ? 2300 11.85                             100    0.04 9  108 1754
 N3       S   0   2300 27.35                             100    0.08 9  108 1754
 CAMP     P   0 ? 2300 11.93                             100    0.10 9  108 1734
 CAMP     S   0   2300 27.46                             100    0.16 9  108 1734
 N2       P   0 ? 2300 11.84                             100    0.00 9  108 1744
 KHIA     P   0 ? 2300 12.15                              99   -0.02 9  110 1604
 KHIA     S   0   2300 27.69                              99   -0.23 9  110 1604
 N1       P   0 ? 2300 12.10                              99   -0.02 9  110 1744
 JNAK     P   0 ? 2300 13.21                              99    0.01 8  116 1664
 JNAK     S   0   2300 29.73                              99   -0.04 8  116 1664
 AHRM     P   0 ? 2300 13.08                              99   -0.02 8  116 1544
 AHRM     S   0   2300 29.62                              99    0.02 8  116 1544
 DLRM     P   0 ? 2300 15.42                              98    0.11 8  130 1674
 DLRM     S   0   2300 33.55                              98   -0.05 8  130 1674
 ABAS     P   0 ? 2300 18.59                              97    0.08 7  150 1614
                                                                                
 2021  4 4 2311 14.1 L  29.763  50.733 41.0  SLT 22 0.1                        1
 GAP=342        0.18       2.6     2.3  7.1  0.2026E+01 -0.3127E+01 -0.1740E+02E
 STAT SP IPHASW D HRMN SECON CODA AMPLIT PERI AZIMU VELO AIN AR TRES W  DIS CAZ7
 N20      P   0 ? 2311 30.94                             111    0.0310 88.9 1744
 N17      P   0 ? 2311 31.42                             111    0.1210 91.5 1754
 N18      P   0 ? 2311 31.52                             111    0.0710 92.5 1744
 P4       P   0 ? 2311 31.62                             110    0.0310 93.4 1614
 P4       S   0   2311 45.69                             110   -0.0410 93.4 1614
 P1       P   0 ? 2311 31.63                             110   -0.0510 94.0 1694
 P1       S   0   2311 45.89                             110   -0.0110 94.0 1694
 P2       P   0 ? 2311 31.69                             110    0.0010 94.1 1674
 N14      P   0 ? 2311 31.67                             110   -0.0310 94.1 1744
 N14      S   0   2311 45.90                             110   -0.0210 94.1 1744
 N15      P   0 ? 2311 31.80                             110    0.0410 94.5 1734
 N15      S   0   2311 45.96                             110   -0.0810 94.5 1734
 N13      P   0 ? 2311 31.84                             110   -0.0310 95.3 1754
 N11      P   0 ? 2311 31.93                             110   -0.0210 95.8 1754
 N9       P   0 ? 2311 32.17                             110   -0.0110 97.3 1714
 N6       P   0 ? 2311 32.47                             109    0.0210 99.0 1724
 N6       S   0   2311 47.20                             109   -0.0810 99.0 1724
 N4       P   0 ? 2311 32.80                             109    0.06 9  101 1734
 N4       S   0   2311 47.87                             109    0.05 9  101 1734
 N5       P   0 ? 2311 33.03                             108   -0.03 9  103 1724
 N5       S   0   2311 48.47                             108    0.08 9  103 1724
 N2       P   0 ? 2311 33.11                             108   -0.06 9  104 1714
 CAMP     P   0 ? 2311 33.16                             108   -0.01 9  104 1714
 CAMP     S   0   2311 48.72                             108    0.13 9  104 1714
 N2       S   0   2311 48.49                             108   -0.10 9  104 1714
 N3       P   0 ? 2311 33.16                             108    0.03 9  104 1724
 N1       P   0 ? 2311 33.33                             108   -0.11 9  106 1714
 N1       S   0   2311 49.12                             108    0.04 9  106 1714
 KHIA     P   0 ? 2311 33.64                             108   -0.07 9  107 1574
 KHIA     S   0   2311 49.63                             108    0.07 9  107 1574
 JNAK     P   0 ? 2311 34.57                             107   -0.03 9  113 1634
 JNAK     S   0   2311 51.22                             107    0.04 9  113 1634
 KOLO     P   0 ? 2311 36.67                             105    0.06 8  126 1574
 DLRM     P   0 ? 2311 36.62                             105   -0.02 8  126 1654
 DLRM     S   0   2311 54.81                             105   -0.06 8  126 1654
                                                                                
 2021  4 4 2349 51.7 L  29.757  50.896 17.3  SLT 20 0.1                        1
 GAP=336        0.20       2.8     3.3 36.0 -0.3991E+01  0.4230E+02 -0.9132E+02E
 STAT SP IPHASW D HRMN SECON CODA AMPLIT PERI AZIMU VELO AIN AR TRES W  DIS CAZ7
 ABTL     P   0 ? 2350  5.55                              96    0.0510 75.8 1634
 SHIF     P   0 ? 2350  5.59                              96    0.0210 76.2 1824
 N20      P   0 ? 2350  7.40                              95   -0.02 9 87.8 1844
 P9       P   0 ? 2350  7.53                              95   -0.02 9 88.6 1604
 P4       P   0 ? 2350  7.56                              95   -0.02 9 88.8 1704
 P2       P   0 ? 2350  7.93                              95   -0.03 9 91.2 1774
 N18      P   0 ? 2350  7.99                              95   -0.02 9 91.5 1844
 P1       P   0 ? 2350  8.04                              95   -0.01 9 91.7 1794
 N14      P   0 ? 2350  8.22                              95   -0.04 9 93.0 1844
 N14      S   0   2350 21.57                              95   -0.10 9 93.0 1844
 N15      P   0 ? 2350  8.38                              95    0.10 9 93.1 1824
 N13      P   0 ? 2350  8.46                              95   -0.03 9 94.5 1854
 N11      P   0 ? 2350  8.59                              95    0.03 9 94.9 1844
 N10      P   0 ? 2350  8.74                              95    0.03 9 95.8 1834
 N6       P   0 ? 2350  8.87                              94   -0.10 9 97.4 1814
 N4       P   0 ? 2350  9.37                              94    0.04 9 99.7 1824
 N4       S   0   2350 23.65                              94    0.05 9 99.7 1824
 KHIA     P   0 ? 2350  9.57                              94   -0.04 9  101 1654
 N5       P   0 ? 2350  9.55                              94   -0.04 9  101 1814
 N5       S   0   2350 24.20                              94    0.13 9  101 1814
 CAMP     P   0 ? 2350  9.72                              94    0.07 9  102 1794
 N2       P   0 ? 2350  9.71                              94    0.02 9  102 1804
 N3       P   0 ? 2350  9.72                              94    0.03 9  102 1814
 N2       S   0   2350 24.17                              94   -0.08 9  102 1804
                                                                                
 2021  4 4 2352 39.0 L  29.659  50.687 41.4  SLT 22 0.1                        1
 GAP=335        0.19       1.5     3.1  3.7 -0.8520E+00  0.4474E+01 -0.4927E+01E
 STAT SP IPHASW D HRMN SECON CODA AMPLIT PERI AZIMU VELO AIN AR TRES W  DIS CAZ7
 NOKA     P   0 ? 2352 51.97                             120    0.0310 62.3 1474
 SHIF     P   0 ? 2352 52.74                             118    0.0210 67.9 1644
 SHIF     S   0   2353  3.88                             118    0.0510 67.9 1644
 ABTL     P   0 ? 2352 53.66                             116   -0.04 9 74.6 1464
 N17      P   0 ? 2352 54.53                             114   -0.04 9 80.6 1714
 N17      S   0   2353  7.07                             114   -0.11 9 80.6 1714
 N19      P   0 ? 2352 54.61                             114   -0.01 9 80.9 1684
 N18      P   0 ? 2352 54.79                             114    0.06 9 81.7 1704
 N14      P   0 ? 2352 55.03                             113    0.06 9 83.3 1704
 P1       P   0 ? 2352 55.06                             113    0.03 9 83.7 1654
 P1       S   0   2353  7.94                             113   -0.08 9 83.7 1654
 P2       P   0 ? 2352 55.09                             113    0.01 9 84.1 1634
 N10      P   0 ? 2352 55.48                             112    0.05 9 86.4 1694
 N9       P   0 ? 2352 55.43                             112   -0.05 9 86.7 1674
 N6       P   0 ? 2352 55.63                             112   -0.10 9 88.4 1684
 N6       S   0   2353  9.26                             112   -0.02 9 88.4 1684
 N4       P   0 ? 2352 56.01                             111    0.00 9 90.2 1704
 N4       S   0   2353  9.91                             111    0.14 9 90.2 1704
 N5       P   0 ? 2352 56.36                             111    0.02 9 92.4 1684
 N5       S   0   2353 10.42                             111    0.04 9 92.4 1684
 N3       P   0 ? 2352 56.39                             111   -0.02 9 92.9 1694
 N3       S   0   2353 10.46                             111   -0.04 9 92.9 1694
 N2       P   0 ? 2352 56.44                             111   -0.02 9 93.3 1684
 N2       S   0   2353 10.65                             111    0.06 9 93.3 1684
 CAMP     P   0 ? 2352 56.49                             111    0.01 9 93.4 1674
 CAMP     S   0   2353 10.53                             111   -0.09 9 93.4 1674
 N1       P   0 ? 2352 56.70                             110   -0.03 9 95.0 1674
 N1       S   0   2353 11.13                             110    0.05 9 95.0 1674
 KHIA     P   0 ? 2352 57.25                             110   -0.06 8 98.8 1524
 JNAK     P   0 ? 2352 57.98                             109   -0.06 8  104 1594
 KOLO     P   0 ? 2353  0.31                             106    0.13 8  117 1534
 DLRM     P   0 ? 2353  0.04                             106    0.02 8  117 1614
                                                                                
 2021  4 4 2356 55.8 L  29.689  50.715 56.0  SLT 29 0.1                        1
 GAP=334        0.18       1.9     1.5  3.2  0.4326E+00  0.2175E+00 -0.5533E+01E
 STAT SP IPHASW D HRMN SECON CODA AMPLIT PERI AZIMU VELO AIN AR TRES W  DIS CAZ7
 SHIF     P   0 ? 2357 11.13                             126   -0.0010 70.4 1674
 N20      P   0 ? 2357 12.49                             122   -0.0510 81.0 1724
 N17      P   0 ? 2357 12.85                             122   -0.04 9 83.5 1734
 N19      P   0 ? 2357 12.87                             121   -0.04 9 83.7 1704
 N18      P   0 ? 2357 13.04                             121    0.01 9 84.6 1724
 P3       P   0 ? 2357 13.22                             121    0.01 9 85.9 1634
 P3       S   0   2357 27.38                             121    0.07 9 85.9 1634
 N14      P   0 ? 2357 13.34                             121    0.09 9 86.2 1724
 P1       P   0 ? 2357 13.26                             121   -0.02 9 86.3 1674
 P1       S   0   2357 27.29                             121   -0.14 9 86.3 1674
 P4       P   0 ? 2357 13.25                             121   -0.03 9 86.4 1584
 P4       S   0   2357 27.46                             121    0.02 9 86.4 1584
 P2       P   0 ? 2357 13.31                             121    0.01 9 86.5 1654
 N15      P   0 ? 2357 13.35                             121    0.03 9 86.7 1714
 N15      S   0   2357 27.53                             121    0.01 9 86.7 1714
 N13      P   0 ? 2357 13.43                             120    0.02 9 87.3 1734
 N11      P   0 ? 2357 13.43                             120   -0.05 9 87.8 1734
 N10      P   0 ? 2357 13.71                             120    0.03 9 89.2 1714
 N9       P   0 ? 2357 13.70                             120   -0.01 9 89.5 1704
 N9       S   0   2357 28.33                             120    0.11 9 89.5 1704
 P9       P   0 ? 2357 13.77                             120    0.03 9 89.6 1484
 P9       S   0   2357 28.24                             120   -0.02 9 89.6 1484
 N6       P   0 ? 2357 14.00                             119    0.04 9 91.2 1704
 N6       S   0   2357 28.55                             119   -0.11 9 91.2 1704
 N4       P   0 ? 2357 14.19                             119   -0.03 9 93.1 1724
 N5       P   0 ? 2357 14.47                             118   -0.06 9 95.2 1704
 N5       S   0   2357 29.70                             118    0.01 9 95.2 1704
 N3       P   0 ? 2357 14.55                             118   -0.04 9 95.7 1714
 N3       S   0   2357 30.02                             118    0.21 9 95.7 1714
 N2       P   0 ? 2357 14.57                             118   -0.06 9 96.0 1704
 N2       S   0   2357 29.82                             118   -0.06 9 96.0 1704
 CAMP     P   0 ? 2357 14.59                             118   -0.05 9 96.1 1694
 CAMP     S   0   2357 29.93                             118    0.03 9 96.1 1694
 N1       P   0 ? 2357 14.90                             117    0.01 9 97.8 1694
 KHIA     P   0 ? 2357 15.36                             117    0.07 9  101 1544
 JNAK     P   0 ? 2357 16.14                             116    0.08 8  106 1614
 AHRM     P   0 ? 2357 16.30                             115   -0.00 8  107 1484
 AHRM     S   0   2357 32.91                             115    0.00 8  107 1484
 KOLO     S   0   2357 35.95                             113   -0.10 8  119 1544
 DLRM     S   0   2357 35.85                             113   -0.07 8  119 1634
 KOLO     P   0 ? 2357 18.01                             113   -0.03 8  119 1544
 DLRM     P   0 ? 2357 18.03                             113    0.06 8  119 1634
 ABAS     P   0 ? 2357 21.25                             110    0.10 7  140 1564
                                                                                
