 2021  4 4 2226 20.4 L  29.815  50.796 29.7  SLT 27 0.1                        1
 GAP=334        0.19       2.2     1.6 10.0 -0.7812E+00  0.4183E+01 -0.2112E+02E
 STAT SP IPHASW D HRMN SECON CODA AMPLIT PERI AZIMU VELO AIN AR TRES W  DIS CAZ7
 SHIF     P   0 ? 2226 35.62                             105   -0.0310 83.0 1754
 ABTL     P   0 ? 2226 36.01                             105    0.0310 85.0 1584
 N20      P   0 ? 2226 37.43                             103    0.03 9 94.1 1784
 N19      P   0 ? 2226 37.74                             103   -0.04 9 96.5 1764
 P4       P   0 ? 2226 37.90                             103    0.04 9 97.1 1654
 P4       S   0   2226 52.10                             103    0.06 9 97.1 1654
 P3       P   0 ? 2226 37.95                             103    0.02 9 97.5 1704
 P3       S   0   2226 52.09                             103   -0.07 9 97.5 1704
 ABAD     P   0 ? 2226 37.98                             103    0.02 9 97.6 1534
 N18      P   0 ? 2226 37.90                             103   -0.07 9 97.8 1784
 N18      S   0   2226 52.35                             103    0.12 9 97.8 1784
 P9       P   0 ? 2226 38.00                             103   -0.04 9 98.2 1564
 P9       S   0   2226 52.22                             103   -0.14 9 98.2 1564
 P2       P   0 ? 2226 38.09                             103   -0.00 9 98.6 1724
 P2       S   0   2226 52.45                             103   -0.00 9 98.6 1724
 N14      P   0 ? 2226 38.18                             102   -0.04 9 99.3 1784
 N14      S   0   2226 52.73                             102    0.05 9 99.3 1784
 N15      P   0 ? 2226 38.26                             102   -0.01 9 99.7 1774
 N15      S   0   2226 52.92                             102    0.15 9 99.7 1774
 N13      P   0 ? 2226 38.40                             102   -0.02 9  101 1794
 N11      P   0 ? 2226 38.51                             102    0.02 9  101 1784
 N13      S   0   2226 53.12                             102    0.07 9  101 1794
 N11      S   0   2226 53.15                             102   -0.03 9  101 1784
 N9       P   0 ? 2226 38.72                             102    0.04 9  102 1754
 N6       P   0 ? 2226 38.99                             102    0.02 9  104 1764
 N6       S   0   2226 54.00                             102   -0.04 9  104 1764
 N4       P   0 ? 2226 39.23                             102   -0.06 9  106 1774
 N4       S   0   2226 54.54                             102   -0.09 9  106 1774
 N5       P   0 ? 2226 39.54                             101   -0.05 9  108 1754
 N5       S   0   2226 55.22                             101    0.05 9  108 1754
 CAMP     P   0 ? 2226 39.70                             101    0.01 9  109 1744
 N3       S   0   2226 55.17                             101   -0.16 9  109 1764
 N2       P   0 ? 2226 39.71                             101    0.01 9  109 1754
 N3       P   0 ? 2226 39.56                             101   -0.12 9  109 1764
 KHIA     P   0 ? 2226 40.04                             101    0.07 9  110 1614
 N1       P   0 ? 2226 39.94                             101   -0.03 9  110 1754
 AHRM     P   0 ? 2226 41.01                             100    0.15 8  116 1554
 AHRM     S   0   2226 57.48                             100    0.01 8  116 1554
 JNAK     P   0 ? 2226 41.02                             100    0.01 8  117 1674
 DLRM     P   0 ? 2226 43.17                              99    0.04 8  130 1684
 ABAS     P   0 ? 2226 46.32                              98    0.04 7  150 1614
                                                                                
 2021  4 4 2230 14.3 L  29.716  50.672 56.2  SLT 24 0.1                        1
 GAP=336        0.19       1.8     1.9  3.8  0.6929E+00 -0.5883E-01 -0.6129E+01E
 STAT SP IPHASW D HRMN SECON CODA AMPLIT PERI AZIMU VELO AIN AR TRES W  DIS CAZ7
 NOKA     P   0 ? 2230 29.45                             127    0.0510 68.4 1494
 SHIF     P   0 ? 2230 30.23                             125    0.0610 74.3 1654
 ABTL     P   0 ? 2230 31.03                             123   -0.00 9 80.7 1484
 N20      P   0 ? 2230 31.53                             121   -0.03 9 84.6 1694
 N17      P   0 ? 2230 31.96                             120    0.06 9 87.1 1704
 N19      P   0 ? 2230 31.93                             120   -0.02 9 87.4 1684
 N18      P   0 ? 2230 32.09                             120    0.04 9 88.2 1704
 N14      P   0 ? 2230 32.24                             120   -0.04 9 89.8 1704
 N15      P   0 ? 2230 32.46                             120    0.10 9 90.3 1694
 N13      P   0 ? 2230 32.41                             119   -0.01 9 90.8 1714
 N13      S   0   2230 47.06                             119   -0.03 9 90.8 1714
 N10      P   0 ? 2230 32.78                             119    0.06 9 92.9 1694
 N9       P   0 ? 2230 32.74                             119   -0.02 9 93.2 1674
 N6       P   0 ? 2230 33.00                             118    0.00 9 94.9 1684
 N4       P   0 ? 2230 33.24                             118   -0.02 9 96.7 1694
 N4       S   0   2230 48.60                             118   -0.01 9 96.7 1694
 N5       P   0 ? 2230 33.59                             117    0.01 9 98.9 1684
 N5       S   0   2230 49.24                             117    0.05 9 98.9 1684
 N3       P   0 ? 2230 33.58                             117   -0.06 9 99.4 1694
 N3       S   0   2230 49.26                             117   -0.04 9 99.4 1694
 N2       P   0 ? 2230 33.64                             117   -0.05 9 99.8 1684
 N2       S   0   2230 49.28                             117   -0.10 9 99.8 1684
 CAMP     P   0 ? 2230 33.65                             117   -0.06 9 99.9 1674
 N1       P   0 ? 2230 33.84                             117   -0.11 9  102 1674
 N1       S   0   2230 49.89                             117    0.04 9  102 1674
 KHIA     P   0 ? 2230 34.38                             116   -0.08 8  105 1534
 JNAK     P   0 ? 2230 35.22                             115    0.03 8  110 1594
 AHRM     P   0 ? 2230 35.50                             114   -0.01 8  112 1474
 AHRM     S   0   2230 52.57                             114   -0.12 8  112 1474
 DLRM     P   0 ? 2230 37.12                             112    0.02 8  123 1614
 DLRM     S   0   2230 55.72                             112    0.16 8  123 1614
 KOLO     P   0 ? 2230 37.26                             112    0.04 8  124 1534
 KOLO     S   0   2230 55.88                             112    0.09 8  124 1534
                                                                                
 2021  4 4 2236 35.9 L  29.773  50.776 37.4  SLT 19 0.1                        1
 GAP=336        0.20       2.9     2.2  8.5  0.4259E+01 -0.1226E+02 -0.2354E+02E
 STAT SP IPHASW D HRMN SECON CODA AMPLIT PERI AZIMU VELO AIN AR TRES W  DIS CAZ7
 N20      P   0 ? 2236 52.58                             109   -0.0110 89.6 1764
 N20      S   0   2237  6.02                             109   -0.0810 89.6 1764
 N17      P   0 ? 2236 53.07                             108    0.0710 92.3 1774
 N17      S   0   2237  6.96                             108    0.1210 92.3 1774
 N18      P   0 ? 2236 53.13                             108   -0.0110 93.2 1774
 N18      S   0   2237  7.07                             108   -0.0310 93.2 1774
 N14      P   0 ? 2236 53.42                             108    0.0310 94.8 1764
 N14      S   0   2237  7.66                             108    0.1110 94.8 1764
 N15      P   0 ? 2236 53.44                             108   -0.0010 95.2 1754
 N15      S   0   2237  7.68                             108    0.0410 95.2 1754
 N13      P   0 ? 2236 53.59                             108    0.0110 96.0 1784
 N13      S   0   2237  7.85                             108   -0.0410 96.0 1784
 N11      P   0 ? 2236 53.75                             108    0.1010 96.5 1774
 N11      S   0   2237  7.93                             108   -0.0910 96.5 1774
 N10      P   0 ? 2236 53.82                             107   -0.0210 97.8 1764
 N10      S   0   2237  8.42                             107    0.0510 97.8 1764
 N9       P   0 ? 2236 53.87                             107    0.0210 97.8 1744
 N9       S   0   2237  8.19                             107   -0.1910 97.8 1744
 N6       P   0 ? 2236 54.01                             107   -0.1210 99.6 1754
 N6       S   0   2237  8.99                             107    0.1110 99.6 1754
 N2       P   0 ? 2236 54.78                             106   -0.07 9  104 1744
 N2       S   0   2237 10.20                             106    0.01 9  104 1744
 CAMP     P   0 ? 2236 54.77                             106   -0.07 9  104 1734
 CAMP     S   0   2237 10.13                             106   -0.05 9  104 1734
 N1       P   0 ? 2236 55.16                             106    0.04 9  106 1744
 N1       S   0   2237 10.77                             106    0.09 9  106 1744
 KHIA     P   0 ? 2236 55.24                             106    0.02 9  107 1594
 KHIA     S   0   2237 10.78                             106   -0.09 9  107 1594
 AHRM     P   0 ? 2236 56.16                             105    0.00 9  113 1534
 AHRM     S   0   2237 12.69                             105    0.13 9  113 1534
 JNAK     P   0 ? 2236 56.14                             105   -0.06 9  113 1654
 JNAK     S   0   2237 12.52                             105   -0.11 9  113 1654
 KOLO     P   0 ? 2236 58.19                             103    0.04 8  125 1594
 KOLO     S   0   2237 16.08                             103   -0.08 8  125 1594
 DLRM     P   0 ? 2236 58.25                             103   -0.02 8  126 1674
 DLRM     S   0   2237 16.39                             103    0.01 8  126 1674
 ABAS     P   0 ? 2237  1.44                             101   -0.00 7  146 1604
 ABAS     S   0   2237 22.24                             101    0.12 7  146 1604
                                                                                
 2021  4 4 2241 47.5 L  29.703  50.609 40.9  SLT 29 0.1                        1
 GAP=336        0.21       2.2     1.9  5.8  0.1551E+01 -0.1140E+01 -0.1167E+02E
 STAT SP IPHASW D HRMN SECON CODA AMPLIT PERI AZIMU VELO AIN AR TRES W  DIS CAZ7
 SHIF     P   0 ? 2242  2.29                             115    0.0710 74.9 1604
 N20      P   0 ? 2242  3.71                             112    0.0410 84.6 1654
 N17      P   0 ? 2242  4.00                             112   -0.01 9 87.0 1664
 N17      S   0   2242 17.45                             112    0.09 9 87.0 1664
 N19      P   0 ? 2242  4.08                             112   -0.03 9 87.6 1634
 N18      P   0 ? 2242  4.22                             112    0.04 9 88.1 1664
 N14      P   0 ? 2242  4.53                             111    0.10 9 89.7 1664
 N15      P   0 ? 2242  4.51                             111   -0.02 9 90.4 1654
 N13      P   0 ? 2242  4.59                             111    0.03 9 90.6 1674
 P1       P   0 ? 2242  4.52                             111   -0.05 9 90.7 1614
 P3       P   0 ? 2242  4.65                             111    0.04 9 90.9 1574
 P3       S   0   2242 18.31                             111   -0.12 9 90.9 1574
 P2       P   0 ? 2242  4.60                             111   -0.05 9 91.2 1594
 N11      P   0 ? 2242  4.69                             111    0.04 9 91.2 1674
 P4       P   0 ? 2242  4.78                             111   -0.01 9 92.1 1524
 P4       S   0   2242 18.78                             111    0.01 9 92.1 1524
 N10      P   0 ? 2242  4.95                             110    0.04 9 92.9 1654
 N9       P   0 ? 2242  4.94                             110   -0.05 9 93.4 1644
 N9       S   0   2242 18.89                             110   -0.23 9 93.4 1644
 N6       P   0 ? 2242  5.20                             110   -0.02 9 95.0 1644
 N4       P   0 ? 2242  5.43                             110   -0.05 9 96.7 1664
 P9       P   0 ? 2242  5.49                             110   -0.00 9 96.7 1434
 N5       P   0 ? 2242  5.73                             109   -0.11 9 99.1 1644
 N5       S   0   2242 20.90                             109    0.23 9 99.1 1644
 N3       P   0 ? 2242  5.83                             109   -0.07 9 99.4 1654
 N3       S   0   2242 20.69                             109   -0.08 9 99.4 1654
 N2       P   0 ? 2242  6.02                             109    0.05 9 99.9 1644
 N2       S   0   2242 21.04                             109    0.15 9 99.9 1644
 CAMP     P   0 ? 2242  6.00                             109    0.00 9  100 1634
 CAMP     S   0   2242 20.88                             109   -0.08 9  100 1634
 N1       P   0 ? 2242  6.27                             109    0.03 9  102 1644
 N1       S   0   2242 21.36                             109   -0.03 9  102 1644
 KHIA     P   0 ? 2242  7.03                             108   -0.00 9  107 1494
 KHIA     S   0   2242 22.93                             108    0.11 9  107 1494
 JNAK     P   0 ? 2242  7.70                             107    0.01 8  111 1564
 JNAK     S   0   2242 23.85                             107   -0.17 8  111 1564
 AHRM     P   0 ? 2242  8.16                             107   -0.06 8  114 1444
 AHRM     S   0   2242 25.05                             107    0.07 8  114 1444
 DLRM     P   0 ? 2242  9.67                             105    0.02 8  124 1584
 DLRM     S   0   2242 27.66                             105    0.09 8  124 1584
 KOLO     P   0 ? 2242  9.88                             105   -0.03 8  125 1514
 KOLO     S   0   2242 28.03                             105   -0.01 8  125 1514
 ABAS     P   0 ? 2242 13.15                             103    0.05 7  146 1534
                                                                                
 2021  4 4 2243 52.7 L  29.718  50.677 58.4  SLT 27 0.1                        1
 GAP=333        0.20       1.7     1.5  2.8  0.4922E+00 -0.8905E-01 -0.4326E+01E
 STAT SP IPHASW D HRMN SECON CODA AMPLIT PERI AZIMU VELO AIN AR TRES W  DIS CAZ7
 NOKA     P   0 ? 2244  8.05                             128    0.0110 68.3 1494
 SHIF     P   0 ? 2244  8.84                             126    0.0310 74.4 1654
 N20      P   0 ? 2244 10.31                             122    0.12 9 84.7 1694
 N20      S   0   2244 24.49                             122    0.16 9 84.7 1694
 N17      P   0 ? 2244 10.60                             122    0.07 9 87.2 1714
 N17      S   0   2244 24.98                             122    0.04 9 87.2 1714
 N19      P   0 ? 2244 10.60                             122    0.03 9 87.5 1684
 N19      S   0   2244 24.99                             122   -0.03 9 87.5 1684
 N18      P   0 ? 2244 10.67                             121   -0.00 9 88.2 1704
 N18      S   0   2244 25.31                             121    0.11 9 88.2 1704
 N14      P   0 ? 2244 10.89                             121   -0.01 9 89.8 1704
 N14      S   0   2244 25.48                             121   -0.13 9 89.8 1704
 P3       P   0 ? 2244 10.88                             121   -0.04 9 90.0 1614
 P3       S   0   2244 25.67                             121    0.03 9 90.0 1614
 P1       P   0 ? 2244 10.96                             121    0.01 9 90.3 1654
 P1       S   0   2244 25.62                             121   -0.09 9 90.3 1654
 P2       P   0 ? 2244 10.96                             121   -0.03 9 90.6 1634
 P2       S   0   2244 25.91                             121    0.13 9 90.6 1634
 P4       P   0 ? 2244 10.99                             121   -0.02 9 90.7 1564
 P4       S   0   2244 25.72                             121   -0.09 9 90.7 1564
 N11      P   0 ? 2244 11.07                             120   -0.05 9 91.4 1714
 N11      S   0   2244 26.00                             120   -0.01 9 91.4 1714
 N10      P   0 ? 2244 11.28                             120   -0.05 9 93.0 1694
 N9       P   0 ? 2244 11.32                             120   -0.06 9 93.3 1684
 N9       S   0   2244 26.47                             120   -0.00 9 93.3 1684
 ABAD     P   0 ? 2244 11.59                             119    0.03 9 94.5 1444
 ABAD     S   0   2244 26.83                             119    0.03 9 94.5 1444
 N6       P   0 ? 2244 11.62                             119    0.01 9 94.9 1694
 N6       S   0   2244 26.82                             119   -0.08 9 94.9 1694
 N4       P   0 ? 2244 11.91                             119    0.04 9 96.8 1704
 N4       S   0   2244 27.17                             119   -0.19 9 96.8 1704
 N3       P   0 ? 2244 12.28                             118    0.03 9 99.5 1694
 N3       S   0   2244 27.99                             118   -0.06 9 99.5 1694
 N2       P   0 ? 2244 12.32                             118    0.03 9 99.8 1684
 CAMP     P   0 ? 2244 12.20                             118   -0.11 9 99.9 1674
 N1       P   0 ? 2244 12.60                             118    0.05 9  102 1684
 KHIA     P   0 ? 2244 12.97                             117   -0.07 8  105 1534
 KHIA     S   0   2244 29.40                             117   -0.09 8  105 1534
 JNAK     P   0 ? 2244 13.75                             116   -0.02 8  110 1594
 AHRM     P   0 ? 2244 14.00                             115   -0.08 8  112 1474
 AHRM     S   0   2244 31.36                             115    0.00 8  112 1474
 DLRM     P   0 ? 2244 15.66                             113   -0.01 8  123 1614
 DLRM     S   0   2244 34.47                             113    0.23 8  123 1614
 KOLO     P   0 ? 2244 15.80                             113    0.02 8  124 1544
 KOLO     S   0   2244 34.48                             113    0.03 8  124 1544
 ABAS     P   0 ? 2244 18.94                             110    0.06 7  144 1554
 ABAS     S   0   2244 40.08                             110    0.03 7  144 1554
                                                                                
