 2021  5 5 2133 23.2 L  29.670  50.670  9.3  SLT 36 0.1                        1
 GAP=284        0.35       5.3     2.1 13.7 -0.7347E+01 -0.2051E+02  0.7179E+02E
 STAT SP IPHASW D HRMN SECON CODA AMPLIT PERI AZIMU VELO AIN AR TRES W  DIS CAZ7
 KHRK     P   0 ? 2133 34.13                              68    0.0310 57.7 2174
 NOKA     P   0 ? 2133 34.91                              68   -0.2410 64.2 1474
 NOKA     S   0   2133 44.50                              68   -0.3510 64.2 1474
 ABTL     P   0 ? 2133 37.02                              68   -0.12 9 76.6 1454
 N20      P   0 ? 2133 37.62                              68   -0.02 9 79.7 1684
 N20      S   0   2133 49.03                              68   -0.33 9 79.7 1684
 N17      P   0 ? 2133 38.07                              68    0.04 9 82.1 1704
 N17      S   0   2133 49.96                              68   -0.11 9 82.1 1704
 N19      P   0 ? 2133 38.05                              68   -0.05 9 82.5 1674
 N19      S   0   2133 50.08                              68   -0.11 9 82.5 1674
 N18      P   0 ? 2133 38.24                              68    0.03 9 83.2 1694
 N18      S   0   2133 50.26                              68   -0.13 9 83.2 1694
 N16      P   0 ? 2133 38.41                              68   -0.01 9 84.5 1674
 N16      S   0   2133 50.68                              68   -0.09 9 84.5 1674
 N14      P   0 ? 2133 38.43                              68   -0.04 9 84.8 1694
 N14      S   0   2133 50.80                              68   -0.06 9 84.8 1694
 P3       P   0 ? 2133 38.53                              68   -0.01 9 85.3 1604
 P3       S   0   2133 50.85                              68   -0.14 9 85.3 1604
 P1       P   0 ? 2133 38.49                              68   -0.07 9 85.4 1644
 P1       S   0   2133 51.17                              68    0.15 9 85.4 1644
 N15      P   0 ? 2133 38.58                              68    0.01 9 85.4 1684
 N15      S   0   2133 51.13                              68    0.09 9 85.4 1684
 P2       P   0 ? 2133 38.60                              68   -0.02 9 85.7 1624
 P2       S   0   2133 50.98                              68   -0.14 9 85.7 1624
 N13      P   0 ? 2133 38.64                              68    0.01 9 85.8 1704
 N13      S   0   2133 51.07                              68   -0.08 9 85.8 1704
 P4       P   0 ? 2133 38.67                              68   -0.02 9 86.2 1554
 P4       S   0   2133 51.29                              68    0.03 9 86.2 1554
 N11      P   0 ? 2133 38.71                              68   -0.01 9 86.4 1704
 N11      S   0   2133 51.34                              68    0.02 9 86.4 1704
 P5       P   0 ? 2133 38.65                              68   -0.11 9 86.6 1524
 N10      P   0 ? 2133 39.05                              68    0.08 9 87.9 1684
 N10      S   0   2133 51.86                              68    0.09 9 87.9 1684
 TOLS     P   0 ? 2133 38.96                              68   -0.03 9 88.0 1504
 TOLS     S   0   2133 51.51                              68   -0.29 9 88.0 1504
 N9       P   0 ? 2133 38.98                              68   -0.05 9 88.3 1674
 N9       S   0   2133 51.81                              68   -0.07 9 88.3 1674
 N7       P   0 ? 2133 39.13                              68   -0.04 9 89.1 1694
 N7       S   0   2133 52.11                              68   -0.01 9 89.1 1694
 N6       P   0 ? 2133 39.26                              68   -0.04 9 89.9 1674
 N6       S   0   2133 52.34                              68   -0.02 9 89.9 1674
 P9       P   0 ? 2133 39.34                              68   -0.01 9 90.2 1454
 P9       S   0   2133 52.42                              68   -0.03 9 90.2 1454
 ABAD     P   0 ? 2133 39.48                              68    0.05 9 90.7 1414
 N4       P   0 ? 2133 39.69                              68    0.10 9 91.8 1694
 N4       S   0   2133 53.05                              68    0.16 9 91.8 1694
 N5       P   0 ? 2133 40.04                              68    0.08 9 94.0 1674
 N5       S   0   2133 53.54                              68   -0.01 9 94.0 1674
 N3       P   0 ? 2133 40.11                              68    0.09 8 94.5 1684
 N3       S   0   2133 53.67                              68   -0.00 8 94.5 1684
 N2       P   0 ? 2133 40.07                              68   -0.01 8 94.9 1674
 N2       S   0   2133 53.90                              68    0.12 8 94.9 1674
 CAMP     P   0 ? 2133 40.12                              68    0.02 8 95.0 1664
 CAMP     S   0   2133 53.89                              68    0.07 8 95.0 1664
 N1       P   0 ? 2133 40.46                              68    0.09 8 96.6 1674
 N1       S   0   2133 54.28                              68   -0.02 8 96.6 1674
 KHIA     P   0 ? 2133 41.02                              68   -0.01 8  101 1514
 KHIA     S   0   2133 55.59                              68    0.10 8  101 1514
 JNAK     P   0 ? 2133 41.85                              68    0.06 8  105 1584
 JNAK     S   0   2133 57.01                              68    0.14 8  105 1584
 AHRM     P   0 ? 2133 42.26                              68    0.03 8  108 1464
 AHRM     S   0   2133 58.10                              68    0.44 8  108 1464
 DLRM     P   0 ? 2133 43.97                              68    0.11 8  118 1604
 DLRM     S   0   2134  1.04                              68    0.43 8  118 1604
 KOLO     P   0 ? 2133 44.19                              68    0.15 7  119 1524
 KOLO     S   0   2134  1.11                              68    0.16 7  119 1524
 ABAS     P   0 ? 2133 47.51                              68    0.16 7  140 1544
 ABAS     S   0   2134  7.63                              68    0.70 7  140 1544
                                                                                
 2021  5 5 1755 20.7 L  29.639  50.796 55.5  SLT 29 0.1                        1
 GAP=332        0.22       1.6     1.3  2.7 -0.4440E+00  0.1016E+01 -0.4109E+01E
 STAT SP IPHASW D HRMN SECON CODA AMPLIT PERI AZIMU VELO AIN AR TRES W  DIS CAZ7
 SHIF     P   0 ? 1755 35.18                             129    0.0810 63.6 1734
 ABTL     P   0 ? 1755 35.53                             127   -0.0410 67.3 1524
 ABTL     S   0   1755 47.70                             127    0.0810 67.3 1524
 N20      P   0 ? 1755 36.53                             124    0.0010 74.7 1774
 N17      P   0 ? 1755 36.96                             123    0.07 9 77.4 1784
 N17      S   0   1755 50.11                             123    0.10 9 77.4 1784
 N18      P   0 ? 1755 37.05                             123    0.03 9 78.3 1774
 N18      S   0   1755 50.41                             123    0.17 9 78.3 1774
 P3       P   0 ? 1755 37.02                             123   -0.02 9 78.4 1674
 P5       P   0 ? 1755 36.96                             123   -0.07 9 78.4 1594
 P2       P   0 ? 1755 37.25                             123    0.09 9 79.3 1694
 P2       S   0   1755 50.56                             123    0.07 9 79.3 1694
 TOLS     P   0 ? 1755 37.15                             123   -0.04 9 79.5 1574
 TOLS     S   0   1755 50.41                             123   -0.13 9 79.5 1574
 P1       P   0 ? 1755 37.13                             123   -0.04 9 79.5 1724
 P1       S   0   1755 50.44                             123   -0.08 9 79.5 1724
 N14      P   0 ? 1755 37.20                             122   -0.04 9 79.9 1774
 N14      S   0   1755 50.58                             122   -0.06 9 79.9 1774
 N15      P   0 ? 1755 37.36                             122    0.08 9 80.2 1764
 N15      S   0   1755 50.77                             122    0.05 9 80.2 1764
 P9       P   0 ? 1755 37.21                             122   -0.15 9 80.8 1504
 P9       S   0   1755 50.84                             122   -0.02 9 80.8 1504
 N13      P   0 ? 1755 37.37                             122   -0.04 9 81.1 1784
 N13      S   0   1755 51.03                             122    0.09 9 81.1 1784
 N11      P   0 ? 1755 37.52                             122    0.05 9 81.6 1784
 N11      S   0   1755 50.86                             122   -0.20 9 81.6 1784
 N9       P   0 ? 1755 37.60                             121   -0.04 9 82.9 1744
 N9       S   0   1755 51.34                             121   -0.03 9 82.9 1744
 N7       P   0 ? 1755 37.81                             121   -0.00 9 84.1 1764
 N7       S   0   1755 51.59                             121   -0.09 9 84.1 1764
 N6       P   0 ? 1755 37.85                             121   -0.04 9 84.6 1754
 N6       S   0   1755 51.73                             121   -0.09 9 84.6 1754
 N4       P   0 ? 1755 38.23                             120    0.06 9 86.7 1764
 N4       S   0   1755 52.29                             120   -0.05 9 86.7 1764
 N5       P   0 ? 1755 38.50                             120    0.06 9 88.6 1744
 N5       S   0   1755 52.65                             120   -0.17 9 88.6 1744
 N3       P   0 ? 1755 38.51                             119   -0.01 9 89.2 1754
 N3       S   0   1755 53.07                             119    0.11 9 89.2 1754
 CAMP     P   0 ? 1755 38.55                             119    0.02 9 89.3 1734
 CAMP     S   0   1755 52.91                             119   -0.08 9 89.3 1734
 N2       P   0 ? 1755 38.51                             119   -0.03 9 89.4 1744
 N2       S   0   1755 53.02                             119    0.02 9 89.4 1744
 N1       P   0 ? 1755 38.83                             119    0.04 9 91.1 1744
 N1       S   0   1755 53.48                             119    0.03 9 91.1 1744
 KHIA     P   0 ? 1755 38.97                             119    0.02 9 92.2 1574
 KHIA     S   0   1755 53.87                             119    0.13 9 92.2 1574
 JNAK     P   0 ? 1755 39.78                             117   -0.02 9 98.2 1644
 JNAK     S   0   1755 55.16                             117   -0.11 9 98.2 1644
 AHRM     P   0 ? 1755 39.82                             117   -0.06 9 98.6 1504
 AHRM     S   0   1755 55.58                             117    0.16 9 98.6 1504
 KOLO     P   0 ? 1755 41.66                             114   -0.00 8  111 1574
 DLRM     P   0 ? 1755 41.75                             114    0.04 8  111 1664
 DLRM     S   0   1755 58.85                             114    0.11 8  111 1664
                                                                                
 2021  5 5 1830  2.7 L  29.791  50.583 11.0  SLT 11 0.1                        1
 GAP=302        0.32       2.4     1.8999.9  0.2416E+01 -0.1410E+04 -0.2291E+04E
 STAT SP IPHASW D HRMN SECON CODA AMPLIT PERI AZIMU VELO AIN AR TRES W  DIS CAZ7
 KHRK     P   0 ? 1830 14.77                              68    0.0610 64.9 2044
 KHRK     S   0   1830 24.33                              68   -0.0810 64.9 2044
 NOKA     P   0 ? 1830 16.95                              68   -0.19 9 80.0 1474
 NOKA     S   0   1830 28.51                              68   -0.30 9 80.0 1474
 N18      P   0 ? 1830 19.99                              68   -0.06 9 98.1 1664
 N18      S   0   1830 33.93                              68   -0.15 9 98.1 1664
 N7       P   0 ? 1830 20.96                              68   -0.05 8  104 1654
 N7       S   0   1830 35.98                              68    0.16 8  104 1654
 N6       P   0 ? 1830 21.14                              68   -0.02 8  105 1644
 N6       S   0   1830 36.04                              68   -0.05 8  105 1644
 CAMP     P   0 ? 1830 22.06                              68    0.08 8  110 1634
 CAMP     S   0   1830 37.74                              68    0.16 8  110 1634
 N1       P   0 ? 1830 22.28                              68    0.04 8  112 1644
 N1       S   0   1830 38.08                              68    0.03 8  112 1644
 KHIA     P   0 ? 1830 23.11                              68    0.10 8  116 1514
 KHIA     S   0   1830 39.56                              68    0.11 8  116 1514
 JNAK     P   0 ? 1830 23.81                              68    0.07 8  121 1574
 AHRM     P   0 ? 1830 24.22                              68    0.00 7  124 1464
 AHRM     S   0   1830 41.74                              68    0.12 7  124 1464
 KOLO     P   0 ? 1830 26.10                              68    0.08 7  135 1524
 KOLO     S   0   1830 45.11                              68    0.21 7  135 1524
                                                                                
 2021  5 5 1841 32.4 L  29.804  50.536 10.9  SLT 12 0.2                        1
 GAP=304        0.40      14.6     2.9 32.6 -0.3254E+02 -0.7509E+02  0.4706E+03E
 STAT SP IPHASW D HRMN SECON CODA AMPLIT PERI AZIMU VELO AIN AR TRES W  DIS CAZ7
 KHRK     P   0 ? 1841 44.31                              68    0.0210 64.6 2004
 KHRK     S   0   1841 53.84                              68   -0.1110 64.6 2004
 NOKA     P   0 ? 1841 47.33                              68   -0.05 9 83.8 1454
 NOKA     S   0   1841 59.13                              68   -0.41 9 83.8 1454
 ABTL     P   0 ? 1841 49.25                              68   -0.13 9 96.1 1444
 ABTL     S   0   1842  2.86                              68   -0.30 9 96.1 1444
 N17      P   0 ? 1841 49.90                              68   -0.02 9 99.5 1644
 N19      P   0 ? 1841 49.90                              68   -0.15 8  100 1614
 P9       P   0 ? 1841 51.59                              68    0.00 8  110 1444
 P9       S   0   1842  7.15                              68   -0.01 8  110 1444
 KHIA     P   0 ? 1841 53.25                              68    0.03 8  120 1494
 KHIA     S   0   1842 10.25                              68    0.14 8  120 1494
 JNAK     P   0 ? 1841 53.98                              68    0.09 7  124 1554
 JNAK     S   0   1842 11.44                              68    0.11 7  124 1554
 AHRM     P   0 ? 1841 54.54                              68    0.08 7  128 1454
 AHRM     S   0   1842 12.53                              68    0.17 7  128 1454
 DLRM     P   0 ? 1841 56.06                              68    0.14 7  137 1574
 DLRM     S   0   1842 15.31                              68    0.31 7  137 1574
 KOLO     P   0 ? 1841 56.42                              68    0.20 7  139 1504
 KOLO     S   0   1842 15.68                              68    0.14 7  139 1504
 ABAS     P   0 ? 1841 59.75                              68    0.25 6  159 1524
 ABAS     S   0   1842 21.80                              68    0.32 6  159 1524
                                                                                
 2021  5 5 1853 25.4 L  29.725  50.647  7.7  SLT 18 0.1                        1
 GAP=294        0.29       4.6     1.1 10.9 -0.4905E+00 -0.1869E+01  0.4875E+02E
 STAT SP IPHASW D HRMN SECON CODA AMPLIT PERI AZIMU VELO AIN AR TRES W  DIS CAZ7
 KHRK     P   0 ? 1853 37.16                              68    0.1210 61.3 2124
 KHRK     S   0   1853 46.38                              68   -0.0610 61.3 2124
 NOKA     P   0 ? 1853 38.36                              68   -0.1610 70.5 1484
 NOKA     S   0   1853 48.95                              68   -0.1710 70.5 1484
 SHIF     P   0 ? 1853 39.26                              68   -0.12 9 76.0 1634
 SHIF     S   0   1853 50.41                              68   -0.29 9 76.0 1634
 N9       P   0 ? 1853 42.34                              68   -0.08 9 94.7 1664
 N9       S   0   1853 56.17                              68   -0.01 9 94.7 1664
 N7       P   0 ? 1853 42.50                              68   -0.04 9 95.5 1684
 N7       S   0   1853 56.48                              68    0.07 9 95.5 1684
 N6       P   0 ? 1853 42.66                              68   -0.02 9 96.3 1674
 N6       S   0   1853 56.54                              68   -0.12 9 96.3 1674
 P9       P   0 ? 1853 42.64                              68   -0.07 9 96.5 1464
 P9       S   0   1853 56.68                              68   -0.03 9 96.5 1464
 N4       P   0 ? 1853 42.98                              68    0.01 8 98.1 1684
 N4       S   0   1853 57.20                              68    0.02 8 98.1 1684
 N5       P   0 ? 1853 43.33                              68   -0.01 8  100 1674
 N5       S   0   1853 57.78                              68   -0.07 8  100 1674
 N2       S   0   1853 58.04                              68   -0.04 8  101 1664
 N3       P   0 ? 1853 43.46                              68    0.06 8  101 1674
 N3       S   0   1853 58.05                              68    0.08 8  101 1674
 N2       P   0 ? 1853 43.49                              68    0.03 8  101 1664
 CAMP     P   0 ? 1853 43.50                              68    0.01 8  101 1654
 CAMP     S   0   1853 58.23                              68    0.11 8  101 1654
 KHIA     P   0 ? 1853 44.48                              68    0.07 8  107 1524
 KHIA     S   0   1853 59.72                              68   -0.07 8  107 1524
 JNAK     P   0 ? 1853 45.18                              68   -0.00 8  112 1584
 JNAK     S   0   1854  1.24                              68    0.05 8  112 1584
 AHRM     P   0 ? 1853 45.52                              68   -0.07 8  114 1464
 AHRM     S   0   1854  2.13                              68    0.20 8  114 1464
 DLRM     P   0 ? 1853 47.31                              68    0.06 7  125 1604
 DLRM     S   0   1854  5.24                              68    0.31 7  125 1604
 KOLO     P   0 ? 1853 47.56                              68    0.14 7  126 1524
 KOLO     S   0   1854  5.39                              68    0.14 7  126 1524
 ABAS     P   0 ? 1853 50.96                              68    0.23 6  146 1544
 ABAS     S   0   1854 11.52                              68    0.28 6  146 1544
                                                                                
