 2021  5 5 2111  7.8 L  29.938  50.471 11.2  SLT 15 0.1                        1
 GAP=314        0.22       7.7     2.2 19.0 -0.1365E+02 -0.3458E+02  0.1465E+03E
 STAT SP IPHASW D HRMN SECON CODA AMPLIT PERI AZIMU VELO AIN AR TRES W  DIS CAZ7
 KHRK     P   0 ? 2111 21.77                              90    0.0110 77.3 1914
 KHRK     S   0   2111 32.99                              90   -0.0810 77.3 1914
 NOKA     P   0 ? 2111 25.20                              90   -0.15 9 99.6 1474
 NOKA     S   0   2111 39.42                              90   -0.16 9 99.6 1474
 SHIF     P   0 ? 2111 25.93                              90   -0.11 9  104 1584
 N19      P   0 ? 2111 28.10                              90    0.04 8  116 1614
 N17      S   0   2111 44.20                              90   -0.04 8  116 1634
 N19      S   0   2111 44.59                              90    0.10 8  116 1614
 N17      P   0 ? 2111 27.94                              90    0.02 8  116 1634
 N18      P   0 ? 2111 28.14                              90    0.03 8  117 1624
 N18      S   0   2111 44.51                              90   -0.07 8  117 1624
 N15      P   0 ? 2111 28.52                              90    0.02 8  119 1624
 N15      S   0   2111 45.37                              90    0.08 8  119 1624
 N11      P   0 ? 2111 28.73                              90    0.13 8  120 1634
 N11      S   0   2111 45.48                              90    0.01 8  120 1634
 P4       P   0 ? 2111 28.92                              90    0.07 8  121 1524
 P4       S   0   2111 45.82                              90   -0.10 8  121 1524
 P5       P   0 ? 2111 28.94                              90   -0.01 8  122 1514
 P5       S   0   2111 46.21                              90    0.12 8  122 1514
 N10      P   0 ? 2111 28.93                              90    0.04 8  122 1624
 N10      S   0   2111 45.99                              90   -0.00 8  122 1624
 TOLS     S   0   2111 46.43                              90   -0.09 8  123 1494
 N7       P   0 ? 2111 29.10                              90    0.02 8  123 1624
 N7       S   0   2111 46.34                              90    0.01 8  123 1624
 TOLS     P   0 ? 2111 29.10                              90   -0.08 8  123 1494
 P9       P   0 ? 2111 29.52                              90   -0.02 8  126 1454
 P9       S   0   2111 47.30                              90    0.13 8  126 1454
 N2       P   0 ? 2111 30.15                              90    0.11 8  129 1614
 N2       S   0   2111 48.21                              90    0.15 8  129 1614
                                                                                
 2021  5 5 2111 12.8 L  29.790  50.617 26.7  SLT 23 0.1                        1
 GAP=335        0.20       1.4     1.6  7.3  0.4717E+00  0.1956E+00 -0.9078E+01E
 STAT SP IPHASW D HRMN SECON CODA AMPLIT PERI AZIMU VELO AIN AR TRES W  DIS CAZ7
 NOKA     P   0 ? 2111 27.28                             104    0.0210 78.2 1494
 SHIF     P   0 ? 2111 28.23                             103    0.1110 83.7 1634
 SHIF     S   0   2111 40.37                             103   -0.1310 83.7 1634
 N20      P   0 ? 2111 29.78                             101    0.07 9 93.7 1674
 N20      S   0   2111 43.49                             101    0.12 9 93.7 1674
 N14      P   0 ? 2111 30.57                             101    0.05 9 98.8 1684
 N14      S   0   2111 44.84                             101    0.00 9 98.8 1684
 P3       P   0 ? 2111 30.66                             101    0.04 9 99.5 1594
 P1       P   0 ? 2111 30.62                             101   -0.01 9 99.5 1634
 N13      P   0 ? 2111 30.67                             100    0.00 9 99.8 1694
 N13      S   0   2111 44.99                             100   -0.12 9 99.8 1694
 P2       P   0 ? 2111 30.65                             100   -0.04 9 99.9 1614
 P2       S   0   2111 45.18                             100    0.03 9 99.9 1614
 N9       P   0 ? 2111 31.03                             100   -0.05 9  102 1654
 N9       S   0   2111 45.80                             100   -0.07 9  102 1654
 N10      P   0 ? 2111 31.06                             100    0.04 9  102 1674
 ABAD     P   0 ? 2111 31.47                             100    0.07 9  104 1444
 N6       P   0 ? 2111 31.37                             100    0.03 9  104 1664
 ABAD     S   0   2111 46.44                             100   -0.00 9  104 1444
 N6       S   0   2111 46.25                             100   -0.08 9  104 1664
 N4       P   0 ? 2111 31.58                             100   -0.04 9  106 1674
 N4       S   0   2111 46.81                             100   -0.03 9  106 1674
 N5       P   0 ? 2111 31.99                             100    0.00 9  108 1664
 N5       S   0   2111 47.40                             100   -0.10 9  108 1664
 N3       P   0 ? 2111 32.08                             100    0.03 9  109 1674
 CAMP     P   0 ? 2111 32.06                              99   -0.08 9  109 1654
 CAMP     S   0   2111 47.82                              99    0.04 9  109 1654
 N3       S   0   2111 47.74                             100    0.12 9  109 1674
 N1       P   0 ? 2111 32.37                              99   -0.03 9  111 1664
 N1       S   0   2111 48.39                              99    0.14 9  111 1664
 KHIA     P   0 ? 2111 32.98                              99   -0.07 8  115 1524
 KHIA     S   0   2111 49.43                              99    0.00 8  115 1524
 JNAK     P   0 ? 2111 33.78                              99   -0.04 8  120 1584
 JNAK     S   0   2111 50.75                              99   -0.07 8  120 1584
 AHRM     P   0 ? 2111 34.11                              98   -0.09 8  122 1474
 AHRM     S   0   2111 51.57                              98    0.06 8  122 1474
 DLRM     P   0 ? 2111 35.86                              98   -0.01 8  132 1604
 DLRM     S   0   2111 54.73                              98    0.20 8  132 1604
 KOLO     P   0 ? 2111 36.01                              98   -0.03 8  133 1534
 KOLO     S   0   2111 54.82                              98   -0.01 8  133 1534
 ABAS     P   0 ? 2111 39.23                              96   -0.10 7  154 1554
 ABAS     S   0   2112  0.74                              96   -0.04 7  154 1554
                                                                                
 2021  5 5 1515 25.5 L  29.814  50.596 11.1  SLT 16 0.1                        1
 GAP=305        0.29       7.0     1.5 16.7 -0.2363E+01 -0.6628E+01  0.1148E+03E
 STAT SP IPHASW D HRMN SECON CODA AMPLIT PERI AZIMU VELO AIN AR TRES W  DIS CAZ7
 KHRK     P   0 ? 1515 37.89                              90   -0.0610 67.7 2044
 KHRK     S   0   1515 48.01                              90   -0.0110 67.7 2044
 NOKA     P   0 ? 1515 40.08                              90   -0.08 9 81.5 1484
 NOKA     S   0   1515 51.74                              90   -0.29 9 81.5 1484
 N17      P   0 ? 1515 43.01                              90    0.01 9 99.2 1674
 N17      S   0   1515 57.24                              90    0.07 9 99.2 1674
 N18      P   0 ? 1515 43.19                              90    0.01 9  100 1674
 N18      S   0   1515 57.49                              90   -0.01 9  100 1674
 N14      P   0 ? 1515 43.33                              90   -0.11 9  102 1674
 N14      S   0   1515 57.84                              90   -0.13 9  102 1674
 N15      S   0   1515 58.13                              90   -0.04 9  103 1664
 N11      P   0 ? 1515 43.67                              90   -0.02 8  103 1674
 N11      S   0   1515 58.39                              90   -0.02 8  103 1674
 N15      P   0 ? 1515 43.54                              90   -0.01 9  103 1664
 P4       P   0 ? 1515 43.75                              90    0.02 8  104 1554
 P4       S   0   1515 58.35                              90   -0.13 8  104 1554
 TOLS     P   0 ? 1515 44.03                              90    0.01 8  105 1514
 TOLS     S   0   1515 59.12                              90    0.10 8  105 1514
 N9       P   0 ? 1515 44.05                              90    0.02 8  106 1654
 N7       P   0 ? 1515 44.16                              90    0.02 8  106 1664
 N7       S   0   1515 59.21                              90   -0.03 8  106 1664
 N9       S   0   1515 59.14                              90    0.11 8  106 1654
 N6       P   0 ? 1515 44.36                              90    0.07 8  107 1654
 N6       S   0   1515 59.56                              90    0.06 8  107 1654
 N4       P   0 ? 1515 44.57                              90    0.00 8  109 1674
 N4       S   0   1516  0.00                              90   -0.00 8  109 1674
 N5       P   0 ? 1515 44.94                              90   -0.01 8  111 1654
 N5       S   0   1516  0.69                              90    0.00 8  111 1654
 CAMP     P   0 ? 1515 45.25                              90    0.15 8  112 1644
 CAMP     S   0   1516  0.96                              90   -0.02 8  112 1644
 ABAS     P   0 ? 1515 52.62                              90    0.23 6  157 1544
 ABAS     S   0   1516 14.76                              90    0.60 6  157 1544
                                                                                
 2021  5 5 1515 27.6 L  29.757  50.688 10.9  SLT  9 0.1                        1
 GAP=339        0.26      55.1    22.8143.9 -0.1243E+04 -0.3253E+04  0.7929E+04E
 STAT SP IPHASW D HRMN SECON CODA AMPLIT PERI AZIMU VELO AIN AR TRES W  DIS CAZ7
 CAMP     P   0 ? 1515 45.89                              68   -0.0210  104 1684
 N3       P   0 ? 1515 45.82                              68   -0.0310  104 1704
 N2       S   0   1516  0.45                              68   -0.2410  104 1694
 N3       S   0   1516  0.70                              68    0.1010  104 1704
 N2       P   0 ? 1515 45.85                              68   -0.0510  104 1694
 N1       P   0 ? 1515 46.22                              68    0.0310  106 1694
 N1       S   0   1516  1.31                              68    0.1010  106 1694
 KHIA     P   0 ? 1515 46.64                              68   -0.0110  108 1554
 KHIA     S   0   1516  2.03                              68   -0.0110  108 1554
 JNAK     P   0 ? 1515 47.48                              68   -0.03 9  114 1614
 JNAK     S   0   1516  3.57                              68   -0.03 9  114 1614
 AHRM     P   0 ? 1515 47.72                              68   -0.03 9  115 1494
 AHRM     S   0   1516  3.93                              68   -0.10 9  115 1494
 KOLO     P   0 ? 1515 49.80                              68    0.13 9  127 1554
 DLRM     S   0   1516  7.47                              68    0.08 9  127 1634
 KOLO     S   0   1516  7.62                              68    0.11 9  127 1554
 DLRM     P   0 ? 1515 49.64                              68    0.04 9  127 1634
                                                                                
 2021  5 5 0121 24.7 L  29.761  50.624 10.9  SLT 26 0.1                        1
 GAP=300        0.30       5.6     1.3 13.4 -0.5988E+00 -0.2324E+01  0.7399E+02E
 STAT SP IPHASW D HRMN SECON CODA AMPLIT PERI AZIMU VELO AIN AR TRES W  DIS CAZ7
 KHRK     P   0 ? 0121 36.46                              68   -0.0310 63.7 2084
 KHRK     S   0   0121 45.94                              68   -0.1010 63.7 2084
 NOKA     P   0 ? 0121 38.17                              68   -0.1610 75.1 1484
 NOKA     S   0   0121 49.00                              68   -0.3710 75.1 1484
 SHIF     P   0 ? 0121 39.09                              68   -0.10 9 80.4 1624
 SHIF     S   0   0121 50.79                              68   -0.13 9 80.4 1624
 N20      P   0 ? 0121 40.80                              68   -0.01 9 90.5 1674
 N20      S   0   0121 53.54                              68   -0.31 9 90.5 1674
 N17      P   0 ? 0121 41.28                              68    0.09 9 92.9 1684
 N17      S   0   0121 54.53                              68   -0.01 9 92.9 1684
 N19      P   0 ? 0121 41.29                              68    0.02 9 93.3 1654
 N19      S   0   0121 54.58                              68   -0.11 9 93.3 1654
 N18      P   0 ? 0121 41.32                              68   -0.05 9 93.9 1684
 N18      S   0   0121 54.79                              68   -0.08 9 93.9 1684
 N14      P   0 ? 0121 41.64                              68    0.01 9 95.5 1674
 N14      S   0   0121 55.37                              68    0.03 9 95.5 1674
 N15      P   0 ? 0121 41.68                              68   -0.06 9 96.2 1664
 N15      S   0   0121 55.41                              68   -0.12 9 96.2 1664
 P1       P   0 ? 0121 41.72                              68   -0.03 9 96.3 1634
 P1       S   0   0121 55.76                              68    0.21 9 96.3 1634
 P2       P   0 ? 0121 41.70                              68   -0.11 9 96.7 1614
 P2       S   0   0121 55.58                              68   -0.09 9 96.7 1614
 N11      P   0 ? 0121 41.89                              68    0.01 9 97.1 1684
 N11      S   0   0121 55.62                              68   -0.17 9 97.1 1684
 P4       P   0 ? 0121 41.90                              68    0.01 9 97.2 1554
 P4       S   0   0121 55.82                              68    0.01 9 97.2 1554
 N10      P   0 ? 0121 42.13                              68   -0.01 9 98.7 1674
 N10      S   0   0121 56.31                              68    0.05 9 98.7 1674
 TOLS     P   0 ? 0121 42.22                              68    0.03 9 99.0 1514
 TOLS     S   0   0121 56.28                              68   -0.07 9 99.0 1514
 N9       P   0 ? 0121 42.24                              68    0.03 9 99.2 1654
 N9       S   0   0121 56.46                              68    0.07 9 99.2 1654
 N7       P   0 ? 0121 42.40                              68    0.07 8 99.9 1674
 N7       S   0   0121 56.62                              68    0.01 8 99.9 1674
 N6       P   0 ? 0121 42.46                              68   -0.01 8  101 1664
 N6       S   0   0121 57.11                              68    0.25 8  101 1664
 N4       P   0 ? 0121 42.85                              68    0.10 8  103 1674
 N4       S   0   0121 57.53                              68    0.16 8  103 1674
 N3       S   0   0121 58.20                              68    0.03 8  105 1674
 N5       P   0 ? 0121 43.18                              68    0.05 8  105 1664
 N5       S   0   0121 58.24                              68    0.19 8  105 1664
 N3       P   0 ? 0121 43.18                              68   -0.01 8  105 1674
 CAMP     S   0   0121 58.46                              68    0.13 8  106 1654
 N2       P   0 ? 0121 43.36                              68    0.10 8  106 1664
 N2       S   0   0121 58.51                              68    0.23 8  106 1664
 CAMP     P   0 ? 0121 43.27                              68   -0.01 8  106 1654
 N1       P   0 ? 0121 43.56                              68    0.01 8  107 1664
 N1       S   0   0121 58.83                              68    0.03 8  107 1664
 KHIA     P   0 ? 0121 44.36                              68    0.13 8  112 1524
 KHIA     S   0   0122  0.13                              68    0.09 8  112 1524
 JNAK     P   0 ? 0121 45.13                              68    0.14 8  116 1584
 JNAK     S   0   0122  1.71                              68    0.28 8  116 1584
                                                                                
 2021  5 5 1942 29.6 L  29.730  50.553 11.0  SLT 13 0.1                        1
 GAP=298        0.22       7.7     1.2 19.0 -0.1592E+00  0.3546E-01  0.1441E+03E
 STAT SP IPHASW D HRMN SECON CODA AMPLIT PERI AZIMU VELO AIN AR TRES W  DIS CAZ7
 KHRK     P   0 ? 1942 40.39                              68    0.0110 57.6 2044
 KHRK     S   0   1942 49.10                              68   -0.0310 57.6 2044
 NOKA     P   0 ? 1942 43.25                              68   -0.13 9 76.2 1424
 SHIF     P   0 ? 1942 43.92                              68    0.00 9 79.6 1574
 P3       P   0 ? 1942 46.52                              68   -0.01 8 95.8 1554
 P4       P   0 ? 1942 46.78                              68    0.00 8 97.3 1504
 P5       P   0 ? 1942 46.87                              68   -0.03 8 98.0 1484
 N7       P   0 ? 1942 46.99                              68    0.04 8 98.3 1634
 N7       S   0   1943  1.08                              68    0.07 8 98.3 1634
 N4       P   0 ? 1942 47.46                              68    0.10 8  101 1634
 N4       S   0   1943  1.82                              68    0.05 8  101 1634
 N5       P   0 ? 1942 47.76                              68   -0.01 8  103 1624
 N5       S   0   1943  2.46                              68   -0.04 8  103 1624
 N2       P   0 ? 1942 47.91                              68    0.01 8  104 1614
 CAMP     P   0 ? 1942 47.89                              68   -0.06 8  105 1614
 CAMP     S   0   1943  2.77                              68   -0.05 8  105 1614
 N1       P   0 ? 1942 48.23                              68    0.04 8  106 1614
 AHRM     P   0 ? 1942 50.56                              68    0.10 7  120 1434
                                                                                
