 2021  4 4 1226  3.6 L  29.741  50.706 48.9  SLT 26 0.1                        1
 GAP=336        0.20       2.0     1.5  4.2  0.7648E+00 -0.8375E+00 -0.8096E+01E
 STAT SP IPHASW D HRMN SECON CODA AMPLIT PERI AZIMU VELO AIN AR TRES W  DIS CAZ7
 SHIF     P   0 ? 1226 19.21                             120    0.1010 76.2 1684
 N20      P   0 ? 1226 20.68                             117    0.0610 86.8 1724
 N20      S   0   1226 34.25                             117   -0.1210 86.8 1724
 N17      P   0 ? 1226 20.99                             116    0.01 9 89.3 1734
 N19      P   0 ? 1226 21.06                             116    0.05 9 89.4 1704
 N19      S   0   1226 35.15                             116    0.08 9 89.4 1704
 N18      P   0 ? 1226 21.13                             116   -0.00 9 90.3 1724
 N18      S   0   1226 35.31                             116    0.01 9 90.3 1724
 N14      P   0 ? 1226 21.33                             115   -0.04 9 91.9 1724
 N14      S   0   1226 35.55                             115   -0.18 9 91.9 1724
 P4       P   0 ? 1226 21.38                             115    0.01 9 92.0 1594
 P4       S   0   1226 35.81                             115    0.07 9 92.0 1594
 N15      P   0 ? 1226 21.46                             115    0.02 9 92.4 1714
 N15      S   0   1226 35.80                             115   -0.06 9 92.4 1714
 N13      P   0 ? 1226 21.44                             115   -0.09 9 93.0 1734
 N13      S   0   1226 36.12                             115    0.10 9 93.0 1734
 N11      P   0 ? 1226 21.63                             115    0.02 9 93.6 1734
 N11      S   0   1226 36.17                             115    0.01 9 93.6 1734
 P9       P   0 ? 1226 21.70                             114   -0.10 9 94.9 1494
 P9       S   0   1226 36.46                             114   -0.06 9 94.9 1494
 N10      P   0 ? 1226 21.83                             114    0.01 9 95.0 1714
 N10      S   0   1226 36.63                             114    0.09 9 95.0 1714
 N9       P   0 ? 1226 21.91                             114    0.06 9 95.2 1704
 N9       S   0   1226 36.56                             114   -0.04 9 95.2 1704
 N6       P   0 ? 1226 22.11                             114    0.01 9 96.9 1704
 N4       P   0 ? 1226 22.44                             114    0.06 9 98.9 1724
 N4       S   0   1226 37.66                             114    0.09 9 98.9 1724
 N3       P   0 ? 1226 22.73                             113   -0.04 9  101 1714
 N5       P   0 ? 1226 22.71                             113    0.01 9  101 1704
 N2       P   0 ? 1226 22.75                             113   -0.06 9  102 1704
 CAMP     P   0 ? 1226 22.84                             113    0.02 9  102 1694
 CAMP     S   0   1226 38.26                             113   -0.10 9  102 1694
 N2       S   0   1226 38.30                             113   -0.04 9  102 1704
 N1       P   0 ? 1226 23.04                             113   -0.04 9  104 1704
 N1       S   0   1226 38.88                             113    0.06 9  104 1704
 KHIA     P   0 ? 1226 23.45                             112   -0.01 9  106 1554
 KHIA     S   0   1226 39.37                             112   -0.14 9  106 1554
 JNAK     P   0 ? 1226 24.22                             111   -0.06 8  112 1614
 JNAK     S   0   1226 41.10                             111    0.11 8  112 1614
 AHRM     P   0 ? 1226 24.46                             111   -0.02 8  113 1494
 AHRM     S   0   1226 41.53                             111    0.18 8  113 1494
 DLRM     P   0 ? 1226 26.20                             109   -0.05 8  125 1634
 KOLO     P   0 ? 1226 26.24                             109   -0.06 8  125 1554
 KOLO     S   0   1226 44.65                             109    0.00 8  125 1554
 DLRM     S   0   1226 44.52                             109   -0.05 8  125 1634
 ABAS     P   0 ? 1226 29.60                             106    0.12 7  145 1574
                                                                                
 2021  4 4 1811 22.1 L  29.756  50.750 39.6  SLT 21 0.1                        1
 GAP=333        0.18       1.6     1.5  4.9 -0.3063E+00  0.1508E+01 -0.7375E+01E
 STAT SP IPHASW D HRMN SECON CODA AMPLIT PERI AZIMU VELO AIN AR TRES W  DIS CAZ7
 NOKA     P   0 ? 1811 35.87                             116    0.0310 68.9 1564
 N18      P   0 ? 1811 39.27                             110    0.07 9 91.5 1754
 N18      S   0   1811 52.96                             110   -0.08 9 91.5 1754
 P4       P   0 ? 1811 39.28                             110   -0.01 9 92.1 1624
 P4       S   0   1811 53.23                             110    0.03 9 92.1 1624
 ABAD     P   0 ? 1811 39.54                             109   -0.06 9 94.1 1494
 P9       P   0 ? 1811 39.63                             109    0.01 9 94.2 1524
 P9       S   0   1811 53.82                             109    0.02 9 94.2 1524
 N13      P   0 ? 1811 39.59                             109   -0.03 9 94.3 1764
 N13      S   0   1811 53.81                             109    0.00 9 94.3 1764
 N10      P   0 ? 1811 39.87                             109   -0.03 9 96.1 1744
 N10      S   0   1811 54.36                             109    0.04 9 96.1 1744
 N9       P   0 ? 1811 39.89                             109   -0.02 9 96.2 1724
 N9       S   0   1811 54.24                             109   -0.10 9 96.2 1724
 N6       P   0 ? 1811 40.17                             109   -0.02 9 98.0 1734
 N6       S   0   1811 54.87                             109    0.04 9 98.0 1734
 N4       P   0 ? 1811 40.53                             108    0.04 9  100 1744
 N4       S   0   1811 55.34                             108   -0.04 9  100 1744
 N5       P   0 ? 1811 40.73                             108   -0.07 9  102 1734
 N5       S   0   1811 56.04                             108    0.10 9  102 1734
 CAMP     P   0 ? 1811 40.94                             108    0.03 9  103 1714
 N3       P   0 ? 1811 40.88                             108    0.00 9  103 1734
 CAMP     S   0   1811 56.02                             108   -0.12 9  103 1714
 N3       S   0   1811 56.21                             108    0.12 9  103 1734
 N2       P   0 ? 1811 40.97                             108    0.06 9  103 1724
 N2       S   0   1811 56.17                             108    0.03 9  103 1724
 N1       P   0 ? 1811 41.22                             107    0.04 8  105 1724
 KHIA     P   0 ? 1811 41.34                             107   -0.06 8  106 1574
 KHIA     S   0   1811 57.02                             107   -0.00 8  106 1574
 AHRM     S   0   1811 58.88                             106    0.09 8  112 1524
 JNAK     P   0 ? 1811 42.28                             106   -0.03 8  112 1644
 AHRM     P   0 ? 1811 42.26                             106   -0.11 8  112 1524
 JNAK     S   0   1811 58.61                             106   -0.08 8  112 1644
 KOLO     P   0 ? 1811 44.29                             105   -0.02 8  125 1574
 DLRM     P   0 ? 1811 44.47                             104    0.11 8  125 1654
 DLRM     S   0   1812  2.33                             104   -0.06 8  125 1654
 ABAS     P   0 ? 1811 47.65                             102    0.07 7  145 1594
                                                                                
 2021  4 4 1923 53.3 L  29.783  50.706 49.4  SLT 13 0.1                        1
 GAP=334        0.20       3.3     2.4  7.7  0.1845E+00  0.1193E+01 -0.2428E+02E
 STAT SP IPHASW D HRMN SECON CODA AMPLIT PERI AZIMU VELO AIN AR TRES W  DIS CAZ7
 N18      P   0 ? 1924 11.58                             115    0.0910 95.0 1734
 P4       P   0 ? 1924 11.70                             114    0.0110 96.4 1604
 P4       S   0   1924 26.59                             114   -0.0210 96.4 1604
 N14      P   0 ? 1924 11.77                             114    0.0410 96.6 1724
 N14      S   0   1924 26.61                             114   -0.0610 96.6 1724
 N15      P   0 ? 1924 11.82                             114    0.0210 97.1 1714
 N15      S   0   1924 26.75                             114   -0.0510 97.1 1714
 N11      P   0 ? 1924 11.98                             114    0.0110 98.3 1734
 N11      S   0   1924 27.24                             114    0.1310 98.3 1734
 ABAD     P   0 ? 1924 12.03                             114   -0.0410 98.9 1484
 N6       P   0 ? 1924 12.48                             113    0.0210  102 1714
 N6       S   0   1924 27.90                             113   -0.1110  102 1714
 N5       S   0   1924 29.19                             112    0.10 9  106 1704
 N3       S   0   1924 29.19                             112   -0.03 9  106 1714
 N2       P   0 ? 1924 13.19                             112    0.02 9  106 1704
 N2       S   0   1924 29.23                             112   -0.06 9  106 1704
 N3       P   0 ? 1924 13.03                             112   -0.10 9  106 1714
 N5       P   0 ? 1924 13.03                             112   -0.03 9  106 1704
 N1       P   0 ? 1924 13.41                             112   -0.03 9  108 1704
 N1       S   0   1924 29.84                             112    0.07 9  108 1704
 AHRM     P   0 ? 1924 14.81                             110    0.05 9  117 1514
 AHRM     S   0   1924 32.20                             110    0.04 9  117 1514
 DLRM     P   0 ? 1924 16.53                             108   -0.08 8  129 1644
 DLRM     S   0   1924 35.53                             108    0.02 8  129 1644
                                                                                
 2021  4 4 2130 12.6 L  30.017  50.576 64.9  SLT 17 0.1                        1
 GAP=342        0.19       4.3     5.6  8.7  0.5493E+00  0.6229E+01 -0.3561E+02E
 STAT SP IPHASW D HRMN SECON CODA AMPLIT PERI AZIMU VELO AIN AR TRES W  DIS CAZ7
 NOKA     P   0 ? 2130 33.07                             120    0.0610  102 1544
 N20      P   0 ? 2130 35.43                             117    0.02 9  119 1684
 N20      S   0   2130 53.79                             117   -0.09 9  119 1684
 N17      P   0 ? 2130 35.74                             116   -0.02 9  122 1694
 N15      P   0 ? 2130 36.21                             115   -0.04 9  125 1674
 N15      S   0   2130 55.33                             115   -0.06 9  125 1674
 N11      P   0 ? 2130 36.38                             115   -0.00 9  126 1694
 N11      S   0   2130 55.69                             115    0.05 9  126 1694
 N10      P   0 ? 2130 36.71                             115    0.09 9  127 1684
 N10      S   0   2130 56.05                             115   -0.01 9  127 1684
 N9       P   0 ? 2130 36.64                             115   -0.03 9  128 1674
 N9       S   0   2130 56.26                             115    0.10 9  128 1674
 N6       P   0 ? 2130 36.92                             115    0.01 9  129 1674
 N6       S   0   2130 56.50                             115   -0.10 9  129 1674
 N4       P   0 ? 2130 37.07                             114   -0.10 9  131 1684
 N5       P   0 ? 2130 37.56                             114    0.05 8  133 1674
 CAMP     P   0 ? 2130 37.67                             114    0.02 8  134 1664
 CAMP     S   0   2130 58.04                             114    0.12 8  134 1664
 N1       P   0 ? 2130 37.92                             113    0.03 8  136 1674
 KHIA     P   0 ? 2130 38.27                             113   -0.07 8  139 1564
 JNAK     P   0 ? 2130 39.17                             112    0.02 8  145 1604
 AHRM     P   0 ? 2130 39.27                             112   -0.05 8  146 1514
 DLRM     P   0 ? 2130 41.11                             110    0.01 7  157 1624
 KOLO     P   0 ? 2130 41.14                             110   -0.02 7  158 1564
                                                                                
 2021  4 4 2221 32.8 L  29.686  50.637 25.3  SLT 14 0.1                        1
 GAP=336        0.21       1.6     2.0 10.0 -0.5030E+00  0.7947E+01 -0.1361E+02E
 STAT SP IPHASW D HRMN SECON CODA AMPLIT PERI AZIMU VELO AIN AR TRES W  DIS CAZ7
 NOKA     P   0 ? 2221 45.48                             105   -0.0010 67.4 1454
 ABTL     P   0 ? 2221 47.44                             102    0.01 9 79.8 1444
 N17      P   0 ? 2221 48.25                             102    0.10 9 84.4 1684
 N6       P   0 ? 2221 49.29                             101   -0.12 9 92.3 1664
 N6       S   0   2222  2.73                             101   -0.13 9 92.3 1664
 P9       P   0 ? 2221 49.57                             100   -0.02 9 93.5 1444
 P9       S   0   2222  3.24                             100    0.05 9 93.5 1444
 N5       P   0 ? 2221 50.10                             100    0.05 9 96.4 1654
 N5       S   0   2222  4.04                             100    0.01 9 96.4 1654
 N2       P   0 ? 2221 50.19                             100    0.01 9 97.3 1654
 N2       S   0   2222  4.33                             100    0.07 9 97.3 1654
 CAMP     P   0 ? 2221 50.17                             100   -0.04 9 97.4 1644
 CAMP     S   0   2222  4.40                             100    0.08 9 97.4 1644
 N1       P   0 ? 2221 50.41                             100   -0.05 9 99.0 1654
 N1       S   0   2222  4.74                             100   -0.04 9 99.0 1654
 KHIA     P   0 ? 2221 51.17                              99   -0.04 8  104 1504
 JNAK     P   0 ? 2221 51.97                              99    0.04 8  108 1574
 JNAK     S   0   2222  7.48                              99    0.06 8  108 1574
 AHRM     P   0 ? 2221 52.38                              99   -0.04 8  111 1454
 AHRM     S   0   2222  8.27                              99   -0.06 8  111 1454
 DLRM     P   0 ? 2221 53.99                              98    0.03 8  121 1594
 DLRM     S   0   2222 11.06                              98   -0.04 8  121 1594
 ABAS     P   0 ? 2221 57.54                              96    0.08 7  143 1534
                                                                                
 2021  4 4 2223  5.5 L  29.694  50.960  7.1  SLT 22 0.1                        1
 GAP=330        0.22       2.3     2.6999.9 -0.2846E+01  0.1022E+04 -0.2944E+04E
 STAT SP IPHASW D HRMN SECON CODA AMPLIT PERI AZIMU VELO AIN AR TRES W  DIS CAZ7
 ABTL     P   0 ? 2223 17.72                              53   -0.0910 67.4 1674
 ABAD     P   0 ? 2223 19.58                              53   -0.0810 78.9 1594
 P9       P   0 ? 2223 19.87                              53    0.04 9 80.0 1634
 P4       P   0 ? 2223 19.91                              53   -0.08 9 81.0 1744
 N20      P   0 ? 2223 20.02                              53   -0.06 9 81.6 1894
 N20      S   0   2223 31.73                              53   -0.17 9 81.6 1894
 P2       P   0 ? 2223 20.42                              53   -0.07 9 84.1 1814
 N17      P   0 ? 2223 20.50                              53   -0.05 9 84.5 1894
 N17      S   0   2223 32.61                              53   -0.15 9 84.5 1894
 P1       P   0 ? 2223 20.63                              53    0.02 9 84.9 1834
 N18      P   0 ? 2223 20.70                              53    0.03 9 85.2 1884
 N18      S   0   2223 33.01                              53    0.03 9 85.2 1884
 N15      P   0 ? 2223 20.84                              53   -0.07 9 86.7 1874
 N15      S   0   2223 33.42                              53    0.02 9 86.7 1874
 N13      P   0 ? 2223 21.23                              53    0.07 9 88.3 1894
 N13      S   0   2223 33.76                              53   -0.11 9 88.3 1894
 N11      P   0 ? 2223 21.26                              53    0.05 9 88.6 1884
 N11      S   0   2223 33.99                              53    0.03 9 88.6 1884
 N9       P   0 ? 2223 21.24                              53   -0.02 9 88.9 1854
 N9       S   0   2223 34.12                              53    0.08 9 88.9 1854
 N10      P   0 ? 2223 21.36                              53    0.02 9 89.4 1874
 N10      S   0   2223 34.13                              53   -0.06 9 89.4 1874
 N6       P   0 ? 2223 21.63                              53    0.05 9 90.8 1864
 N6       S   0   2223 34.60                              53   -0.02 9 90.8 1864
 N4       P   0 ? 2223 21.99                              53    0.04 9 93.2 1864
 N4       S   0   2223 35.38                              53    0.08 9 93.2 1864
 N5       P   0 ? 2223 22.17                              53   -0.01 9 94.6 1844
 N5       S   0   2223 35.70                              53   -0.01 9 94.6 1844
 CAMP     P   0 ? 2223 22.16                              53   -0.06 9 94.9 1834
 CAMP     S   0   2223 35.73                              53   -0.05 9 94.9 1834
 N2       P   0 ? 2223 22.29                              53    0.02 9 95.2 1844
 N2       S   0   2223 35.96                              53    0.09 9 95.2 1844
 N3       P   0 ? 2223 22.36                              53    0.06 9 95.3 1854
 N3       S   0   2223 36.01                              53    0.09 9 95.3 1854
 N1       P   0 ? 2223 22.65                              53    0.11 9 96.8 1844
 N1       S   0   2223 36.54                              53    0.18 9 96.8 1844
 DLRM     P   0 ? 2223 25.56                              53    0.15 8  115 1744
                                                                                
